Static Optimization
version=1
nRows=51
nColumns=59
inDegrees=no
This file contains static optimization results.

endheader
time	addbrev_r	addlong_r	addmagDist_r	addmagIsch_r	addmagMid_r	addmagProx_r	bflh_r	bfsh_r	edl_r	ehl_r	fdl_r	fhl_r	gaslat_r	gasmed_r	glmax1_r	glmax2_r	glmax3_r	glmed1_r	glmed2_r	glmed3_r	glmin1_r	glmin2_r	glmin3_r	grac_r	iliacus_r	perbrev_r	perlong_r	piri_r	psoas_r	recfem_r	sart_r	semimem_r	semiten_r	soleus_r	tfl_r	tibant_r	tibpost_r	vasint_r	vaslat_r	vasmed_r	pelvis_tx_residual	pelvis_ty_residual	pelvis_tz_residual	pelvis_tilt_residual	pelvis_list_residual	pelvis_rotation_residual	hip_flexion_r_reserve	hip_adduction_r_reserve	hip_rotation_r_reserve	knee_angle_r_reserve	ankle_angle_r_reserve	subtalar_angle_r_reserve	hip_flexion_l_torque	hip_adduction_l_torque	hip_rotation_l_torque	knee_angle_l_torque	ankle_angle_l_torque	subtalar_angle_l_torque
     15.15332535	      0.17149565	      0.39479843	      0.01008865	      0.01003521	      0.05876653	      0.16155669	      0.01001670	      0.01077867	      0.01002629	      0.01018222	      0.06511683	      0.12249303	      0.13822639	      0.17233210	      0.07597739	      0.01011502	      0.01002682	      0.01005240	      0.05061277	      0.14798263	      0.01043217	      0.04901677	      0.06734895	      0.08213037	      0.13070877	      0.01002597	      0.01001410	      0.20087190	      0.20826727	      0.40465885	      0.04552166	      0.01000996	      0.01002733	      0.35449366	      0.06849982	      0.01536732	      0.25309375	      0.01979752	      0.05710974	      0.02936188	     -8.21036516	    -29.91627865	     -2.99731975	      6.88250939	      8.03264573	     -6.50041030	      0.01280204	      0.00144749	     -0.00788738	     -0.00060658	     -0.00139535	      0.00736126	     -0.24755011	      0.11631529	     -0.00512980	      0.06397523	      0.00353734	     -0.00533626
     15.17065867	      0.13054874	      0.32872455	      0.01004866	      0.01002875	      0.01803663	      0.11102323	      0.01001643	      0.04001230	      0.01004688	      0.01211982	      0.04021130	      0.07214585	      0.11518902	      0.19271458	      0.01007447	      0.01001620	      0.01001197	      0.03095892	      0.06974230	      0.11707720	      0.04858272	      0.07924712	      0.07411630	      0.08562035	      0.22537926	      0.01004309	      0.01002294	      0.14662819	      0.24977394	      0.25725163	      0.06631025	      0.01001225	      0.01003400	      0.16079855	      0.10202777	      0.04746704	      0.15329987	      0.01003110	      0.01001044	      0.01002000	      0.07677220	      0.72442836	     -0.05127213	     -1.87516686	     -0.20378547	     -0.97543947	      0.01498668	     -0.00132747	     -0.00538130	      0.00441165	     -0.00019159	      0.00438194	     -0.26354541	      0.09190988	      0.03836341	      0.09326086	      0.00396075	     -0.00816953
     15.18799198	      0.09696013	      0.27563843	      0.01003107	      0.01002275	      0.01009882	      0.05825768	      0.01001431	      0.07667879	      0.01400502	      0.01745365	      0.01382044	      0.01410013	      0.07635969	      0.23617332	      0.01001647	      0.01000726	      0.01000685	      0.11618695	      0.04987433	      0.03688039	      0.10935387	      0.09497829	      0.06285697	      0.07856850	      0.35378479	      0.01011039	      0.01007039	      0.06245013	      0.31501942	      0.14375393	      0.08792946	      0.01001402	      0.01003700	      0.01004110	      0.13982569	      0.08231958	      0.02988947	      0.01001473	      0.01000481	      0.01000929	      2.21032684	      9.71944265	      1.76311476	     -4.07972606	     -4.49572534	      4.69373551	      0.01795547	     -0.00455475	     -0.00206141	      0.00922753	      0.00142837	      0.00110604	     -0.27316889	      0.06207729	      0.09441035	      0.12953553	      0.00451739	     -0.01126420
     15.20532530	      0.13472619	      0.36254258	      0.01002654	      0.01001788	      0.01015750	      0.09625168	      0.01001319	      0.11365501	      0.09531351	      0.02804060	      0.01011447	      0.01005811	      0.04689550	      0.01001904	      0.01001193	      0.01000525	      0.01000536	      0.10727197	      0.05688781	      0.05880941	      0.13055733	      0.12496189	      0.08820001	      0.12531684	      0.46666306	      0.03264349	      0.05911690	      0.09845663	      0.43581590	      0.07253637	      0.11609210	      0.01001475	      0.01004120	      0.01001046	      0.17206374	      0.09885690	      0.01003515	      0.01000860	      0.01000279	      0.01000539	      3.88911269	      8.32905894	      1.52607917	      3.54363429	     -2.79528719	      4.38721154	      0.02500907	     -0.00593203	     -0.00348865	      0.01477387	      0.00338883	     -0.00216973	     -0.27691421	      0.07684410	      0.10272222	      0.16928853	      0.00325931	     -0.01017769
     15.22265861	      0.15014217	      0.35866770	      0.01003871	      0.01002174	      0.02541494	      0.12513411	      0.01001809	      0.09946938	      0.12570630	      0.03930180	      0.01007706	      0.01003676	      0.01006615	      0.05538792	      0.01001188	      0.01000540	      0.01000648	      0.01180876	      0.01823787	      0.04376441	      0.08379641	      0.09841391	      0.07970705	      0.13300489	      0.40567913	      0.03418521	      0.06084617	      0.10764219	      0.41032556	      0.01612693	      0.09667632	      0.01002190	      0.01006665	      0.01000555	      0.12981525	      0.14710637	      0.01002191	      0.01000846	      0.01000275	      0.01000534	     -3.42624081	     -2.95018848	     -0.44947472	     -0.29737695	      1.93083792	     -1.23692098	      0.02360931	     -0.00417313	     -0.00382807	      0.01367879	      0.00558298	     -0.00281078	     -0.28927876	      0.14732858	      0.05895573	      0.20320468	     -0.00127813	     -0.00413207
     15.23999193	      0.18713486	      0.40650757	      0.01005791	      0.01002410	      0.07652664	      0.16652542	      0.01002548	      0.10881104	      0.11885669	      0.03772572	      0.01006511	      0.01003086	      0.01009203	      0.03767671	      0.01000975	      0.01000470	      0.01000686	      0.01003911	      0.01010935	      0.01226269	      0.04872998	      0.07767239	      0.07690945	      0.16144974	      0.40249240	      0.03330159	      0.06135813	      0.12212783	      0.43506841	      0.01004538	      0.09558346	      0.01004271	      0.01028610	      0.01000437	      0.09675103	      0.14193203	      0.01001786	      0.01000711	      0.01000229	      0.01000453	     -3.48099158	     -3.65752101	     -1.60612121	     -0.83877229	      3.34355000	     -5.16030957	      0.02516253	     -0.00278229	     -0.00397120	      0.01529313	      0.00591588	     -0.00301779	     -0.30645795	      0.20134471	      0.02351560	      0.22207151	     -0.00747286	      0.00129144
     15.25732525	      0.18985549	      0.41490530	      0.01004588	      0.01002107	      0.06852475	      0.15676391	      0.01002024	      0.10918088	      0.10549926	      0.03310341	      0.01006525	      0.01003042	      0.01045917	      0.01464412	      0.01000680	      0.01000349	      0.01000526	      0.01003460	      0.01004056	      0.01004679	      0.06686651	      0.07512028	      0.06880772	      0.15579086	      0.47523515	      0.03435931	      0.06711644	      0.08264475	      0.48938293	      0.02837527	      0.10447741	      0.01003194	      0.01008590	      0.01000425	      0.12709687	      0.12271351	      0.01001685	      0.01000705	      0.01000228	      0.01000455	     -0.98321166	     -0.04646775	     -1.06564231	     -1.88066874	      1.09318198	     -2.83712152	      0.02826116	     -0.00405262	     -0.00227632	      0.01508548	      0.00529856	     -0.00314409	     -0.32927856	      0.18426707	      0.02236567	      0.22192943	     -0.01188010	      0.00055670
     15.27465856	      0.17928474	      0.40197564	      0.01003501	      0.01001852	      0.04429976	      0.13418170	      0.01001931	      0.12396532	      0.11063068	      0.03415074	      0.01005929	      0.01002792	      0.01041294	      0.01086241	      0.01000553	      0.01000290	      0.01000429	      0.01004920	      0.01003158	      0.01002603	      0.10090726	      0.08735163	      0.06674372	      0.15220978	      0.53037952	      0.03747800	      0.07680986	      0.03233661	      0.52086840	      0.08206455	      0.12128891	      0.01003976	      0.01008439	      0.01000362	      0.16578723	      0.13004363	      0.01001541	      0.01000671	      0.01000220	      0.01000439	      1.68729156	     -0.92419117	      0.03501967	     -1.91573176	     -1.20294052	      2.21357379	      0.03032917	     -0.00551813	     -0.00076601	      0.01632322	      0.00532861	     -0.00348157	     -0.34301773	      0.12885115	      0.03854092	      0.20226165	     -0.01193128	     -0.00503333
     15.29199188	      0.20173293	      0.43311230	      0.01004057	      0.01001950	      0.06859049	      0.15575975	      0.01002060	      0.11843601	      0.11023370	      0.03496057	      0.01007729	      0.01003203	      0.01053447	      0.01117892	      0.01000533	      0.01000281	      0.01000439	      0.01003891	      0.01002768	      0.01002330	      0.09910694	      0.08765390	      0.07022564	      0.15919354	      0.52516981	      0.03528235	      0.07323145	      0.03567984	      0.52138096	      0.18255158	      0.11860087	      0.01005693	      0.01012374	      0.01000365	      0.16815537	      0.13659851	      0.01001776	      0.01000832	      0.01000278	      0.01000552	      4.11681205	     -7.25713755	      0.19291712	      1.62736721	     -0.80078077	      3.80709051	      0.03105746	     -0.00434791	     -0.00082171	      0.01462871	      0.00512859	     -0.00324257	     -0.33619749	      0.09437814	      0.05646001	      0.17077426	     -0.00813213	     -0.00998172
     15.30932519	      0.23885411	      0.48385772	      0.01006644	      0.01002283	      0.11473382	      0.19723398	      0.01002036	      0.07895838	      0.10221617	      0.03341307	      0.01008024	      0.01003580	      0.01004875	      0.01004075	      0.01000573	      0.01000302	      0.01000516	      0.01002323	      0.01002475	      0.01002499	      0.07257796	      0.07737539	      0.07547229	      0.15802296	      0.48446749	      0.02867414	      0.05985805	      0.08666727	      0.50155118	      0.29255962	      0.09366545	      0.01006275	      0.01005084	      0.01000362	      0.15082868	      0.13489916	      0.01002199	      0.01001418	      0.01000489	      0.01000951	      2.66700082	     -5.50219880	      0.77071290	      4.44561154	     -0.05291486	      1.12348741	      0.03072844	     -0.00169732	     -0.00189650	      0.00915473	      0.00477645	     -0.00258306	     -0.31256134	      0.10166258	      0.06913790	      0.14282248	     -0.00298151	     -0.01052778
     15.32665851	      0.24127567	      0.47935921	      0.01008058	      0.01002469	      0.11998099	      0.20062989	      0.01001864	      0.01706055	      0.09662133	      0.03213050	      0.01009676	      0.01004178	      0.01002549	      0.01001802	      0.01000650	      0.01000336	      0.01000572	      0.01002293	      0.01002740	      0.01003051	      0.06354160	      0.07535797	      0.07939232	      0.12057525	      0.43699623	      0.02383945	      0.05045353	      0.11925537	      0.46058347	      0.38761069	      0.06079599	      0.01006922	      0.01002718	      0.01000380	      0.14837987	      0.13229666	      0.01002770	      0.01007286	      0.01002823	      0.01005137	     -6.33471099	     24.33167836	      2.94233042	      1.36175017	     -0.99550054	     -1.44070169	      0.02876708	     -0.00036200	     -0.00261970	      0.00177245	      0.00459189	     -0.00210251	     -0.27469758	      0.12096908	      0.07124746	      0.12760944	      0.00183721	     -0.00755110
     15.34399183	      0.21055873	      0.43059848	      0.01004724	      0.01002116	      0.07595359	      0.16550113	      0.01001992	      0.01042255	      0.09293539	      0.03111333	      0.01010913	      0.01004626	      0.01002338	      0.01001802	      0.01000686	      0.01000342	      0.01000502	      0.01005196	      0.01004219	      0.01004070	      0.09346382	      0.09662249	      0.09079445	      0.08661469	      0.42559860	      0.02237291	      0.04669263	      0.11968879	      0.43532259	      0.36857620	      0.05962617	      0.01006896	      0.01002096	      0.01000393	      0.17045243	      0.12818450	      0.01003243	      0.01472850	      0.03381028	      0.01881999	     -4.61533128	     10.60909736	      2.97795281	     -4.77289129	     -5.52119684	     -0.01568273	      0.02741680	     -0.00147127	     -0.00262036	     -0.00050044	      0.00443828	     -0.00185028	     -0.31173645	      0.00882445	      0.05551363	      0.01081112	     -0.11332904	      0.17809581
     15.36132514	      0.18696335	      0.39414927	      0.01003322	      0.01001799	      0.03921985	      0.14049848	      0.01002273	      0.01108118	      0.08841840	      0.03082028	      0.01020822	      0.01004689	      0.01002402	      0.01002327	      0.01000743	      0.01000355	      0.01000450	      0.01218875	      0.01012335	      0.01008079	      0.10446487	      0.10681814	      0.09724139	      0.06578734	      0.40220350	      0.02329485	      0.04323071	      0.13585661	      0.41008796	      0.32750453	      0.06726785	      0.01006137	      0.01001796	      0.01000403	      0.17626106	      0.12297082	      0.01003676	      0.02296679	      0.05542948	      0.03120968	      1.06204335	    -17.15080658	     -3.22010800	     -4.38210209	      3.18215001	     -0.59098092	      0.02611182	     -0.00217201	     -0.00297533	     -0.00106701	      0.00424158	     -0.00165795	     -0.31683476	     -0.28522274	      0.24382093	     -0.22472759	     -0.28020859	      0.41607945
     15.37865846	      0.17067767	      0.36489932	      0.01002905	      0.01001647	      0.01992937	      0.12965732	      0.01002528	      0.01049382	      0.08181855	      0.02881525	      0.01016592	      0.01005378	      0.01002651	      0.01003679	      0.01000901	      0.01000413	      0.01000464	      0.01035964	      0.01024870	      0.01042795	      0.08191115	      0.09689851	      0.09523203	      0.05212252	      0.34757607	      0.02155169	      0.03833150	      0.18102371	      0.37143849	      0.28706292	      0.07306698	      0.01005516	      0.01001655	      0.01000440	      0.15956849	      0.11586657	      0.01004245	      0.02403921	      0.07163709	      0.03402916	      3.77713329	    -13.06386582	     -5.30663540	      2.77438575	      7.35476068	     -0.67659635	      0.02396308	     -0.00180993	     -0.00401804	     -0.00146071	      0.00393542	     -0.00148156	     -0.21844125	     -0.48524059	      0.34725078	     -0.48240781	     -0.42629364	      0.54579081
     15.39599177	      0.13298529	      0.29302467	      0.01002729	      0.01001633	      0.01021515	      0.10303205	      0.01002577	      0.01019144	      0.07447333	      0.02619300	      0.01014338	      0.01006189	      0.01003011	      0.01006340	      0.01001238	      0.01000544	      0.01000535	      0.01011827	      0.01017058	      0.01110981	      0.05275183	      0.07638971	      0.08159503	      0.03180414	      0.27118685	      0.01863888	      0.03435191	      0.19477361	      0.30625697	      0.24368119	      0.07306610	      0.01005801	      0.01001648	      0.01000490	      0.13349938	      0.10723653	      0.01004608	      0.02249908	      0.07623546	      0.03513898	      2.80331098	      1.73267911	     -0.88669982	      4.34885391	      1.08095125	     -0.63048302	      0.01980578	     -0.00157005	     -0.00443314	     -0.00162109	      0.00356423	     -0.00133801	     -0.12415523	     -0.54390842	      0.37958146	     -0.69341326	     -0.56933882	      0.66772583
     15.41332509	      0.07424579	      0.18134217	      0.01002756	      0.01001829	      0.01008126	      0.05295210	      0.01002439	      0.01022355	      0.06964864	      0.02484352	      0.01015015	      0.01006608	      0.01003308	      0.01009352	      0.01001716	      0.01000757	      0.01000665	      0.01788615	      0.01126359	      0.01199218	      0.04553437	      0.06085337	      0.06079424	      0.01107695	      0.19963732	      0.01892283	      0.03374072	      0.13376610	      0.22283244	      0.20043283	      0.06361806	      0.01007324	      0.01001838	      0.01000527	      0.11152881	      0.10068241	      0.01004895	      0.02182669	      0.07210606	      0.03404558	     -0.18688265	      8.55916005	      3.96775701	      0.16473492	     -5.52616281	     -0.10992079	      0.01430643	     -0.00202442	     -0.00312611	     -0.00153982	      0.00327131	     -0.00128456	     -0.06725555	     -0.57191523	      0.42364960	     -0.83629440	     -0.69364429	      0.79817106
     15.43065841	      0.03682843	      0.09995083	      0.01003373	      0.01002454	      0.01007185	      0.01963170	      0.01002340	      0.01031276	      0.06930002	      0.02499481	      0.01016616	      0.01006565	      0.01003236	      0.01010486	      0.01002268	      0.01001076	      0.01000930	      0.05443559	      0.01307053	      0.01028759	      0.04409749	      0.04510368	      0.03599143	      0.01020877	      0.14120234	      0.02073236	      0.03723981	      0.04359671	      0.14756015	      0.15141616	      0.04443795	      0.01010201	      0.01002333	      0.01000525	      0.08672763	      0.09915861	      0.01004802	      0.02368234	      0.07656387	      0.03687777	     -2.36781256	      5.10987988	      3.51525944	     -3.00426667	     -4.27989477	      0.22924075	      0.00918768	     -0.00180102	     -0.00116668	     -0.00160500	      0.00317493	     -0.00136048	     -0.02325175	     -0.63064800	      0.48813678	     -0.89404496	     -0.78840064	      0.90493119
     15.44799172	      0.05228460	      0.09048759	      0.01007466	      0.01006353	      0.01081999	      0.01994678	      0.01002842	      0.01061083	      0.07161605	      0.02620924	      0.01027264	      0.01005988	      0.01002907	      0.01010442	      0.01001886	      0.01001147	      0.01001503	      0.10215369	      0.01021489	      0.01003458	      0.05902771	      0.02625378	      0.01104848	      0.01053082	      0.11282722	      0.02366801	      0.04216607	      0.01003208	      0.09285477	      0.08237892	      0.01590558	      0.01036937	      0.01004119	      0.01000507	      0.05397650	      0.10152210	      0.01004485	      0.02616315	      0.08318703	      0.04055618	     -1.78770716	     -0.93461673	     -0.42619936	     -1.79681115	      1.27343082	     -0.03471167	      0.00447344	      0.00021656	      0.00257023	     -0.00175719	      0.00322630	     -0.00148084	      0.02539715	     -0.67507391	      0.50107559	     -0.85022379	     -0.85030676	      0.96050586
     15.46532504	      0.06013818	      0.08867489	      0.01037661	      0.01073414	      0.01668871	      0.02383829	      0.01003550	      0.01030813	      0.07395381	      0.02662382	      0.01014685	      0.01006292	      0.01002479	      0.01006915	      0.01002155	      0.01001435	      0.01002452	      0.11059870	      0.01013752	      0.01003421	      0.05980459	      0.02132113	      0.01015016	      0.01068902	      0.09100377	      0.02505356	      0.04663442	      0.01002923	      0.07057540	      0.04910617	      0.01077756	      0.01032075	      0.01007015	      0.01000480	      0.03732108	      0.10426216	      0.01004552	      0.02353449	      0.07493253	      0.03663936	      0.57470909	     -4.12106788	     -2.69457381	      1.07738050	      3.96113978	     -0.30140634	      0.00245954	      0.00130041	      0.00327139	     -0.00166178	      0.00328991	     -0.00158048	      0.06637902	     -0.64676517	      0.41738205	     -0.71152404	     -0.87124612	      0.95307679
     15.48265835	      0.04527853	      0.06526508	      0.01043083	      0.01116865	      0.01393345	      0.01819783	      0.01004587	      0.01027315	      0.07480836	      0.02671187	      0.01014931	      0.01006353	      0.01002267	      0.01004191	      0.01003215	      0.01002229	      0.01003889	      0.09908032	      0.01042639	      0.01005590	      0.05056090	      0.02123971	      0.01035862	      0.01053557	      0.06747089	      0.02663917	      0.05001472	      0.01004949	      0.05191181	      0.03439899	      0.01042896	      0.01022956	      0.01010264	      0.01000490	      0.03080725	      0.10480684	      0.01004558	      0.01588337	      0.04503113	      0.02235326	      1.57798266	     -3.52141715	     -1.21242466	      2.00657426	      1.49033653	      0.20672944	      0.00160800	      0.00111577	      0.00244989	     -0.00107644	      0.00326019	     -0.00163873	      0.08921224	     -0.53702436	      0.27103633	     -0.51678880	     -0.83437096	      0.88271264
     15.49999167	      0.02551808	      0.03414066	      0.01074648	      0.01587167	      0.01175840	      0.01134087	      0.01046955	      0.01424107	      0.07489672	      0.02661580	      0.01014600	      0.01006520	      0.01002468	      0.01002843	      0.01005668	      0.01004178	      0.01008182	      0.09332562	      0.01483102	      0.01010720	      0.04247951	      0.02117030	      0.01070380	      0.01306748	      0.03775643	      0.02827304	      0.05296384	      0.01008450	      0.02161158	      0.01044274	      0.01080438	      0.01518053	      0.01902178	      0.01000515	      0.01986037	      0.10386439	      0.01004626	      0.01021114	      0.01008162	      0.01014908	     -0.06480781	     -0.35227238	      1.73219203	      0.54517781	     -3.00702424	      1.23447395	      0.00038710	      0.00071874	      0.00189710	      0.00119721	      0.00315458	     -0.00168200	      0.10195145	     -0.38087448	      0.12886680	     -0.31460446	     -0.73411678	      0.76304651
     15.51732499	      0.01065164	      0.01032967	      0.01290813	      0.01951436	      0.01131439	      0.01043606	      0.03041143	      0.01195266	      0.07453724	      0.02670163	      0.01025404	      0.01007560	      0.01002058	      0.01001487	      0.01163892	      0.01167633	      0.01221493	      0.08150937	      0.03301218	      0.01501647	      0.03012099	      0.02165840	      0.01419508	      0.01146820	      0.01082540	      0.02933261	      0.05448475	      0.01074226	      0.01000028	      0.01013023	      0.01019291	      0.04144234	      0.02390598	      0.01000561	      0.01348005	      0.10262873	      0.01005171	      0.01109393	      0.01061452	      0.01095048	     -1.64904916	      2.62539890	      2.36881549	     -1.03025402	     -4.31389702	      1.42461172	     -0.00078396	     -0.00025294	      0.00110069	      0.00046912	      0.00302853	     -0.00169830	      0.11098091	     -0.23316991	      0.03355555	     -0.13759792	     -0.59343694	      0.61778529
     15.53465830	      0.01018286	      0.01013643	      0.01593077	      0.02931474	      0.01052629	      0.01017895	      0.03327608	      0.01023983	      0.07388255	      0.02652438	      0.01015130	      0.01006963	      0.01001892	      0.01001112	      0.02336737	      0.03387016	      0.02899375	      0.06411962	      0.03204683	      0.02079330	      0.02161814	      0.01758616	      0.01329080	      0.01030726	      0.01016543	      0.02913445	      0.05354885	      0.01141312	      0.01009954	      0.01011024	      0.01016442	      0.04466323	      0.01738030	      0.01000592	      0.01067230	      0.10206191	      0.01004848	      0.01273060	      0.02805223	      0.01559297	     -0.47073504	      2.09625525	     -0.28313126	     -0.74470202	     -0.06958487	     -0.15169154	     -0.00147600	     -0.00034923	      0.00085896	     -0.00072486	      0.00293551	     -0.00166623	      0.10490766	     -0.13921774	     -0.01383176	     -0.00213621	     -0.44448751	      0.46149403
     15.55199162	      0.01064805	      0.01031214	      0.01887834	      0.02727039	      0.01321749	      0.01062188	      0.03369793	      0.01019859	      0.07439413	      0.02733956	      0.01028188	      0.01006260	      0.01001775	      0.01000892	      0.02700865	      0.03844412	      0.03291294	      0.04095091	      0.02417511	      0.01978028	      0.01706601	      0.01590617	      0.01403655	      0.01108857	      0.01019778	      0.02913770	      0.05166233	      0.01261223	      0.01007323	      0.01006849	      0.01011313	      0.04218453	      0.01752166	      0.01000628	      0.01116394	      0.10376792	      0.01004437	      0.01685473	      0.03559689	      0.02102929	      1.27452270	     -1.86796261	     -2.89061423	     -0.17981716	      5.27594396	     -1.94838479	     -0.00142427	     -0.00026666	      0.00058270	     -0.00082125	      0.00293864	     -0.00161589	      0.07285125	     -0.08982524	     -0.04079859	      0.08187731	     -0.30089943	      0.29717338
     15.56932493	      0.01024393	      0.01015911	      0.01495998	      0.02254969	      0.01080875	      0.01019714	      0.03646806	      0.01030785	      0.07637523	      0.02765740	      0.01016522	      0.01007261	      0.01001728	      0.01000954	      0.02072035	      0.02968948	      0.02623988	      0.03367458	      0.01868344	      0.01540582	      0.01372345	      0.01288802	      0.01179455	      0.01044205	      0.01016413	      0.02874404	      0.05058541	      0.01148690	      0.01010108	      0.01012349	      0.01019562	      0.05480068	      0.01769027	      0.01000633	      0.01047813	      0.10653555	      0.01005124	      0.01226802	      0.02291366	      0.01410441	     -0.37039862	     -4.49656823	     -1.97749287	     -2.92593021	      4.58371622	     -0.74041591	     -0.00116032	     -0.00018408	      0.00050990	     -0.00043018	      0.00301253	     -0.00157733	      0.03670804	     -0.02567869	     -0.06801774	      0.11139892	     -0.16578123	      0.14966182
     15.58665825	      0.01060164	      0.01040818	      0.01442841	      0.02049198	      0.01175228	      0.01043800	      0.05272880	      0.01072252	      0.07525513	      0.02703135	      0.01016384	      0.01007640	      0.01001906	      0.01001047	      0.01169354	      0.01594999	      0.02223042	      0.02035498	      0.01177278	      0.01068361	      0.01158199	      0.01088195	      0.01055995	      0.01133175	      0.01021867	      0.02753802	      0.04710093	      0.01036672	      0.01015606	      0.01009428	      0.01026078	      0.10017396	      0.02936412	      0.01000678	      0.01029118	      0.10394725	      0.01005507	      0.01035253	      0.01022549	      0.01030579	      4.08691818	      2.97962413	      1.50590344	      5.73198164	     -1.69269393	     -2.96320790	     -0.00081527	      0.00018073	      0.00046826	      0.00031061	      0.00297171	     -0.00146238	      0.14987787	      0.03217601	      0.01401778	      0.02884932	     -0.00183362	      0.00398160
     15.60399157	      0.02807965	      0.02916564	      0.01523982	      0.01018492	      0.02746704	      0.04719712	      0.10760931	      0.03447111	      0.06572746	      0.02415521	      0.01025925	      0.01008488	      0.01003332	      0.01001883	      0.01663576	      0.03078558	      0.04393318	      0.01001853	      0.01004719	      0.01012857	      0.01003943	      0.01005613	      0.01012208	      0.03171678	      0.01008776	      0.02361177	      0.03796287	      0.01312038	      0.02245418	      0.01006245	      0.02568978	      0.16833076	      0.04996531	      0.01000806	      0.01006156	      0.08972358	      0.01006292	      0.01006020	      0.01002085	      0.01003883	     -3.40481991	      0.07948102	      3.31080829	     -1.72320772	     -7.20362454	      2.54322049	      0.00070853	      0.00099714	     -0.00289910	      0.00281415	      0.00261205	     -0.00119819	      0.19596451	      0.11429133	      0.03540933	      0.01073998	      0.00346012	      0.00485576
     15.62132488	      0.03582435	      0.03743282	      0.01997300	      0.01019336	      0.03699103	      0.06539394	      0.16584695	      0.05078765	      0.04855491	      0.02117226	      0.01121193	      0.01026157	      0.01100818	      0.01006103	      0.02475320	      0.04813851	      0.06296771	      0.01000916	      0.01002274	      0.01013566	      0.01001486	      0.01002325	      0.01012685	      0.04701609	      0.01005772	      0.01997635	      0.02616056	      0.01810334	      0.02904876	      0.01003134	      0.03639964	      0.27011623	      0.07923947	      0.01001611	      0.01003528	      0.06613407	      0.01008062	      0.01002163	      0.01000753	      0.01001406	     -4.91492084	      2.61468585	      0.75752855	     -4.94024580	     -2.58903832	      4.10372184	      0.00089485	      0.00128296	     -0.00406850	      0.00503696	      0.00195273	     -0.00082896	      0.27799603	      0.08434686	      0.04105262	     -0.03682024	      0.01420220	     -0.00391305
     15.63865820	      0.01170259	      0.01046284	      0.03761792	      0.04929538	      0.02555999	      0.01129345	      0.19309136	      0.03209601	      0.10194995	      0.03713429	      0.01013765	      0.01006124	      0.01002299	      0.05938037	      0.02714180	      0.05031952	      0.06947689	      0.01394038	      0.01280848	      0.01190318	      0.01156438	      0.01098254	      0.01076795	      0.03442188	      0.01011162	      0.02692716	      0.04033340	      0.01030318	      0.01007297	      0.01001973	      0.01030049	      0.36460443	      0.10840291	      0.01000556	      0.01011459	      0.14533927	      0.01004385	      0.01003817	      0.01001294	      0.01002419	     -2.90979101	      3.93410702	     -1.19227980	     -4.44027663	      2.54481927	      1.43941785	     -0.00209549	      0.00057864	      0.00060364	      0.00381325	      0.00434357	     -0.00160777	      0.35274812	      0.01923874	      0.03723874	     -0.08205594	      0.02163197	     -0.01317909
     15.65599151	      0.01010270	      0.01005772	      0.01533536	      0.01997408	      0.01102080	      0.01014268	      0.23152992	      0.05870186	      0.08161056	      0.02877548	      0.01027897	      0.01006783	      0.08791677	      0.01001212	      0.05244674	      0.07310773	      0.04106128	      0.03036497	      0.03152291	      0.03756692	      0.01375633	      0.01579061	      0.01636964	      0.03875912	      0.01010112	      0.02812670	      0.04560475	      0.02375548	      0.01007096	      0.01001147	      0.01729881	      0.44047802	      0.13574011	      0.01000731	      0.01020042	      0.10440412	      0.01004204	      0.01001725	      0.01000573	      0.01001073	      1.73426291	      0.38954695	     -0.64606259	      0.40948111	      2.46567716	     -1.74747870	     -0.00172376	     -0.00101502	     -0.00001631	      0.00802595	      0.00332142	     -0.00162390	      0.41232156	      0.00960599	      0.02629721	     -0.11036028	      0.02331665	     -0.01696622
     15.67332483	      0.01025501	      0.01009140	      0.03567686	      0.05156227	      0.01856337	      0.01032313	      0.25071553	      0.05179542	      0.11678418	      0.03948989	      0.01009271	      0.01004196	      0.13302833	      0.01000202	      0.04320025	      0.07062287	      0.07472616	      0.03384336	      0.02483885	      0.02375383	      0.01366736	      0.01293320	      0.01254795	      0.04588065	      0.01008522	      0.03944333	      0.06849813	      0.01200990	      0.01006160	      0.01000905	      0.01098062	      0.44212306	      0.14818003	      0.01000475	      0.01008813	      0.14791383	      0.01002599	      0.01001491	      0.01000498	      0.01000936	      6.59150084	     -9.10086471	      0.75807844	      6.50823101	     -0.28806959	     -1.71379748	     -0.00249725	      0.00007684	      0.00067910	      0.00768763	      0.00488154	     -0.00257592	      0.44655934	      0.06860593	      0.00359994	     -0.12121725	      0.02234809	     -0.01679188
     15.69065815	      0.03131783	      0.02632178	      0.05876777	      0.07181713	      0.04870816	      0.02447785	      0.26744271	      0.05379834	      0.06232285	      0.02284513	      0.01021887	      0.01006644	      0.03532590	      0.01000336	      0.02011552	      0.04585833	      0.09557054	      0.01181203	      0.01161226	      0.01096097	      0.01223143	      0.01120791	      0.01093380	      0.06075475	      0.01018669	      0.02536614	      0.04392186	      0.01007597	      0.01008411	      0.01000737	      0.01099060	      0.44708553	      0.16167476	      0.01000843	      0.01008255	      0.07519493	      0.01003743	      0.01001325	      0.01000440	      0.01000836	      6.29108349	    -16.61122230	      0.76968357	      6.16124772	     -0.97475195	      0.28215881	     -0.00245686	      0.00150535	      0.00080472	      0.00820612	      0.00261730	     -0.00163943	      0.42520098	      0.13028463	     -0.01772948	     -0.11265426	      0.02104328	     -0.01647073
     15.70799146	      0.06787200	      0.07251456	      0.08607565	      0.08096789	      0.08598523	      0.06950080	      0.25717232	      0.04133611	      0.10226912	      0.03752542	      0.01012908	      0.01003855	      0.01002284	      0.04203243	      0.01707959	      0.06480956	      0.15263903	      0.01005504	      0.01010000	      0.01013380	      0.01017580	      0.01015160	      0.01019263	      0.06641680	      0.01009595	      0.03561075	      0.06471935	      0.01008274	      0.01008926	      0.01000789	      0.01085871	      0.37673476	      0.14595615	      0.01000400	      0.01004883	      0.14318045	      0.01002185	      0.01001762	      0.01000575	      0.01001116	     -2.16670876	     -4.34294971	     -2.49243824	     -1.98177441	      2.46033241	     -0.22459506	     -0.00245473	      0.00296371	     -0.00093089	      0.00617285	      0.00479528	     -0.00267469	      0.35257066	      0.12076367	     -0.00966095	     -0.08932679	      0.01980348	     -0.01776877
     15.72532478	      0.08165526	      0.10081691	      0.07168997	      0.02585060	      0.09336644	      0.11275835	      0.22765667	      0.04571795	      0.13536466	      0.05368749	      0.01009035	      0.01002756	      0.01001380	      0.06019859	      0.01615487	      0.08651050	      0.16868239	      0.01000940	      0.01002008	      0.01004421	      0.01002698	      0.01003404	      0.01005634	      0.07379085	      0.01004988	      0.04477891	      0.08165113	      0.01037627	      0.01762699	      0.01000961	      0.02076131	      0.29058963	      0.11908380	      0.01000241	      0.01002852	      0.21402516	      0.01001645	      0.01001576	      0.01000513	      0.01001010	    -15.18981274	     44.03467032	     -6.37640372	    -10.43426864	      5.12292453	     -3.38118781	     -0.00028056	      0.00359462	     -0.00492778	      0.00654544	      0.00702045	     -0.00354276	      0.28770899	      0.06186640	      0.02034893	     -0.07019724	      0.01940026	     -0.01976471
     15.74265809	      0.01034554	      0.01008322	      0.08692050	      0.13334291	      0.04305928	      0.01016934	      0.17471852	      0.01050154	      0.01031272	      0.01229669	      0.02344816	      0.03882447	      0.01078630	      0.01006407	      0.06353529	      0.10753080	      0.14856903	      0.16689036	      0.08618502	      0.04718297	      0.04790330	      0.02667811	      0.01461711	      0.01460840	      0.01005628	      0.01010981	      0.01005353	      0.01008833	      0.01003387	      0.01001157	      0.01006556	      0.24683114	      0.09434739	      0.03955224	      0.01007659	      0.03729708	      0.09552418	      0.03646242	      0.11306057	      0.05651533	      0.70140115	     -9.75243886	     -2.40743457	     -2.59302122	      5.99808882	      0.65132958	     -0.00589408	      0.00073499	      0.00313512	     -0.00087419	      0.00087090	      0.00197927	      0.26946546	      0.04661439	      0.01003742	     -0.06681541	      0.02042634	     -0.01970814
     15.75999141	      0.01002970	      0.01001942	      0.02094617	      0.08041989	      0.01006888	      0.01003345	      0.11263196	      0.01018476	      0.01018367	      0.01153812	      0.02268469	      0.03978833	      0.01034697	      0.01008356	      0.19451910	      0.23645374	      0.09608824	      0.38647132	      0.25816817	      0.21950211	      0.10031728	      0.10446192	      0.09725747	      0.01009202	      0.01003794	      0.01010385	      0.01004978	      0.10516004	      0.01002142	      0.01001735	      0.01007188	      0.15281465	      0.04785959	      0.12658097	      0.01879963	      0.02650436	      0.09206951	      0.08462113	      0.26007382	      0.13003357	      8.74704623	    -27.87480501	      8.87121841	      4.84820289	     -9.55804236	      1.14498125	     -0.00704071	     -0.00462448	      0.00292309	     -0.00214031	      0.00071115	      0.00207392	      0.25817884	      0.08437333	     -0.06438946	     -0.06297589	      0.02081403	     -0.01558061
     15.77732473	      0.01001886	      0.01001312	      0.01029210	      0.04630199	      0.01003596	      0.01002199	      0.04190139	      0.01011028	      0.01013934	      0.01185005	      0.02753100	      0.05180841	      0.01057731	      0.01006505	      0.27073224	      0.30474695	      0.05174681	      0.52999251	      0.35635203	      0.30990969	      0.13772414	      0.15502455	      0.14415389	      0.01005286	      0.01003169	      0.01007514	      0.01003641	      0.15744416	      0.01001732	      0.01003965	      0.01006956	      0.04250831	      0.01158166	      0.25878578	      0.06501703	      0.02223239	      0.11194956	      0.14417693	      0.43743718	      0.21943229	      6.99718793	    -11.11392988	      9.07761490	      6.58072102	    -10.72632038	      2.00085759	     -0.00770293	     -0.00830288	      0.00285094	     -0.00402852	      0.00061011	      0.00285316	      0.19438348	      0.08241607	     -0.11871105	     -0.03777511	      0.01782272	     -0.00918183
     15.79465804	      0.01001426	      0.01001028	      0.01009076	      0.02953729	      0.01002738	      0.01001720	      0.01016524	      0.01006509	      0.01007584	      0.01170959	      0.04397949	      0.08661098	      0.01354237	      0.01006923	      0.30107282	      0.32544570	      0.01844746	      0.63014896	      0.40569395	      0.34345109	      0.17057427	      0.18814593	      0.16214922	      0.01003829	      0.01002883	      0.01004125	      0.01001904	      0.15598102	      0.01001520	      0.03519561	      0.01006040	      0.01006209	      0.01007657	      0.43984299	      0.10120568	      0.03819105	      0.18081217	      0.20515579	      0.61546972	      0.31094042	     -0.27519337	      8.75712162	     -1.67090857	      0.88000884	      1.94320524	      1.40191417	     -0.00820902	     -0.01080222	      0.00308769	     -0.00628600	      0.00103844	      0.00527134	      0.09240863	      0.00653317	     -0.07940287	     -0.00291793	      0.01275011	     -0.00474517
     15.81199136	      0.01001135	      0.01000825	      0.01008124	      0.03992812	      0.01002404	      0.01001412	      0.01006814	      0.01004743	      0.01004731	      0.01067579	      0.06763838	      0.13544641	      0.06317812	      0.01489492	      0.30184911	      0.32172411	      0.01171607	      0.73921747	      0.44235621	      0.35238290	      0.21358534	      0.21774758	      0.16759981	      0.01003096	      0.01002592	      0.01002339	      0.01001111	      0.13463886	      0.01001315	      0.07159837	      0.01004734	      0.01003785	      0.01005328	      0.65046906	      0.12592640	      0.06760245	      0.27514174	      0.25014399	      0.74603614	      0.37994910	     -5.05333263	     11.66116784	     -9.61432834	     -3.71283323	     10.93225162	      0.61996267	     -0.00947079	     -0.01245625	      0.00412646	     -0.00820152	      0.00146196	      0.00891267	      0.01648948	     -0.06799917	     -0.00045117	      0.01481522	      0.00945696	     -0.00392855
     15.82932467	      0.01000947	      0.01000680	      0.01016109	      0.04946120	      0.01002128	      0.01001193	      0.01005919	      0.01003757	      0.01003348	      0.01214704	      0.08859976	      0.17951706	      0.12955968	      0.10462737	      0.27514560	      0.28648628	      0.01142376	      0.84740372	      0.46861611	      0.34751882	      0.26357413	      0.24489490	      0.16787606	      0.01002557	      0.01002547	      0.01001613	      0.01000793	      0.11134122	      0.01001205	      0.10049022	      0.01003975	      0.01003089	      0.01004534	      0.81034872	      0.15777884	      0.09315885	      0.35757737	      0.28048027	      0.83641840	      0.42802790	     -4.11263274	      2.82390085	     -6.30535395	     -3.23935732	      6.91334569	     -0.00257529	     -0.01032504	     -0.01369498	      0.00536493	     -0.00980905	      0.00123509	      0.01235778	     -0.00986409	     -0.08437946	      0.03647821	      0.01330862	      0.00916761	     -0.00520809
     15.84665799	      0.01000871	      0.01000609	      0.01006684	      0.04483206	      0.01001900	      0.01001082	      0.01003784	      0.01003456	      0.01002651	      0.01055644	      0.09659700	      0.19912504	      0.19403691	      0.22223920	      0.21000702	      0.20049527	      0.01008032	      0.91439591	      0.46483382	      0.31671997	      0.30793024	      0.25843049	      0.15811362	      0.01002246	      0.01003112	      0.01001391	      0.01000707	      0.08455427	      0.01001255	      0.13612727	      0.01003887	      0.01002517	      0.01003708	      0.89455258	      0.19573655	      0.07855878	      0.38928953	      0.27955769	      0.83738333	      0.42901331	      0.59282836	     -3.86095645	      2.53408970	      0.22623036	     -3.18529383	     -0.57761366	     -0.00986745	     -0.01413569	      0.00651061	     -0.01027232	     -0.00029075	      0.01383515	     -0.01270677	     -0.06895031	      0.03157797	      0.00955241	      0.01001216	     -0.00706343
     15.86399131	      0.01000903	      0.01000612	      0.01004481	      0.02480298	      0.01001778	      0.01001089	      0.01002944	      0.01003773	      0.01002323	      0.01010581	      0.08805214	      0.18594914	      0.23207537	      0.32185884	      0.11410731	      0.08243449	      0.01003332	      0.88967736	      0.41467430	      0.25488351	      0.32416615	      0.24535445	      0.13427145	      0.01002174	      0.01006075	      0.01001490	      0.01000783	      0.05311608	      0.01001528	      0.17533610	      0.01004598	      0.01002225	      0.01003367	      0.87666229	      0.22269510	      0.01575398	      0.35587741	      0.24450598	      0.73725592	      0.37713058	      3.85934430	     -3.85211510	      6.60440185	      2.78713687	     -7.85347992	     -0.61321302	     -0.00790664	     -0.01356727	      0.00712421	     -0.00925912	     -0.00249218	      0.01260843	     -0.01650300	     -0.06939222	      0.03380162	      0.01214468	      0.01028584	     -0.00959972
     15.88132462	      0.01001078	      0.01000716	      0.01003696	      0.01158531	      0.01001827	      0.01001256	      0.01002516	      0.01004971	      0.01002314	      0.01006472	      0.05187526	      0.12204099	      0.23214117	      0.38784454	      0.02242100	      0.01065804	      0.01002218	      0.75024455	      0.31902874	      0.16940305	      0.29498052	      0.20248467	      0.09883739	      0.01002405	      0.02334209	      0.01002535	      0.01001431	      0.02060556	      0.01002352	      0.20982764	      0.01007246	      0.01002051	      0.01003287	      0.77262025	      0.21962777	      0.01002866	      0.21384585	      0.18464539	      0.56103413	      0.28636971	      2.20427713	     -1.28321087	      2.93119948	      2.43889290	     -3.44149795	     -0.41262272	     -0.00474817	     -0.01188623	      0.00672329	     -0.00700693	     -0.00558692	      0.00737572	     -0.02159958	     -0.09150035	      0.06307778	      0.01473324	      0.01014396	     -0.01296762
     15.89865794	      0.01001560	      0.01001038	      0.01003658	      0.01019096	      0.01002203	      0.01001724	      0.01002411	      0.01011323	      0.01002656	      0.01005406	      0.02134087	      0.05896195	      0.20375380	      0.38260425	      0.01019295	      0.01004862	      0.01001782	      0.53089335	      0.19891401	      0.07672038	      0.22625063	      0.14042987	      0.05927734	      0.01003181	      0.08772989	      0.01010924	      0.01006411	      0.01101239	      0.01005210	      0.20678491	      0.01050956	      0.01002096	      0.01003623	      0.61755059	      0.18020970	      0.01001578	      0.07805954	      0.11419860	      0.34979618	      0.17847006	     -1.87159648	      0.07421821	     -2.51762006	     -0.07753967	      3.42974437	     -0.63364066	     -0.00145523	     -0.00908943	      0.00547096	     -0.00420630	     -0.00690891	      0.00239124	     -0.01948316	     -0.10124276	      0.08831583	      0.00883840	      0.01053206	     -0.01551724
     15.91599125	      0.01002575	      0.01001771	      0.01004570	      0.01008385	      0.01003184	      0.01002855	      0.01003070	      0.01017073	      0.01003423	      0.01005957	      0.01197921	      0.03080318	      0.16040842	      0.30866382	      0.01007849	      0.01003714	      0.01002081	      0.30059209	      0.11028183	      0.04015605	      0.13328530	      0.08230921	      0.03493013	      0.01005166	      0.08177684	      0.01122987	      0.02299351	      0.01035511	      0.01018510	      0.15344417	      0.01099019	      0.01002718	      0.01004907	      0.45911225	      0.11509297	      0.01001600	      0.02607492	      0.05171212	      0.15940694	      0.08149037	     -3.16064004	      0.16004901	     -3.47128148	     -2.34715321	      4.83885612	     -0.96087746	      0.00046642	     -0.00595756	      0.00274689	     -0.00181459	     -0.00577364	      0.00037218	     -0.01062346	     -0.06976270	      0.07414814	     -0.00274932	      0.01157727	     -0.01522657
     15.93332457	      0.01005457	      0.01003840	      0.01007172	      0.01007924	      0.01005846	      0.01005853	      0.01005561	      0.01186456	      0.01005046	      0.01009908	      0.01343334	      0.02203757	      0.11033814	      0.20110906	      0.01042918	      0.01019062	      0.01004567	      0.14243499	      0.03852566	      0.01283561	      0.06898990	      0.03718120	      0.01706474	      0.01015085	      0.06212069	      0.01534622	      0.02948289	      0.01120325	      0.01312331	      0.07105372	      0.01391070	      0.01005573	      0.01007383	      0.30981856	      0.05911634	      0.01002285	      0.01897836	      0.01618583	      0.03189790	      0.01939866	     -0.38514801	      0.10602820	     -0.45752204	     -1.98667865	      0.72976629	     -0.63273940	      0.00074116	     -0.00309444	      0.00173576	     -0.00034362	     -0.00374173	     -0.00003574	     -0.00632087	     -0.01145312	      0.03627893	     -0.00500239	      0.01253851	     -0.01278294
     15.95065789	      0.01509871	      0.03337980	      0.01010090	      0.01044058	      0.01012028	      0.01006779	      0.01009008	      0.02935831	      0.01016977	      0.01022368	      0.01077928	      0.01121649	      0.07781706	      0.18393056	      0.01001338	      0.01001085	      0.01001665	      0.06227994	      0.01003045	      0.01001732	      0.08031115	      0.01015538	      0.01005868	      0.01032722	      0.17949875	      0.01622496	      0.03124179	      0.01002402	      0.04639795	      0.01004307	      0.01395502	      0.07276879	      0.02114105	      0.11032230	      0.04119442	      0.01005511	      0.01037518	      0.01004004	      0.01001347	      0.01002566	      2.42116586	      1.23197304	      1.78592745	      0.31534984	     -2.81751922	      1.07627709	      0.00160725	     -0.00178797	      0.00768814	      0.00334697	     -0.00134960	     -0.00045891	     -0.02021462	      0.02434104	      0.02856806	      0.01823861	      0.01294638	     -0.01148998
     15.96799120	      0.03075826	      0.07692912	      0.01008116	      0.03107093	      0.01008446	      0.01002766	      0.01005746	      0.03601101	      0.01748930	      0.01053457	      0.01027769	      0.01015755	      0.05960305	      0.05490662	      0.01000561	      0.01000520	      0.01000858	      0.01831639	      0.01000964	      0.01000607	      0.14342560	      0.01003263	      0.01001891	      0.01007393	      0.38463764	      0.03557722	      0.07286060	      0.01000927	      0.04727256	      0.01002188	      0.01109444	      0.17027806	      0.04936135	      0.02208819	      0.05522509	      0.01007221	      0.01007397	      0.01002828	      0.01000946	      0.01001804	      1.48306430	      3.78929648	      1.18712778	      0.81417879	     -2.33019399	      3.83883606	      0.00080361	     -0.00268318	      0.02060383	      0.00448932	     -0.00055403	     -0.00157529	     -0.05851619	      0.01844874	      0.05840910	      0.06518695	      0.01257306	     -0.01216531
     15.98532452	      0.05345153	      0.15327038	      0.01005159	      0.01003512	      0.01059552	      0.05266831	      0.01083006	      0.10484982	      0.08859376	      0.03027494	      0.01017209	      0.01006252	      0.01653868	      0.03764398	      0.01002404	      0.01000955	      0.01001064	      0.01251279	      0.01936287	      0.03223013	      0.04091037	      0.05494231	      0.04688575	      0.09644169	      0.22704896	      0.02370484	      0.03505484	      0.04885811	      0.24660387	      0.01001368	      0.07665232	      0.09540235	      0.04922299	      0.01000921	      0.04820022	      0.10989962	      0.01004356	      0.01000876	      0.01000286	      0.01000554	     -0.12407838	      2.89641847	     -1.33725083	      3.27778742	      2.75413732	      0.82585754	      0.01239474	     -0.00361836	     -0.00315787	      0.01398575	      0.00374701	     -0.00162447	     -0.10727465	      0.00558000	      0.08081622	      0.11744513	      0.01054154	     -0.01163372
     16.00265783	      0.06824891	      0.16233563	      0.01008067	      0.01004311	      0.01744782	      0.06806133	      0.02162365	      0.09872420	      0.12199081	      0.04124015	      0.01009402	      0.01003819	      0.01009258	      0.05169940	      0.01002941	      0.01001001	      0.01001307	      0.01023260	      0.01226861	      0.01977593	      0.02164214	      0.03824332	      0.03934346	      0.10218694	      0.19987024	      0.02697057	      0.04075784	      0.03147869	      0.23602680	      0.01001061	      0.06573359	      0.13162232	      0.07239275	      0.01000469	      0.02319477	      0.15494367	      0.01002484	      0.01000805	      0.01000260	      0.01000509	     -1.90071411	     -2.42941715	     -0.68257084	     -1.18456121	      1.07298819	     -1.36364166	      0.01147277	     -0.00255961	     -0.00297394	      0.01360663	      0.00609012	     -0.00235770	     -0.14848505	      0.05091997	      0.05247656	      0.14883148	      0.00566143	     -0.00500694
     16.01999115	      0.08152826	      0.17597684	      0.01012308	      0.01005308	      0.03460343	      0.08357870	      0.07277347	      0.11232106	      0.09674121	      0.03273647	      0.01008576	      0.01003842	      0.01574954	      0.01004835	      0.01001867	      0.01000890	      0.01001387	      0.01005433	      0.01031890	      0.01839302	      0.01295431	      0.03111457	      0.04017633	      0.12150272	      0.19436190	      0.02446236	      0.03857333	      0.01931286	      0.24826612	      0.01000812	      0.06732708	      0.18891175	      0.11362306	      0.01000445	      0.01124082	      0.12005964	      0.01002472	      0.01000687	      0.01000221	      0.01000438	      4.36926268	     -6.53516836	      2.75417235	     -1.15153730	     -6.05970654	     -5.68480192	      0.01173396	     -0.00205373	     -0.00309803	      0.01575715	      0.00555629	     -0.00223401	     -0.16729687	      0.14588163	      0.00346766	      0.15934982	     -0.00053428	      0.00532787
