ActiveFiberForceAlongTendon
version=1
nRows=51
nColumns=5
inDegrees=no

This analysis gathers basic information about muscles during a simulation (e.g., forces, tendon lengths, moment arms, etc).
Units are S.I. units (second, meters, Newtons, ...)
If the header above contains a line with 'inDegrees', this indicates whether rotational values are in degrees (yes) or radians (no).

endheader
time	recfem_r	vaslat_r	vasint_r	vasmed_r
     15.15332535	    772.69741256	    710.99488734	     53.76404241	     77.60042282
     15.17065867	    519.09214896	    461.56854002	     40.95383531	     59.42891625
     15.18799198	    303.49803545	    258.03369858	     30.99557750	     45.30909122
     15.20532530	    136.38566813	    120.88650950	     25.35980385	     37.31530148
     15.22265861	     33.50249717	     56.69329718	     24.15950726	     35.59531927
     15.23999193	      3.86891477	     53.22148410	     25.98368686	     38.16837761
     15.25732525	     18.33043985	     76.40017852	     28.47499068	     41.76481273
     15.27465856	     33.31918987	     93.07883647	     29.74476380	     43.76461267
     15.29199188	     32.66628693	     93.11313933	     29.25669648	     43.37070670
     15.30932519	     24.56821120	     85.62399489	     27.99178879	     41.94215531
     15.32665851	     17.43503042	     78.07289200	     26.23898770	     39.78972504
     15.34399183	     13.67631915	     72.94775450	     24.38891719	     37.41986145
     15.36132514	     12.04558510	     69.57587871	     22.74397555	     35.31382311
     15.37865846	     11.04582110	     67.38710965	     21.26308485	     33.46498637
     15.39599177	     10.07817841	     64.67139844	     20.09071741	     32.20764284
     15.41332509	      9.13265609	     61.71859840	     19.12136253	     31.03776736
     15.43065841	      8.48675604	     58.27776759	     18.11047249	     29.48525611
     15.44799172	      9.77001378	     54.34486335	     17.09162503	     27.50144146
     15.46532504	     15.26697081	     51.13518724	     16.30073943	     25.85674083
     15.48265835	     25.90536418	     50.99342250	     16.06640546	     25.99402760
     15.49999167	     38.45160809	     55.75840069	     16.54576374	     28.99251122
     15.51732499	     44.92840048	     64.32212671	     17.49473082	     34.06893763
     15.53465830	     40.07549894	     72.03788887	     17.94087967	     37.64478046
     15.55199162	     29.90588893	     72.15875705	     17.74981563	     36.92411794
     15.56932493	     21.91943550	     62.93625387	     16.86307892	     32.12856709
     15.58665825	     20.48113757	     51.49075106	     16.34206592	     27.25982512
     15.60399157	     22.92745045	     44.08043881	     16.93249330	     25.51240503
     15.62132488	     24.61530534	     46.70559321	     18.72154601	     27.56448328
     15.63865820	     25.02861329	     65.70930971	     21.66891699	     32.48232120
     15.65599151	     24.81580550	     93.54934885	     23.45835783	     35.17535656
     15.67332483	     25.97156971	     96.21011913	     22.00210530	     30.53444577
     15.69065815	     29.57663605	     35.15105763	     21.70277971	     24.53769698
     15.70799146	     34.23639076	    -43.04457604	     38.44174132	     46.45845843
     15.72532478	     36.38766563	     73.76898971	     92.51534038	    142.80929553
     15.74265809	     34.02492467	    693.81865506	    194.63143195	    350.06531992
     15.75999141	     31.57240534	   1953.17968851	    335.39634012	    659.29257675
     15.77732473	     41.76028915	   3572.08933513	    485.04270752	   1000.58772644
     15.79465804	     78.81539563	   5016.01189602	    609.40255634	   1284.29290948
     15.81199136	    144.89973011	   5860.46032895	    680.54607288	   1444.66632328
     15.82932467	    221.10326398	   5981.73883171	    686.60136560	   1462.89047706
     15.84665799	    274.21104281	   5499.38656431	    635.34811760	   1360.89784010
     15.86399131	    276.99672975	   4584.91763306	    539.90385163	   1164.43206008
     15.88132462	    227.70693543	   3403.41436347	    411.02447658	    892.34848137
     15.89865794	    151.16148951	   2163.02782024	    265.77045436	    579.98570086
     15.91599125	     80.74318712	   1114.44326481	    135.03916775	    294.83698506
     15.93332457	     36.87223104	    426.78794050	     48.02321331	    101.52152119
     15.95065789	     20.59418869	    101.22935723	     11.61921224	     16.71287785
     15.96799120	     22.24834848	     22.18588808	     10.57640508	      8.98101665
     15.98532452	     29.65423209	     48.36674724	     21.88465017	     29.56624152
     16.00265783	     33.56207109	     78.78988107	     28.86175849	     42.95833359
     16.01999115	     32.04801235	     80.05444952	     27.49686531	     40.26076762
