ActiveFiberForce
version=1
nRows=51
nColumns=5
inDegrees=no

This analysis gathers basic information about muscles during a simulation (e.g., forces, tendon lengths, moment arms, etc).
Units are S.I. units (second, meters, Newtons, ...)
If the header above contains a line with 'inDegrees', this indicates whether rotational values are in degrees (yes) or radians (no).

endheader
time	recfem_r	vaslat_r	vasint_r	vasmed_r
     15.23999274	    875.78692222	    746.69696849	    233.65486396	    399.03321783
     15.25585939	    599.13027039	    486.56360821	    153.52621022	    262.15272865
     15.27172604	    370.89409077	    277.58453022	     88.37468669	    150.15571042
     15.28759269	    187.17757629	    135.02259692	     43.65352285	     72.91277276
     15.30345934	     50.06567124	     61.03318868	     20.51389743	     32.91202529
     15.31932599	    -12.98316622	     48.70639716	     16.78996586	     26.15945359
     15.33519264	      9.99125458	     71.10911637	     23.89056671	     37.70441523
     15.35105930	     86.77399242	     93.81446425	     30.94759722	     49.29382147
     15.36692595	    164.71225886	     99.49802549	     32.55005541	     52.03676742
     15.38279260	    204.04486233	     93.11989076	     30.33103421	     48.65418930
     15.39865925	    187.99075986	     82.79151033	     26.83816507	     43.27807775
     15.41452590	    137.50516405	     74.72721834	     24.04028821	     39.08831034
     15.43039255	     81.66007503	     70.28046294	     22.24969955	     36.56689413
     15.44625920	     38.46368162	     67.95410791	     20.86930529	     34.85313612
     15.46212585	     14.72371921	     65.26552052	     19.95586722	     33.63896261
     15.47799250	      5.43059871	     62.00051078	     18.87909537	     32.10047604
     15.49385915	      4.35543101	     57.98284375	     17.58529831	     30.13733252
     15.50972580	      5.93517931	     53.69108719	     16.24027317	     28.02350741
     15.52559245	      8.24564331	     50.08469648	     15.15485434	     26.27231073
     15.54145911	     13.89593798	     48.15467914	     14.62050042	     25.36872954
     15.55732576	     28.07986113	     48.42332040	     14.75152914	     25.52696790
     15.57319241	     52.25695367	     50.42674424	     15.36113547	     26.48037829
     15.58905906	     75.86710191	     52.71025660	     16.07128915	     27.59440104
     15.60492571	     81.91690058	     53.71436404	     16.18111201	     27.83208600
     15.62079236	     72.45004028	     51.15605879	     15.96748253	     27.12605909
     15.63665901	     55.90998332	     45.91168866	     15.45810332	     25.82782922
     15.65252566	     43.68467432	     44.72161463	     15.57255835	     25.73992544
     15.66839231	     37.17582012	     53.33857201	     16.96694464	     28.39914419
     15.68425896	     32.86239954	     72.98901479	     19.77031373	     34.15845604
     15.70012561	     30.24889696	     95.16115513	     23.79233120	     41.78900946
     15.71599226	     28.66591579	     86.36346567	     25.44200415	     42.90136169
     15.73185891	     29.20370781	     11.88501980	     20.26799760	     27.96851730
     15.74772557	     31.47638960	    -87.27853979	     10.64046695	      4.17184007
     15.76359222	     33.41804459	    -32.85916536	     13.37270574	     11.99543844
     15.77945887	     34.51103789	    428.98530243	     55.76832337	    114.28217460
     15.79532552	     37.78834281	   1435.96841093	    157.63084517	    353.39979649
     15.81119217	     48.65351156	   2843.81725609	    311.57151830	    707.65288228
     15.82705882	     72.54861736	   4292.02283517	    482.76018419	   1095.24882603
     15.84292547	    114.14088258	   5413.93778808	    625.92052805	   1415.80585483
     15.85879212	    176.11448106	   5973.29586273	    703.51987812	   1589.46616820
     15.87465877	    251.86201897	   5898.33715045	    698.97762025	   1582.12817856
     15.89052542	    314.75829895	   5229.05336528	    616.06270706	   1401.39936112
     15.90639207	    327.39295380	   4098.46595069	    474.76907196	   1088.70227600
     15.92225872	    274.86009801	   2739.00354312	    308.15260941	    714.77687543
     15.93812538	    183.45703355	   1473.90663875	    158.56570738	    373.07884028
     15.95399203	     98.25760739	    579.09480522	     58.98184814	    139.48470674
     15.96985868	     43.07419500	    107.60931881	     13.12868533	     26.04916782
     15.98572533	     18.95336037	    -42.82682430	      5.57872992	      0.74432915
     16.00159198	     17.14108118	    -20.50982995	     15.53851125	     17.71878588
     16.01745863	     24.60625132	     43.38806551	     25.44403461	     37.86920001
     16.03332528	     31.93649131	     86.06146889	     28.59020349	     45.72042873
