MomentArm_knee_angle_r
version=1
nRows=51
nColumns=5
inDegrees=no

This analysis gathers basic information about muscles during a simulation (e.g., forces, tendon lengths, moment arms, etc).
Units are S.I. units (second, meters, Newtons, ...)
If the header above contains a line with 'inDegrees', this indicates whether rotational values are in degrees (yes) or radians (no).

endheader
time	recfem_r	vaslat_r	vasint_r	vasmed_r
     15.23999274	     -0.04701256	     -0.04249791	     -0.04180583	     -0.04034105
     15.25585939	     -0.04869793	     -0.04483582	     -0.04349165	     -0.04234921
     15.27172604	     -0.04991745	     -0.04660662	     -0.04490271	     -0.04408032
     15.28759269	     -0.05084029	     -0.04780304	     -0.04611035	     -0.04549276
     15.30345934	     -0.05109904	     -0.04810823	     -0.04645621	     -0.04588400
     15.31932599	     -0.05043147	     -0.04729046	     -0.04556407	     -0.04486325
     15.33519264	     -0.04908438	     -0.04543302	     -0.04392857	     -0.04288931
     15.35105930	     -0.04678416	     -0.04234730	     -0.04169209	     -0.04021000
     15.36692595	     -0.04265776	     -0.03751990	     -0.03786772	     -0.03595393
     15.38279260	     -0.04065404	     -0.03499077	     -0.03631706	     -0.03415262
     15.39865925	     -0.03641861	     -0.03045858	     -0.03274844	     -0.03040540
     15.41452590	     -0.03090792	     -0.02490803	     -0.02804376	     -0.02566653
     15.43039255	     -0.02618334	     -0.02126105	     -0.02413720	     -0.02181478
     15.44625920	     -0.02117343	     -0.02137734	     -0.02019281	     -0.01892821
     15.46212585	     -0.02160202	     -0.02227982	     -0.02137791	     -0.02017937
     15.47799250	     -0.02483839	     -0.02498257	     -0.02447069	     -0.02321180
     15.49385915	     -0.02865612	     -0.02817593	     -0.02810525	     -0.02663690
     15.50972580	     -0.03110148	     -0.03020923	     -0.03043090	     -0.02877757
     15.52559245	     -0.03125835	     -0.03033833	     -0.03057900	     -0.02891268
     15.54145911	     -0.02912850	     -0.02856615	     -0.02855068	     -0.02704973
     15.55732576	     -0.02552748	     -0.02555374	     -0.02511995	     -0.02383191
     15.57319241	     -0.02211943	     -0.02269725	     -0.02186273	     -0.02066776
     15.58905906	     -0.02184721	     -0.02139885	     -0.02027270	     -0.01902706
     15.60492571	     -0.02715956	     -0.02137715	     -0.02333749	     -0.02102985
     15.62079236	     -0.03220270	     -0.02426614	     -0.02749613	     -0.02512409
     15.63665901	     -0.03813331	     -0.03049481	     -0.03277880	     -0.03043655
     15.65252566	     -0.04226635	     -0.03533859	     -0.03651393	     -0.03438039
     15.66839231	     -0.04473704	     -0.03877996	     -0.03885954	     -0.03704857
     15.68425896	     -0.04826343	     -0.04350174	     -0.04254795	     -0.04120842
     15.70012561	     -0.04980424	     -0.04601307	     -0.04438734	     -0.04345465
     15.71599226	     -0.05070016	     -0.04730502	     -0.04557899	     -0.04488063
     15.73185891	     -0.05090784	     -0.04757156	     -0.04585824	     -0.04520409
     15.74772557	     -0.05044598	     -0.04697241	     -0.04524703	     -0.04449085
     15.76359222	     -0.04963754	     -0.04576770	     -0.04418841	     -0.04321019
     15.77945887	     -0.04860531	     -0.04408153	     -0.04296334	     -0.04170474
     15.79532552	     -0.04702892	     -0.04179828	     -0.04127252	     -0.03973024
     15.81119217	     -0.04470832	     -0.03884864	     -0.03891473	     -0.03710931
     15.82705882	     -0.04295507	     -0.03663025	     -0.03720978	     -0.03521961
     15.84292547	     -0.04230267	     -0.03568850	     -0.03665460	     -0.03456467
     15.85879212	     -0.04205749	     -0.03530415	     -0.03649622	     -0.03435924
     15.87465877	     -0.04196762	     -0.03521914	     -0.03645060	     -0.03430552
     15.89052542	     -0.04210279	     -0.03550928	     -0.03659325	     -0.03447864
     15.90639207	     -0.04235468	     -0.03606972	     -0.03684049	     -0.03479657
     15.92225872	     -0.04353042	     -0.03772606	     -0.03802656	     -0.03612982
     15.93812538	     -0.04603250	     -0.04089288	     -0.04056468	     -0.03893223
     15.95399203	     -0.04820605	     -0.04387078	     -0.04281350	     -0.04152470
     15.96985868	     -0.04966845	     -0.04610592	     -0.04446465	     -0.04354928
     15.98572533	     -0.05077693	     -0.04764800	     -0.04594051	     -0.04529863
     16.00159198	     -0.05121700	     -0.04822353	     -0.04659083	     -0.04603486
     16.01745863	     -0.05073038	     -0.04770097	     -0.04599809	     -0.04536460
     16.03332528	     -0.04976124	     -0.04651074	     -0.04481594	     -0.04397588
