PennationAngle
version=1
nRows=51
nColumns=5
inDegrees=no

This analysis gathers basic information about muscles during a simulation (e.g., forces, tendon lengths, moment arms, etc).
Units are S.I. units (second, meters, Newtons, ...)
If the header above contains a line with 'inDegrees', this indicates whether rotational values are in degrees (yes) or radians (no).

endheader
time	recfem_r	vaslat_r	vasint_r	vasmed_r
     15.31999315	      0.18213165	      0.24736432	      0.06055011	      0.40230958
     15.33519313	      0.18457432	      0.25373037	      0.06204231	      0.41186438
     15.35039312	      0.18699931	      0.25975093	      0.06344198	      0.42083978
     15.36559310	      0.18814041	      0.26414581	      0.06446015	      0.42737510
     15.38079309	      0.18663895	      0.26545291	      0.06476281	      0.42931840
     15.39599307	      0.18197711	      0.26283226	      0.06415597	      0.42542231
     15.41119306	      0.17481119	      0.25660444	      0.06271151	      0.41615413
     15.42639304	      0.16638152	      0.24795666	      0.06068963	      0.40320229
     15.44159303	      0.15782563	      0.23827630	      0.05839115	      0.38851502
     15.45679301	      0.14992158	      0.22871889	      0.05607923	      0.37380292
     15.47199300	      0.14284188	      0.21966966	      0.05384463	      0.35962225
     15.48719298	      0.13660274	      0.21125002	      0.05171929	      0.34614421
     15.50239297	      0.13163611	      0.20411557	      0.04986740	      0.33446743
     15.51759295	      0.12809700	      0.19842185	      0.04833643	      0.32488677
     15.53279294	      0.12599821	      0.19393316	      0.04711423	      0.31730544
     15.54799292	      0.12541157	      0.19015156	      0.04620963	      0.31167016
     15.56319291	      0.12601172	      0.18703172	      0.04549490	      0.30705693
     15.57839289	      0.12752675	      0.18460582	      0.04493132	      0.30339316
     15.59359288	      0.13011440	      0.18312099	      0.04458197	      0.30111337
     15.60879286	      0.13402977	      0.18283573	      0.04451445	      0.30067229
     15.62399285	      0.13940587	      0.18376298	      0.04473344	      0.30210244
     15.63919283	      0.14614311	      0.18563628	      0.04517175	      0.30495872
     15.65439282	      0.15399157	      0.18810109	      0.04574093	      0.30864905
     15.66959280	      0.16289748	      0.19095420	      0.04639222	      0.31284363
     15.68479279	      0.17335869	      0.19419931	      0.04718298	      0.31772936
     15.69999277	      0.18565003	      0.19793781	      0.04820335	      0.32405765
     15.71519275	      0.20009615	      0.20277153	      0.04951111	      0.33223136
     15.73039274	      0.21741263	      0.20937435	      0.05123792	      0.34310095
     15.74559272	      0.23815769	      0.21832932	      0.05350959	      0.35749563
     15.76079271	      0.26087306	      0.22938188	      0.05624114	      0.37483104
     15.77599269	      0.28357375	      0.24238285	      0.05937111	      0.39477126
     15.79119268	      0.30220775	      0.25607888	      0.06258930	      0.41537052
     15.80639266	      0.31116733	      0.26750261	      0.06523755	      0.43236667
     15.82159265	      0.30783307	      0.27357857	      0.06664791	      0.44142010
     15.83679263	      0.29392917	      0.27269227	      0.06644172	      0.44009715
     15.85199262	      0.27445314	      0.26585844	      0.06485672	      0.42992137
     15.86719260	      0.25431000	      0.25601286	      0.06257394	      0.41527206
     15.88239259	      0.23623654	      0.24622563	      0.06028152	      0.40059130
     15.89759257	      0.22114855	      0.23857309	      0.05846223	      0.38896846
     15.91279256	      0.20897061	      0.23395366	      0.05735122	      0.38188837
     15.92799254	      0.19939745	      0.23249132	      0.05699733	      0.37963681
     15.94319253	      0.19240577	      0.23410804	      0.05738852	      0.38212577
     15.95839251	      0.18822825	      0.23884789	      0.05852801	      0.38938811
     15.97359250	      0.18706330	      0.24687244	      0.06043415	      0.40156769
     15.98879248	      0.18875188	      0.25810537	      0.06306019	      0.41839038
     16.00399247	      0.19256607	      0.27164436	      0.06619819	      0.43853418
     16.01919245	      0.19690543	      0.28499291	      0.06932988	      0.45857979
     16.03439244	      0.19924086	      0.29416224	      0.07154179	      0.47261386
     16.04959242	      0.19755661	      0.29613821	      0.07202787	      0.47567774
     16.06479241	      0.19180910	      0.29090251	      0.07074776	      0.46759219
     16.07999239	      0.18406219	      0.28163489	      0.06853445	      0.45350295
