FiberLength
version=1
nRows=51
nColumns=5
inDegrees=no

This analysis gathers basic information about muscles during a simulation (e.g., forces, tendon lengths, moment arms, etc).
Units are S.I. units (second, meters, Newtons, ...)
If the header above contains a line with 'inDegrees', this indicates whether rotational values are in degrees (yes) or radians (no).

endheader
time	recfem_r	vaslat_r	vasint_r	vasmed_r
     15.31999315	      0.09226969	      0.10644845	      0.10840967	      0.10634572
     15.33519313	      0.09106221	      0.10383310	      0.10580551	      0.10401490
     15.35039312	      0.08989486	      0.10147894	      0.10347423	      0.10192491
     15.36559310	      0.08935602	      0.09982900	      0.10184203	      0.10046020
     15.38079309	      0.09006640	      0.09934895	      0.10136674	      0.10003357
     15.39599307	      0.09234718	      0.10031628	      0.10232422	      0.10089299
     15.41119306	      0.09609167	      0.10269534	      0.10467791	      0.10300438
     15.42639304	      0.10091165	      0.10619937	      0.10816076	      0.10612312
     15.44159303	      0.10633291	      0.11042689	      0.11241321	      0.10991946
     15.45679301	      0.11189347	      0.11495540	      0.11704238	      0.11403022
     15.47199300	      0.11739865	      0.11960977	      0.12189476	      0.11831953
     15.48719298	      0.12272496	      0.12430155	      0.12689914	      0.12273025
     15.50239297	      0.12732706	      0.12858255	      0.13160756	      0.12684551
     15.51759295	      0.13082483	      0.13222158	      0.13577258	      0.13044767
     15.53279294	      0.13299218	      0.13524212	      0.13929200	      0.13345535
     15.54799292	      0.13361100	      0.13789825	      0.14201678	      0.13578757
     15.56319291	      0.13297800	      0.14017095	      0.14424628	      0.13776167
     15.57839289	      0.13140663	      0.14199154	      0.14605437	      0.13937299
     15.59359288	      0.12880760	      0.14312982	      0.14719811	      0.14039576
     15.60879286	      0.12506637	      0.14335063	      0.14742122	      0.14059546
     15.62399285	      0.12027277	      0.14263540	      0.14670000	      0.13995011
     15.63919283	      0.11476500	      0.14121235	      0.14527750	      0.13867964
     15.65439282	      0.10895862	      0.13938340	      0.14347098	      0.13707358
     15.66959280	      0.10305019	      0.13732563	      0.14145822	      0.13529486
     15.68479279	      0.09688860	      0.13505910	      0.13908917	      0.13328331
     15.69999277	      0.09054059	      0.13254067	      0.13614714	      0.13076961
     15.71519275	      0.08408219	      0.12942302	      0.13255385	      0.12766728
     15.73039274	      0.07747878	      0.12539856	      0.12809027	      0.12377522
     15.74559272	      0.07084177	      0.12033225	      0.12265725	      0.11899286
     15.76079271	      0.06479608	      0.11462897	      0.11670580	      0.11373217
     15.77599269	      0.05973254	      0.10859184	      0.11055988	      0.10826679
     15.79119268	      0.05615211	      0.10290146	      0.10488203	      0.10318736
     15.80639266	      0.05458559	      0.09860574	      0.10063013	      0.09937235
     15.82159265	      0.05515772	      0.09646889	      0.09850372	      0.09746433
     15.83679263	      0.05768589	      0.09677459	      0.09880894	      0.09773806
     15.85199262	      0.06166497	      0.09920099	      0.10122018	      0.09990201
     15.86719260	      0.06643068	      0.10292742	      0.10490773	      0.10321040
     15.88239259	      0.07140699	      0.10693067	      0.10889212	      0.10677705
     15.89759257	      0.07619078	      0.11029212	      0.11227669	      0.10979784
     15.91279256	      0.08056029	      0.11242879	      0.11444926	      0.11173076
     15.92799254	      0.08437288	      0.11312304	      0.11515909	      0.11236098
     15.94319253	      0.08739882	      0.11235600	      0.11437496	      0.11166475
     15.95839251	      0.08931481	      0.11016765	      0.11215066	      0.10968554
     15.97359250	      0.08986447	      0.10665620	      0.10861743	      0.10653149
     15.98879248	      0.08906998	      0.10211135	      0.10409987	      0.10248608
     16.00399247	      0.08732697	      0.09713863	      0.09917191	      0.09806367
     16.01919245	      0.08542660	      0.09270416	      0.09469894	      0.09406242
     16.03439244	      0.08443831	      0.08989446	      0.09177583	      0.09147122
     16.04959242	      0.08514867	      0.08931210	      0.09115753	      0.09092674
     16.06479241	      0.08766734	      0.09087272	      0.09280411	      0.09237976
     16.07999239	      0.09131270	      0.09377959	      0.09579628	      0.09504101
