MuscleActuatorPower
version=1
nRows=51
nColumns=5
inDegrees=no

This analysis gathers basic information about muscles during a simulation (e.g., forces, tendon lengths, moment arms, etc).
Units are S.I. units (second, meters, Newtons, ...)
If the header above contains a line with 'inDegrees', this indicates whether rotational values are in degrees (yes) or radians (no).

endheader
time	recfem_r	vaslat_r	vasint_r	vasmed_r
     15.31999315	    -33.21879351	     80.52524123	     26.28217737	     39.19928682
     15.33519313	     51.23174629	     71.45458109	     23.35778978	     35.05953821
     15.35039312	     46.66748978	     44.83526581	     14.81328793	     22.31996916
     15.36559310	      7.48617894	     17.24470203	      5.83044270	      8.77683620
     15.38079309	    -16.45284152	     -0.83979712	     -0.29280303	     -0.43819483
     15.39599307	    -23.53244341	    -14.26558345	     -5.04352703	     -7.47703128
     15.41119306	    -45.46694092	    -30.67355033	    -10.79943307	    -15.85107947
     15.42639304	    -87.76588906	    -49.06076034	    -17.35078159	    -25.20550851
     15.44159303	   -128.71991111	    -64.30487622	    -23.18136024	    -33.23856179
     15.45679301	   -156.27595424	    -74.60459565	    -27.76400406	    -39.09934725
     15.47199300	   -187.07024958	    -87.14397768	    -33.79214782	    -46.76415383
     15.48719298	   -215.25635150	    -95.94085486	    -39.20363228	    -52.98921220
     15.50239297	   -220.03248148	    -96.03298462	    -41.91856506	    -54.98493128
     15.51759295	   -186.76904688	    -89.89999338	    -42.36716101	    -53.88313090
     15.53279294	   -104.78088248	    -86.31065756	    -39.40737790	    -48.45931588
     15.54799292	     10.72841515	    -82.12522468	    -33.53447687	    -42.31024049
     15.56319291	     80.14792551	    -75.05189438	    -31.16363754	    -39.19397187
     15.57839289	    138.08367234	    -59.13377744	    -25.03696260	    -31.40444293
     15.59359288	    183.33792443	    -28.46920245	    -12.22658256	    -15.28867114
     15.60879286	    201.49415669	     10.78215732	      4.64957969	      5.80958486
     15.62399285	    186.15548245	     43.87949769	     18.79675374	     23.53674096
     15.63919283	    152.35659731	     61.64880699	     26.03163077	     32.67971828
     15.65439282	    121.48621015	     67.10744615	     27.89403386	     35.04057731
     15.66959280	    106.64436795	     67.90407853	     27.86865624	     35.05552925
     15.68479279	     99.80516340	     68.62586381	     31.73893065	     38.92441821
     15.69999277	     90.44206430	     72.31905499	     34.49040494	     43.66862217
     15.71519275	     74.19484801	     83.33090034	     37.50372158	     49.48422993
     15.73039274	     52.27895160	     95.01725254	     40.71226848	     56.64177052
     15.74559272	     30.21701330	     99.89853448	     40.61992405	     59.56260349
     15.76079271	     14.54925885	     94.66300234	     35.07638720	     53.27269102
     15.77599269	      7.15065010	     85.97774508	     26.79571577	     40.97774141
     15.79119268	      3.91539299	     62.63520407	     15.57443279	     22.44781027
     15.80639266	      0.91107223	     26.76991570	      6.93254696	      8.69924195
     15.82159265	     -4.43952199	      0.33603096	      2.25022972	      3.15664577
     15.83679263	    -11.30910443	      9.81759411	     -8.46199604	    -14.92588117
     15.85199262	    -16.13530058	     -9.75133231	    -40.10297869	    -76.55088068
     15.86719260	    -16.40522765	   -194.85239148	    -86.44624602	   -168.26373458
     15.88239259	    -14.58034208	   -499.68266896	   -117.03151869	   -227.74085581
     15.89759257	    -18.41674195	   -633.71673263	   -106.14283644	   -205.22718182
     15.91279256	    -34.91900776	   -418.54141896	    -58.65813354	   -112.79629839
     15.92799254	    -59.85960851	     11.81642716	      1.52355145	      2.93294683
     15.94319253	    -71.24342037	    407.35764476	     50.82779799	     98.74379228
     15.95839251	    -45.99635483	    595.94668312	     73.35983188	    144.72274191
     15.97359250	      5.88830054	    544.13851803	     66.26589654	    132.87089766
     15.98879248	     45.69110493	    347.46249670	     42.18104141	     85.28009384
     16.00399247	     50.72059341	    148.63333417	     19.39454658	     38.03483784
     16.01919245	     27.88967521	     34.24566617	      7.05854157	     11.62078603
     16.03439244	      3.72536899	      2.68092266	      2.94639746	      3.69303300
     16.04959242	     -7.32008205	     -0.29512906	     -0.31502015	     -0.40649993
     16.06479241	    -16.45648172	    -11.50248925	     -5.83106012	     -8.19211912
     16.07999239	    -39.08392209	    -34.37173501	    -12.15050252	    -18.03077045
