ActiveFiberForceAlongTendon
version=1
nRows=51
nColumns=5
inDegrees=no

This analysis gathers basic information about muscles during a simulation (e.g., forces, tendon lengths, moment arms, etc).
Units are S.I. units (second, meters, Newtons, ...)
If the header above contains a line with 'inDegrees', this indicates whether rotational values are in degrees (yes) or radians (no).

endheader
time	recfem_r	vaslat_r	vasint_r	vasmed_r
     15.89999205	    486.23043949	    375.02851534	     87.26484577	    178.97846320
     15.91585870	    342.53540369	    253.09949702	     61.34920961	    121.86962620
     15.93172535	    217.21231687	    152.74189642	     39.97167210	     74.58830796
     15.94759200	    115.97970404	     85.42107340	     25.76444575	     42.73304543
     15.96345865	     46.81660506	     53.63994548	     19.36596083	     27.69338231
     15.97932530	     16.01937210	     50.52960291	     19.23816619	     26.20156554
     15.99519195	     14.81440020	     61.74693785	     22.11925946	     31.41530740
     16.01105861	     22.99477551	     72.82572184	     24.74860181	     36.54854121
     16.02692526	     26.22204053	     76.59617603	     25.50622928	     38.26387883
     16.04279191	     22.98180079	     74.20479432	     24.69487730	     37.11532089
     16.05865856	     17.63126556	     70.02023820	     23.36668358	     35.14885317
     16.07452521	     13.12463530	     65.41765460	     21.75320352	     32.93086444
     16.09039186	     10.49268839	     61.73069616	     20.30470065	     31.10538936
     16.10625851	      9.22628927	     59.71966895	     19.10882929	     29.67012610
     16.12212516	      8.66654537	     57.71806842	     18.15558616	     28.60736259
     16.13799181	      8.64271524	     55.07022179	     17.27327949	     27.43049214
     16.15385846	      8.89848819	     52.15783645	     16.34279398	     26.08978293
     16.16972511	      9.67858383	     49.36011244	     15.46241404	     24.75464996
     16.18559176	     11.26461701	     47.33018938	     14.81950088	     23.74847641
     16.20145842	     13.67596645	     46.68568474	     14.61617399	     23.42837574
     16.21732507	     16.41261308	     47.49616296	     14.93874675	     23.95520119
     16.23319172	     18.54010636	     48.93348910	     15.64471627	     25.07261783
     16.24905837	     18.96456137	     49.99327080	     16.23959641	     26.06143238
     16.26492502	     18.84455785	     49.57303551	     16.23403899	     25.79815968
     16.28079167	     18.82441040	     47.55516173	     15.65851430	     24.60008765
     16.29665832	     19.58249795	     48.37804638	     15.12565675	     23.70385740
     16.31252497	     21.32787827	     53.41462896	     15.50238561	     24.69827521
     16.32839162	     22.63885153	     56.52924355	     16.63132810	     26.98902886
     16.34425827	     24.56279541	     51.39480284	     18.92134288	     29.95384709
     16.36012492	     26.99031431	     32.90523262	     20.90697317	     29.61804019
     16.37599157	     29.77481405	     24.16753303	     20.62455809	     23.46351786
     16.39185822	     33.06494627	    104.93405577	     20.31940484	     21.62199358
     16.40772488	     35.84681724	    389.41067984	     31.59260537	     54.33615157
     16.42359153	     35.70191274	    945.54784927	     72.71498818	    159.76826708
     16.43945818	     31.40204811	   1724.69001493	    155.07263845	    353.38089305
     16.45532483	     26.56544771	   2577.95552417	    268.66681448	    604.43971735
     16.47119148	     31.65306876	   3322.07392149	    381.13538549	    841.81828428
     16.48705813	     63.47686319	   3795.49467137	    454.27689965	    988.98598775
     16.50292478	    138.89016180	   3902.86862095	    466.84240988	   1007.37797695
     16.51879143	    260.43744244	   3630.64370439	    422.92698044	    910.42612073
     16.53465808	    403.33824748	   3040.53497736	    342.80425395	    742.89720352
     16.55052473	    521.07980899	   2258.32619930	    249.87361527	    552.27131339
     16.56639138	    570.45479493	   1452.46922897	    163.04362990	    372.74881752
     16.58225803	    535.94757811	    786.90224962	     94.44527168	    224.20773286
     16.59812469	    436.59796747	    359.76349404	     49.44511775	    117.32206727
     16.61399134	    306.72162576	    167.73256121	     26.82853561	     54.36050664
     16.62985799	    175.58454942	    132.60380882	     20.63201649	     28.73163428
     16.64572464	     68.11037005	    156.08319945	     22.84083123	     26.85381105
     16.66159129	      8.70845783	    164.94979587	     26.19884668	     33.28951329
     16.67745794	      1.83229393	    132.69753578	     26.63957979	     37.00985352
     16.69332459	     23.04054362	     70.89183235	     24.11814122	     35.59406150
