PassiveFiberForce
version=1
nRows=51
nColumns=5
inDegrees=no

This analysis gathers basic information about muscles during a simulation (e.g., forces, tendon lengths, moment arms, etc).
Units are S.I. units (second, meters, Newtons, ...)
If the header above contains a line with 'inDegrees', this indicates whether rotational values are in degrees (yes) or radians (no).

endheader
time	recfem_r	vaslat_r	vasint_r	vasmed_r
     15.89999205	    182.53368422	    138.95060633	     53.36434933	     86.75597803
     15.91585870	    169.42512617	    124.99645242	     47.67330856	     78.29955899
     15.93172535	    157.72567335	    113.13021294	     42.88060391	     71.09030099
     15.94759200	    151.88732785	    104.96066765	     39.57249391	     66.05343166
     15.96345865	    155.61615248	    101.99418586	     38.30699930	     64.09305140
     15.97932530	    172.26538679	    105.34232596	     39.52277728	     65.92087805
     15.99519195	    205.98563035	    115.76897455	     43.56114021	     72.04047015
     16.01105861	    262.30975724	    133.83112265	     50.76093426	     82.85110707
     16.02692526	    346.16787489	    159.46406053	     61.31569442	     98.41243629
     16.04279191	    456.61106904	    191.46598889	     75.01436937	    118.10489474
     16.05865856	    590.65755209	    229.89795380	     92.20046989	    142.24421241
     16.07452521	    727.82052730	    271.14385210	    111.74470196	    169.00027776
     16.09039186	    829.36761229	    309.72208975	    131.35282893	    195.14434686
     16.10625851	    869.66771116	    345.26470087	    149.71002462	    219.12595934
     16.12212516	    841.45122242	    382.56785801	    166.22671888	    241.03214641
     16.13799181	    764.38744980	    417.55520750	    181.67038473	    261.87816503
     16.15385846	    659.45114818	    445.54569040	    194.26092424	    278.87007964
     16.16972511	    543.01181612	    461.06271411	    201.38790218	    288.45423429
     16.18559176	    430.60794534	    460.20243227	    201.13409942	    288.05093731
     16.20145842	    333.44697340	    443.38319372	    193.66762876	    277.90222138
     16.21732507	    256.45690115	    414.87111996	    181.03760079	    260.78666427
     16.23319172	    198.95711151	    379.65672005	    165.63787967	    239.96418071
     16.24905837	    154.16811390	    341.69909349	    148.83355616	    217.69900659
     16.26492502	    118.16757202	    304.10252067	    129.37255808	    192.21419908
     16.28079167	     88.85866306	    260.32773507	    107.57437917	    163.04773752
     16.29665832	     65.52070056	    212.44757537	     85.36426545	    132.48882715
     16.31252497	     49.37002039	    169.86234022	     66.63253404	    106.04313331
     16.32839162	     38.96636978	    136.06786803	     52.40856092	     85.35695483
     16.34425827	     33.81610168	    113.88238014	     43.28523374	     71.72234999
     16.36012492	     33.39901778	    103.82434992	     39.12044778	     65.36316190
     16.37599157	     37.08455114	    103.95260778	     39.01769145	     65.16163272
     16.39185822	     44.53744968	    112.00160707	     42.09683027	     69.82662884
     16.40772488	     55.43440361	    125.84445363	     47.58594563	     78.10770193
     16.42359153	     68.85870339	    143.15954373	     54.64585232	     88.62481817
     16.43945818	     83.04466684	    161.15463833	     62.18396095	     99.67199133
     16.45532483	     96.35164912	    177.12022183	     69.04332050	    109.56165103
     16.47119148	    108.54574102	    189.12600762	     74.31938839	    117.07533001
     16.48705813	    120.60300716	    195.85372743	     77.34761927	    121.35207529
     16.50292478	    133.91418045	    196.85354775	     77.86215206	    122.06696785
     16.51879143	    149.34483370	    192.70396227	     76.09730496	    119.56412725
     16.53465808	    166.34391744	    184.63764348	     72.61849505	    114.62631432
     16.55052473	    182.42354106	    173.89000248	     68.00870292	    108.04693237
     16.56639138	    193.59025276	    161.33006306	     62.68474816	    100.38162889
     16.58225803	    196.14192551	    147.60727837	     56.94996125	     92.03067383
     16.59812469	    189.60749546	    133.79526170	     51.25336026	     83.63160135
     16.61399134	    178.39434856	    121.74456857	     46.32791834	     76.28012183
     16.62985799	    169.96374407	    113.78240002	     43.06604836	     71.35504484
     16.64572464	    171.61171819	    112.03248532	     42.27400290	     70.13480134
     16.66159129	    188.91778554	    117.75079926	     44.45551486	     73.41490794
     16.67745794	    225.49459504	    130.84460658	     49.64371898	     81.19442724
     16.69332459	    280.63586900	    149.16224890	     57.08474120	     92.21871789
