TendonPower
version=1
nRows=51
nColumns=5
inDegrees=no

This analysis gathers basic information about muscles during a simulation (e.g., forces, tendon lengths, moment arms, etc).
Units are S.I. units (second, meters, Newtons, ...)
If the header above contains a line with 'inDegrees', this indicates whether rotational values are in degrees (yes) or radians (no).

endheader
time	recfem_r	vaslat_r	vasint_r	vasmed_r
     15.89999205	     -0.00000000	     -0.00000000	     -0.00000000	     -0.00000000
     15.91585870	     -0.00000000	     -0.00000000	     -0.00000000	     -0.00000000
     15.93172535	     -0.00000000	     -0.00000000	     -0.00000000	     -0.00000000
     15.94759200	     -0.00000000	     -0.00000000	     -0.00000000	     -0.00000000
     15.96345865	     -0.00000000	     -0.00000000	     -0.00000000	     -0.00000000
     15.97932530	     -0.00000000	     -0.00000000	     -0.00000000	     -0.00000000
     15.99519195	     -0.00000000	     -0.00000000	     -0.00000000	     -0.00000000
     16.01105861	     -0.00000000	     -0.00000000	     -0.00000000	     -0.00000000
     16.02692526	     -0.00000000	     -0.00000000	     -0.00000000	     -0.00000000
     16.04279191	     -0.00000000	     -0.00000000	     -0.00000000	     -0.00000000
     16.05865856	     -0.00000000	     -0.00000000	     -0.00000000	     -0.00000000
     16.07452521	     -0.00000000	     -0.00000000	     -0.00000000	     -0.00000000
     16.09039186	     -0.00000000	     -0.00000000	     -0.00000000	     -0.00000000
     16.10625851	     -0.00000000	     -0.00000000	     -0.00000000	     -0.00000000
     16.12212516	     -0.00000000	     -0.00000000	     -0.00000000	     -0.00000000
     16.13799181	     -0.00000000	     -0.00000000	     -0.00000000	     -0.00000000
     16.15385846	     -0.00000000	     -0.00000000	     -0.00000000	     -0.00000000
     16.16972511	     -0.00000000	     -0.00000000	     -0.00000000	     -0.00000000
     16.18559176	     -0.00000000	     -0.00000000	     -0.00000000	     -0.00000000
     16.20145842	     -0.00000000	     -0.00000000	     -0.00000000	     -0.00000000
     16.21732507	     -0.00000000	     -0.00000000	     -0.00000000	     -0.00000000
     16.23319172	     -0.00000000	     -0.00000000	     -0.00000000	     -0.00000000
     16.24905837	     -0.00000000	     -0.00000000	     -0.00000000	     -0.00000000
     16.26492502	     -0.00000000	     -0.00000000	     -0.00000000	     -0.00000000
     16.28079167	     -0.00000000	     -0.00000000	     -0.00000000	     -0.00000000
     16.29665832	     -0.00000000	     -0.00000000	     -0.00000000	     -0.00000000
     16.31252497	     -0.00000000	     -0.00000000	     -0.00000000	     -0.00000000
     16.32839162	     -0.00000000	     -0.00000000	     -0.00000000	     -0.00000000
     16.34425827	     -0.00000000	     -0.00000000	     -0.00000000	     -0.00000000
     16.36012492	     -0.00000000	     -0.00000000	     -0.00000000	     -0.00000000
     16.37599157	     -0.00000000	     -0.00000000	     -0.00000000	     -0.00000000
     16.39185822	     -0.00000000	     -0.00000000	     -0.00000000	     -0.00000000
     16.40772488	     -0.00000000	     -0.00000000	     -0.00000000	     -0.00000000
     16.42359153	     -0.00000000	     -0.00000000	     -0.00000000	     -0.00000000
     16.43945818	     -0.00000000	     -0.00000000	     -0.00000000	     -0.00000000
     16.45532483	     -0.00000000	     -0.00000000	     -0.00000000	     -0.00000000
     16.47119148	     -0.00000000	     -0.00000000	     -0.00000000	     -0.00000000
     16.48705813	     -0.00000000	     -0.00000000	     -0.00000000	     -0.00000000
     16.50292478	     -0.00000000	     -0.00000000	     -0.00000000	     -0.00000000
     16.51879143	     -0.00000000	     -0.00000000	     -0.00000000	     -0.00000000
     16.53465808	     -0.00000000	     -0.00000000	     -0.00000000	     -0.00000000
     16.55052473	     -0.00000000	     -0.00000000	     -0.00000000	     -0.00000000
     16.56639138	     -0.00000000	     -0.00000000	     -0.00000000	     -0.00000000
     16.58225803	     -0.00000000	     -0.00000000	     -0.00000000	     -0.00000000
     16.59812469	     -0.00000000	     -0.00000000	     -0.00000000	     -0.00000000
     16.61399134	     -0.00000000	     -0.00000000	     -0.00000000	     -0.00000000
     16.62985799	     -0.00000000	     -0.00000000	     -0.00000000	     -0.00000000
     16.64572464	     -0.00000000	     -0.00000000	     -0.00000000	     -0.00000000
     16.66159129	     -0.00000000	     -0.00000000	     -0.00000000	     -0.00000000
     16.67745794	     -0.00000000	     -0.00000000	     -0.00000000	     -0.00000000
     16.69332459	     -0.00000000	     -0.00000000	     -0.00000000	     -0.00000000
