NormalizedFiberLength
version=1
nRows=51
nColumns=5
inDegrees=no

This analysis gathers basic information about muscles during a simulation (e.g., forces, tendon lengths, moment arms, etc).
Units are S.I. units (second, meters, Newtons, ...)
If the header above contains a line with 'inDegrees', this indicates whether rotational values are in degrees (yes) or radians (no).

endheader
time	recfem_r	vaslat_r	vasint_r	vasmed_r
     14.65332714	      1.09325343	      0.95967706	      0.97933458	      0.98902756
     14.66866046	      1.09185252	      0.95176589	      0.97153334	      0.98185774
     14.68399378	      1.09677179	      0.94764125	      0.96746255	      0.97811636
     14.69932709	      1.11336019	      0.94997581	      0.96976700	      0.98023432
     14.71466041	      1.14287496	      0.95946837	      0.97912887	      0.98883850
     14.72999373	      1.18229916	      0.97493563	      0.99437287	      1.00284488
     14.74532705	      1.22649163	      0.99436133	      1.01354775	      1.02044850
     14.76066037	      1.27098130	      1.01616652	      1.03518032	      1.04028312
     14.77599368	      1.31345371	      1.03977850	      1.05878466	      1.06189107
     14.79132700	      1.35333573	      1.06520849	      1.08443224	      1.08531587
     14.80666032	      1.39032337	      1.09213842	      1.11187383	      1.11029450
     14.82199364	      1.42387198	      1.11978693	      1.14038327	      1.13615748
     14.83732696	      1.45298703	      1.14696339	      1.16875865	      1.16185604
     14.85266027	      1.47504629	      1.17139221	      1.19458246	      1.18521768
     14.86799359	      1.48637179	      1.19025778	      1.21476200	      1.20342974
     14.88332691	      1.48435535	      1.20169272	      1.22711176	      1.21454377
     14.89866023	      1.46798287	      1.20489124	      1.23058392	      1.21766345
     14.91399355	      1.43744703	      1.19954515	      1.22478494	      1.21245190
     14.92932686	      1.39384914	      1.18558452	      1.20974183	      1.19890428
     14.94466018	      1.33892861	      1.16329402	      1.18598608	      1.17744580
     14.95999350	      1.27510704	      1.13381950	      1.15499069	      1.14938898
     14.97532682	      1.20457776	      1.09870248	      1.11861034	      1.11641244
     14.99066014	      1.12710164	      1.05788416	      1.07702008	      1.07855293
     15.00599345	      1.04387278	      1.01194586	      1.03098120	      1.03643517
     15.02132677	      0.95983639	      0.96358454	      0.98318581	      0.99256674
     15.03666009	      0.88095578	      0.91627221	      0.93633691	      0.94953144
     15.05199341	      0.81436088	      0.87504837	      0.89449008	      0.91133054
     15.06732673	      0.76709562	      0.84524966	      0.86300689	      0.88295452
     15.08266004	      0.74373149	      0.83039099	      0.84673910	      0.86847163
     15.09799336	      0.74551847	      0.83225188	      0.84880110	      0.87029949
     15.11332668	      0.77013603	      0.85128854	      0.86949948	      0.88877194
     15.12866000	      0.81227783	      0.88610152	      0.90586524	      0.92167194
     15.14399332	      0.86481469	      0.93203847	      0.95202686	      0.96393295
     15.15932663	      0.92001513	      0.98097528	      1.00032839	      1.00831445
     15.17465995	      0.97226526	      1.02508698	      1.04407512	      1.04843030
     15.18999327	      1.01752938	      1.05851475	      1.07765741	      1.07913469
     15.20532659	      1.05401765	      1.07844403	      1.09788101	      1.09756960
     15.22065991	      1.08205962	      1.08500146	      1.10457118	      1.10365656
     15.23599322	      1.10245739	      1.07980340	      1.09926638	      1.09883053
     15.25132654	      1.11580878	      1.06506245	      1.08428425	      1.08518090
     15.26665986	      1.12262806	      1.04331841	      1.06234041	      1.06514238
     15.28199318	      1.12371506	      1.01740033	      1.03640897	      1.04140881
     15.29732650	      1.12023534	      0.99013183	      1.00936715	      1.01661219
     15.31265981	      1.11392069	      0.96412337	      0.98371683	      0.99305472
     15.32799313	      1.10760025	      0.94189954	      0.96179008	      0.97290325
     15.34332645	      1.10571385	      0.92622632	      0.94625620	      0.95863348
     15.35865977	      1.11379270	      0.92005713	      0.94011458	      0.95299657
     15.37399309	      1.13645430	      0.92564238	      0.94567564	      0.95810046
     15.38932640	      1.17521637	      0.94336310	      0.96323672	      0.97423268
     15.40465972	      1.22733428	      0.97085941	      0.99035512	      0.99915408
     15.41999304	      1.28653839	      1.00342076	      1.02251763	      1.02867622
