ModelForces
version=1
nRows=51
nColumns=77
inDegrees=no

This file contains the forces exerted on a model during a simulation.

A force is a generalized force, meaning that it can be either a force (N) or a torque (Nm).

Units are S.I. units (second, meters, Newtons, ...)
If the header above contains a line with 'inDegrees', this indicates whether rotational values are in degrees (yes) or radians (no).

endheader
time	addbrev_r	addlong_r	addmagDist_r	addmagIsch_r	addmagMid_r	addmagProx_r	bflh_r	bfsh_r	edl_r	ehl_r	fdl_r	fhl_r	gaslat_r	gasmed_r	glmax1_r	glmax2_r	glmax3_r	glmed1_r	glmed2_r	glmed3_r	glmin1_r	glmin2_r	glmin3_r	grac_r	iliacus_r	perbrev_r	perlong_r	piri_r	psoas_r	recfem_r	sart_r	semimem_r	semiten_r	soleus_r	tfl_r	tibant_r	tibpost_r	vasint_r	vaslat_r	vasmed_r	pelvis_tx_residual	pelvis_ty_residual	pelvis_tz_residual	pelvis_tilt_residual	pelvis_list_residual	pelvis_rotation_residual	hip_flexion_r_reserve	hip_adduction_r_reserve	hip_rotation_r_reserve	knee_angle_r_reserve	ankle_angle_r_reserve	subtalar_angle_r_reserve	hip_flexion_l_torque	hip_adduction_l_torque	hip_rotation_l_torque	knee_angle_l_torque	ankle_angle_l_torque	subtalar_angle_l_torque	calcn_r_RightGRF_Fx	calcn_r_RightGRF_Fy	calcn_r_RightGRF_Fz	calcn_r_RightGRF_px	calcn_r_RightGRF_py	calcn_r_RightGRF_pz	calcn_r_RightGRF_Tx	calcn_r_RightGRF_Ty	calcn_r_RightGRF_Tz	calcn_l_LeftGRF_Fx	calcn_l_LeftGRF_Fy	calcn_l_LeftGRF_Fz	calcn_l_LeftGRF_px	calcn_l_LeftGRF_py	calcn_l_LeftGRF_pz	calcn_l_LeftGRF_Tx	calcn_l_LeftGRF_Ty	calcn_l_LeftGRF_Tz
     14.65332714	     57.18000972	    242.92336083	      6.29564291	      6.28070372	      6.56694715	     66.52730186	     13.47009311	     26.27401153	     52.71690729	      4.06415678	      5.54255925	     11.39685910	     98.75034676	    365.39171807	     12.46610593	     15.00192420	     10.58448445	     12.88724077	     19.76123624	     93.16944239	      5.08662198	     18.07559380	     20.78785655	     19.23763132	    183.01023019	     69.53133765	    330.78912469	     74.42271016	    426.05451796	    608.01462216	     24.12662445	     22.36219997	      6.91648293	    340.43833758	     34.60251034	     16.78244207	     21.13972664	     18.42342868	     55.48877474	     29.98933910	     -2.97701114	    -81.86621161	     34.27713793	      9.88646944	    -24.44169299	      1.13088502	      0.04805455	     -0.00294463	     -0.01110891	      0.02121233	     -0.01264608	     -0.01333314	    -34.26411849	     35.38217230	     -0.57016313	      4.38640528	      0.61490461	     -0.17193345	     91.99917267	    366.61568920	     -9.60372706	      0.13920179	      0.01324301	     -0.03867818	      0.00000000	      4.41650485	      0.00000000	     -0.00000000	      0.00000000	      0.00000000	     -1.52548589	     -1.40573955	     -0.94830130	      0.00000000	      0.00000000	      0.00000000
     14.66866046	    126.08154312	    376.65059944	      6.28715719	      6.23797702	     42.79262297	    136.68337740	     13.13189769	     27.08337625	     46.62103334	      3.94521024	      5.43982775	     11.37313522	     72.75994425	    472.22592925	     19.06076778	     15.45247500	     10.57921489	     13.50020569	      8.25689874	    122.28954474	      5.24221337	      5.15159378	     23.37715254	     34.79752273	     84.65726363	     52.37417115	    252.55491975	    100.78555280	    491.93566044	    427.37807549	     22.27779711	     21.53342610	      6.82155536	     53.81168906	      5.22108878	     16.41090169	     20.67644413	     18.97178615	     57.13701469	     30.81547770	      0.67813700	     -9.37212567	      7.94630031	     -1.98016826	     -4.35106004	     -1.00861015	      0.05067066	      0.00503310	     -0.01637907	      0.02320218	     -0.00800776	     -0.00953119	    -43.36500515	     30.99658744	      2.28227475	      9.87438396	      0.66548857	     -0.45745601	     67.20656397	    228.76769467	     -6.60722765	      0.16076825	      0.01581259	     -0.05220226	      0.00000000	      4.39760412	      0.00000000	      0.00000000	     -0.00000000	     -0.00000000	     -1.66897875	     -1.08840520	     -1.21085467	      0.00000000	     -0.00000000	      0.00000000
     14.68399378	    176.35545444	    473.54937430	     14.13570861	      6.15223952	     82.35301064	    180.54041100	     12.70524526	     28.77752170	     73.93011516	      7.29748145	      5.28466330	     11.20367486	     14.62229714	    408.46835295	     11.48229023	     15.83655695	     13.00311439	     14.13981023	      8.59912454	    116.25107864	      5.41693621	      5.10176008	     24.25762727	     44.38211141	     71.45367932	     35.35041889	    163.75700648	    119.50271731	    574.25737754	    237.91565014	     20.86801878	     20.35120413	      6.77454832	     55.83306548	      5.23204161	     37.79607349	     19.89848122	     19.59714938	     59.03560111	     31.75338652	     -2.02956972	     12.31372858	    -11.90477585	     -8.45854196	     12.86181159	     -2.38576480	      0.05587009	      0.01093310	     -0.01820035	      0.02569873	      0.00296713	     -0.00624863	    -52.54008174	     26.89626565	      4.89112685	     16.21802149	      0.69434769	     -0.75684160	     40.50189881	    128.51235167	     -5.92773576	      0.18735043	      0.02535413	     -0.06608974	      0.00000000	      4.26337490	      0.00000000	     -0.00000000	      0.00000000	      0.00000000	     -1.77391250	     -0.72122424	     -1.41975858	      0.00000000	      0.00000000	      0.00000000
     14.69932709	    184.62249793	    529.00655508	      6.04352967	      6.00795619	     63.44213674	    164.92593137	     11.98287689	     39.09023304	    254.25086643	     34.50299160	      5.01764309	     10.81969528	     13.96861356	     27.09259676	     11.68168632	     16.15643744	     10.26978858	     14.71041076	      9.12850862	     10.09348301	      5.56033432	      5.44038100	     22.44387736	     42.49767207	    343.85560898	     76.97465290	    335.32367005	    101.05884738	    797.96392403	    602.12358455	     30.57653069	     18.77041720	      6.46430219	     55.00160281	      5.63185584	    531.23170413	     18.81287357	     20.28632080	     61.17482492	     32.78281568	      3.30437694	     48.05626060	    -23.23761894	     12.09442859	      8.49483725	      4.47292862	      0.08456818	      0.00560044	     -0.01394194	      0.03631901	      0.02454626	     -0.01294753	    -62.23449895	     25.10775805	      6.52288457	     24.45373238	      0.54836639	     -0.93464326	      4.23377593	     14.22775923	     -1.14946586	     -1.22845877	     -0.88941909	     -0.76061157	      0.00000000	      0.77097978	      0.00000000	     -0.00000000	      0.00000000	      0.00000000	     -1.83181617	     -0.32632638	     -1.57078207	      0.00000000	      0.00000000	      0.00000000
     14.71466041	    181.06080579	    487.95608489	     10.48786781	      5.87297327	     80.38133451	    157.22751050	     11.37665461	     34.21407694	     59.67139820	     10.79088248	      5.02097910	     10.47590314	     13.40836355	    155.92877900	     11.97463850	     16.42442676	     10.14566694	     15.20102528	      9.74654834	     10.12945108	      5.65341602	      5.79019230	     10.80673554	     42.04254772	    272.24720156	     10.08841387	     27.93387735	     99.61560525	    678.73597094	    142.45183889	     21.99143740	     17.22631809	      6.31934265	     52.36896204	      5.57021621	    185.66902243	     17.84151336	     20.94728694	     63.24692774	     33.75638992	    -10.85479578	     12.41208431	    -11.46959970	    -15.05576707	     14.57932291	     -0.65108223	      0.07026697	      0.01015146	     -0.01084866	      0.03215669	      0.00845840	     -0.00147655	    -71.53139343	     28.82046014	      6.41711766	     34.04959914	      0.14741973	     -0.81450796	     -0.00000000	     -0.00000001	      0.00000000	     -1.36924727	     -1.23178673	     -1.00185737	      0.00000000	     -0.00000000	      0.00000000	      0.00000000	     -0.00000000	     -0.00000000	     -1.83461267	      0.05629970	     -1.67100231	      0.00000000	     -0.00000000	      0.00000000
     14.72999373	    136.69898520	    413.85117718	      5.79494013	      5.76333384	     31.87469681	    111.61003476	     10.89151507	     52.42992495	     67.95143306	     10.73668481	      4.80073342	     10.22934032	     19.03509910	    125.82672714	     12.27541119	     16.69799834	     10.08701039	     15.66503051	     10.37260291	     10.84877806	      5.72655935	      6.56562747	     24.68680880	     37.02541535	    484.90024875	     12.51258103	     43.43235231	    108.29202074	    815.77897755	    308.45832148	     34.03783263	     16.01911704	      6.15406173	     50.59641194	     31.43248040	    184.20796694	     17.38875289	     21.43746687	     64.86189420	     34.47274124	     -7.32930216	    -18.40110008	     10.75779116	    -10.11302539	     -4.03641539	     -0.92480107	      0.09291156	     -0.00185113	     -0.00810648	      0.04883927	      0.00906612	     -0.00197829	    -77.58588209	     34.04335062	      5.61243837	     42.46189889	     -0.38533665	     -0.47425622	      0.00000000	      0.00000000	     -0.00000000	     -1.12929183	     -1.33858994	     -1.11862902	      0.00000000	      0.00000000	      0.00000000	     -0.00000000	      0.00000000	      0.00000000	     -1.78918690	      0.38187429	     -1.73634159	      0.00000000	      0.00000000	      0.00000000
     14.74532705	    104.66652130	    370.56598241	      5.73645784	      5.72888632	      5.76219105	     77.26282782	     10.64415921	     69.77105565	     91.88992548	     13.25517098	      4.80072093	     10.32201779	     16.08365436	    148.97198927	     12.64808187	     17.08699302	     10.17937706	     16.12177349	     10.96021806	     11.63591948	     19.31021228	     38.34687678	     50.33865964	     34.97833077	    685.66598503	     17.78840851	     69.63855546	    116.79887145	    980.73121053	    534.53409702	     44.96980989	     15.22748178	      6.08269307	     51.80110342	     89.21599661	    228.68376218	     17.73028483	     21.74664271	     65.92608881	     34.91091753	      8.73041407	    -37.14106732	     22.92270095	      1.69884715	    -16.66993213	     -0.44018749	      0.11868599	     -0.01362522	     -0.00647638	      0.06323711	      0.01255088	     -0.00309645	    -80.28073634	     33.39889146	      5.41885391	     47.34109327	     -0.81267976	     -0.15509095	      0.00000000	      0.00000000	     -0.00000000	     -0.86737798	     -1.40175979	     -1.24292495	      0.00000000	      0.00000000	      0.00000000	     -0.00000000	      0.00000000	      0.00000000	     -1.72113467	      0.61913433	     -1.78095445	      0.00000000	      0.00000000	      0.00000000
     14.76066037	     90.71325958	    357.84282265	      5.72928612	      5.75762197	      5.47429840	     61.01353974	     10.56707893	     81.21605554	     87.02667185	     12.12993873	      4.99039106	     10.77556120	     27.93817207	     78.53251250	     13.11116159	     17.64837221	     10.42477381	     16.56930386	     11.50253915	     12.36105615	     61.67943453	     73.57364928	     77.96119516	     36.06627473	    802.94774132	     18.43934961	     76.36207537	    132.33173686	   1102.40316955	    665.65975201	     50.82832149	     14.59024022	      6.06436907	     56.69399953	    118.25927149	    207.03849265	     18.72031682	     21.92499163	     66.58337865	     35.15330221	     14.99682883	    -25.54560830	     15.72133767	      8.37427912	    -13.47486327	     -0.22104441	      0.13851733	     -0.02103608	     -0.00600507	      0.07101947	      0.01293051	     -0.00349531	    -80.94926233	     22.55420889	      6.29612870	     47.71189323	     -0.88878722	     -0.08010437	     -0.00000000	     -0.00000000	      0.00000000	     -0.62724393	     -1.40639566	     -1.36268264	      0.00000000	     -0.00000000	      0.00000000	      0.00000000	     -0.00000000	     -0.00000000	     -1.66510985	      0.75869852	     -1.80810049	      0.00000000	     -0.00000000	      0.00000000
     14.77599368	     84.44855675	    338.99023990	      5.74368143	      5.82264692	      5.40555860	     54.26221725	     10.55102786	     80.58388849	     78.89875064	     11.42504562	      5.30404350	     11.36791939	     19.63672377	     51.83428515	     13.64599137	     18.36789182	     10.78343154	     17.68988633	     12.02114679	     13.06025304	     78.85264412	     87.55258551	     92.39881361	     35.89071036	    782.13900335	     17.76930760	     73.48007061	    146.04824815	   1081.66929070	    670.16509246	     49.07961171	     13.78628696	      6.05461930	     64.03637975	    115.82593715	    192.91418148	     19.70345734	     22.02700829	     67.00947432	     35.28577652	     -2.55821596	     53.91085768	     -4.04662500	      1.00761467	      1.80655993	      0.04974523	      0.14038845	     -0.02218115	     -0.00576188	      0.06805478	      0.01361136	     -0.00358654	    -78.97519155	      3.27684064	      8.14557470	     43.63367737	     -0.48556457	     -0.31292004	      0.00000000	      0.00000000	     -0.00000000	     -0.44572649	     -1.35744608	     -1.47399045	      0.00000000	      0.00000000	      0.00000000	     -0.00000205	      0.00000407	      0.00000013	     -1.65127222	      0.80851887	     -1.80945397	      0.00000000	      0.00000029	      0.00000000
     14.79132700	     74.14053057	    296.07851938	      5.76096484	      5.90066430	      5.31023752	     46.02508453	     10.51614777	     74.59001051	     68.73028124	     10.27908647	      5.33821886	     11.77800193	     17.09988782	     32.67682941	     14.19549866	     19.15823231	     11.19312421	     37.57323315	     12.50805106	     13.73505665	     82.02703612	     87.62053086	     92.27481728	     33.08855420	    684.94541270	     15.67899256	     66.05003649	    149.76387875	    959.71782230	    573.37288533	     44.23974371	     12.61439999	      6.02633298	     71.10438850	    100.76149143	    176.65410958	     20.07485191	     22.03991431	     67.17248105	     35.29232412	     -1.93018637	     47.05798130	    -21.34385209	      8.42144386	     15.46341376	     -5.81744735	      0.12897016	     -0.02026582	     -0.00525496	      0.06115311	      0.01376495	     -0.00333277	    -60.62630633	    -23.12793472	     17.29550556	     10.74618552	      6.59961202	      9.35998151	      0.00000000	      0.00000000	     -0.00000000	     -0.33487454	     -1.27902222	     -1.57056925	      0.00000000	      0.00000000	      0.00000000	    -32.57935891	    170.43313562	      1.56856594	     -0.01619850	     -0.01241881	     -0.05049734	      0.00000000	      5.20595153	      0.00000000
     14.80666032	     62.99139100	    252.06849614	      5.77777885	      5.98085188	      5.21340159	     36.95210895	     10.44525607	     70.04303220	     63.43160527	      9.61394747	      5.24715929	     11.91757215	     16.30900939	     29.98861308	     14.66539753	     19.88040433	     11.59648588	    142.12566270	     12.84234416	     14.27907103	     81.58519920	     82.48357637	     81.98325941	     29.84701872	    595.96781812	     14.08104358	     61.50921012	    130.55534568	    838.49499920	    467.80323781	     40.59261280	     11.12400975	      5.98528788	     76.25411611	     87.01257281	    168.55254594	     19.72884032	     21.89292801	     66.86323432	     35.07175003	    -31.33959342	    -25.12562568	    -17.51919349	    -22.07331141	     11.56794948	      1.23049251	      0.11623725	     -0.01816278	     -0.00456419	      0.05591936	      0.01398858	     -0.00303789	    -81.42339227	    -50.67336518	     23.17746399	    -17.23766501	      5.97697427	     20.83438134	     -0.00000000	     -0.00000000	      0.00000000	     -0.28394051	     -1.20309104	     -1.64308713	      0.00000000	     -0.00000000	      0.00000000	    -27.96938923	    463.97022042	      0.33320670	      0.01274235	     -0.01729259	     -0.06189721	      0.00000000	      4.91593785	      0.00000000
     14.82199364	     49.84772172	    211.07754319	      5.80281206	      6.06259722	      5.12105299	     26.13738986	     10.37723874	     67.80646385	     60.82138790	      9.36896400	      5.08525639	     11.80562336	     16.60809761	     30.91488202	     14.94954387	     20.38950466	     11.95316167	    266.25242495	     13.23630004	     14.53683051	     83.91193241	     79.70940875	     71.32423050	     26.62849555	    541.62025958	     13.98662348	     58.83248699	    107.37224615	    753.44845017	    392.27500867	     39.01282979	      9.51166870	      5.95526475	     79.11041274	     79.43708313	    162.44528105	     18.89559177	     21.55695566	     66.00261279	     34.59117078	    -16.55006318	    -34.20783053	      1.00786963	    -14.71695811	     -0.77745520	      4.52802279	      0.10683909	     -0.01757654	     -0.00395768	      0.05246226	      0.01369972	     -0.00271620	    -67.18519690	    -62.44431850	     25.71673518	    -56.52025108	    -10.04969548	     36.79900417	      0.00000000	      0.00000000	     -0.00000000	     -0.27451036	     -1.15739936	     -1.68468887	      0.00000000	      0.00000000	      0.00000000	    -54.89126872	    702.56439153	      3.23152888	      0.04636169	     -0.02325357	     -0.06849807	      0.00000000	      5.27649529	      0.00000000
     14.83732696	     37.15258870	    171.62745599	      5.84719921	      6.15045012	      5.07823795	     17.27153748	     10.38946324	     61.32573441	     58.14665483	      9.10269156	      4.93139826	     11.54002783	     16.62276011	     30.85510100	     14.97561321	     20.58725738	     12.24239867	    329.90547491	     33.91255101	     14.43740812	     78.02341601	     71.09382866	     57.44069546	     22.26155746	    475.11440282	     14.25714325	     54.89977751	    111.57214823	    655.35966301	    329.57174337	     35.87330029	      8.07646344	      5.97309484	     79.86232389	     69.22327030	    153.83476969	     17.91917943	     20.99501700	     64.48610457	     33.79459040	     16.68987793	    -12.73900952	     18.42582483	      8.35059989	    -11.63041104	      2.32786473	      0.09371583	     -0.01624989	     -0.00368203	      0.04531061	      0.01273299	     -0.00234829	    -35.06985309	    -65.31277260	     27.60354804	    -99.92784829	    -35.75980999	     54.69835598	      0.00000000	      0.00000000	     -0.00000000	     -0.29400871	     -1.15821236	     -1.69217481	      0.00000000	      0.00000000	      0.00000000	   -103.73441928	    880.89648218	     11.67076449	      0.07858995	     -0.02725959	     -0.07319485	      0.00000000	      6.38031487	      0.00000000
     14.85266027	     21.39434646	    120.63150446	      5.91633740	      6.25024410	      5.10231639	      9.33238112	     10.57519754	     48.09915837	     54.60184409	      8.54950853	      4.73365928	     11.22813562	     16.24426906	     29.81493056	     14.74203510	     20.45868237	     12.46281351	    308.98701805	     71.18996705	     23.96801635	     61.32586674	     55.14367648	     41.32230009	     15.79406212	    367.26481632	     13.82819712	     50.10262426	    127.76736376	    505.25349821	    262.49298726	     29.14704482	      7.11680521	      6.06950232	     79.16357191	     53.46287522	    142.56022704	     17.10029250	     20.15962108	     62.15572826	     32.58936674	     29.10355339	      8.62694775	     19.30288264	     16.74499379	    -11.78383375	     -1.00176355	      0.07234358	     -0.01366337	     -0.00354670	      0.03315919	      0.01138274	     -0.00200845	    -10.13998840	    -71.07245951	     31.47621002	   -135.86026824	    -62.58726999	     71.06497884	     -0.00000000	     -0.00000000	      0.00000000	     -0.34024164	     -1.20855921	     -1.66276587	      0.00000000	     -0.00000000	      0.00000000	   -146.11526668	   1016.33214631	     25.50792070	      0.10365399	     -0.02834099	     -0.07765529	      0.00000000	      8.16662016	      0.00000000
     14.86799359	      7.87556032	     55.53129338	      6.00760386	      6.36513226	      5.19653893	      6.02751911	     11.01250681	     31.84802276	     51.80859293	      8.55107910	      4.87156206	     10.96846322	     16.49329609	     30.44147607	     14.31680490	     20.07140050	     12.62367953	    278.88693785	     87.45427133	     62.26209554	     46.70739819	     40.68375549	     27.63502181	      7.91432484	    255.17117804	     15.01208490	     47.89779760	    100.89171182	    337.55074001	    198.79595815	     20.77556512	      6.87911702	      6.27539891	     77.85784655	     39.24095303	    133.96463351	     16.57197204	     19.16757420	     59.35461266	     31.14895314	     10.90499538	     13.86454113	      4.16835479	      4.86148806	     -2.25950859	     -1.35532450	      0.04906915	     -0.01195957	     -0.00274233	      0.01997607	      0.01028201	     -0.00179504	     -2.31420207	    -82.87872329	     36.78797407	   -156.51534821	    -84.86011281	     83.37774060	      0.00000000	      0.00000000	     -0.00000000	     -0.41899495	     -1.29915336	     -1.59232842	      0.00000000	      0.00000000	      0.00000000	   -157.27318119	   1124.12103982	     41.85544892	      0.11933386	     -0.02711943	     -0.08128042	      0.00000000	     10.26270234	      0.00000000
     14.88332691	      6.41173869	      9.45511115	      6.11288073	      6.49679687	      5.32460985	      5.37638753	     11.70842914	     15.15613629	     51.89967569	      8.32595799	      4.61049792	     10.83269855	     17.02583623	     31.84019055	     13.80922201	     19.54607563	     12.73124049	    316.24457063	     99.49543625	     64.17141948	     45.60323849	     35.59588307	     20.07705380	      3.32287895	    184.60980896	     15.46171132	     54.16872397	     50.69537928	    202.17984708	    170.48498324	     13.28315756	      7.51214644	      6.51745279	     76.53089539	     33.45235788	    131.45697862	     16.59651472	     18.19356154	     56.58953302	     29.73054185	    -13.26612903	      5.52207864	    -12.37775180	     -8.83926846	      7.80426151	     -0.22797713	      0.03172871	     -0.01295249	     -0.00099958	      0.00810142	      0.00972439	     -0.00185877	     -3.14137219	    -94.28171239	     40.59487952	   -160.26359635	   -101.11415363	     90.53499968	      0.00000000	      0.00000000	     -0.00000000	     -0.53909242	     -1.40983114	     -1.47755430	      0.00000000	      0.00000000	      0.00000000	   -132.71785089	   1200.49709085	     56.62745919	      0.12850545	     -0.02449017	     -0.08268200	      0.00000000	     12.12296923	      0.00000000
     14.89866023	      6.72545236	      9.62097329	      6.21634618	      6.62990390	      5.48428626	      5.50088348	     12.60561458	      7.12218351	     54.75077533	      8.65300833	      4.62585740	     10.80672047	     17.91084391	     33.97036200	     13.32007422	     19.00225577	     12.77800234	    415.97121914	     99.51056594	     20.44130142	     59.98506891	     38.58174413	     15.78573176	      3.24501609	    184.21806135	     18.14470507	     67.53834021	     10.66660354	    134.46382359	    180.57815293	      8.73616591	      9.40554847	      6.82152139	     75.34516893	     37.38318101	    135.90716869	     16.90668762	     20.28979391	     64.60496559	     33.76375439	    -18.04756650	     -3.54340639	    -16.79783052	     -9.24734358	     10.47246218	     -0.42382032	      0.02394579	     -0.01550488	      0.00193942	     -0.00030848	      0.00972000	     -0.00212404	     -2.06374615	    -98.39440547	     40.49408556	   -147.65809994	   -112.06939857	     92.33288026	     -0.00000000	     -0.00000000	      0.00000000	     -0.70695821	     -1.51257188	     -1.32014451	      0.00000000	     -0.00000000	      0.00000000	    -83.75883483	   1228.56860333	     66.19268753	      0.13615113	     -0.02104951	     -0.08122600	      0.00000000	     13.30265056	      0.00000000
     14.91399355	      7.34936007	     14.36870279	      6.33145354	      6.80766564	      5.66940234	      5.66157312	     13.59599480	      7.37208332	     58.47216559	      9.36850689	      4.75898401	     10.91468464	     18.94643597	     36.38532930	     12.94732254	     18.55779903	     12.76858292	    521.02081016	      9.92870628	     10.46635835	     93.71852225	     33.48819507	      3.92454842	      3.39579615	    298.09935035	     21.73088961	     83.07490090	      8.44045454	    134.12926915	    139.00571466	      4.62002173	     12.92957139	      7.16828206	     74.25404478	     43.20668677	    142.81318318	     17.48281580	     24.06396741	    123.56148034	     45.07742311	     -3.49375403	     -6.33637253	     -7.77723413	      0.66327086	      4.91827302	     -1.65845940	      0.01913460	     -0.01009904	      0.01201371	     -0.00128416	      0.00991944	     -0.00249642	      3.42248086	    -93.17333163	     36.04526752	   -120.93036214	   -118.26042345	     89.31006862	     -0.00000000	     -0.00000000	     -0.00000000	     -0.92121724	     -1.57783610	     -1.12939025	      0.00000000	     -0.00000000	      0.00000000	    -26.07543076	   1196.52849443	     68.30232115	      0.14552708	     -0.01728770	     -0.07696503	      0.00000000	     13.64855414	      0.00000000
     14.92932686	     31.29601965	    103.41613530	      6.40326997	     13.74358893	      5.80347582	      5.74024663	     14.51578688	      7.45213030	     60.31846816	      9.58413658	      4.82961527	     10.96066094	     19.90804484	     38.73844638	     12.77130036	     18.28233390	     12.69834633	    595.18970366	      9.63121873	     10.23203855	    116.56959743	     28.87341581	      3.91100773	      3.50121634	    331.88696689	     23.72725703	     93.23453399	      7.99470292	     67.29264228	     72.04145136	      3.08135452	     17.75369484	      7.48686617	     73.08215075	     43.66967288	    146.04082542	     17.97591343	     22.92553320	    143.54010286	     45.32611709	      9.99841222	     -3.93025085	      5.37662407	      7.68124989	     -3.54284035	     -1.83777137	      0.01039216	     -0.00291344	      0.01822003	     -0.00152473	      0.00981240	     -0.00277025	      9.65177019	    -79.76511995	     28.35219729	    -85.19877759	   -118.15691472	     81.88598707	     -0.00000000	     -0.00000000	     -0.00000000	     -1.16931243	     -1.58325044	     -0.92085600	      0.00000000	     -0.00000000	      0.00000000	     29.16836803	   1102.64139425	     62.26318404	      0.15651517	     -0.01379057	     -0.06996311	      0.00000000	     13.23736291	      0.00000000
     14.94466018	     51.14004371	    148.13948343	      6.60159133	     45.66236731	      6.17680473	      5.78114225	     15.38116636	      7.78665938	     58.85459379	      9.45593692	      4.91088448	     11.02645985	     20.73595787	     40.87816203	     12.78776984	     18.19895917	     12.62261399	    559.14704610	      9.76679284	     10.37809302	    111.17172165	     23.85014764	      4.18796579	      3.60842128	    273.73208750	     23.45902795	     92.81281459	      8.19667014	     19.72541275	     18.38166352	      3.08557057	     55.91175016	      9.19882147	     71.86909853	     37.12474630	    142.85114182	     18.36220035	     20.13399049	    120.50207668	     38.78640956	      8.35252324	     -0.77986221	     11.64463237	      5.11814366	     -8.03765987	     -0.44709905	      0.00320009	      0.00230609	      0.01770761	     -0.00129716	      0.00931657	     -0.00279444	     13.23503358	    -61.15083014	     19.63263074	    -47.89705046	   -109.98303303	     70.36428459	      0.00000000	      0.00000000	      0.00000000	     -1.42958802	     -1.52028675	     -0.71245527	      0.00000000	      0.00000000	      0.00000000	     74.28612623	    954.92039389	     49.60983016	      0.16731679	     -0.01128442	     -0.06030044	      0.00000000	     12.25502927	      0.00000000
     14.95999350	     57.12153929	    160.52777446	     11.81382623	     54.44214838	     12.89864633	      5.84100500	     16.25429590	      8.45567604	     54.87613014	      9.22870206	      5.00304931	     11.01860799	     21.28376013	     42.49674629	     12.92438949	     18.24750504	     12.58329012	    438.42996187	     10.03707073	     10.79219088	     87.39104170	     17.46184790	      4.60935162	      4.24056068	    197.94981727	     21.30182005	     83.00108554	      8.95275083	     19.73833443	     14.84104230	      3.10694155	    201.43788187	     23.37745014	     70.59750543	     27.55562654	    135.40074561	     18.47835561	     24.26862932	    158.86878031	     49.03688493	     -3.78895719	      1.17872244	      8.80165740	     -3.07732796	     -6.52553650	      1.42732571	      0.00045301	      0.00515366	      0.01409591	     -0.00174694	      0.00858820	     -0.00254323	     13.44701145	    -41.11325572	     12.09022755	    -15.75623025	    -94.13234597	     55.49986308	     -0.00000000	     -0.00000000	     -0.00000000	     -1.67923723	     -1.39427143	     -0.52155097	      0.00000000	     -0.00000000	      0.00000000	    103.04161077	    768.63867213	     33.84244223	      0.17669905	     -0.01035816	     -0.04825356	      0.00000000	     10.84160358	      0.00000000
     14.97532682	     58.74339671	    156.77746808	     20.97068146	     56.14227387	     21.83072386	      6.10545789	     19.30592344	      8.24891932	     50.36935818	      8.71768616	      4.96087003	     10.91924614	     21.47212795	     43.32207756	     13.10215052	     18.35813497	     12.80807798	    297.95058603	     10.31108853	     11.31608744	     59.64575759	     10.73740550	      5.05221989	      5.73571901	    130.12052449	     18.41923557	     68.71387772	     10.24802341	     19.02412208	     15.49525627	      3.11312923	    313.26478839	     34.04192452	     69.35559776	     16.49856633	    127.79689837	     18.32182431	     25.45579186	    181.55855182	     53.61922817	    -11.72072672	      2.31329414	      2.42131176	     -8.52241108	     -1.81613000	      2.01887646	     -0.00120083	      0.00681619	      0.01041221	     -0.00199796	      0.00792568	     -0.00214440	     12.94928406	    -23.32783116	      6.91716646	      6.49368139	    -73.25648758	     38.96749008	     -0.00000000	     -0.00000000	     -0.00000000	     -1.90261481	     -1.21772463	     -0.36473259	      0.00000000	     -0.00000000	      0.00000000	    110.44858946	    564.95719256	     19.03319195	      0.18476154	     -0.01103152	     -0.03416325	      0.00000000	      8.98455073	      0.00000000
     14.99066014	     59.25286590	    149.13376115	     26.28297784	     51.49302002	     27.79397625	      8.38189838	     41.80917558	      8.26543075	     46.63918236	      8.30949267	      4.91677536	     10.76357122	     21.30917083	     43.24876483	     13.25295877	     18.49165383	     20.33163051	    172.96790240	     10.48262142	     11.78773099	     36.03826226	      6.76841641	      5.38599175	      7.93314825	     85.89213425	     15.63600253	     54.36927681	     11.86584500	     19.16120197	     14.95988649	      3.11756484	    356.66833225	     35.99850776	     68.36454065	      8.13107631	    121.72699024	     18.00440626	     23.43658301	    162.15918262	     48.52055260	     -7.22846807	      0.93205246	     -1.98979682	     -6.52233142	      2.15958053	      0.57476567	     -0.00124070	      0.00746808	      0.00736479	     -0.00175034	      0.00746550	     -0.00175066	     15.37839774	     -9.03650752	      3.85862854	     17.12254600	    -51.24682397	     23.50601268	      0.00000000	      0.00000000	      0.00000000	     -2.09337705	     -1.00299292	     -0.25787891	      0.00000000	      0.00000000	      0.00000000	     97.30438403	    370.51145251	      8.14029435	      0.19254638	     -0.01259417	     -0.01855574	      0.00000000	      6.60002156	      0.00000000
     15.00599345	     62.09598757	    146.70475906	     29.81874388	     46.12280808	     32.84210874	     15.96593445	     70.02420489	      7.73939984	     43.75465111	      7.73956915	      4.77422223	     10.62012172	     20.85227540	     42.34700946	     13.31635303	     18.43149427	     45.83311466	     73.27483328	     10.48467425	     12.09582822	     18.38709731	      5.18151775	      5.53921633	      9.75664017	     58.96036250	     12.99340288	     42.22523446	     13.34895623	     20.95145098	     15.06216419	      3.11035822	    375.58450572	     34.93915581	     67.89445183	      4.33073340	    116.53580628	     17.73912544	     19.07343824	    114.53579289	     37.33397060	      4.60901579	     -3.20613571	     -3.25334801	      1.59807301	      3.21884337	     -1.51213125	     -0.00075018	      0.00787648	      0.00509801	     -0.00121715	      0.00716658	     -0.00144350	     23.14393094	      3.27892964	      2.01080935	     17.46617230	    -31.69827672	     11.82244809	     -0.00000000	     -0.00000000	     -0.00000000	     -2.24986857	     -0.76025999	     -0.21340160	      0.00000000	     -0.00000000	      0.00000000	     70.43997893	    210.13843989	      2.13370657	      0.20194788	     -0.01353794	     -0.00269153	      0.00000000	      3.72756932	      0.00000000
     15.02132677	     68.07847207	    150.67951737	     35.81220782	     45.59455159	     39.75449556	     26.78553420	    114.84058976	      7.35298630	     40.79349815	      7.21819289	      4.75322361	     10.56371038	     20.16330946	     41.59670098	     13.28348902	     18.31491543	     78.97231464	     13.99799801	     10.33963322	     12.20520738	      6.27244070	      4.91604391	      5.54281647	     11.81827265	     36.89264547	     10.83441432	     33.76839491	     14.46165528	     24.20596901	     15.11125473	      3.10061777	    441.84754096	     37.77872682	     68.05607424	      3.90355226	    109.75184933	     17.72515673	     16.12638948	     73.68540330	     28.81636861	      8.37520661	     -6.46424201	     -1.86377311	      7.05913751	      0.84779449	     -1.19395486	     -0.00117364	      0.00861221	      0.00349655	     -0.00074782	      0.00684309	     -0.00124309	     34.03642963	     15.79209286	      0.70445426	     11.85220462	    -16.94404936	      5.07238937	     -0.00000000	     -0.00000000	     -0.00000000	     -2.36947729	     -0.50103926	     -0.23435460	      0.00000000	     -0.00000000	      0.00000000	     41.32809217	     98.72032207	      0.00574232	      0.21590081	     -0.01111146	      0.01086045	      0.00000000	      0.79105115	      0.00000000
     15.03666009	     70.10370107	    140.89638246	     40.75013806	     37.97993559	     46.37140775	     42.98338733	    201.65616817	      8.51346607	     36.21467483	      6.74410740	      4.88111251	     10.64894564	     19.41538110	     40.58115275	     13.36007452	     19.33323976	    123.89302717	     12.82945444	     10.12054650	     12.16646383	      4.28364870	      4.75418508	      5.48121178	     14.83860633	     13.77352621	     10.46299769	     29.08321888	     15.23323191	     47.66631846	     15.35344719	      3.10680175	    583.28152358	     46.15650211	     68.65264439	      3.85607306	     97.84969793	     18.10702372	     14.95128465	     44.15032963	     24.70642055	     16.37185701	     28.62212445	     -0.22197889	     10.68984175	      0.38270199	     -0.85730665	     -0.00153125	      0.00884144	      0.00038941	      0.00339350	      0.00620527	     -0.00111978	     53.30844212	     25.69638229	      1.10611044	     -3.01567045	     -0.34481092	      0.54280428	      0.00000000	      0.00000000	      0.00000000	     -2.44822962	     -0.24211164	     -0.30869063	      0.00000000	      0.00000000	      0.00000000	     -0.00522543	     -0.01087591	      0.00003966	     -1.34289510	     -1.36980908	     -0.66208925	      0.00000000	      0.00011459	      0.00000000
     15.05199341	     56.64296985	    110.23978575	     43.05537511	     47.48532415	     42.37801128	     32.56316920	    266.38514767	      9.64990521	     60.02058582	     10.99302329	      5.04341652	     10.87751213	     18.67978309	    162.91407585	     14.60729028	     46.50488987	    146.77874096	     12.63824385	      9.99298878	     12.05189349	      4.33421959	      4.75474082	      5.47476988	     13.65755433	     13.53978322	     15.25409208	     48.09393439	     15.64549701	     20.64661217	     16.36504739	      3.08757667	    789.15694430	     59.27321846	     69.24066027	      3.96303498	    166.94052836	     18.88765282	     15.37709390	     45.83124586	     25.46296973	    -10.72300033	     -3.24578868	     -0.43208493	     -3.81357608	     -0.42557566	      1.45463942	     -0.00580541	      0.00790981	      0.00128683	      0.00516253	      0.01060357	     -0.00198764	     58.41297320	     28.66295876	      1.11004935	     -6.20271887	      0.27379191	      0.32705693	     -0.00000000	     -0.00000000	     -0.00000000	     -2.48636530	     -0.00544427	     -0.40885441	      0.00000000	     -0.00000000	      0.00000000	      0.00000000	      0.00000000	     -0.00000000	     -1.17914302	     -1.49319904	     -0.63696506	      0.00000000	     -0.00000000	      0.00000000
     15.06732673	     34.67598105	     58.17168347	     49.90001840	     69.53702443	     36.90443803	     13.00777098	    291.84438600	      7.41448613	    242.54983678	     46.45381302	      5.17964870	     11.19276296	     17.73498809	    992.56828681	     25.52410756	    132.83581156	    187.97420642	     56.07987199	     10.86716313	     11.99972458	      8.00464685	      5.23620222	      5.61332997	      9.11103180	     13.26913746	     52.12605108	    176.02822893	     15.81087783	     19.44318568	     18.41561190	      3.04185089	    815.98348812	     62.85441733	     69.52634791	      4.19525639	    734.60735199	     19.89493668	     25.71348764	    163.30914912	     53.54747950	    -17.60334267	    -25.42462332	     -2.57930058	    -11.64747781	      2.21821421	      0.39068678	     -0.01441147	      0.00664025	      0.00362447	     -0.00137407	      0.04500347	     -0.00834542	     65.28608846	     22.67221184	      0.44558703	    -11.96930890	      1.29450760	     -0.11953158	     -0.00000000	     -0.00000000	     -0.00000000	     -2.49358277	      0.18591542	     -0.50043959	      0.00000000	     -0.00000000	      0.00000000	      0.00000000	      0.00000000	     -0.00000000	     -1.00801862	     -1.60313090	     -0.60041195	      0.00000000	     -0.00000000	      0.00000000
     15.08266004	      7.39659603	     10.35125004	     20.45238739	     31.61311313	     10.25374067	      6.26138491	    321.01189829	     17.51956833	    136.21127494	     26.42078134	      5.43025271	     11.58455568	     16.64165036	    550.31659697	     48.32008615	    133.05760347	    102.20222818	     48.65445073	     20.73546448	     17.12577907	      5.67573339	      5.61170001	      6.15403689	      8.74278957	     13.23422048	     32.86303452	    123.27942249	     15.99398165	     19.39828802	     21.27926254	      3.07511837	    932.91459994	     74.32865154	     69.55823967	      4.49499752	    416.37913598	     20.92183144	     17.72955051	     53.35091008	     29.20047387	     -3.91879697	    -38.06749635	     -3.47408527	     -5.46675344	      3.73760651	     -2.11346581	     -0.00977980	      0.00119225	      0.00133618	      0.02171790	      0.02497752	     -0.00575133	     72.57722925	     12.24693894	     -0.21752842	    -18.17902778	      2.14468962	     -0.55536084	      0.00000000	      0.00000000	      0.00000000	     -2.48638475	      0.31268942	     -0.55801351	      0.00000000	      0.00000000	      0.00000000	     -0.00000000	     -0.00000000	      0.00000000	     -0.84584795	     -1.69092473	     -0.55457923	      0.00000000	      0.00000000	      0.00000000
     15.09799336	      6.95798451	      9.94674551	      6.42681583	      6.70531902	      5.84645549	      6.01815178	    296.17128491	     44.76004542	     60.47427008	     10.85347108	      5.65447758	     11.89012129	    161.21463390	     32.53384203	     26.44643388	     22.00349551	     11.91478086	     38.53805457	     39.17869565	     65.02085898	      6.71683267	     11.81737199	     16.98946645	     11.40263590	     21.67696689	     20.08865483	     84.39039571	    124.39242626	     32.59653627	     24.23039280	     13.31971141	    976.73076977	     83.26108971	     69.60386765	      5.07830403	    155.80792426	     21.58400251	     19.57344114	     58.39539324	     31.89391959	     16.08370975	    -11.75751938	      0.06468416	     10.73563113	     -0.08910332	     -2.25064696	      0.00566634	     -0.00514229	     -0.00146408	      0.06027953	      0.00977349	     -0.00361507	     77.62611464	      5.69628002	     -0.68476402	    -22.60015547	      2.54190169	     -0.76884126	     -0.00000000	     -0.00000000	     -0.00000000	     -2.47781322	      0.36328803	     -0.57955150	      0.00000000	     -0.00000000	      0.00000000	      0.00000000	      0.00000000	     -0.00000000	     -0.70682645	     -1.75591650	     -0.50196427	      0.00000000	     -0.00000000	      0.00000000
     15.11332668	      6.69861911	      9.53544544	      6.41323109	      6.74367851	      5.77182999	      5.82023452	    215.25943373	     51.16632721	     55.96168397	     10.28944398	      5.64750498	     12.00001937	    125.89722021	     30.39441874	     13.48969660	     17.82506397	     11.94190137	     47.54905725	     39.41416403	     62.29961431	      8.66887176	     16.74231271	     22.53828003	     12.11732761	     64.24727338	     18.55037121	     79.56836586	    143.33275145	    105.02405452	     26.80249723	     20.62878615	    778.53367902	     72.21737823	     70.10062519	      7.47198438	    149.08372284	     21.65795929	     21.35548903	     63.56399155	     34.53463921	     23.36241412	     92.39897841	      9.24485554	     23.39610300	    -10.12288998	      0.52644106	      0.01530855	     -0.00684280	     -0.00217013	      0.07073029	      0.00898797	     -0.00348872	     78.15920282	      7.76489902	     -1.51051158	    -23.91859511	      2.59660786	     -0.71766699	     -0.00769741	     -0.01329107	     -0.00393813	     -2.46962853	      0.33928512	     -0.58784909	      0.00000000	     -0.00080847	      0.00000000	      0.00000000	      0.00000000	     -0.00000000	     -0.59594371	     -1.80375995	     -0.44458788	      0.00000000	     -0.00000000	      0.00000000
     15.12866000	      6.44751565	      9.08250735	     29.46673301	     57.31172885	      6.74125338	      5.65930376	    287.24256807	      8.36313018	    179.67460772	     34.12752823	      5.51872712	     11.93930146	     14.00598047	    443.63358415	    139.59303583	    334.03731042	    188.70569250	    200.02390881	     99.50704863	     95.20776337	     13.73007675	     12.84503307	     12.54335728	      3.61485276	     12.59967705	     58.09620078	    248.25169297	     18.96256004	     18.52067960	     28.95462560	      2.91811656	    611.84073401	     62.03668620	     71.58674631	      5.06865581	    524.97212758	     21.18019219	     22.93885888	     68.37362031	     36.84481588	    -18.96689901	     26.19572147	     -1.56125175	    -16.70216478	      2.18759255	      1.40981316	     -0.02292127	     -0.00218393	      0.00244689	      0.00776745	      0.03109143	     -0.01070083	     73.55518255	     15.51450478	     -2.91077612	    -21.95114108	      2.54119447	     -0.53930532	     26.17223081	    260.12846113	     23.13640465	      0.00875812	     -0.01801560	     -0.00964600	      0.00000000	      4.53376028	      0.00000000	     -0.00000000	     -0.00000000	      0.00000000	     -0.51208724	     -1.84092424	     -0.38462150	      0.00000000	      0.00000000	      0.00000000
     15.14399332	      6.27965750	      8.80648727	     19.80901741	     55.74208324	      5.78355755	      5.55368814	    219.02112793	      5.93293265	     56.47964325	     16.29822282	      5.68760797	     11.95914375	     14.38608287	     30.00777049	    180.94266615	    383.88846430	    164.51819710	    361.18200607	    172.84970824	    159.97253845	     27.66476732	     28.59008015	     27.06967528	      2.89800833	     12.36116394	      5.53577513	     11.78023423	     53.60304551	     18.30801238	     30.58812284	      2.87873202	    437.32735506	     43.95960694	     74.13362697	      5.13532727	    289.43338540	     20.68049598	     50.91626902	    462.42596139	    124.37579937	    -14.77132993	    -30.47760867	      6.13015590	    -10.85383329	     -3.92203006	      1.20999121	     -0.02680160	     -0.00653619	      0.00334568	     -0.00172898	      0.01673317	     -0.00023080	     65.70714484	     21.68576319	     -4.00855862	    -17.88404456	      2.52534946	     -0.42675249	    -13.07832331	    565.46665127	     22.20808818	      0.02997441	     -0.01548459	     -0.00025843	      0.00000000	      4.28566446	      0.00000000	      0.00000000	      0.00000000	     -0.00000000	     -0.45445787	     -1.87149993	     -0.32577348	      0.00000000	     -0.00000000	      0.00000000
     15.15932663	      6.24782479	      8.75776621	      9.40734213	     43.62124192	      5.77229074	      5.53070494	    157.87295564	      5.95588794	      5.78175316	      7.54026699	     36.76124976	    141.81004727	     20.88123136	     32.42074645	    195.77543466	    370.15535377	    106.27874217	    477.45817148	    222.39982496	    200.07251549	     38.82298708	     42.08567253	     39.04110331	      2.89366343	     12.30323999	      5.37933616	     12.25665859	     80.74195990	     18.31925483	     31.51081512	      2.87978324	    320.46933042	     30.37933007	    161.68421110	      8.48042643	    182.84879486	    567.27905862	    120.16820548	   1153.64227185	    300.29708246	     -4.00162640	    -27.39130242	      5.31225605	     -1.83281182	     -3.51049829	     -0.79388090	     -0.02682896	     -0.01037114	      0.00387945	     -0.00449916	      0.01027207	      0.00942025	     57.71941318	     22.60472022	     -4.03966180	    -13.63506235	      2.56523995	     -0.44543444	    -64.25796300	    803.76480769	     14.34901991	      0.05638019	     -0.01448751	      0.00742536	      0.00000000	      3.67305280	      0.00000000	      0.00000000	      0.00000000	     -0.00000000	     -0.42563321	     -1.89700313	     -0.27415250	      0.00000000	     -0.00000000	      0.00000000
     15.17465995	      6.33530784	      8.93031342	      7.45846449	     38.86663614	      5.75649519	      5.56214381	    111.07712160	      5.70440283	      5.26456300	     10.54347192	     62.16746014	    250.51634195	     44.77626834	     34.86827144	    189.74195143	    334.26303280	     65.81811949	    572.61288489	    251.63577646	    211.62596474	     49.29357925	     52.40219407	     45.38914798	      2.93969704	     12.50718891	      5.51541480	     12.70001929	     77.41859214	     18.59903385	     31.66097866	      2.90507275	    237.20164560	     19.83095923	    914.82040058	     14.31746783	    264.40536803	    952.56452447	    194.28035311	   1850.53447401	    480.59159696	      9.89515299	     -6.49536672	     -1.84716449	      6.99108008	      1.85808334	     -1.37270238	     -0.02744887	     -0.01258767	      0.00474887	     -0.00782364	      0.01872507	      0.01711423	     51.24069491	     19.89893943	     -3.67748171	    -10.61706001	      2.59186433	     -0.51133753	   -112.50822716	    969.57886281	     -1.05925401	      0.08276787	     -0.01527689	      0.01349539	      0.00000000	      2.91468347	      0.00000000	     -0.00000000	     -0.00000000	      0.00000000	     -0.43064483	     -1.91720385	     -0.23759376	      0.00000000	      0.00000000	      0.00000000
     15.18999327	      6.49908203	      9.25916325	      7.56820287	     41.92206687	      5.70091522	      5.61716156	     89.05520096	      5.90471595	      4.91115676	     12.71010119	     81.10176309	    336.47659058	    103.77636962	     36.39288453	    186.01665735	    314.55137177	     50.86731844	    692.38171449	    283.35256502	    220.61289603	     62.99514696	     64.20342390	     51.53209336	      3.02117069	     12.95269989	      5.57412813	     12.93699456	     67.91891715	     19.09770014	     31.05990665	      2.96753123	    198.36535991	     14.42938186	   1806.53894651	     19.14811801	    320.24168973	   1230.17666770	    258.55315651	   2441.21235839	    637.24676570	     14.60846636	      4.12826330	     -6.70779440	      9.07423009	      5.16418568	     -0.18859396	     -0.03076571	     -0.01443645	      0.00597819	     -0.01189264	      0.02615996	      0.02412423	     45.54426857	     14.89959059	     -3.92430608	     -9.08683537	      2.54399183	     -0.54654631	   -137.74154199	   1078.91870340	    -21.07540479	      0.10404327	     -0.01822066	      0.01847039	      0.00000000	      2.27216497	      0.00000000	      0.00000000	      0.00000000	     -0.00000000	     -0.47451875	     -1.93039140	     -0.22343291	      0.00000000	     -0.00000000	      0.00000000
     15.20532659	      6.69706585	      9.66656163	      7.05923546	     44.85677420	      5.60710431	      5.67846408	     80.54534994	      6.21971466	      4.81546977	     13.82766925	     91.88628096	    386.86899584	    197.87308381	     36.39699653	    195.60329670	    322.09706522	     43.65614597	    867.28977779	    332.11686822	    243.51226842	     82.96275995	     81.32735929	     61.48951233	      3.11588757	     13.53465140	      5.57684722	     12.97895324	     66.32105252	     19.69120236	     30.04864014	      3.04670652	    190.42065673	     11.34520244	   2676.87015911	     25.39134924	    368.70009996	   1378.02396915	    297.07513722	   2793.56821690	    734.61611598	      6.91547696	      3.23389316	     -4.67848621	      4.37468114	      2.90789796	      0.70978725	     -0.03630379	     -0.01749076	      0.00733735	     -0.01602028	      0.02998725	      0.02951704	     39.03410091	      5.35971495	     -4.08803356	     -8.20739311	      2.41663381	     -0.58920585	   -130.01800698	   1143.98917697	    -40.76159602	      0.11799235	     -0.02252881	      0.02325882	      0.00000000	      1.87377670	      0.00000000	      0.00000000	      0.00000000	     -0.00000000	     -0.56013196	     -1.93285486	     -0.23607850	      0.00000000	     -0.00000000	      0.00000000
     15.22065991	      6.90941348	     10.10408079	      6.26304451	     41.12522582	      5.50223145	      5.74733520	     65.94902691	      6.57066709	      4.98007099	     14.04463920	     95.98172746	    403.63863455	    299.67835322	    283.36727625	    207.36498509	    331.03498004	     25.98799638	   1079.23790480	    389.62843608	    273.66102775	    108.36485910	    102.45590475	     73.70886832	      3.21193245	     14.13317869	      5.54413903	     12.87149687	     70.03797741	     20.24776814	     28.93808353	      3.12147093	    176.40345889	      8.57645248	   3171.48151793	     37.35835380	    421.08279428	   1424.35276949	    308.83440831	   2906.54504912	    770.94362503	     -3.12597798	      0.40019862	      0.49722655	     -0.92444355	     -1.34928622	      0.17711169	     -0.04138538	     -0.02186362	      0.00850437	     -0.01920919	      0.02924492	      0.03281152	     30.68953945	    -11.30787252	     -1.94478695	     -6.74797224	      2.23017561	     -0.74021230	    -96.75885296	   1167.71761099	    -55.55540772	      0.12693734	     -0.02664944	      0.02833417	      0.00000000	      1.70350829	      0.00000000	     -0.00000000	     -0.00000000	      0.00000000	     -0.68636989	     -1.91858090	     -0.27634591	      0.00000000	      0.00000000	      0.00000000
     15.23599322	      7.13804607	     10.55907150	      5.90128366	     28.30401720	      5.41964466	      5.83597929	     32.26921631	      6.84582376	      5.32471043	     12.43012955	     93.50195743	    388.83402932	    372.14671463	    717.43347450	    207.84426366	    314.76033087	     10.08550802	   1276.83040591	    437.80628191	    298.33965300	    135.12290654	    122.77253610	     83.88366067	      3.29682986	     14.66427804	      5.49327733	     12.67499955	     74.23407729	     20.67917449	     27.85701248	      3.17638185	    125.91025344	      6.77571241	   3257.45486146	     56.96938551	    453.37105614	   1376.83145226	    290.73211180	   2745.91365424	    734.87006552	     -7.41434694	      2.20263562	      2.92109455	     -3.70353366	     -2.76343720	     -1.04433280	     -0.04303981	     -0.02687673	      0.00912708	     -0.02020550	      0.02387909	      0.03329245	     20.13422695	    -33.23794728	      3.84713156	     -3.97933467	      1.99049859	     -1.02979486	    -51.60570373	   1147.65002235	    -62.59928019	      0.13476139	     -0.02968480	      0.03296997	      0.00000000	      1.74914919	      0.00000000	      0.00000000	      0.00000000	     -0.00000000	     -0.84608384	     -1.88034998	     -0.34345286	      0.00000000	     -0.00000000	      0.00000000
     15.25132654	      7.39551137	     11.03808747	      5.75456890	      6.82025469	      5.38731396	      5.95780170	     12.98130361	      7.01795605	      5.74144645	      8.04608882	     85.12938415	    350.52933899	    406.98787180	   1031.12551549	    185.81223815	    255.18299046	      9.55201988	   1389.66339461	    458.05862938	    310.25658955	    157.65031028	    138.65449367	     90.19946284	      3.36494670	     15.11594947	      5.44529033	     12.45384803	     83.86156025	     20.95009573	     38.10999100	      3.21050574	     21.30217008	      6.65613398	   3139.73100083	     90.87207186	    422.07895175	   1248.39948497	    239.16494766	   2267.55942824	    612.35124163	     -6.20897953	      5.45101868	      1.68255551	     -4.67681483	     -0.92472380	     -1.50900657	     -0.03459546	     -0.03198492	      0.00814906	     -0.01781838	      0.01528671	      0.03101802	      7.62565793	    -53.46902321	     11.84190887	     -0.26725499	      1.69662250	     -1.34550955	     -5.42603445	   1084.97965570	    -61.19051208	      0.14408196	     -0.03161904	      0.03565669	      0.00000000	      2.06000251	      0.00000000	     -0.00000000	     -0.00000000	      0.00000000	     -1.02497272	     -1.81229140	     -0.43799798	      0.00000000	     -0.00000000	      0.00000000
     15.26665986	      7.68825290	     11.54171648	      5.69015275	      5.68803788	      5.42199384	      6.11700378	     12.81860668	      7.11409519	      6.17998783	      4.24078106	     72.77235724	    298.52129220	    394.57247219	   1129.77276683	    152.42279011	    169.17706245	      9.39823273	   1388.07984758	    440.85893404	    297.32936016	    169.72675044	    142.50622114	     87.06922131	      3.41598323	     15.50316934	      5.42304884	     12.26295418	     83.57201409	     21.05425793	    287.15164598	      3.33109942	     21.30343458	      6.70428447	   2871.12982567	    116.20265850	    322.24032916	   1064.09154470	    162.81724390	   1547.65371459	    421.49500606	     -3.82157187	      4.29357229	     -0.31770906	     -4.55486932	      1.38547577	     -0.82726696	     -0.02245860	     -0.03491328	      0.00650373	     -0.01255079	      0.00686865	      0.02680443	     -5.47144296	    -64.61132406	     18.83552243	      3.19928945	      1.37642713	     -1.51846673	     36.31890868	    984.14073290	    -52.67569382	      0.15525597	     -0.03247592	      0.03508523	      0.00000000	      2.66685301	      0.00000000	      0.00000000	      0.00000000	     -0.00000000	     -1.20387786	     -1.71211519	     -0.56241515	      0.00000000	      0.00000000	      0.00000000
     15.28199318	      7.99866206	     12.04067747	      5.69227846	      5.65006936	      5.51952142	      6.29876057	     12.73235010	      7.18415451	      6.63902078	      3.64749206	     57.40239687	    236.57675623	    338.58172851	   1022.65591007	    118.53402214	     68.40168952	      9.33584836	   1226.44005631	    383.31329678	    267.05850376	    163.05804801	    132.94791764	     76.97833013	      3.44674758	     37.87764290	      5.44385113	     12.14234282	     83.48773227	     21.06414221	    595.16130900	      6.66433476	     21.43907784	      6.74611088	   2476.54626008	    130.70404514	    180.53295550	    835.78376680	     81.88858917	    777.94288535	    213.49091666	     -1.66451920	     -1.02589814	     -1.01983838	     -2.26995155	      2.03348254	      0.13919586	     -0.00431452	     -0.03492104	      0.00327720	     -0.00634547	      0.00072044	      0.02117859	    -17.10288549	    -63.55086278	     22.25431928	      5.43313837	      1.08886398	     -1.46314354	     69.70218533	    850.16690584	    -39.87829000	      0.16733445	     -0.03175840	      0.03045071	      0.00000000	      3.48666207	      0.00000000	     -0.00000000	     -0.00000000	      0.00000000	     -1.36524940	     -1.58030011	     -0.71723583	      0.00000000	     -0.00000000	      0.00000000
     15.29732650	      8.27726679	     12.46420046	      5.74185642	      5.68872744	      5.65173884	      6.46667825	     12.70171051	      7.15794863	      7.09368852	      3.82347297	     39.17481145	    164.30282591	    252.58962867	    813.70484999	     83.59618797	     14.16581483	      9.33563336	    930.72648232	    297.57785722	    226.03785775	    136.37318595	    112.03978388	     62.21282911	      3.45365786	    163.69969651	      5.51668587	     12.12727385	     83.28701817	     21.13834740	    906.72392015	     15.43805614	     21.59346461	      6.79328220	   1961.10650238	    129.21269507	     38.70219350	    567.15265359	     20.29659748	    112.35082239	     37.88997278	      1.11567357	     -5.33103346	      0.12815060	      1.96878202	      0.44483083	      0.57878254	      0.01724169	     -0.03128566	     -0.00103928	     -0.00088288	     -0.00275000	      0.01445012	    -26.06490230	    -52.34322715	     21.54118134	      6.55687385	      0.89549476	     -1.23731704	     90.57938880	    691.72047240	    -26.45073810	      0.17874323	     -0.02871223	      0.02134119	      0.00000000	      4.30265673	      0.00000000	     -0.00000000	     -0.00000000	      0.00000000	     -1.50028571	     -1.41577986	     -0.89629958	      0.00000000	     -0.00000000	      0.00000000
     15.31265981	      8.45783721	     12.73026557	      5.80444833	      5.75695359	      5.77182996	      6.57910019	     12.68730834	     46.55794549	      7.49709491	      4.00989620	     14.87963245	     67.34978643	    230.80261906	    812.12711073	     33.53701704	     14.00592321	      9.37430312	    576.78481686	    230.17470324	    225.48448490	    103.17222288	    101.35120090	     59.07322304	      3.50421579	    408.41703959	      5.65740584	     12.27494160	    114.13382503	    447.59893578	    770.10784155	     38.49423575	     21.66713674	      6.82464876	   1174.22857545	    130.96007925	     15.64832045	    213.61896736	     17.02493788	     51.25711005	     27.91275713	      4.48896533	     -3.76414332	      3.60997081	      5.16792800	     -3.30678927	      0.78385465	      0.06184149	     -0.02749221	     -0.00937992	      0.03497986	     -0.00491134	      0.00551429	    -32.76548879	    -35.61760379	     17.77944577	      7.79585536	      0.83520105	     -0.98143818	     95.58812768	    521.91283024	    -15.50108071	      0.18728743	     -0.02321213	      0.00772847	      0.00000000	      4.86539445	      0.00000000	      0.00000000	      0.00000000	     -0.00000000	     -1.61082390	     -1.21257164	     -1.08518132	      0.00000000	      0.00000000	      0.00000000
     15.32799313	      8.50043253	     73.64629586	      5.85048089	      5.82348542	      5.83689761	      6.73815062	     12.60820429	     63.61887027	      7.84548745	      4.05757471	      4.75783260	     10.62529682	    198.10127240	    680.21035525	     10.20334249	     14.15369042	      9.43652270	    296.45675821	    170.08294234	    201.17239984	     69.06193488	     84.00661872	     51.52808373	     14.85508931	    515.78594899	     11.49410878	     61.47531973	    109.92504037	    711.96447187	    571.53762026	     45.02902333	     21.47522022	      6.81354261	    581.91027380	    111.37243830	     15.98073505	     16.45245346	     17.50070070	     52.64788200	     28.65200316	      6.10371380	      1.35393764	      7.17406278	      3.95020290	     -6.35392954	      1.23395625	      0.08453160	     -0.02276875	     -0.01340095	      0.05274682	     -0.00686247	     -0.00106244	    -38.22952844	    -17.82855265	     12.62898547	     10.61347217	      0.90270884	     -0.81166982	     85.14930373	    358.68133249	     -8.68495278	      0.19113089	     -0.01649639	     -0.00955808	      0.00000000	      5.01961665	      0.00000000	     -0.00000000	     -0.00000000	      0.00000000	     -1.70332552	     -0.96327912	     -1.26363922	      0.00000000	     -0.00000000	      0.00000000
     15.34332645	     12.90981788	    175.69530855	      5.86114289	      5.86211832	      5.83054352	     30.90501516	     12.37451887	     54.57411402	     11.09348797	      4.21645833	      4.64654991	     10.08227815	    147.77930221	    604.38375127	     10.32973576	     14.53891068	      9.50294911	     73.67927750	    109.65885047	    154.09107596	     33.86321744	     59.86060951	     40.98208646	     21.13965473	    458.25726623	     25.29622737	    119.51293321	     80.19287354	    706.76860076	    387.62272122	     37.73422363	     20.80734443	      6.73822805	     81.11513068	     77.77074487	     16.11376795	     15.81442955	     18.31401776	     55.07371038	     29.88444017	      4.10008316	      3.46465498	      5.17867211	     -1.15367485	     -3.23611807	      0.88254242	      0.08006370	     -0.01668338	     -0.01290736	      0.04954282	     -0.00396437	     -0.00251488	    -42.68888611	     -1.99820322	      7.48096376	     15.56617950	      1.02096635	     -0.74469798	     64.36722050	    219.57057051	     -5.89401269	      0.19122964	     -0.01026985	     -0.02834618	      0.00000000	      4.77318977	      0.00000000	     -0.00000000	     -0.00000000	      0.00000000	     -1.77911299	     -0.66948349	     -1.41187496	      0.00000000	     -0.00000000	      0.00000000
     15.35865977	     82.74831639	    287.27251352	      5.84979239	      5.86985296	      6.20358678	     80.33949039	     11.95052427	     37.67640385	     65.54979245	      9.28897061	      4.31495728	      9.61358267	     10.94592892	    558.96792951	     10.65349884	     15.07568314	      9.56170496	     14.65228745	     45.31477951	    123.28013479	      5.56102738	     25.04625773	     30.21976326	     27.37507343	    286.11838924	     32.02928235	    131.92397154	     63.76898595	    609.42570643	    177.30356942	     25.89648850	     19.56794666	      6.59933284	     43.05705251	     25.03398341	    121.33290855	     15.18126553	     19.43553456	     58.42888744	     31.56026137	     -1.32270322	     -1.62872210	     -4.38510657	     -5.93075121	      7.01166107	     -1.38823820	      0.06353550	     -0.00479492	     -0.01274749	      0.03684400	      0.00506193	     -0.00319234	    -44.78644793	      9.33611046	      3.33829466	     21.69497061	      1.06471836	     -0.72635614	     41.07859643	    117.20279234	     -5.89766134	      0.19273651	     -0.00425102	     -0.04548540	      0.00000000	      4.27166750	      0.00000000	      0.00000000	      0.00000000	     -0.00000000	     -1.82923299	     -0.35063620	     -1.52080175	      0.00000000	      0.00000000	      0.00000000
     15.37399309	     95.82898019	    313.82304305	      5.81603755	      5.85091278	     11.10718791	     78.00578432	     11.35610205	     35.34256117	    143.14220078	     19.29258499	      4.11882341	      9.15969115	     10.48266960	     21.35823654	     10.94423273	     15.55668225	      9.59232403	     14.88145979	      8.97668483	     46.39815294	      5.54589055	     15.22920063	     21.66237057	     25.94150072	    364.35810461	     63.40007905	    255.69077532	     39.30954870	    660.69459650	    235.50469745	     24.71761619	     17.88583051	      6.39589742	     43.25890635	     24.54386865	    270.26696305	     14.45563751	     20.65091743	     62.13307192	     33.36889666	     -5.06722146	     -0.71097214	    -14.73807214	      8.89117918	      6.11844771	     -0.41856641	      0.06867896	     -0.00532727	     -0.00961392	      0.03622797	      0.01162446	     -0.00588952	    -42.50542549	     14.92054781	      0.43449461	     26.86258788	      0.92599803	     -0.68240670	     18.62901977	     44.87580507	     -5.56830375	     -0.16321320	     -0.18671694	     -0.20350793	      0.00000000	      3.02540504	      0.00000000	     -0.00000000	     -0.00000000	      0.00000000	     -1.83938956	     -0.04115577	     -1.60018527	      0.00000000	     -0.00000000	      0.00000000
     15.38932640	    131.99390823	    331.15296604	     20.94102110	      5.89502590	     58.81222959	     98.54306519	     49.14444841	     33.57110621	     76.93590727	     13.87939157	      4.19210300	      8.64494008	     10.44471610	    284.42306542	     11.15067863	     15.83040849	      9.63339310	     14.83717158	      8.58405356	     30.41188166	      5.37837012	      5.21195378	      6.85492583	     31.94561906	     87.62027126	     13.03279076	     29.66762307	     18.29250902	    357.85648812	     29.22817957	     12.58607181	    125.93295807	     33.32043992	     41.08657149	      4.85294670	    231.56385064	     13.74768663	     21.69686813	     65.43151397	     34.91422820	     -3.52604187	      6.85571953	    -19.89422082	     -6.21888639	     19.07511636	     -2.55547764	      0.03093900	      0.00911289	     -0.00706884	      0.03486458	      0.00923236	     -0.00125957	    -33.91473417	     15.61336858	     -1.78800074	     29.28584588	      0.61949692	     -0.57128580	     -0.00000005	     -0.00000011	      0.00000001	     -1.42391160	     -1.25202910	     -0.78046294	      0.00000000	     -0.00000001	      0.00000000	     -0.00000000	     -0.00000000	      0.00000000	     -1.80066281	      0.22577093	     -1.67319658	      0.00000000	     -0.00000000	      0.00000000
     15.40465972	     62.65625952	    178.02960323	      5.96561231	      5.83734301	     19.74483666	     42.04179358	     51.64787311	     41.00583998	     46.97661361	      8.37364942	      3.77633697	      8.00990421	     34.20389085	    129.30718890	     11.13925150	     15.82691824	      9.57459236	     14.47976920	      8.45520806	      8.08182024	      5.23645487	      5.22947675	      4.41698419	     23.22463496	    150.51746839	      8.52518658	     17.36169376	      2.13253926	    276.15802618	     28.42041537	     14.06084347	    188.43530634	     42.54223074	     37.11867983	      4.71175430	    140.42606773	     13.21972718	     22.40960420	     67.80315483	     35.94652584	     -2.36463081	     -3.39418784	      3.97492786	     -4.17368764	     -2.02120126	      0.22748256	      0.02737159	      0.00061443	     -0.00233035	      0.04166037	      0.00587445	     -0.00066313	    -22.29781791	     21.29590525	     -5.03688450	     29.31181774	      0.21180490	     -0.26390718	      0.00000000	      0.00000000	     -0.00000000	     -1.10227052	     -1.54664548	     -0.74192835	      0.00000000	      0.00000000	      0.00000000	      0.00000000	      0.00000000	     -0.00000000	     -1.71586410	      0.43668575	     -1.75731988	      0.00000000	      0.00000000	      0.00000000
     15.41999304	      7.90903438	     76.31342946	      5.89996695	     29.99948790	      5.77925304	      6.29492832	     14.13857828	     19.98520968	     50.72331881	      8.59131231	      3.68399943	      7.28812742	      8.34510268	    134.97104568	     11.00512502	     18.06656516	      9.50872859	    101.11997615	      8.10587096	      7.73005842	     88.15984703	      4.97075832	      3.86607271	      3.04469093	    467.58251747	     10.47617144	     23.74361966	      0.71449907	     18.77876344	     26.60678834	      3.23434982	    232.27804360	     47.68513036	     32.55514777	     33.35725037	    130.07965903	     12.42319143	     22.84924110	     69.26382691	     36.54794175	     20.54010874	      5.85047710	     51.06356161	      6.16825758	    -39.65925079	      5.24730651	     -0.00058403	     -0.00553165	      0.03355857	      0.01917056	      0.00649495	     -0.00105519	     -8.09841338	     37.14409322	    -10.09856451	     28.53448281	     -0.12537297	      0.27683198	     -0.00000000	     -0.00000000	      0.00000000	     -0.70283714	     -1.80026810	     -0.62313345	      0.00000000	     -0.00000000	      0.00000000	     -0.00000000	     -0.00000000	      0.00000000	     -1.59861904	      0.60434834	     -1.84915141	      0.00000000	     -0.00000000	      0.00000000
