Joint Reaction Loads
version=1
nRows=51
nColumns=10
inDegrees=no

This file contains the reaction forces and moments
applied to the specified body of a joint pair and expressed  in the specified reference frame.

Units are S.I. units (seconds, meters, Newtons, ...)
endheader
time	patellofemoral_r_on_patella_r_in_patella_r_fx	patellofemoral_r_on_patella_r_in_patella_r_fy	patellofemoral_r_on_patella_r_in_patella_r_fz	patellofemoral_r_on_patella_r_in_patella_r_mx	patellofemoral_r_on_patella_r_in_patella_r_my	patellofemoral_r_on_patella_r_in_patella_r_mz	patellofemoral_r_on_patella_r_in_patella_r_px	patellofemoral_r_on_patella_r_in_patella_r_py	patellofemoral_r_on_patella_r_in_patella_r_pz
     20.99000000	    546.64727177	    -99.61157579	    -10.19585483	     -3.66817568	      1.41732030	    -13.20928389	      0.00000000	      0.00000000	      0.00000000
     21.02030000	    634.20233871	    -95.95969223	     17.17919638	     -3.24855421	      1.26060384	    -16.97062317	      0.00000000	      0.00000000	      0.00000000
     21.05060000	    787.58416672	    -88.00346097	     44.72328186	     -3.46699281	      0.95127259	    -23.01477081	      0.00000000	      0.00000000	      0.00000000
     21.08090000	   1023.00070957	    -67.72760671	     76.64515139	     -4.23274534	      0.47218609	    -32.09357983	      0.00000000	      0.00000000	      0.00000000
     21.11120000	   1291.25924119	    -21.71510643	    117.59179055	     -4.80360239	      0.11861589	    -43.10086189	      0.00000000	      0.00000000	      0.00000000
     21.14150000	   1547.18319818	     53.79200838	    168.30654601	     -4.70458283	      0.20060286	    -54.65717113	      0.00000000	      0.00000000	      0.00000000
     21.17180000	   1828.24349161	    161.89945005	    226.81575885	     -4.42653332	      0.71788726	    -67.70793915	      0.00000000	      0.00000000	      0.00000000
     21.20210000	   2241.30584026	    328.75713624	    294.10260338	     -5.02195782	      1.77157769	    -85.69587217	      0.00000000	      0.00000000	      0.00000000
     21.23240000	   2868.52108526	    599.94564311	    377.94768783	     -7.12552137	      4.36275894	   -111.62942335	      0.00000000	      0.00000000	      0.00000000
     21.26270000	   3668.07300156	   1001.92087740	    484.98876875	    -10.60977116	      9.96486098	   -144.27620705	      0.00000000	      0.00000000	      0.00000000
     21.29300000	   4518.09254364	   1519.31854947	    613.37686768	    -15.07012797	     18.33435970	   -179.35511693	      0.00000000	      0.00000000	      0.00000000
     21.32330000	   5367.19774322	   2132.35231684	    754.42085738	    -20.20540773	     25.89696556	   -214.90306266	      0.00000000	      0.00000000	      0.00000000
     21.35360000	   6264.68420368	   2854.55585518	    899.85367148	    -25.46738386	     27.83679163	   -252.62742811	      0.00000000	      0.00000000	      0.00000000
     21.38390000	   7174.65387101	   3593.54265516	   1054.33965249	    -27.85189456	     22.76530399	   -292.00041490	      0.00000000	      0.00000000	      0.00000000
     21.41420000	   7901.07277364	   4252.09533749	   1206.13141212	    -28.42894172	     16.31125017	   -325.34452844	      0.00000000	      0.00000000	      0.00000000
     21.44450000	   8192.89744119	   4650.48921717	   1337.17265697	    -27.75795931	     14.30259592	   -342.66697681	      0.00000000	      0.00000000	      0.00000000
     21.47480000	   8008.92330578	   4705.00432210	   1431.55663733	    -25.23842823	     16.55303114	   -341.90855010	      0.00000000	      0.00000000	      0.00000000
     21.50510000	   7545.46493561	   4588.78149864	   1465.30704181	    -22.12362084	     18.41653840	   -328.88565483	      0.00000000	      0.00000000	      0.00000000
     21.53540000	   7046.48359216	   4429.23734462	   1469.32327756	    -18.01253923	     16.19123355	   -312.93516390	      0.00000000	      0.00000000	      0.00000000
     21.56570000	   6652.87365141	   4309.53105605	   1462.50319052	    -13.94020292	     10.91398247	   -300.04091887	      0.00000000	      0.00000000	      0.00000000
     21.59600000	   6400.61872456	   4258.68051276	   1463.77581749	    -10.59735981	      5.63395331	   -292.22257564	      0.00000000	      0.00000000	      0.00000000
     21.62630000	   6290.32731553	   4283.28649659	   1484.86652859	     -8.25298242	      2.15470433	   -289.93600169	      0.00000000	      0.00000000	      0.00000000
     21.65660000	   6317.08746673	   4382.63301750	   1528.61419758	     -6.88353168	      0.45082685	   -293.16514555	      0.00000000	      0.00000000	      0.00000000
     21.68690000	   6444.00859097	   4528.63931147	   1587.91694618	     -6.21637584	     -0.20898063	   -300.29437344	      0.00000000	      0.00000000	      0.00000000
     21.71720000	   6601.59918503	   4671.14952410	   1642.50601166	     -6.19515595	     -0.30128808	   -308.18552360	      0.00000000	      0.00000000	      0.00000000
     21.74750000	   6690.57094924	   4742.47325627	   1667.92971581	     -6.57713959	      0.03256892	   -312.31845350	      0.00000000	      0.00000000	      0.00000000
     21.77780000	   6643.41687210	   4696.27507693	   1648.24280724	     -7.22697301	      0.92646831	   -309.65947849	      0.00000000	      0.00000000	      0.00000000
     21.80810000	   6476.07533365	   4543.78890671	   1589.14997025	     -8.15520466	      2.60885496	   -300.97960382	      0.00000000	      0.00000000	      0.00000000
     21.83840000	   6287.78591426	   4352.57995142	   1514.11060050	     -9.51377595	      4.93234363	   -290.79563591	      0.00000000	      0.00000000	      0.00000000
     21.86870000	   6209.78365541	   4212.17662751	   1452.90129604	    -11.20004369	      6.96331266	   -285.00670767	      0.00000000	      0.00000000	      0.00000000
     21.89900000	   6328.13756731	   4184.57724829	   1417.72283146	    -13.39616666	      8.06369185	   -287.31000015	      0.00000000	      0.00000000	      0.00000000
     21.92930000	   6658.72458464	   4276.03717422	   1413.55112787	    -16.51354689	      9.76294787	   -298.14217371	      0.00000000	      0.00000000	      0.00000000
     21.95960000	   7167.37297747	   4457.42469327	   1440.01242469	    -21.18925392	     15.40987042	   -315.65625405	      0.00000000	      0.00000000	      0.00000000
     21.98990000	   7759.26184906	   4666.48524656	   1478.50684890	    -27.19989119	     25.76739350	   -335.49870584	      0.00000000	      0.00000000	      0.00000000
     22.02020000	   8253.67375497	   4799.58353287	   1485.40827566	    -32.57721324	     35.73113427	   -350.06742048	      0.00000000	      0.00000000	      0.00000000
     22.05050000	   8414.16488691	   4732.48391842	   1395.85597558	    -35.81842744	     38.56649480	   -350.07114711	      0.00000000	      0.00000000	      0.00000000
     22.08080000	   8035.07393134	   4275.26825545	   1216.71429902	    -34.67649104	     32.75122528	   -328.97594949	      0.00000000	      0.00000000	      0.00000000
     22.11110000	   7131.05561483	   3513.37302679	    988.35478299	    -30.90809583	     24.08424036	   -287.82066580	      0.00000000	      0.00000000	      0.00000000
     22.14140000	   5899.79175423	   2584.21026913	    770.92186419	    -25.03636106	     18.05158198	   -235.52292739	      0.00000000	      0.00000000	      0.00000000
     22.17170000	   4649.64421457	   1735.14606075	    592.31192118	    -18.44918612	     15.40812068	   -183.94785886	      0.00000000	      0.00000000	      0.00000000
     22.20200000	   3585.04770346	   1098.05736074	    451.61032939	    -12.88356167	     13.63499543	   -140.42191744	      0.00000000	      0.00000000	      0.00000000
     22.23230000	   2745.15683406	    649.04517226	    341.12912514	     -8.60786656	     10.42714505	   -106.12640627	      0.00000000	      0.00000000	      0.00000000
     22.26260000	   2106.95743066	    346.26172759	    252.84843871	     -5.97284057	      6.39903754	    -79.74992989	      0.00000000	      0.00000000	      0.00000000
     22.29290000	   1632.92061001	    151.92930603	    181.58083189	     -4.75268863	      3.39083164	    -59.67844738	      0.00000000	      0.00000000	      0.00000000
     22.32320000	   1279.65877437	     30.25368613	    124.32560555	     -4.17711979	      2.05296227	    -44.32977210	      0.00000000	      0.00000000	      0.00000000
     22.35350000	    979.35983567	    -43.94452546	     77.88629733	     -3.56662318	      1.59188015	    -31.55329510	      0.00000000	      0.00000000	      0.00000000
     22.38380000	    712.21951294	    -80.37588732	     42.99333034	     -2.83375654	      1.19424436	    -20.87578397	      0.00000000	      0.00000000	      0.00000000
     22.41410000	    503.29596344	    -90.57085704	     18.34673070	     -2.21963922	      0.86066377	    -12.88512178	      0.00000000	      0.00000000	      0.00000000
     22.44440000	    370.62478702	    -83.66304329	     -2.31588189	     -1.86988861	      0.99733228	     -8.08007285	      0.00000000	      0.00000000	      0.00000000
     22.47470000	    313.12666078	    -68.57149147	    -26.46134500	     -1.82210284	      1.76311429	     -6.39087732	      0.00000000	      0.00000000	      0.00000000
     22.50500000	    306.77659811	    -45.45889444	    -57.77476383	     -2.13820392	      2.98802038	     -7.20696903	      0.00000000	      0.00000000	      0.00000000
