Static Optimization
version=1
nRows=51
nColumns=59
inDegrees=no
This file contains static optimization results.

endheader
time	addbrev_r	addlong_r	addmagDist_r	addmagIsch_r	addmagMid_r	addmagProx_r	bflh_r	bfsh_r	edl_r	ehl_r	fdl_r	fhl_r	gaslat_r	gasmed_r	glmax1_r	glmax2_r	glmax3_r	glmed1_r	glmed2_r	glmed3_r	glmin1_r	glmin2_r	glmin3_r	grac_r	iliacus_r	perbrev_r	perlong_r	piri_r	psoas_r	recfem_r	sart_r	semimem_r	semiten_r	soleus_r	tfl_r	tibant_r	tibpost_r	vasint_r	vaslat_r	vasmed_r	pelvis_tx_residual	pelvis_ty_residual	pelvis_tz_residual	pelvis_tilt_residual	pelvis_list_residual	pelvis_rotation_residual	hip_flexion_r_reserve	hip_adduction_r_reserve	hip_rotation_r_reserve	knee_angle_r_reserve	ankle_angle_r_reserve	subtalar_angle_r_reserve	hip_flexion_l_torque	hip_adduction_l_torque	hip_rotation_l_torque	knee_angle_l_torque	ankle_angle_l_torque	subtalar_angle_l_torque
     16.09999296	      0.03564653	      0.16830840	      0.01003477	      0.01002803	      0.01007932	      0.02216088	      0.01001229	      0.01082432	      0.01001563	      0.01003472	      0.04832337	      0.12095602	      0.23440998	      0.44818626	      0.01002794	      0.01001072	      0.01000933	      0.13906778	      0.08442016	      0.08406816	      0.10463140	      0.09933657	      0.07642517	      0.01911954	      0.27197024	      0.01003773	      0.01002498	      0.11393042	      0.24250976	      0.42789273	      0.04247222	      0.01000957	      0.01002191	      0.59058450	      0.14004061	      0.01001086	      0.20701355	      0.01638547	      0.03720913	      0.02091237	    -19.84281502	    -33.54494794	      2.67708996	     -4.93295802	     -3.07170949	     -0.44709988	      0.01949497	     -0.00526361	     -0.00332279	     -0.00052438	     -0.01389469	      0.00717372	     -0.15745308	      0.05744559	      0.16928225	      0.00509138	      0.00475100	     -0.01344898
     16.11439295	      0.08465208	      0.26630808	      0.01003848	      0.01002629	      0.01020965	      0.06243485	      0.01001395	      0.03951480	      0.01002494	      0.01008144	      0.05019445	      0.09960737	      0.15794716	      0.26630999	      0.01002512	      0.01000916	      0.01000905	      0.12188729	      0.08898049	      0.10637717	      0.11145551	      0.11199813	      0.08762025	      0.07749734	      0.32014467	      0.01003695	      0.01002157	      0.13515297	      0.30647464	      0.28716906	      0.05918257	      0.01001173	      0.01003043	      0.31924602	      0.13726054	      0.01004302	      0.19892817	      0.01002882	      0.01000977	      0.01001845	     -3.89539435	     -4.96705453	      1.17477575	     -1.52783952	     -1.17164278	      0.05267121	      0.02519198	     -0.00465664	     -0.00489835	      0.00627112	     -0.00488337	      0.00715965	     -0.14567363	      0.03111960	      0.17993907	      0.01129709	      0.00512767	     -0.01318390
     16.12879293	      0.12911396	      0.34382098	      0.01005170	      0.01002695	      0.03331891	      0.10303188	      0.01001739	      0.07187475	      0.01004648	      0.01128146	      0.03473403	      0.06187025	      0.12073366	      0.14773938	      0.01002334	      0.01000826	      0.01000974	      0.08551212	      0.08624035	      0.12301459	      0.11066821	      0.11948295	      0.09470821	      0.12907942	      0.35673066	      0.01005480	      0.01003141	      0.14599523	      0.36377086	      0.15453451	      0.06805483	      0.01001651	      0.01005617	      0.13752283	      0.13005546	      0.02092424	      0.13248343	      0.01001470	      0.01000489	      0.01000927	      8.21358223	      9.54719970	     -1.77380767	      2.86635068	      1.63781125	      0.76743060	      0.03037372	     -0.00369309	     -0.00632286	      0.01206880	     -0.00131252	      0.00475727	     -0.13525414	      0.00646678	      0.17744475	      0.02090214	      0.00534134	     -0.01186044
     16.14319292	      0.15002500	      0.36234453	      0.01007870	      0.01003121	      0.06957647	      0.12697196	      0.01002372	      0.07963298	      0.01013447	      0.01154100	      0.01554478	      0.02088137	      0.07718120	      0.06515547	      0.01002292	      0.01000822	      0.01001205	      0.02312654	      0.06903925	      0.12411761	      0.09153006	      0.11304365	      0.09428713	      0.14969221	      0.34676641	      0.01012527	      0.01009147	      0.14654657	      0.37698786	      0.06622831	      0.06380967	      0.01002493	      0.01011798	      0.02403504	      0.11221304	      0.02351772	      0.04481697	      0.01001186	      0.01000394	      0.01000747	     10.28234927	     11.00381510	     -3.12310155	      4.41060970	      2.49508545	      1.11661217	      0.03159921	     -0.00233442	     -0.00699252	      0.01406333	     -0.00003723	      0.00152264	     -0.13374598	      0.00839721	      0.13524448	      0.04345482	      0.00415285	     -0.00773990
     16.15759290	      0.18675834	      0.40257947	      0.01315239	      0.01004652	      0.12545323	      0.15947162	      0.01003673	      0.06905300	      0.06217885	      0.01811843	      0.01014499	      0.01008339	      0.01034266	      0.01029089	      0.01001847	      0.01000776	      0.01001860	      0.01003129	      0.01025884	      0.07102481	      0.03605819	      0.07484753	      0.07640177	      0.16233899	      0.31511528	      0.02236681	      0.04106907	      0.13179883	      0.37323302	      0.02649789	      0.04907375	      0.01003791	      0.01033585	      0.01001902	      0.06546326	      0.05922502	      0.01004648	      0.01001226	      0.01000408	      0.01000777	      4.93975473	      8.91245529	     -2.63109694	      3.66992565	      2.99018836	     -0.45022851	      0.03076122	      0.00062689	     -0.00657658	      0.01269037	      0.00257993	     -0.00202941	     -0.15079194	      0.06316317	      0.05171123	      0.08418745	      0.00098233	     -0.00116172
     16.17199289	      0.18457427	      0.38336106	      0.02701570	      0.01005593	      0.13234086	      0.15777497	      0.01005084	      0.06494983	      0.09614270	      0.02873207	      0.01009078	      0.01004751	      0.01012312	      0.03956699	      0.01001505	      0.01000696	      0.01002064	      0.01001987	      0.01006391	      0.02480485	      0.01127428	      0.04968985	      0.06488283	      0.15449752	      0.29632226	      0.03081014	      0.05824775	      0.12495919	      0.36120306	      0.01028770	      0.04512170	      0.01005914	      0.01163813	      0.01000876	      0.04042284	      0.10137301	      0.01002508	      0.01001213	      0.01000403	      0.01000774	     -5.36570212	      2.22607418	      1.15497603	     -2.49256453	     -0.50614322	     -3.09148599	      0.02910206	      0.00133822	     -0.00566086	      0.01222206	      0.00469079	     -0.00327236	     -0.19199921	      0.13219058	     -0.01177811	      0.13192763	     -0.00345255	      0.00373202
     16.18639287	      0.17610617	      0.38058322	      0.01064225	      0.01003639	      0.10647610	      0.14229108	      0.01003489	      0.07936134	      0.11128422	      0.03353359	      0.01006831	      0.01003387	      0.01007662	      0.03165276	      0.01000901	      0.01000452	      0.01001032	      0.01001979	      0.01003698	      0.01009216	      0.03963251	      0.05659474	      0.06185465	      0.15151589	      0.39185596	      0.03789434	      0.07460679	      0.09932122	      0.43907362	      0.03280640	      0.06387327	      0.01005104	      0.01081533	      0.01000538	      0.07581766	      0.11751132	      0.01001730	      0.01000975	      0.01000321	      0.01000628	     -7.87614706	     -1.99199326	      2.53471332	     -5.39550051	     -2.24618592	     -2.72596436	      0.03435219	     -0.00133437	     -0.00430708	      0.01500685	      0.00595250	     -0.00435860	     -0.24262770	      0.13972272	     -0.00957386	      0.16794138	     -0.00773487	      0.00277162
     16.20079286	      0.16182214	      0.38346193	      0.01007241	      0.01002302	      0.06171777	      0.12015943	      0.01003091	      0.11002241	      0.11441664	      0.03484568	      0.01015878	      0.01006051	      0.01119203	      0.01407640	      0.01000655	      0.01000316	      0.01000584	      0.01004696	      0.01005363	      0.01007502	      0.11677284	      0.09958941	      0.07775459	      0.15784717	      0.54370906	      0.04305853	      0.08814038	      0.05957521	      0.56689758	      0.09504571	      0.09837297	      0.01011000	      0.01064815	      0.01000828	      0.15123963	      0.11914886	      0.01002798	      0.01000641	      0.01000210	      0.01000415	     -2.91035575	     -7.48317751	      0.75827730	     -3.33523394	     -0.86861993	      0.58390891	      0.04389240	     -0.00610683	     -0.00339507	      0.02050297	      0.00631505	     -0.00508645	     -0.27431857	      0.07858088	      0.02912360	      0.18152617	     -0.01062694	     -0.00251040
     16.21519284	      0.15299758	      0.39137922	      0.01003072	      0.01001714	      0.02688538	      0.10544689	      0.01002170	      0.13098071	      0.12132744	      0.03615177	      0.01005601	      0.01002698	      0.01021641	      0.01282592	      0.01000452	      0.01000233	      0.01000396	      0.01012175	      0.01002905	      0.01002467	      0.18915992	      0.14688435	      0.10109669	      0.16412528	      0.65716294	      0.04581385	      0.09809812	      0.02896544	      0.66478966	      0.20307579	      0.12553605	      0.01007226	      0.01009581	      0.01000327	      0.21428746	      0.13024947	      0.01001379	      0.01000691	      0.01000231	      0.01000456	      3.85253471	    -11.18271752	     -0.19221735	      1.51007935	      0.01039494	      3.28695345	      0.05201063	     -0.00985883	     -0.00319854	      0.02371354	      0.00669871	     -0.00554303	     -0.27486433	      0.02680844	      0.05464818	      0.17614086	     -0.01104915	     -0.00611434
     16.22959283	      0.16398614	      0.41565051	      0.01002828	      0.01001601	      0.02726468	      0.11310229	      0.01002123	      0.11309539	      0.11685546	      0.03579094	      0.01009220	      0.01003444	      0.01056873	      0.01146072	      0.01000427	      0.01000217	      0.01000356	      0.02199033	      0.01003660	      0.01002685	      0.20881774	      0.16356160	      0.11394366	      0.15907280	      0.67289626	      0.04265952	      0.09350157	      0.03551097	      0.68253574	      0.33760759	      0.12398118	      0.01015929	      0.01007491	      0.01000354	      0.22986269	      0.12889528	      0.01001756	      0.01000945	      0.01000323	      0.01000632	      5.33701243	     -5.93987367	      1.33962867	      4.45458170	     -1.05402879	      2.84856756	      0.05470134	     -0.01004216	     -0.00385766	      0.01980384	      0.00626780	     -0.00512756	     -0.25657412	      0.03087479	      0.05835367	      0.16150220	     -0.00835751	     -0.00500344
     16.24399282	      0.18325795	      0.43995805	      0.01003111	      0.01001649	      0.04353846	      0.13357680	      0.01002186	      0.05098937	      0.10573303	      0.03225001	      0.01007896	      0.01003669	      0.01003726	      0.01002936	      0.01000476	      0.01000233	      0.01000371	      0.01286396	      0.01004242	      0.01003725	      0.18162389	      0.15417928	      0.11885036	      0.12986014	      0.60891763	      0.03531095	      0.07961499	      0.09648941	      0.63492918	      0.44182047	      0.09340294	      0.01007862	      0.01002749	      0.01000359	      0.21253778	      0.12021633	      0.01002062	      0.01002319	      0.01000825	      0.01001569	     -1.19166410	     14.89634739	      1.98687938	      2.58541115	     -0.58269966	      0.42019790	      0.05246894	     -0.00753341	     -0.00552963	      0.00865567	      0.00554905	     -0.00421280	     -0.23389375	      0.05076200	      0.05654632	      0.14340023	     -0.00308552	     -0.00210558
     16.25839280	      0.20886738	      0.47227403	      0.01003531	      0.01001674	      0.06701373	      0.16105356	      0.01002661	      0.01070315	      0.09680269	      0.03012326	      0.01009738	      0.01004440	      0.01002565	      0.01001857	      0.01000569	      0.01000263	      0.01000404	      0.01005873	      0.01005031	      0.01008154	      0.13256951	      0.13056651	      0.11530797	      0.10549155	      0.53126103	      0.02959278	      0.06684767	      0.17792287	      0.58326761	      0.45317581	      0.06704280	      0.01005716	      0.01001884	      0.01000404	      0.18053427	      0.11406894	      0.01002662	      0.01654575	      0.03955874	      0.02167049	     -2.74948224	     14.62452206	      0.55824496	     -0.04367642	     -1.52522626	     -0.95503748	      0.04957437	     -0.00414795	     -0.00786293	     -0.00079367	      0.00507270	     -0.00343447	     -0.23037155	      0.02259081	      0.01959208	      0.08155847	     -0.04322503	      0.06049269
     16.27279279	      0.22416540	      0.48984517	      0.01003354	      0.01001537	      0.07346109	      0.17856766	      0.01003544	      0.01034778	      0.09168378	      0.02923521	      0.01011284	      0.01005123	      0.01002660	      0.01002195	      0.01000654	      0.01000287	      0.01000408	      0.01003315	      0.01005337	      0.01042130	      0.09172438	      0.10777461	      0.10551468	      0.10176491	      0.47965466	      0.02710442	      0.05930310	      0.23203332	      0.55497140	      0.39447888	      0.07214022	      0.01004385	      0.01001651	      0.01000439	      0.15470789	      0.11070444	      0.01003241	      0.03379187	      0.09052655	      0.05011515	     -2.09503213	     -2.99941508	     -4.18388273	     -4.75042280	      2.97079545	     -1.73990031	      0.04792592	     -0.00190035	     -0.00994648	     -0.00244300	      0.00484660	     -0.00294002	     -0.25843515	     -0.11925413	      0.07753187	     -0.01638805	     -0.14072962	      0.18998822
     16.28719277	      0.21372048	      0.46298901	      0.01002687	      0.01001335	      0.05212897	      0.17287420	      0.01003997	      0.01014974	      0.08908792	      0.02823499	      0.01012218	      0.01005465	      0.01002746	      0.01003069	      0.01000704	      0.01000303	      0.01000387	      0.01002649	      0.01004678	      0.01019854	      0.06843868	      0.08921337	      0.08914276	      0.08494125	      0.44380220	      0.02541490	      0.05606186	      0.23247396	      0.53002371	      0.35957515	      0.08297024	      0.01003282	      0.01001404	      0.01000459	      0.14266645	      0.10865778	      0.01003600	      0.03799059	      0.12372360	      0.05699996	      0.06621686	     -8.36817832	     -4.97682867	     -2.38535475	      4.82180474	     -1.56064628	      0.04601196	     -0.00137453	     -0.01082210	     -0.00341452	      0.00476231	     -0.00266390	     -0.21680992	     -0.24028724	      0.13067494	     -0.15801174	     -0.25153313	      0.30908841
     16.30159276	      0.16706271	      0.37465020	      0.01002033	      0.01001173	      0.01213049	      0.13484357	      0.01003835	      0.01043626	      0.08568159	      0.02857668	      0.01028178	      0.01005318	      0.01003007	      0.01005173	      0.01000747	      0.01000325	      0.01000364	      0.01004149	      0.01006594	      0.01040068	      0.07136833	      0.08383285	      0.07474015	      0.05384428	      0.40851950	      0.02631461	      0.05295570	      0.18681157	      0.48557763	      0.33787692	      0.09483123	      0.01002835	      0.01001236	      0.01000482	      0.14183125	      0.10564123	      0.01003812	      0.03643245	      0.12476686	      0.05755393	      2.00267172	     -6.14281071	     -0.50317105	      1.68455660	      0.73708045	     -0.77839018	      0.04240155	     -0.00285973	     -0.01001678	     -0.00338137	      0.00466864	     -0.00241982	     -0.14520000	     -0.30651154	      0.17178710	     -0.30950529	     -0.37606871	      0.43897907
     16.31599274	      0.09471001	      0.24484467	      0.01001674	      0.01001120	      0.01005505	      0.07243589	      0.01003255	      0.01019866	      0.08178564	      0.02654551	      0.01014088	      0.01006231	      0.01003417	      0.01008903	      0.01000858	      0.01000379	      0.01000369	      0.03811321	      0.01022289	      0.01018307	      0.08983241	      0.08914113	      0.06626781	      0.01613666	      0.35515679	      0.02473167	      0.05017500	      0.12655050	      0.40609575	      0.31263593	      0.09847806	      0.01003265	      0.01001184	      0.01000506	      0.14260082	      0.10141183	      0.01004306	      0.03171873	      0.10756793	      0.05112215	      2.17601238	     -1.06680909	      4.85302924	      2.92804725	     -4.73528183	      0.34676234	      0.03599488	     -0.00536234	     -0.00777655	     -0.00286384	      0.00452112	     -0.00222043	     -0.07906047	     -0.35650583	      0.21698357	     -0.43250306	     -0.50254892	      0.57881196
     16.33039273	      0.03556424	      0.13432251	      0.01001683	      0.01001236	      0.01003689	      0.02180492	      0.01002593	      0.01026349	      0.07782234	      0.02531156	      0.01015029	      0.01006531	      0.01003855	      0.01012056	      0.01001177	      0.01000518	      0.01000444	      0.11397204	      0.02602783	      0.01078113	      0.08873715	      0.08220628	      0.05435874	      0.01018549	      0.27478664	      0.02473583	      0.04866026	      0.08210462	      0.30346748	      0.26320843	      0.08878519	      0.01004866	      0.01001301	      0.01000540	      0.12818915	      0.09590596	      0.01004513	      0.02640679	      0.08768540	      0.04259863	      0.44528278	      2.77212709	      5.83324355	      0.62714696	     -5.65278052	      1.13638827	      0.02725874	     -0.00628034	     -0.00538904	     -0.00228018	      0.00430320	     -0.00210255	     -0.03384586	     -0.43119114	      0.27076982	     -0.49632719	     -0.61337452	      0.70402750
     16.34479272	      0.01017505	      0.03781818	      0.01001920	      0.01001548	      0.01003168	      0.01014717	      0.01002082	      0.01072645	      0.07504584	      0.02486547	      0.01020999	      0.01006478	      0.01004149	      0.01018392	      0.01001906	      0.01000821	      0.01000604	      0.16859480	      0.06481801	      0.02708818	      0.08580574	      0.07578834	      0.04612321	      0.01009398	      0.19241508	      0.02616735	      0.04986043	      0.05544830	      0.19637179	      0.20374125	      0.06965051	      0.01007613	      0.01001622	      0.01000574	      0.11085457	      0.09049883	      0.01004512	      0.02192495	      0.06723708	      0.03326587	     -1.54205707	      3.11345808	      1.23365961	     -2.07150925	     -0.81985445	      0.78560041	      0.01819833	     -0.00668305	     -0.00296349	     -0.00174405	      0.00408120	     -0.00211213	     -0.00152054	     -0.52038058	      0.30676049	     -0.49235002	     -0.69264654	      0.78210526
     16.35919270	      0.01005694	      0.01007443	      0.01002424	      0.01002132	      0.01003088	      0.01006478	      0.01002022	      0.01068828	      0.07368929	      0.02368996	      0.01019743	      0.01006582	      0.01004198	      0.01017589	      0.01005107	      0.01001773	      0.01000955	      0.18263541	      0.09478591	      0.07055609	      0.07414070	      0.06797460	      0.04235523	      0.01007691	      0.10886128	      0.02744739	      0.05358504	      0.05925081	      0.09536704	      0.14430124	      0.04853419	      0.01012541	      0.01002277	      0.01000600	      0.09005869	      0.08589786	      0.01004162	      0.01667711	      0.04444886	      0.02280630	     -1.68143623	      0.51916145	     -4.76720668	     -1.72658498	      5.20379784	     -0.65036350	      0.01017899	     -0.00691577	     -0.00178221	     -0.00120436	      0.00388706	     -0.00223560	      0.03554587	     -0.57112559	      0.29236137	     -0.43223472	     -0.73377549	      0.79548712
     16.37359269	      0.01003936	      0.01003637	      0.01003394	      0.01003238	      0.01003425	      0.01005175	      0.01002650	      0.01021288	      0.07319428	      0.02262084	      0.01013873	      0.01006236	      0.01004159	      0.01011898	      0.02206351	      0.01012640	      0.01001744	      0.15843121	      0.09799310	      0.09045442	      0.05569768	      0.05569244	      0.03680750	      0.01008128	      0.04027376	      0.02925217	      0.05859397	      0.05975922	      0.01956998	      0.09059806	      0.03187731	      0.01014801	      0.01003671	      0.01000622	      0.06667975	      0.08165298	      0.01003802	      0.01221226	      0.01302201	      0.01275050	     -0.25100196	     -1.99667058	     -6.02887746	      0.93514680	      6.27185017	     -1.56553687	      0.00434724	     -0.00654150	     -0.00134882	     -0.00037120	      0.00371025	     -0.00244214	      0.07828252	     -0.53192555	      0.21844867	     -0.33266660	     -0.73574818	      0.74547376
     16.38799267	      0.01004268	      0.01003232	      0.01008250	      0.01009499	      0.01005800	      0.01006886	      0.02216452	      0.06024215	      0.07460506	      0.02344925	      0.01032847	      0.01008938	      0.01012587	      0.01167946	      0.03589845	      0.01655494	      0.01004543	      0.13991113	      0.08184623	      0.07056204	      0.04803427	      0.04585197	      0.02903470	      0.01453603	      0.01517755	      0.03190996	      0.06514096	      0.03894672	      0.01026885	      0.01014442	      0.05596916	      0.01651494	      0.03101539	      0.01000683	      0.04612380	      0.07876361	      0.01004496	      0.01004417	      0.01001372	      0.01002666	      0.49837294	     -2.06229616	     -1.00203874	      2.10132667	      0.94713184	     -0.35404413	      0.00121587	     -0.00509355	     -0.00023642	      0.00914636	      0.00360058	     -0.00275339	      0.10773117	     -0.39955100	      0.11307301	     -0.21139368	     -0.69690601	      0.64889185
     16.40239266	      0.01005220	      0.01003885	      0.01032403	      0.01161068	      0.01010622	      0.01007884	      0.07059230	      0.03914758	      0.07780352	      0.02355229	      0.01016165	      0.01005529	      0.01004176	      0.01010180	      0.02022190	      0.02022596	      0.01021645	      0.13186056	      0.06010814	      0.03513461	      0.04817287	      0.03608950	      0.01965043	      0.01390613	      0.01084874	      0.03408202	      0.07162068	      0.01500069	      0.01007490	      0.01007795	      0.01919322	      0.04062105	      0.05673974	      0.01000595	      0.02420719	      0.07870138	      0.01002997	      0.01010430	      0.01002997	      0.01006042	     -0.27857577	      0.05514685	      5.06424985	      0.15752212	     -5.72670258	      2.23864353	     -0.00145558	     -0.00237540	      0.00165193	      0.00486258	      0.00360217	     -0.00310656	      0.11217546	     -0.22780355	      0.02292777	     -0.09307998	     -0.61278667	      0.52699918
     16.41679264	      0.01176215	      0.01108880	      0.03149511	      0.06129838	      0.01624750	      0.01047972	      0.06392569	      0.01143139	      0.08181142	      0.02471983	      0.01013413	      0.01005019	      0.01002243	      0.01002531	      0.01228799	      0.01893840	      0.03634383	      0.10629681	      0.03400305	      0.01234931	      0.04284290	      0.02342126	      0.01321816	      0.01241489	      0.01064437	      0.03486630	      0.07438680	      0.01039261	      0.01008692	      0.01006447	      0.01018684	      0.06803156	      0.04533919	      0.01000539	      0.01166507	      0.08480961	      0.01002758	      0.01217651	      0.01505009	      0.01259133	     -0.69782303	      1.85745778	      6.08688655	     -2.01303105	     -7.39978910	      3.47243726	     -0.00278526	      0.00042928	      0.00273715	     -0.00049001	      0.00381074	     -0.00331693	      0.10804353	     -0.08638442	     -0.02270141	     -0.00756069	     -0.48488089	      0.39538571
     16.43119263	      0.02432555	      0.02781958	      0.04690068	      0.06897691	      0.03407645	      0.01297815	      0.06284736	      0.01027156	      0.08415736	      0.02653561	      0.01012130	      0.01004899	      0.01001694	      0.01001225	      0.01445680	      0.02957856	      0.06564782	      0.04756534	      0.01533573	      0.01111419	      0.02060995	      0.01314767	      0.01150381	      0.01284900	      0.01027279	      0.03320489	      0.07055059	      0.01039187	      0.01009128	      0.01006648	      0.01012998	      0.08119268	      0.03644579	      0.01000482	      0.01039019	      0.09618251	      0.01002869	      0.01814404	      0.05016806	      0.02539883	      0.63673525	      1.21909429	      1.54380972	     -1.40341857	     -2.34991322	      1.55730592	     -0.00267745	      0.00145189	      0.00187858	     -0.00187202	      0.00421057	     -0.00319667	      0.11619958	     -0.01211506	     -0.02710090	      0.03014983	     -0.33273193	      0.26439771
     16.44559261	      0.05095620	      0.04935223	      0.05740025	      0.02568980	      0.06628290	      0.06740536	      0.10604859	      0.01022031	      0.08490101	      0.02874071	      0.01011584	      0.01005199	      0.01001482	      0.01000878	      0.03734513	      0.06781656	      0.12902307	      0.01001621	      0.01004590	      0.01023806	      0.01003503	      0.01005163	      0.01011991	      0.02781291	      0.01005856	      0.03086056	      0.06324757	      0.01678151	      0.01256758	      0.01009678	      0.01033984	      0.05180869	      0.02758764	      0.01000436	      0.01004827	      0.10804425	      0.01003190	      0.01610170	      0.03506513	      0.02050527	      2.20520395	     -0.44852211	     -3.98841858	      0.78835260	      5.18155604	     -2.34965239	     -0.00120555	      0.00244553	     -0.00414733	     -0.00123168	      0.00470209	     -0.00285144	      0.13373068	      0.00970968	     -0.00998139	      0.03270267	     -0.18967712	      0.14459114
     16.45999260	      0.06439718	      0.04158705	      0.06040499	      0.01013502	      0.09080343	      0.13030071	      0.17054644	      0.01347037	      0.08658163	      0.03054800	      0.01012526	      0.01005389	      0.01001414	      0.01000805	      0.05559051	      0.09153548	      0.18027590	      0.01000730	      0.01002228	      0.01012979	      0.01001605	      0.01002538	      0.01006305	      0.05073932	      0.01003229	      0.03036588	      0.05950580	      0.05680968	      0.05321151	      0.01013475	      0.02441720	      0.03362645	      0.02570107	      0.01000398	      0.01002575	      0.11653052	      0.01003510	      0.01075332	      0.01022842	      0.01049283	      1.61803056	     -0.06195559	     -6.02907604	      1.23133298	      8.85852810	     -5.29875359	      0.00018609	      0.00273536	     -0.01100799	      0.00042745	      0.00516321	     -0.00259892	      0.14779145	      0.02478839	      0.01460358	      0.02272219	     -0.08244025	      0.04871933
     16.47439259	      0.05240860	      0.02687643	      0.06195914	      0.01180301	      0.08179073	      0.11035293	      0.17810941	      0.01241664	      0.08904376	      0.03184578	      0.01027491	      0.01005373	      0.01001258	      0.01000702	      0.05109187	      0.08634866	      0.16487806	      0.01000936	      0.01002906	      0.01029990	      0.01002062	      0.01003206	      0.01008853	      0.04461857	      0.01003447	      0.03276744	      0.06201001	      0.05202482	      0.03305953	      0.01008916	      0.01651982	      0.08519475	      0.03694183	      0.01000379	      0.01002835	      0.11930245	      0.01003624	      0.01266685	      0.01237993	      0.01260728	      2.19592224	      2.73080685	     -2.50999631	      4.54021093	      3.91942439	     -2.11010296	     -0.00092321	      0.00234806	     -0.00911745	      0.00018569	      0.00541005	     -0.00256022	      0.20966780	      0.10221523	     -0.02707339	     -0.02434930	      0.00850343	     -0.00226055
     16.48879257	      0.01173542	      0.01029828	      0.05027582	      0.05427973	      0.03661747	      0.01629500	      0.13529101	      0.01024186	      0.08658331	      0.02984107	      0.01013313	      0.01005805	      0.01001214	      0.01000660	      0.04830125	      0.08144129	      0.09798230	      0.01007505	      0.01028858	      0.01540287	      0.01011511	      0.01015836	      0.01028303	      0.01644988	      0.01006308	      0.03472357	      0.06586621	      0.01180598	      0.01007451	      0.01005000	      0.01012335	      0.19224947	      0.05646029	      0.01000411	      0.01007861	      0.11116038	      0.01004001	      0.01387746	      0.03906925	      0.02066240	     -3.20969409	      0.15102503	      3.45687754	     -0.21908744	     -5.20472624	      1.38116262	     -0.00337936	      0.00108181	     -0.00062697	     -0.00090172	      0.00507954	     -0.00253914	      0.22205116	      0.16915887	     -0.02216532	     -0.02609152	      0.01030007	      0.00006669
     16.50319256	      0.01009629	      0.01005222	      0.03560352	      0.05665949	      0.01165389	      0.01013308	      0.14609884	      0.01036547	      0.07248320	      0.02429048	      0.01015049	      0.01006971	      0.01001621	      0.01000921	      0.07282539	      0.11433216	      0.08737844	      0.06342778	      0.04629407	      0.04599422	      0.01636270	      0.01653863	      0.01449705	      0.01077927	      0.01005863	      0.03267203	      0.06195771	      0.02024610	      0.01004486	      0.01003968	      0.01011471	      0.25335724	      0.06761660	      0.01000549	      0.01014649	      0.08722149	      0.01004725	      0.01145352	      0.01639790	      0.01233591	     -3.67567574	     -1.33358344	      7.53208948	     -3.47448706	    -10.98796992	      3.59594530	     -0.00460404	     -0.00042115	      0.00074751	     -0.00031695	      0.00392423	     -0.00224631	      0.24869573	      0.19521668	     -0.01691013	     -0.03560312	      0.01202582	      0.00100632
     16.51759254	      0.01011480	      0.01006463	      0.02931792	      0.05056282	      0.01071967	      0.01013641	      0.17648517	      0.02113529	      0.04772759	      0.01596826	      0.01019124	      0.01010034	      0.01004226	      0.01005245	      0.05989647	      0.09622704	      0.07144347	      0.07735997	      0.04602015	      0.03900776	      0.02400867	      0.01917117	      0.01376825	      0.01739782	      0.01007638	      0.02366364	      0.04478110	      0.01406562	      0.01005249	      0.01002399	      0.01016602	      0.34225491	      0.09456128	      0.01000988	      0.01015077	      0.05330975	      0.01006699	      0.01006888	      0.01002483	      0.01004491	     -0.62538878	     -4.64152264	      4.79330543	     -3.56375532	     -6.44533509	      2.89949385	     -0.00388252	     -0.00025704	      0.00110136	      0.00299733	      0.00231460	     -0.00156223	      0.27831372	      0.13379545	      0.00117017	     -0.05114220	      0.01386452	     -0.00252694
     16.53199253	      0.03532541	      0.05525798	      0.06699893	      0.09484207	      0.04816193	      0.01349847	      0.21114710	      0.02258149	      0.14141967	      0.05278807	      0.01011851	      0.01004666	      0.01001112	      0.09699116	      0.03410934	      0.07373597	      0.10082088	      0.08534393	      0.02245055	      0.01035864	      0.03497520	      0.01367357	      0.01043788	      0.04297512	      0.01013054	      0.04428960	      0.07242294	      0.01008119	      0.01006344	      0.01001566	      0.01011008	      0.39955578	      0.12420708	      0.01000372	      0.01009454	      0.20699307	      0.01003154	      0.01005693	      0.01001956	      0.01003566	      2.87245326	     -5.95306772	     -3.95430756	     -1.26893344	      6.14051324	      0.60047342	     -0.00403832	      0.00243134	      0.00281385	      0.00361144	      0.00776242	     -0.00313828	      0.29732697	      0.01976281	      0.04421241	     -0.06704629	      0.01533121	     -0.00943226
     16.54639251	      0.06908444	      0.11335778	      0.10205906	      0.14139700	      0.07926251	      0.02072578	      0.23617937	      0.01988020	      0.28016576	      0.10463920	      0.01006306	      0.01002451	      0.01000689	      0.25138078	      0.02848431	      0.07997494	      0.14348379	      0.11276216	      0.01865495	      0.01015728	      0.04804599	      0.01532491	      0.01047136	      0.05439277	      0.01042012	      0.08234870	      0.13568464	      0.01003584	      0.01005708	      0.01001141	      0.01007423	      0.41644246	      0.14283275	      0.01000210	      0.01009056	      0.41651712	      0.01001554	      0.01010230	      0.01003319	      0.01006122	      2.63722485	      3.06816477	    -10.22809167	     -0.07883865	     14.38041720	     -1.22549647	     -0.00522011	      0.00427009	      0.00455215	      0.00289091	      0.01496216	     -0.00625158	      0.30537925	     -0.05624894	      0.08868568	     -0.07857027	      0.01613656	     -0.01536280
     16.56079250	      0.02214976	      0.03347007	      0.04112850	      0.06753684	      0.02708188	      0.01134802	      0.06484227	      0.01141118	      0.74577831	      0.24252259	      0.01001789	      0.01000772	      0.01000372	      0.01000074	      0.01454938	      0.03290577	      0.05302795	      0.10457067	      0.02752534	      0.01017484	      0.04130557	      0.01995508	      0.01116938	      0.01649351	      0.01225912	      0.29996924	      0.56669291	      0.01005276	      0.01009273	      0.01003370	      0.01012421	      0.11417070	      0.04296335	      0.01000080	      0.01147586	      0.88789482	      0.01000424	      0.02430003	      0.06939431	      0.03703754	     -2.50486086	     23.19527251	     -6.73219394	     22.35312503	     -2.46142273	     -6.05443146	     -0.00270319	      0.00149354	      0.00311220	     -0.00074734	      0.03478650	     -0.02395254	      0.29805950	     -0.04477258	      0.08803257	     -0.08139554	      0.01648644	     -0.01757597
     16.57519248	      0.01004639	      0.01002657	      0.04347453	      0.11311691	      0.01018984	      0.01004634	      0.18459176	      0.01129358	      0.02546591	      0.04395539	      0.03914822	      0.04305864	      0.01003276	      0.05053728	      0.14740930	      0.23974639	      0.13717237	      0.30611578	      0.17838189	      0.12611656	      0.09194325	      0.07549003	      0.05158132	      0.01023904	      0.01005014	      0.01005765	      0.01002468	      0.01222963	      0.01002394	      0.01001063	      0.01007363	      0.27909613	      0.10135018	      0.01000634	      0.01362667	      0.25626578	      0.16627317	      0.01155190	      0.01101632	      0.01135748	     -0.53745714	     -5.40813574	      3.65439612	     -5.97544122	     -0.34613285	     -0.14388027	     -0.00960159	     -0.00211890	      0.00496238	      0.00016644	      0.00712162	      0.00545942	      0.26302983	      0.01708555	      0.03388099	     -0.07345578	      0.01657045	     -0.01673697
     16.58959247	      0.01002295	      0.01001380	      0.01023615	      0.05592373	      0.01003837	      0.01002604	      0.10011847	      0.01161282	      0.01009802	      0.02138768	      0.06597748	      0.10726680	      0.01277720	      0.04601520	      0.19534942	      0.27346183	      0.04011833	      0.48143010	      0.30321028	      0.23811727	      0.14125723	      0.13701913	      0.11102846	      0.01006621	      0.01004737	      0.01004758	      0.01002018	      0.10401624	      0.01001940	      0.01001452	      0.01010041	      0.16890120	      0.05274720	      0.01069225	      0.08438956	      0.14857057	      0.28974542	      0.02766086	      0.08141928	      0.04152391	     -2.42266536	     -5.57861485	     12.47451428	     -7.81052143	    -13.16391321	      0.39000184	     -0.01013163	     -0.00741430	      0.00549886	     -0.00084061	      0.00385881	      0.00777983	      0.20321047	      0.05800995	     -0.02827986	     -0.05886077	      0.01645057	     -0.01492378
     16.60399246	      0.01002042	      0.01001247	      0.01006969	      0.01696482	      0.01003090	      0.01002398	      0.02417259	      0.01028511	      0.01008254	      0.02059732	      0.08556386	      0.14393271	      0.01757575	      0.01022894	      0.17753445	      0.22288174	      0.01014912	      0.51633737	      0.31910597	      0.24991574	      0.15260130	      0.14934868	      0.12073945	      0.01005048	      0.01005702	      0.01003792	      0.01001509	      0.12364029	      0.01002113	      0.01003271	      0.01011464	      0.06555211	      0.01347875	      0.08581903	      0.11505988	      0.15888760	      0.37677773	      0.05737938	      0.17468417	      0.08832037	     -0.91373237	     -1.95811086	      7.96247735	     -2.46882846	     -9.02847777	      1.35001448	     -0.00846267	     -0.00908823	      0.00505606	     -0.00194910	      0.00512593	      0.01046879	      0.14107344	      0.03870189	     -0.04951040	     -0.04624973	      0.01628472	     -0.01375981
     16.61839244	      0.01002038	      0.01001253	      0.01005386	      0.01075411	      0.01002966	      0.01002491	      0.01011111	      0.01029703	      0.01006821	      0.02792773	      0.11527809	      0.19875844	      0.02136862	      0.01002900	      0.14491169	      0.16181343	      0.01005458	      0.49719659	      0.29463622	      0.22644372	      0.15078268	      0.14415666	      0.11270242	      0.01004469	      0.01007586	      0.01002484	      0.01000932	      0.11429696	      0.01002530	      0.05380258	      0.01027002	      0.01017587	      0.01014624	      0.17526203	      0.12950755	      0.21096085	      0.50236386	      0.09862166	      0.29743861	      0.15049478	      2.19275503	     -0.44122745	     -3.24989858	      4.27481659	      3.49151576	      0.93368402	     -0.00628502	     -0.00928959	      0.00416573	     -0.00377313	      0.00811379	      0.01551543	      0.09172099	     -0.02933411	     -0.02449604	     -0.03824137	      0.01582764	     -0.01322443
     16.63279243	      0.01001844	      0.01001114	      0.01004930	      0.01047407	      0.01002781	      0.01002287	      0.01004634	      0.01009249	      0.01005245	      0.03862115	      0.15032015	      0.26719727	      0.03408226	      0.01002134	      0.12814865	      0.13198541	      0.01004060	      0.57008559	      0.31081882	      0.22015422	      0.17940999	      0.15842100	      0.11373651	      0.01003626	      0.01008769	      0.01001476	      0.01000561	      0.09095690	      0.01002420	      0.12369083	      0.01012021	      0.01004401	      0.01005741	      0.30062430	      0.14524995	      0.29972883	      0.64225283	      0.14093735	      0.42183574	      0.21409937	      4.19407841	     -0.14569136	     -9.73410947	      6.61625910	     10.26370755	     -0.26527077	     -0.00660545	     -0.01001672	      0.00502675	     -0.00614737	      0.01195734	      0.02271009	      0.05000181	     -0.10585977	      0.01320597	     -0.02931694	      0.01416576	     -0.01176794
     16.64719241	      0.01001464	      0.01000864	      0.01004182	      0.01135200	      0.01002279	      0.01001835	      0.01003325	      0.01007713	      0.01004222	      0.04678957	      0.17181124	      0.31491627	      0.08144062	      0.01002601	      0.11743238	      0.10562872	      0.01002888	      0.74051915	      0.37033833	      0.23743656	      0.24317524	      0.19812023	      0.12966822	      0.01002739	      0.01020798	      0.01000982	      0.01000405	      0.07421920	      0.01002055	      0.15677504	      0.01014468	      0.01003032	      0.01004216	      0.46703884	      0.18383576	      0.38346651	      0.71761522	      0.17008016	      0.50771183	      0.25880706	      2.63676515	      1.01947773	     -6.87893804	      2.78940720	      6.59289098	     -0.51110603	     -0.00789034	     -0.01238989	      0.00698852	     -0.00817665	      0.01376964	      0.02872627	      0.00767219	     -0.15346812	      0.02977448	     -0.01629831	      0.01092623	     -0.00848464
     16.66159240	      0.01001187	      0.01000682	      0.01003449	      0.01038144	      0.01001890	      0.01001501	      0.01002770	      0.01005458	      0.01003588	      0.03666377	      0.15975668	      0.30103309	      0.15758054	      0.01827043	      0.09379987	      0.06635717	      0.01002173	      0.90187262	      0.41707633	      0.24083172	      0.30836423	      0.23263851	      0.13883560	      0.01002182	      0.01014584	      0.01000882	      0.01000399	      0.04867230	      0.01001796	      0.15267511	      0.01007925	      0.01002568	      0.01003453	      0.64774359	      0.21881403	      0.37258092	      0.65766890	      0.17836322	      0.53370451	      0.27290275	     -1.47103189	      2.03480604	      1.27393636	     -3.07277928	     -2.26842543	      0.63477266	     -0.00926860	     -0.01499197	      0.00914191	     -0.00918412	      0.01014097	      0.02844588	     -0.02834786	     -0.15681666	      0.01788991	     -0.00496855	      0.00745547	     -0.00474414
     16.67599238	      0.01001087	      0.01000610	      0.01003157	      0.01019903	      0.01001733	      0.01001388	      0.01002538	      0.01005134	      0.01003279	      0.01662416	      0.12417948	      0.23989535	      0.19572448	      0.17020425	      0.05083202	      0.01793018	      0.01001868	      0.92143622	      0.39708248	      0.20466017	      0.32704386	      0.22883702	      0.12418854	      0.01001955	      0.01022901	      0.01001058	      0.01000513	      0.01832780	      0.01001827	      0.15622866	      0.01007997	      0.01002331	      0.01003146	      0.69957875	      0.22378496	      0.26468675	      0.50992147	      0.17540728	      0.52797316	      0.27045350	     -3.84522280	      1.13439717	      6.70429061	     -5.11156504	     -7.48936932	      1.67179559	     -0.00939708	     -0.01606385	      0.01004291	     -0.00941539	      0.00381516	      0.02259654	     -0.04361173	     -0.12407425	     -0.00635728	     -0.00250663	      0.00577960	     -0.00287680
     16.69039237	      0.01001231	      0.01000693	      0.01003012	      0.01007511	      0.01001830	      0.01001588	      0.01002237	      0.01006185	      0.01003008	      0.01018062	      0.08739295	      0.17546056	      0.22080452	      0.29763543	      0.01163561	      0.01012287	      0.01001633	      0.74105955	      0.30237140	      0.14176596	      0.27664260	      0.18412587	      0.09305082	      0.01002168	      0.04041803	      0.01001506	      0.01000774	      0.01114067	      0.01002737	      0.20770708	      0.01012621	      0.01001946	      0.01002921	      0.66621405	      0.20117019	      0.10948073	      0.36111459	      0.14055707	      0.42631995	      0.21885134	     -2.64585959	     -0.76157225	      4.66273091	     -2.60347956	     -4.48346944	      0.58003716	     -0.00547667	     -0.01449618	      0.00789355	     -0.00761105	     -0.00161257	      0.01573836	     -0.03582878	     -0.07810303	     -0.01730621	     -0.00850926	      0.00656570	     -0.00408975
     16.70479236	      0.01001909	      0.01001175	      0.01003149	      0.01004616	      0.01002396	      0.01002598	      0.01001995	      0.01009971	      0.01002834	      0.01009771	      0.06311696	      0.13155936	      0.22512445	      0.34921620	      0.01195293	      0.01005840	      0.01001669	      0.44001667	      0.19921624	      0.12348466	      0.17642916	      0.12970591	      0.07425454	      0.01003456	      0.08694643	      0.01002172	      0.01001172	      0.04302911	      0.01015718	      0.28816786	      0.01364836	      0.01001512	      0.01002764	      0.57544598	      0.16219488	      0.01034640	      0.26197609	      0.08452263	      0.25826111	      0.13312369	     -0.35202595	     -1.56504258	     -1.54132697	      0.70607585	      2.58751605	     -2.34886514	      0.00224508	     -0.01040397	      0.00166553	     -0.00447379	     -0.00417937	      0.01092239	     -0.02025640	     -0.04275460	      0.00723581	     -0.01638330	      0.00870736	     -0.00796458
     16.71919234	      0.01005472	      0.01006243	      0.01004098	      0.01003947	      0.01004606	      0.01020084	      0.01001926	      0.01181132	      0.01002882	      0.01017891	      0.04426911	      0.09556593	      0.20226904	      0.29198314	      0.02787251	      0.01024321	      0.01002118	      0.22079339	      0.13761034	      0.13184667	      0.10246966	      0.09650578	      0.06797273	      0.01045820	      0.12489363	      0.01003247	      0.01001883	      0.09324370	      0.09545087	      0.31186478	      0.03267923	      0.01001302	      0.01002863	      0.48232046	      0.12541236	      0.01004564	      0.18154386	      0.03540932	      0.10504627	      0.05456408	      0.66816967	     -1.40073298	     -5.07515148	      2.25252867	      6.29565486	     -4.03871169	      0.00926577	     -0.00603388	     -0.00365154	     -0.00174938	     -0.00511024	      0.00709328	     -0.01732372	     -0.03009920	      0.06998026	     -0.01902613	      0.01052381	     -0.01280950
     16.73359233	      0.01044190	      0.04491708	      0.01003899	      0.01003392	      0.01006428	      0.01184010	      0.01001845	      0.01909174	      0.01003425	      0.01016191	      0.03697564	      0.07610899	      0.16175900	      0.19085053	      0.01232596	      0.01003480	      0.01001552	      0.18688841	      0.12702496	      0.13266029	      0.10136656	      0.09813156	      0.06841268	      0.01798698	      0.18465516	      0.01004173	      0.01002348	      0.09839040	      0.16943684	      0.25887455	      0.04521305	      0.01001335	      0.01003156	      0.34203179	      0.11935413	      0.01006455	      0.14783831	      0.01010625	      0.01002960	      0.01005503	      1.11556412	     -1.65651785	     -3.58423203	      2.59036807	      4.33262165	     -2.13779145	      0.01422911	     -0.00537843	     -0.00520236	      0.00208543	     -0.00340768	      0.00558543	     -0.03549278	     -0.03638766	      0.14426075	     -0.01101429	      0.01100883	     -0.01633703
     16.74799231	      0.01034374	      0.06733843	      0.01003017	      0.01002694	      0.01004667	      0.01082879	      0.01001879	      0.06390749	      0.01005773	      0.01098084	      0.02655152	      0.04838993	      0.13770876	      0.17757160	      0.01003592	      0.01001193	      0.01000940	      0.23021953	      0.11349576	      0.09515319	      0.14197600	      0.11228548	      0.06526838	      0.04243871	      0.30199183	      0.01005678	      0.01002897	      0.06533272	      0.26092030	      0.10754321	      0.06770302	      0.01001848	      0.01004448	      0.14325266	      0.13405095	      0.01749813	      0.10050034	      0.01001932	      0.01000645	      0.01001209	      1.56550236	     -1.76006299	      0.19422776	      1.78241285	     -0.29626184	      2.16360561	      0.02022191	     -0.00794561	     -0.00438588	      0.01021771	     -0.00080816	      0.00389756	     -0.06463811	     -0.04243495	      0.18164420	      0.00977027	      0.01025907	     -0.01655839
     16.76239230	      0.01011462	      0.03860089	      0.01003125	      0.01002867	      0.01004558	      0.01014152	      0.01002247	      0.06940536	      0.01020107	      0.01094012	      0.01160931	      0.01287482	      0.11911581	      0.16416127	      0.01002106	      0.01000928	      0.01000865	      0.19816839	      0.06464683	      0.03490741	      0.13848322	      0.09367769	      0.04556821	      0.03886682	      0.32557287	      0.01015930	      0.01011099	      0.02430142	      0.27755307	      0.01167306	      0.06172345	      0.01002867	      0.01006480	      0.01053586	      0.12171843	      0.02641948	      0.02278517	      0.01001516	      0.01000509	      0.01000943	      0.79912416	      0.95427638	      3.58163676	     -1.21899639	     -4.72509442	      5.58708594	      0.02012307	     -0.00878328	     -0.00254174	      0.01215564	      0.00035940	      0.00095548	     -0.08828354	     -0.02338236	      0.14714972	      0.04103891	      0.00879809	     -0.01269425
     16.77679228	      0.02296827	      0.11188552	      0.01012862	      0.01007765	      0.01057852	      0.02543432	      0.01017220	      0.08851949	      0.11137998	      0.03320093	      0.01064743	      0.01018262	      0.14377158	      0.01002197	      0.01007308	      0.01002296	      0.01002630	      0.08439663	      0.03937050	      0.03964074	      0.09044180	      0.07322080	      0.04188345	      0.08001507	      0.29392722	      0.04466952	      0.08009203	      0.03309738	      0.29847901	      0.01004490	      0.06118224	      0.01676507	      0.01997581	      0.01002573	      0.07816185	      0.10915325	      0.01008654	      0.01002036	      0.01000685	      0.01001264	      2.81727237	      9.51072995	      4.14583154	      0.16350199	     -5.59725588	      3.95244157	      0.02057899	     -0.00645141	     -0.00419734	      0.01665673	      0.00438849	     -0.00324700	     -0.10324787	      0.02206892	      0.06555931	      0.07514271	      0.00667378	     -0.00621358
     16.79119227	      0.04877938	      0.13532520	      0.01009134	      0.01005065	      0.01384435	      0.05071839	      0.01136668	      0.07797785	      0.08503690	      0.02702642	      0.01014381	      0.01007657	      0.13999361	      0.01003440	      0.01002796	      0.01001086	      0.01001645	      0.01020937	      0.01907348	      0.04106686	      0.03548140	      0.04491960	      0.03285795	      0.08794475	      0.20903546	      0.02332293	      0.03909344	      0.03287428	      0.25552973	      0.01001417	      0.04705801	      0.08758255	      0.05170402	      0.01001365	      0.02999751	      0.10143746	      0.01004781	      0.01000992	      0.01000336	      0.01000621	     -2.47203716	      2.48256954	      2.77310596	     -1.94593752	     -3.17584501	      0.60509711	      0.01664420	     -0.00345968	     -0.00457438	      0.01538508	      0.00418385	     -0.00212374	     -0.11564711	      0.05094513	      0.00405251	      0.10296683	      0.00361026	     -0.00095931
     16.80559225	      0.10547863	      0.21587689	      0.01836573	      0.01008834	      0.06980533	      0.09696726	      0.03228907	      0.06339431	      0.12491294	      0.04299876	      0.01009356	      0.01004767	      0.01003687	      0.15196026	      0.01003920	      0.01001080	      0.01003280	      0.01003467	      0.01147922	      0.04482386	      0.01019818	      0.01817310	      0.02695879	      0.10400802	      0.14849917	      0.02252443	      0.03082590	      0.02547100	      0.23842313	      0.01001410	      0.03603026	      0.07932374	      0.05835989	      0.01000763	      0.01036191	      0.17204619	      0.01003152	      0.01001103	      0.01000373	      0.01000698	     -2.25861619	     -4.55432117	     -2.08726932	     -1.02956150	      2.33598577	     -2.68095112	      0.01481282	      0.00015998	     -0.00526780	      0.01280448	      0.00757077	     -0.00275605	     -0.13060519	      0.03345936	     -0.00362721	      0.11382252	     -0.00015331	      0.00064487
     16.81999224	      0.15897660	      0.29380776	      0.05307456	      0.01022639	      0.12080928	      0.14528209	      0.05465471	      0.06254025	      0.16082458	      0.05534091	      0.01006460	      0.01003222	      0.01001764	      0.19323331	      0.01003200	      0.01000882	      0.01008030	      0.01002104	      0.01120342	      0.07424889	      0.01006830	      0.01214600	      0.03199556	      0.12799056	      0.11306043	      0.02382959	      0.03242723	      0.01612885	      0.24660934	      0.01001241	      0.03382998	      0.08029323	      0.07034097	      0.01000506	      0.01008258	      0.21961818	      0.01001926	      0.01001064	      0.01000355	      0.01000677	      3.82103293	    -11.72385408	     -8.50480493	      2.17741695	      8.72601595	     -5.71803480	      0.01491600	      0.00281145	     -0.00668563	      0.01281503	      0.01131356	     -0.00397545	     -0.13137867	     -0.01069362	      0.00998589	      0.10853634	     -0.00355253	     -0.00045404
