FiberForce
version=1
nRows=51
nColumns=5
inDegrees=no

This analysis gathers basic information about muscles during a simulation (e.g., forces, tendon lengths, moment arms, etc).
Units are S.I. units (second, meters, Newtons, ...)
If the header above contains a line with 'inDegrees', this indicates whether rotational values are in degrees (yes) or radians (no).

endheader
time	recfem_r	vaslat_r	vasint_r	vasmed_r
     16.09999296	    676.06445279	    393.31676479	    103.06675571	    185.86473462
     16.11439295	    499.63672775	    299.01772144	     83.07113916	    147.71296135
     16.12879293	    355.71955437	    221.75256928	     66.90378638	    116.47515031
     16.14319292	    250.16108782	    170.68841238	     56.76471029	     96.27325743
     16.15759290	    187.04166452	    148.53719915	     53.37894444	     88.49282807
     16.17199289	    173.58794625	    152.35850051	     56.17259960	     91.99397691
     16.18639287	    207.88995167	    174.13309910	     63.58241141	    103.59931678
     16.20079286	    278.02864713	    204.47385926	     73.96196552	    119.82726587
     16.21519284	    376.55172561	    236.95511435	     86.27689719	    138.38190689
     16.22959283	    502.06561117	    269.66426653	    100.23711081	    158.47550192
     16.24399282	    657.47672219	    306.06624703	    117.06794474	    181.96541627
     16.25839280	    824.29347862	    343.44831734	    135.71424208	    207.19410473
     16.27279279	    959.70590852	    378.58999937	    154.52316519	    231.99839024
     16.28719277	   1032.34467936	    414.69067579	    172.54732519	    255.33584697
     16.30159276	   1029.05150996	    454.38401970	    189.96457570	    278.77212760
     16.31599274	    970.01684480	    493.44852595	    207.61931382	    302.54681183
     16.33039273	    865.81077269	    527.42511396	    223.43583937	    323.74161061
     16.34479272	    730.79322924	    549.12767675	    233.95194920	    337.65802468
     16.35919270	    586.22880717	    551.86636800	    235.77219974	    339.82406930
     16.37359269	    453.89492466	    534.58023493	    228.23105505	    329.44565849
     16.38799267	    346.89660540	    502.73105442	    213.99157104	    310.10215620
     16.40239266	    266.87281002	    463.57527292	    196.70807552	    286.68578142
     16.41679264	    208.73729318	    421.89827701	    178.79960164	    262.44293059
     16.43119263	    162.52115541	    381.07108956	    160.53595356	    238.36747495
     16.44559261	    126.13966161	    341.89202229	    140.03345138	    211.27488631
     16.45999260	     97.92971040	    297.17637337	    117.76468482	    181.35300577
     16.47439259	     77.06626457	    252.36542511	     95.95257098	    151.53328629
     16.48879257	     62.72810134	    213.71783496	     77.77976961	    126.29464419
     16.50319256	     50.90053489	    175.75558774	     62.49051821	    104.03810132
     16.51759254	     43.23359716	    138.88762964	     51.22193667	     86.33333869
     16.53199253	     38.89601333	    102.00090561	     43.60199230	     72.53459942
     16.54639251	     36.83241026	     80.37423581	     40.72058538	     65.33034972
     16.56079250	     37.62086955	    136.04761017	     48.13721923	     77.78053519
     16.57519248	     49.85974305	    381.12639196	     77.68829230	    136.95480607
     16.58959247	     88.84118516	    905.65070428	    139.57299709	    267.21173241
     16.60399246	    164.49448957	   1680.39565208	    230.64193792	    465.05244048
     16.61839244	    265.33083120	   2526.39034387	    330.13019854	    688.33901704
     16.63279243	    362.51656086	   3212.16104272	    411.60504193	    878.71223865
     16.64719241	    431.26279720	   3564.90451603	    455.98804011	    989.61631123
     16.66159240	    462.62098331	   3503.54254984	    453.63279606	    994.56423371
     16.67599238	    464.73336189	   3066.14916116	    406.42680073	    895.60588484
     16.69039237	    451.67450225	   2381.22310029	    326.14266067	    719.55191023
     16.70479236	    429.68643019	   1622.19064660	    232.22993534	    510.58909556
     16.71919234	    396.54672807	    956.72689527	    146.95339512	    318.40369065
     16.73359233	    350.07456465	    478.17675006	     84.89623799	    175.75768855
     16.74799231	    293.50961434	    201.83427082	     49.86270711	     92.51207526
     16.76239230	    234.86578447	     89.19549639	     37.28807526	     60.05618882
     16.77679228	    185.88460417	     78.87715769	     38.75776340	     60.06073861
     16.79119227	    161.46468746	    111.23441208	     45.91897611	     73.48359352
     16.80559225	    173.11521052	    143.58041431	     52.79244889	     86.54951916
     16.81999224	    214.01633840	    162.17838135	     57.47886494	     94.91099269
