Length
version=1
nRows=51
nColumns=5
inDegrees=no

This analysis gathers basic information about muscles during a simulation (e.g., forces, tendon lengths, moment arms, etc).
Units are S.I. units (second, meters, Newtons, ...)
If the header above contains a line with 'inDegrees', this indicates whether rotational values are in degrees (yes) or radians (no).

endheader
time	recfem_r	vaslat_r	vasint_r	vasmed_r
     16.09999296	      0.50809745	      0.30409627	      0.28992861	      0.27952325
     16.11439295	      0.50665763	      0.30207137	      0.28795064	      0.27758559
     16.12879293	      0.50526622	      0.30031532	      0.28623631	      0.27589788
     16.14319292	      0.50439176	      0.29921564	      0.28516077	      0.27483548
     16.15759290	      0.50457105	      0.29915585	      0.28510221	      0.27477757
     16.17199289	      0.50618151	      0.30039507	      0.28631422	      0.27597474
     16.18639287	      0.50928431	      0.30296173	      0.28881977	      0.27843832
     16.20079286	      0.51361642	      0.30663051	      0.29241726	      0.28194603
     16.21519284	      0.51864182	      0.31095429	      0.29671956	      0.28609450
     16.22959283	      0.52365523	      0.31535927	      0.30119519	      0.29035060
     16.24399282	      0.52831256	      0.31964233	      0.30565714	      0.29455308
     16.25839280	      0.53215106	      0.32348118	      0.30978543	      0.29840675
     16.27279279	      0.53470167	      0.32654132	      0.31322576	      0.30158388
     16.28719277	      0.53592885	      0.32907439	      0.31601214	      0.30414017
     16.30159276	      0.53590549	      0.33153914	      0.31832306	      0.30633415
     16.31599274	      0.53496979	      0.33375041	      0.32041691	      0.30835676
     16.33039273	      0.53315167	      0.33555140	      0.32215301	      0.31004131
     16.34479272	      0.53042672	      0.33670768	      0.32328214	      0.31113785
     16.35919270	      0.52686507	      0.33700160	      0.32357094	      0.31141818
     16.37359269	      0.52269468	      0.33638347	      0.32296440	      0.31082935
     16.38799267	      0.51824743	      0.33500873	      0.32162700	      0.30953052
     16.40239266	      0.51380832	      0.33312104	      0.31981673	      0.30777572
     16.41679264	      0.50951415	      0.33090573	      0.31773072	      0.30576451
     16.43119263	      0.50503480	      0.32847152	      0.31540082	      0.30358040
     16.44559261	      0.50017901	      0.32588816	      0.31247639	      0.30089412
     16.45999260	      0.49493025	      0.32251830	      0.30873423	      0.29742992
     16.47439259	      0.48941374	      0.31816711	      0.30410672	      0.29309586
     16.48879257	      0.48416901	      0.31323285	      0.29902138	      0.28829077
     16.50319256	      0.47928309	      0.30783827	      0.29361131	      0.28310261
     16.51759254	      0.47512983	      0.30259124	      0.28845805	      0.27808367
     16.53199253	      0.47227876	      0.29844890	      0.28440910	      0.27409156
     16.54639251	      0.47127339	      0.29626894	      0.28225941	      0.27195919
     16.56079250	      0.47250030	      0.29651546	      0.28250369	      0.27220177
     16.57519248	      0.47584129	      0.29900303	      0.28495251	      0.27462947
     16.58959247	      0.48062221	      0.30290704	      0.28876636	      0.27838598
     16.60399246	      0.48594843	      0.30713640	      0.29291672	      0.28243029
     16.61839244	      0.49103043	      0.31076907	      0.29653360	      0.28591631
     16.63279243	      0.49543648	      0.31329771	      0.29908729	      0.28835341
     16.64719241	      0.49916652	      0.31464852	      0.30046569	      0.28966066
     16.66159240	      0.50233760	      0.31490582	      0.30072944	      0.28991024
     16.67599238	      0.50497198	      0.31418338	      0.29998987	      0.28920997
     16.69039237	      0.50692990	      0.31259286	      0.29837211	      0.28767300
     16.70479236	      0.50794532	      0.31021709	      0.29598035	      0.28538555
     16.71919234	      0.50782916	      0.30718149	      0.29296129	      0.28247347
     16.73359233	      0.50667799	      0.30374498	      0.28958504	      0.27918745
     16.74799231	      0.50491802	      0.30031027	      0.28623138	      0.27589302
     16.76239230	      0.50324621	      0.29741691	      0.28339418	      0.27308556
     16.77679228	      0.50247295	      0.29566306	      0.28165746	      0.27136125
     16.79119227	      0.50315092	      0.29542208	      0.28141739	      0.27112271
     16.80559225	      0.50527414	      0.29661424	      0.28260147	      0.27229886
     16.81999224	      0.50823187	      0.29865285	      0.28460921	      0.27428971
