ModelForces
version=1
nRows=51
nColumns=77
inDegrees=no

This file contains the forces exerted on a model during a simulation.

A force is a generalized force, meaning that it can be either a force (N) or a torque (Nm).

Units are S.I. units (second, meters, Newtons, ...)
If the header above contains a line with 'inDegrees', this indicates whether rotational values are in degrees (yes) or radians (no).

endheader
time	addbrev_r	addlong_r	addmagDist_r	addmagIsch_r	addmagMid_r	addmagProx_r	bflh_r	bfsh_r	edl_r	ehl_r	fdl_r	fhl_r	gaslat_r	gasmed_r	glmax1_r	glmax2_r	glmax3_r	glmed1_r	glmed2_r	glmed3_r	glmin1_r	glmin2_r	glmin3_r	grac_r	iliacus_r	perbrev_r	perlong_r	piri_r	psoas_r	recfem_r	sart_r	semimem_r	semiten_r	soleus_r	tfl_r	tibant_r	tibpost_r	vasint_r	vaslat_r	vasmed_r	pelvis_tx_residual	pelvis_ty_residual	pelvis_tz_residual	pelvis_tilt_residual	pelvis_list_residual	pelvis_rotation_residual	hip_flexion_r_reserve	hip_adduction_r_reserve	hip_rotation_r_reserve	knee_angle_r_reserve	ankle_angle_r_reserve	subtalar_angle_r_reserve	hip_flexion_l_torque	hip_adduction_l_torque	hip_rotation_l_torque	knee_angle_l_torque	ankle_angle_l_torque	subtalar_angle_l_torque	calcn_r_RightGRF_Fx	calcn_r_RightGRF_Fy	calcn_r_RightGRF_Fz	calcn_r_RightGRF_px	calcn_r_RightGRF_py	calcn_r_RightGRF_pz	calcn_r_RightGRF_Tx	calcn_r_RightGRF_Ty	calcn_r_RightGRF_Tz	calcn_l_LeftGRF_Fx	calcn_l_LeftGRF_Fy	calcn_l_LeftGRF_Fz	calcn_l_LeftGRF_px	calcn_l_LeftGRF_py	calcn_l_LeftGRF_pz	calcn_l_LeftGRF_Tx	calcn_l_LeftGRF_Ty	calcn_l_LeftGRF_Tz
     16.09999296	     31.98942180	    234.33416945	      6.76847359	      6.41875692	      7.00135150	     16.01678716	     13.19456386	      7.89527296	      8.44230059	      4.22699096	     23.10467824	    114.61753710	    186.47714222	    638.19322759	     11.00976819	     15.03052379	     10.61389169	    154.33450143	     67.83671640	     76.83990450	     48.06339626	     46.92762987	     35.92586101	      7.37333886	    384.09048112	      6.11436052	     12.20947969	    124.68573300	    464.05150653	    913.72594852	     13.27567583	     19.92619608	      7.47823822	   1333.85269701	     59.28428444	     17.01500167	    374.09491003	     30.56865454	    209.35820768	     63.53570469	    -99.21407509	   -167.72473971	     13.38544980	    -12.33239505	     -7.67927371	     -1.11774970	      0.05848490	     -0.01052723	     -0.00332279	     -0.00157315	     -0.02778938	      0.00717372	    -47.23592493	     11.48911824	     16.92822514	      1.52741485	      0.95020041	     -1.34489797	    169.82554311	    627.07684275	     24.45224379	      0.16286252	     -0.01643344	      0.01562792	      0.00000000	      5.89708194	      0.00000000	      0.00000000	     -0.00000000	      0.00000000	     -0.20300354	     -1.93343556	     -0.66492569	      0.00000000	      0.00000000	      0.00000000
     16.11439295	     72.12972399	    341.47366082	      6.81550910	      6.54533320	      7.06613833	     44.24712586	     13.68013966	     28.41610406	      9.15998462	      4.49145381	     22.56850268	     88.59697965	    131.98180187	    413.77478701	     10.89473547	     15.07088717	     10.70899035	    137.66800626	     69.74068212	     91.63381467	     51.53355755	     51.35213800	     37.62304972	     28.57266376	    437.54272946	      6.23189146	     12.42468026	    119.64579977	    567.37421908	    600.81523763	     18.29975848	     21.26789523	      7.60296384	    813.22770945	     57.48771852	     18.50367977	    335.88033842	     18.75429480	     56.29002078	     30.51962876	    -19.47697173	    -24.83527266	      5.87387876	     -3.81959879	     -2.92910696	      0.13167803	      0.07557593	     -0.00931328	     -0.00489835	      0.01881336	     -0.00976673	      0.00715965	    -43.70208943	      6.22392016	     17.99390671	      3.38912777	      1.02553449	     -1.31839024	    134.34659523	    389.84565391	     18.99360621	      0.18400711	     -0.00877362	      0.01721717	      0.00000000	      4.70807841	      0.00000000	     -0.00000000	      0.00000000	     -0.00000000	     -0.55157726	     -1.86459937	     -0.76183707	      0.00000000	     -0.00000000	      0.00000000
     16.12879293	    103.67219667	    402.48486496	      6.79975360	      6.58645214	     22.72533276	     70.99927704	     13.78198707	     50.61989312	      9.50978670	      5.06903805	     14.97468161	     52.72657549	    107.87118101	    248.56521804	     10.78800909	     15.04869382	     10.62688656	     99.11998511	     66.37199289	    100.60005032	     51.90576663	     53.59500596	     37.41100207	     45.13680111	    473.40447661	      6.17843815	     12.38830186	    106.20926099	    653.69453042	    330.96178805	     20.87516961	     21.80260021	      7.60657670	    392.65288212	     55.49818927	     40.27670317	    214.89451078	     19.09940512	     57.24675105	     31.06009906	     41.06791117	     47.73599849	     -8.86903836	      7.16587671	      4.09452812	      1.91857650	      0.09112115	     -0.00738619	     -0.00632286	      0.03620641	     -0.00262504	      0.00475727	    -40.57624088	      1.29335501	     17.74447475	      6.27064316	      1.06826771	     -1.18604358	     83.93877396	    196.81405556	      8.16978759	      0.21043906	      0.00567171	      0.02079117	      0.00000000	      3.73638435	      0.00000000	     -0.00000000	      0.00000000	     -0.00000000	     -0.89058744	     -1.72568027	     -0.86713275	      0.00000000	     -0.00000000	      0.00000000
     16.14319292	    113.39351656	    389.00288703	      6.71561900	      6.54151652	     46.14580437	     84.44160902	     13.37568457	     54.41495786	      9.37330908	      4.96853883	      6.79560401	     17.99716744	     75.56830433	    118.59599878	     10.83224268	     15.11923073	     10.40777820	     28.37503101	     54.13489051	    100.42847712	     44.71261218	     51.78584346	     36.74661811	     49.50021335	    448.90095771	      5.95306586	     12.09290589	     95.82054117	    661.09666786	    153.42299243	     19.44572579	     21.10721185	      7.46813849	     78.02820376	     50.92711053	     44.79806845	     74.93203265	     20.04188478	     59.95836687	     32.47192903	     51.41174634	     55.01907552	    -15.61550776	     11.02652424	      6.23771363	      2.79153043	      0.09479763	     -0.00466884	     -0.00699252	      0.04218999	     -0.00007447	      0.00152264	    -40.12379266	      1.67944158	     13.52444829	     13.03644660	      0.83056993	     -0.77399004	     36.21825971	     64.10562978	     -2.78313732	      0.23936011	      0.02897488	      0.02471311	      0.00000000	      3.13550814	      0.00000000	      0.00000000	     -0.00000000	      0.00000000	     -1.21731012	     -1.50726420	     -0.96827053	      0.00000000	      0.00000000	      0.00000000
     16.15759290	    133.72987827	    402.51739095	      8.56921762	      6.45039666	     80.18695473	    102.22259522	     12.51550222	     45.37129280	     53.37799016	      7.19343852	      4.78331993	      9.35017520	     11.19291235	     20.28327840	     11.10811955	     15.41930356	     10.18352441	     13.34610216	      8.57943788	     60.29527957	     18.70650748	     36.83770488	     32.50182684	     50.96668868	    398.93495853	     12.29412934	     46.90318501	     88.56071718	    642.37530363	     67.82037670	     14.85319603	     19.12082644	      7.29198830	     38.16230682	     32.27016480	    106.51506275	     18.66032920	     21.50906971	     64.24904342	     34.64893965	     24.69877367	     44.56227646	    -13.15548471	      9.17481412	      7.47547089	     -1.12557129	      0.09228366	      0.00125378	     -0.00657658	      0.03807111	      0.00515986	     -0.00202941	    -45.23758156	     12.63263368	      5.17112323	     25.25623624	      0.19646647	     -0.11617153	      0.00005476	      0.00008455	     -0.00001027	     -0.55001011	     -1.32331009	     -1.05758737	      0.00000000	      0.00000625	      0.00000000	      0.00000000	     -0.00000000	      0.00000000	     -1.51891329	     -1.20976856	     -1.04357187	      0.00000000	      0.00000000	      0.00000000
     16.17199289	    126.75180598	    364.42499139	     17.20236558	      6.34858447	     81.44860025	     98.08763770	     11.38196741	     40.73721559	     74.13786026	     10.33150007	      5.25673944	     10.34594227	     12.09258862	     84.42614669	     11.59618200	     15.95935622	     10.06843479	     14.43424255	      9.21829333	     23.15055382	      6.18099599	     26.85966530	     32.67930474	     46.45697134	    366.69053446	     15.79362070	     63.17324728	    100.03377481	    613.14718269	     28.10979573	     13.54096412	     16.20014644	      7.73052575	     46.56293306	     21.22666594	    167.58608533	     21.20604150	     23.12315154	     69.10658461	     37.03968833	    -26.82851061	     11.13037088	      5.77488016	     -6.23141133	     -1.26535804	     -7.72871497	      0.08730617	      0.00267643	     -0.00566086	      0.03666618	      0.00938159	     -0.00327236	    -57.59976267	     26.43811568	     -1.17781112	     39.57828797	     -0.69051090	      0.37320156	      0.00000000	      0.00000000	     -0.00000000	     -0.32016521	     -1.36824081	     -1.08290074	      0.00000000	      0.00000000	      0.00000000	      0.00000000	     -0.00000000	      0.00000000	     -1.77295266	     -0.85664069	     -1.07104579	      0.00000000	      0.00000000	      0.00000000
     16.18639287	    117.49363688	    350.50883389	      6.65216442	      6.25570967	     63.39353112	     86.52327459	     10.14141805	     47.25171242	     76.40501551	     10.93693440	      5.66657959	     11.31219786	     13.00657362	     72.38631481	     12.20180453	     16.65077269	     10.09813638	     15.41498645	     10.07074329	     10.48343735	     22.53366486	     33.16584322	     36.82984009	     44.02844647	    473.15551693	     18.44532981	     77.63947683	    101.73733158	    737.22876125	     89.58683414	     18.96349038	     12.81487351	      6.70993747	     57.46407702	     40.65791346	    177.29317939	     23.29789593	     24.47363824	     73.36691541	     39.02929287	    -39.38073532	     -9.95996629	     12.67356659	    -13.48875126	     -5.61546480	     -6.81491091	      0.10305656	     -0.00266875	     -0.00430708	      0.04502054	      0.01190500	     -0.00435860	    -72.78831031	     27.94454483	     -0.95738618	     50.38241342	     -1.54697392	      0.27716229	     -0.00000000	     -0.00000000	      0.00000000	     -0.12279832	     -1.34810059	     -1.13979569	      0.00000000	     -0.00000000	      0.00000000	     -0.00000000	      0.00000000	     -0.00000000	     -1.95683037	     -0.49637414	     -1.04867027	      0.00000000	     -0.00000000	      0.00000000
     16.20079286	    105.70070699	    346.02058498	      6.21324422	      6.20677986	     35.69980464	     71.69807239	      8.90746661	     61.92487726	     71.69269086	     10.50229726	      5.92538001	     11.98283114	     14.98418055	     33.48318351	     12.84994678	     17.42335157	     10.25763819	     16.31934081	     10.91211703	     11.48259647	     67.61159094	     61.55229459	     51.92914556	     44.56177400	    640.19183086	     20.53188600	     89.89856474	     73.19779468	    941.78590566	    241.02608491	     28.84911449	      9.13160914	      6.15491288	     67.08547654	     79.27617219	    165.48813844	     24.29077876	     25.28907028	     76.12649095	     40.21002677	    -14.55177877	    -37.41588756	      3.79138648	     -8.33808485	     -2.17154983	      1.45977228	      0.13167720	     -0.01221366	     -0.00339507	      0.06150892	      0.01263011	     -0.00508645	    -82.29557192	     15.71617596	      2.91235953	     54.45785117	     -2.12538705	     -0.25103977	     -0.00000000	     -0.00000000	      0.00000000	      0.04733287	     -1.27372634	     -1.22704651	      0.00000000	     -0.00000000	      0.00000000	     -0.00000000	      0.00000000	     -0.00000000	     -2.06171306	     -0.18458196	     -1.00547215	      0.00000000	     -0.00000000	      0.00000000
     16.21519284	     97.87688023	    346.86331309	      6.12918175	      6.20118391	     15.11668726	     61.44896703	      7.58106857	     69.52904177	     73.12767920	     10.38753565	      5.83551708	     12.17388472	     13.44442984	     29.84082922	     13.46769258	     18.22425280	     10.48498547	     17.20444990	     11.59181165	     12.26900789	    109.94906602	     92.91660050	     71.95592600	     45.06702872	    755.96002591	     22.17127569	    100.84711431	     39.93923942	   1091.65897125	    446.16723346	     36.36820052	      5.22995471	      5.43141498	     72.90732366	    105.80154946	    170.25713654	     24.01056728	     25.34676970	     76.66702971	     40.26406239	     19.26267353	    -55.91358760	     -0.96108675	      3.77519839	      0.02598734	      8.21738362	      0.15603188	     -0.01971765	     -0.00319854	      0.07114062	      0.01339742	     -0.00554303	    -82.45930034	      5.36168703	      5.46481783	     52.84225821	     -2.20982982	     -0.61143445	      0.00000000	      0.00000000	     -0.00000000	      0.19844059	     -1.16273646	     -1.32634424	      0.00000000	      0.00000000	      0.00000000	      0.00000000	     -0.00000000	      0.00000000	     -2.09712363	      0.04038843	     -0.98481284	      0.00000000	      0.00000000	      0.00000000
     16.22959283	    102.30402940	    360.65363829	      6.08743505	      6.23503033	     14.87551995	     63.75615390	      6.06065969	     56.63890016	     71.29197775	     10.12424219	      5.64940404	     12.07157883	     13.01868909	     24.11613051	     13.99588033	     18.99632309	     10.74846632	     38.68120504	     12.13697967	     12.89729888	    120.30533525	    102.86703770	     82.25646005	     42.27381057	    759.34838962	     21.52227438	     99.43471032	     52.77725837	   1107.63592324	    613.95207012	     35.54785554	      2.44970283	      5.10267812	     75.43432195	    104.03494036	    163.11144239	     22.87107282	     24.69183876	     75.12064520	     39.29740022	     26.68506213	    -29.69936833	      6.69814337	     11.13645424	     -2.63507198	      7.12141889	      0.16410401	     -0.02008432	     -0.00385766	      0.05941152	      0.01253560	     -0.00512756	    -76.97223523	      6.17495789	      5.83536697	     48.45066026	     -1.67150109	     -0.50034389	      0.00000000	      0.00000000	     -0.00000000	      0.33886670	     -1.03775622	     -1.41600985	      0.00000000	      0.00000000	      0.00000000	      0.00000000	     -0.00000000	      0.00000000	     -2.08223952	      0.16743989	     -1.01242811	      0.00000000	      0.00000000	      0.00000000
     16.24399282	    110.93436253	    372.03007849	      6.07419465	      6.31184088	     23.04602292	     72.19030383	      4.40785494	     24.16847304	     67.12980147	      9.16818273	      5.35587130	     11.76126153	     11.30931797	     18.48193581	     14.41225193	     19.70905228	     11.06775112	     23.08154175	     12.47481808	     13.30441147	    102.53373477	     94.17183883	     83.24823971	     33.38355177	    677.12153826	     18.70928395	     88.75044797	    149.40265814	   1019.67579753	    654.68258965	     26.57520192	      1.45721927	      4.88469866	     75.54610131	     86.89062583	    150.55997604	     21.33943625	     23.71955841	     72.65675122	     37.94096700	     -5.95832049	     74.48173693	      9.93439691	      6.46352789	     -1.45674915	      1.05049475	      0.15740683	     -0.01506682	     -0.00552963	      0.02596700	      0.01109810	     -0.00421280	    -70.16812603	     10.15240004	      5.65463220	     43.02006939	     -0.61710315	     -0.21055761	      0.00000000	      0.00000000	     -0.00000000	      0.47371427	     -0.92087862	     -1.48183722	      0.00000000	      0.00000000	      0.00000000	      0.00001113	     -0.00002664	      0.00000355	     -2.03676290	      0.20866893	     -1.07855521	      0.00000000	      0.00000203	      0.00000000
     16.25839280	    122.18453562	    387.42601922	      6.10200830	      6.44096805	     34.54419981	     83.07625260	      2.97146431	      4.83472332	     64.13903684	      8.65489891	      5.08722662	     11.40858491	     10.42503010	     15.82792830	     14.75163988	     20.38400217	     11.49087994	     18.13934100	     12.63190693	     13.58046796	     72.74333629	     76.45486262	     76.22119232	     26.38043044	    583.69852700	     16.32896308	     77.98288129	    278.89061221	    928.88491947	    541.61785885	     18.97251902	      1.47980316	      4.83179371	     74.46251733	     66.57869020	    142.69510808	     19.87862849	     36.55747899	    270.59273955	     77.23890545	    -13.74741121	     73.12261032	      2.79122481	     -0.10919104	     -3.81306565	     -2.38759369	      0.14872311	     -0.00829590	     -0.00786293	     -0.00238102	      0.01014540	     -0.00343447	    -69.11146351	      4.51816187	      1.95920837	     24.46754037	     -8.64500564	      6.04926869	     -0.00000000	     -0.00000000	      0.00000000	      0.60312882	     -0.82813384	     -1.51977288	      0.00000000	     -0.00000000	      0.00000000	    -47.76001331	    194.21149250	     -9.84589938	      0.10868317	     -0.01318495	     -0.04333739	      0.00000000	     -4.64393257	      0.00000000
     16.27279279	    126.18209192	    387.38836026	      6.17889118	      6.62798639	     37.15100558	     87.96063361	      2.06759018	      4.50954266	     62.70312530	      8.45776663	      4.87285358	     11.10741208	      9.84924154	     12.65090498	     15.06696510	     21.05165423	     12.04562283	     17.94927459	     12.66029626	     14.18632672	     48.70278485	     60.35682024	     65.30115346	     24.99244837	    520.52495590	     15.40365779	     71.84651532	    363.83934991	    877.79866436	    391.37741525	     20.33545264	      1.80060600	      4.93094414	     73.40193319	     51.94103539	    138.25775316	     18.73179230	     69.25605063	    580.39622425	    167.23694359	    -10.47516065	    -14.99707542	    -20.91941363	    -11.87605699	      7.42698863	     -4.34975076	      0.14377775	     -0.00380070	     -0.00994648	     -0.00732901	      0.00969319	     -0.00294002	    -77.53054422	    -23.85082557	      7.75318687	     -4.91641491	    -28.14592347	     18.99882161	     -0.00000000	     -0.00000000	      0.00000000	      0.72259127	     -0.76798745	     -1.53329147	      0.00000000	     -0.00000000	      0.00000000	   -102.00129050	    545.05085440	    -13.86386663	      0.10847765	     -0.00491380	     -0.03399629	      0.00000000	     -4.06681374	      0.00000000
     16.28719277	    115.15290491	    349.72379547	      6.31019472	      6.87031251	     26.11570037	     81.65878887	      1.69400323	      4.45877216	     62.10563599	      8.18187586	      4.71948716	     10.88179501	      9.42379035	      8.58699885	     15.36154300	     21.67866028	     12.70914657	     17.57361146	     12.57632957	     13.99902362	     35.02809450	     47.88662390	     51.73236098	     20.78123462	    474.41761910	     14.79237242	     70.17598659	    364.57960989	    833.30165587	    309.74154005	     23.32606053	      2.26046632	      5.16764331	     72.95758012	     44.23047861	    135.05879344	     17.93834824	     72.62684407	    762.59999077	    179.12283082	      0.33108430	    -41.84089158	    -24.88414335	     -5.96338687	     12.05451185	     -3.90161571	      0.13803589	     -0.00274907	     -0.01082210	     -0.01024355	      0.00952461	     -0.00266390	    -65.04297516	    -48.05744779	     13.06749396	    -47.40352080	    -50.30662590	     30.90884138	      0.00000000	      0.00000000	     -0.00000000	      0.82402488	     -0.74425425	     -1.52966674	      0.00000000	      0.00000000	      0.00000000	   -145.40554987	    863.12743674	    -22.70455415	      0.11303105	      0.00141886	     -0.02919920	      0.00000000	     -3.90177832	      0.00000000
     16.30159276	     85.89169544	    268.11766500	      6.49492608	      7.15532563	      6.09107845	     61.52052208	      1.71747296	      4.77029662	     60.40240099	      8.27851306	      4.68456786	     10.70835260	      8.98788863	      4.90565228	     15.55155934	     22.12977395	     13.40607778	     16.99652350	     12.36952294	     14.27256812	     34.98586885	     43.11047511	     40.52208567	     13.38640966	    429.09760520	     15.69440227	     68.42017123	    289.39233278	    759.61804416	    267.27179399	     26.64884581	      2.57652878	      5.51652666	     72.99897508	     41.24083373	    130.61348397	     17.42765612	     66.03669743	    736.64202243	    173.53205398	     10.01335862	    -30.71405354	     -2.51585524	      4.21139151	      1.84270114	     -1.94597545	      0.12720465	     -0.00571945	     -0.01001678	     -0.01014410	      0.00933729	     -0.00241982	    -43.56000070	    -61.30230811	     17.17870990	    -92.85158584	    -75.21374197	     43.89790688	      0.00000000	      0.00000000	     -0.00000000	      0.89694708	     -0.76003048	     -1.51693888	      0.00000000	      0.00000000	      0.00000000	   -169.37191053	   1124.43856636	    -30.14008898	      0.12010984	      0.00479657	     -0.02984121	      0.00000000	     -3.15572130	      0.00000000
     16.31599274	     46.75837467	    166.53604079	      6.71900272	      7.45996584	      5.13074023	     32.27283228	      2.15161172	      4.95635181	     58.10382567	      7.70473598	      4.55093318	     10.57947572	      8.54819318	      2.89113172	     15.50049735	     22.20625013	     14.01642043	     61.31699322	     12.09513795	     13.68413731	     41.84685379	     43.69196893	     33.10312901	      4.17262969	    367.07181743	     15.15580919	     66.87152865	    186.03145959	    633.95495301	    239.14798189	     27.78278948	      2.37373765	      5.93189164	     73.13008394	     39.66083680	    125.16840142	     17.14290815	     54.57478643	    604.37333486	    147.26998918	     10.88006190	     -5.33404546	     24.26514618	      7.32011812	    -11.83820458	      0.86690585	      0.10798464	     -0.01072468	     -0.00777655	     -0.00859151	      0.00904223	     -0.00222043	    -23.71814089	    -71.30116506	     21.69835679	   -129.75091677	   -100.50978448	     57.88119639	      0.00000000	      0.00000000	     -0.00000000	      0.92932250	     -0.81850840	     -1.50176135	      0.00000000	      0.00000000	      0.00000000	   -167.43523692	   1313.40695895	    -29.17312594	      0.12859818	      0.00550356	     -0.03547765	      0.00000000	     -1.52744508	      0.00000000
     16.33039273	     17.24977831	     88.96735112	      6.95356612	      7.75197527	      5.27659922	      9.63265662	      3.29302102	      5.32555245	     55.60467589	      7.39507209	      4.52894546	     10.48304135	      8.24741677	      2.19008278	     15.10944525	     21.75513335	     14.39618489	    172.04766197	     29.01487962	     13.78363127	     39.20093112	     38.20748797	     24.61851399	      2.79378497	    281.77109591	     15.55393529	     66.54246754	    108.05021445	    475.71811889	    200.46886823	     25.32019590	      1.86647259	      6.35620469	     73.10289577	     35.16538049	    118.99953038	     17.09066437	     42.88375912	    466.23695362	    116.48165825	      2.22641391	     13.86063543	     29.16621776	      1.56786740	    -14.13195130	      2.84097068	      0.08177623	     -0.01256068	     -0.00538904	     -0.00684054	      0.00860641	     -0.00210255	    -10.15375911	    -86.23822832	     27.07698224	   -148.89815588	   -122.67490440	     70.40274982	     -0.00000000	     -0.00000000	      0.00000000	      0.90834786	     -0.91939148	     -1.48823029	      0.00000000	     -0.00000000	      0.00000000	   -135.21248064	   1424.22280356	    -22.23477215	      0.13747673	      0.00494295	     -0.04448606	      0.00000000	      0.23199060	      0.00000000
     16.34479272	      5.03982869	     25.48635179	      7.16330742	      7.99699078	      5.48629986	      4.52467434	      5.58946120	      5.89768656	     53.75304322	      7.35018939	      4.59107643	     10.45610809	      8.23685453	      2.07844870	     14.39587965	     20.78277047	     14.43543553	    238.28303752	     67.05022629	     32.08390932	     36.46095097	     33.53575043	     18.81086764	      2.96320535	    198.76737548	     16.71250155	     69.05993772	     62.12054978	    312.12246880	    160.02668691	     20.24106857	      1.52330132	      6.74382573	     72.87865743	     31.23945580	    113.89377764	     17.34990877	     33.45516811	    336.70292703	     85.87461617	     -7.71028536	     15.56729038	      6.16829807	     -5.17877312	     -2.04963611	      1.96400102	      0.05459500	     -0.01336610	     -0.00296349	     -0.00523216	      0.00816241	     -0.00211213	     -0.45616339	   -104.07611632	     30.67604902	   -147.70500708	   -138.52930703	     78.21052557	     -0.00000000	     -0.00000000	      0.00000000	      0.82229916	     -1.05344181	     -1.47810349	      0.00000000	     -0.00000000	      0.00000000	    -74.02723948	   1456.54028623	    -18.26851938	      0.14625328	      0.00423422	     -0.05371726	      0.00000000	      1.05346984	      0.00000000
     16.35919270	      5.30266857	      7.23554493	      7.32508984	      8.17300429	      5.72366549	      4.60610008	      8.90465325	      6.19061193	     52.66072172	      7.11370309	      4.69645179	     10.53791546	      8.63353269	      2.23589976	     13.54583066	     19.51189572	     14.13119172	    245.53826036	     90.82971719	     76.29929387	     31.28897010	     29.21891793	     15.72165514	      3.16062263	    115.42216957	     17.46849882	     73.69359966	     55.30759062	    155.35500596	    122.08911381	     14.46664929	      1.51028361	      7.08319810	     72.49782520	     27.09879278	    110.60657529	     17.96970464	     23.99805745	    210.11735490	     55.71818192	     -8.40718114	      2.59580723	    -23.83603338	     -4.31646245	     13.00949459	     -1.62590876	      0.03053697	     -0.01383154	     -0.00178221	     -0.00361309	      0.00777413	     -0.00223560	     10.66376171	   -114.22511752	     29.23613732	   -129.67041730	   -146.75509716	     79.54871208	      0.00000000	     -0.00000000	     -0.00000000	      0.66410863	     -1.19998275	     -1.47229045	      0.00000000	      0.00000000	      0.00000000	      5.75770087	   1411.30138674	    -22.10825942	      0.15562432	      0.00308980	     -0.05966352	      0.00000000	      0.62727712	      0.00000000
     16.37359269	      5.77253788	      7.89892264	      7.43821286	      8.28314894	      5.95683208	      4.77557994	     12.22418561	      6.24745647	     51.92649862	      6.91006556	      4.84385785	     10.72299927	      9.54784700	      2.70928166	     27.75019372	     18.33724756	     13.59882680	    208.92725905	     88.18264263	     89.46409600	     24.22744407	     23.97762562	     12.81778774	      3.35770207	     44.48304448	     18.12498402	     78.22161147	     46.81904564	     32.90026211	     86.26227504	      9.76971026	      1.83874200	      7.40146164	     72.04687351	     21.94063945	    108.11992140	     18.88436954	     16.86789200	     58.99347099	     29.94869257	     -1.25500981	     -9.98335292	    -30.14438732	      2.33786701	     15.67962541	     -3.91384218	      0.01304171	     -0.01308300	     -0.00134882	     -0.00111361	      0.00742050	     -0.00244214	     23.48475613	   -106.38511024	     21.84486686	    -99.79998024	   -147.14963648	     74.54737618	      0.00000000	     -0.00000000	     -0.00000000	      0.43502031	     -1.33099118	     -1.47170588	      0.00000000	      0.00000000	      0.00000000	     87.02344038	   1288.43368576	    -30.49743970	      0.16686576	      0.00046655	     -0.06013562	      0.00000000	     -0.49681688	      0.00000000
     16.38799267	      6.27812388	      8.65588515	      7.54335196	      8.38680362	      6.17537668	      4.98672649	     32.54934524	     39.20626938	     52.31939841	      7.26467033	      5.13313347	     11.00567663	     11.17483405	      4.59839371	     42.28408347	     27.95740661	     13.02114048	    186.28207733	     70.77442384	     64.93010668	     22.06592468	     20.27421046	      9.88285055	      5.11088656	     17.53541971	     18.89762617	     82.94285174	     26.37150456	     17.78739817	     11.17350170	     17.60071718	      4.71222561	     23.85998735	     71.79159698	     16.64109450	    106.95906491	     19.88397333	     13.69025949	     44.56010056	     23.22324686	      2.49186469	    -10.31148079	     -5.01019369	      5.25331668	      2.36782960	     -0.88511033	      0.00364761	     -0.01018709	     -0.00023642	      0.02743908	      0.00720115	     -0.00275339	     32.31935183	    -79.91020032	     11.30730123	    -63.41810512	   -139.38120179	     64.88918543	      0.00000000	     -0.00000000	     -0.00000000	      0.14512217	     -1.42012304	     -1.47526121	      0.00000000	      0.00000000	      0.00000000	    150.10455224	   1096.41025799	    -36.22509003	      0.18059150	     -0.00379674	     -0.05512926	      0.00000000	     -1.45517475	      0.00000000
     16.40239266	      6.70307557	      9.33595792	      7.77399839	      9.67151523	      6.37265535	      5.18910269	    115.59385778	     27.24792085	     53.75807408	      7.33831184	      5.20612004	     11.21582573	     13.24501599	      7.45963261	     22.67041806	     32.33956726	     12.67752542	    179.52153786	     51.05846350	     30.91167624	     23.40495053	     16.53820032	      6.77403589	      5.13738209	     13.00293331	     19.24237077	     86.77620505	      9.33628204	     17.90014165	     12.86583769	      6.16452523	     26.09069938	     45.66143164	     72.19886706	      9.42390089	    108.30622440	     20.60012218	     13.92473841	     44.81953595	     23.50589194	     -1.39287884	      0.27573423	     25.32124927	      0.39380531	    -14.31675646	      5.59660882	     -0.00436674	     -0.00475079	      0.00165193	      0.01458774	      0.00720434	     -0.00310656	     33.65263752	    -45.56070917	      2.29277652	    -27.92399402	   -122.55733478	     52.69991810	     -0.00000000	      0.00000000	      0.00000000	     -0.19000383	     -1.45033321	     -1.47622489	      0.00000000	     -0.00000000	      0.00000000	    180.76693672	    857.95356472	    -34.69997739	      0.19591398	     -0.00844376	     -0.04654549	      0.00000000	     -1.65265134	      0.00000000
     16.41679264	      8.19553311	     10.89769331	     23.81769215	     51.00902857	     10.44505520	      5.57079249	    112.85107083	      8.52041700	     55.57065168	      7.65249494	      5.26093345	     11.38670092	     15.78491609	     15.34850601	     13.38840691	     29.23214424	     43.47517668	    147.32578585	     28.77520073	     10.68561302	     21.64482197	     11.06337675	      4.71617043	      4.79833133	     13.08538770	     19.09709787	     87.32600466	      6.45819398	     18.24992063	     14.51501592	      3.32740114	    101.84763655	     38.23687180	     73.71995558	      4.77733550	    116.14377978	     20.87730145	     17.17798575	     68.29616302	     30.03043301	     -3.48911514	      9.28728888	     30.43443276	     -5.03257762	    -18.49947275	      8.68109314	     -0.00835577	      0.00085855	      0.00273715	     -0.00147003	      0.00762149	     -0.00331693	     32.41305765	    -17.27688457	     -2.27014136	     -2.26820564	    -96.97617729	     39.53857139	     -0.00000000	      0.00000000	      0.00000000	     -0.55328787	     -1.41568881	     -1.46091464	      0.00000000	     -0.00000000	      0.00000000	    174.88894461	    605.83433667	    -26.34929632	      0.21089328	     -0.01181683	     -0.03738885	      0.00000000	     -0.85453635	      0.00000000
     16.43119263	     17.44868989	     28.44833684	     35.48947000	     56.97914102	     22.17277561	      7.07815252	    118.45347847	      8.18603762	     56.17214737	      8.06078684	      5.22097038	     11.45469648	     18.29545727	     27.19653577	     15.53327374	     44.68389660	     76.08165709	     66.19399875	     12.98254925	      9.63376710	     10.58040854	      6.32029989	      4.27503547	      5.16774798	     12.85428588	     18.13890759	     82.79556840	      6.85490149	     18.51820934	     15.34075154	      3.35815808	    203.60210646	     32.10969169	     76.37398227	      4.37286535	    128.60146987	     20.64049116	     25.87796716	    233.47513382	     61.51558823	      3.18367626	      6.09547147	      7.71904859	     -3.50854643	     -5.87478306	      3.89326480	     -0.00803234	      0.00290379	      0.00187858	     -0.00561607	      0.00842113	     -0.00319667	     34.85987308	     -2.42301243	     -2.71009025	      9.04494765	    -66.54638552	     26.43977133	      0.00000000	     -0.00000000	     -0.00000000	     -0.92763899	     -1.31842134	     -1.41173728	      0.00000000	      0.00000000	      0.00000000	    139.96671615	    375.30689698	    -15.14600782	      0.22384802	     -0.01304705	     -0.03029719	      0.00000000	      0.95233635	      0.00000000
     16.44559261	     37.38054222	     52.12441163	     43.19074576	     20.86493632	     43.35935405	     37.60697933	    212.07832101	      8.63555705	     55.81239161	      8.49468320	      5.09867128	     11.41627659	     20.46537506	     37.35855101	     39.69107361	    100.61905377	    144.83494614	     13.80591019	      8.47429605	      8.91667771	      5.14158688	      4.85451709	      3.88780802	     11.54413466	     12.81611420	     17.22010770	     76.47274907	     11.93604547	     23.43653307	     16.00386132	      3.47850098	    161.54968972	     25.10933033	     79.63978428	      4.29251036	    139.01849007	     19.98785550	     22.78512601	    163.72237949	     49.17777531	     11.02601975	     -2.24261056	    -19.94209292	      1.97088151	     12.95389011	     -5.87413098	     -0.00361666	      0.00489106	     -0.00414733	     -0.00369503	      0.00940417	     -0.00285144	     40.11920326	      1.94193671	     -0.99813914	      9.81080212	    -37.93542301	     14.45911444	      0.00000000	     -0.00000000	     -0.00000000	     -1.29494891	     -1.16470193	     -1.31308865	      0.00000000	      0.00000000	      0.00000000	     91.97218139	    192.26493692	     -5.39209892	      0.23545924	     -0.01181764	     -0.02593422	      0.00000000	      3.55119331	      0.00000000
     16.45999260	     48.32156341	     45.39069025	     44.83279907	      8.00555099	     59.34334908	     74.31390071	    355.17320442	     11.81575356	     56.38636747	      8.78416732	      4.93396870	     11.28309239	     22.44025843	     43.27782157	     58.18414869	    132.97707924	    195.23022713	     13.59127135	      8.37402382	      8.79304224	      5.09762686	      4.83527603	      3.94584677	     21.45462423	     13.11383672	     17.58475012	     75.56909966	     42.54593511	    101.39523676	     16.29182053	      8.33298458	    116.60956464	     23.68751192	     82.62781130	      4.35973309	    143.67793586	     19.11448338	     14.91206748	     46.01182593	     24.60915311	      8.09015282	     -0.30977797	    -30.14538021	      3.07833244	     22.14632024	    -13.24688396	      0.00055826	      0.00547071	     -0.01100799	      0.00128234	      0.01032641	     -0.00259892	     44.33743532	      4.95767878	      1.46035805	      6.81665671	    -16.48804966	      4.87193262	      0.00000000	     -0.00000000	     -0.00000000	     -1.63469187	     -0.96170456	     -1.15777465	      0.00000000	      0.00000000	      0.00000000	     47.49700408	     67.92993171	      0.71725154	      0.24976869	     -0.00633268	     -0.02307189	      0.00000000	      6.40340444	      0.00000000
     16.47439259	     40.30574104	     30.42484038	     45.02774916	      8.99342006	     53.11755934	     64.22018175	    373.50604561	     11.02548855	     58.06213531	      9.01982395	      4.82886576	     11.07969797	     24.22622056	     47.51824782	     52.49386249	    122.60626955	    171.75221413	     13.48344535	      8.29123739	      8.83667147	      5.11251084	      4.85178571	      4.01187077	     18.88219745	     13.56053403	     19.89285955	     83.17973778	     39.57377232	     64.58706865	     16.50130036	      5.70050802	    318.13778419	     33.59172522	     84.31885179	      4.49821547	    142.59651673	     18.24575189	     17.43120436	     54.16611318	     29.23271139	     10.97961122	     13.65403423	    -12.54998157	     11.35052731	      9.79856097	     -5.27525739	     -0.00276964	      0.00469612	     -0.00911745	      0.00055708	      0.01082009	     -0.00256022	     62.90034149	     20.44304687	     -2.70733889	     -7.30479025	      1.70068541	     -0.22605469	     -0.00000000	      0.00000000	      0.00000000	     -1.92442713	     -0.71817320	     -0.95158703	      0.00000000	     -0.00000000	      0.00000000	     -0.00418071	     -0.00395174	     -0.00030607	     -0.87526949	     -1.29420777	     -0.72753429	      0.00000000	     -0.00100830	      0.00000000
     16.48879257	      9.23547821	     12.09014023	     35.66901580	     39.86584019	     23.55505725	      9.63088629	    275.21453268	      8.93593916	     57.46876574	      8.53977125	      4.62004061	     10.83900684	     25.14827435	     50.18957181	     48.98611159	    113.77124007	     98.60711991	     13.62368860	      8.47499467	     13.08309383	      5.23428287	      4.96977149	      4.16644132	      6.82830382	     14.06274602	     22.12842077	     92.57654848	      8.94509941	     20.11552627	     16.99223231	      3.50644969	    730.24557837	     49.34785066	     83.77336998	      4.71268428	    132.64273980	     17.58535174	     19.37776733	    170.00637948	     48.40721146	    -16.04847046	      0.75512517	     17.28438768	     -0.54771860	    -13.01181561	      3.45290654	     -0.01013809	      0.00216361	     -0.00062697	     -0.00270515	      0.01015908	     -0.00253914	     66.61534931	     33.83177325	     -2.21653214	     -7.82745591	      2.06001453	      0.00666926	     -0.00000000	      0.00000000	      0.00000000	     -2.14402479	     -0.44972984	     -0.71384965	      0.00000000	     -0.00000000	      0.00000000	     -0.00000000	     -0.00000000	     -0.00000000	     -0.61721364	     -1.40999864	     -0.75291403	      0.00000000	     -0.00000000	      0.00000000
     16.50319256	      8.06005378	     12.12956228	     24.74662533	     40.45514188	      7.42023901	      6.03833268	    280.46255197	      8.65471895	     49.97064043	      7.25460301	      4.54232778	     10.58721734	     24.54206968	     49.42497222	     74.12933262	    159.94245304	     86.31594134	     86.62637559	     38.51016025	     39.34685330	      8.58322255	      8.21785216	      6.06537601	      4.30861970	     14.39031245	     21.61053388	     89.56432783	     15.50151784	     20.29698131	     17.20450441	      3.48172801	    913.60720077	     55.69556968	     80.36977912	      4.93711819	    108.26595797	     17.23286787	     16.13388760	     70.68357405	     29.02993369	    -18.37837872	     -6.66791720	     37.66044740	     -8.68621764	    -27.46992479	      8.98986324	     -0.01381213	     -0.00084229	      0.00074751	     -0.00095086	      0.00784845	     -0.00224631	     74.60871947	     39.04333587	     -1.69101328	    -10.68093557	      2.40516402	      0.10063167	      0.00000000	     -0.00000000	     -0.00000000	     -2.28348545	     -0.18554969	     -0.47433610	      0.00000000	      0.00000000	      0.00000000	      0.00000000	      0.00000000	      0.00000000	     -0.35404794	     -1.48998733	     -0.75810626	      0.00000000	      0.00000000	      0.00000000
     16.51759254	      8.05681105	     12.23307750	     20.12576049	     35.58634688	      6.75573809	      6.03829672	    315.84944124	     16.58702338	     34.68567615	      5.10200731	      4.53778148	     10.36581157	     22.53324700	     46.00224659	     62.62251474	    138.11273456	     71.00323916	    106.28450186	     39.33881605	     34.67619829	     12.55429742	      9.64602811	      6.08194102	      6.63259361	     14.49826206	     15.90533974	     64.99850062	     11.52815386	     20.29140133	     18.41901229	      3.44502116	   1115.64571507	     72.69562938	     74.11232619	      5.08663884	     71.38068233	     17.20859719	     15.04496680	     45.23410919	     24.94066788	     -3.12694392	    -23.20761321	     23.96652714	     -8.90938829	    -16.11333771	      7.24873463	     -0.01164755	     -0.00051408	      0.00110136	      0.00899200	      0.00462920	     -0.00156223	     83.49411498	     26.75909044	      0.11701653	    -15.34265859	      2.77290365	     -0.25269413	      0.00000000	     -0.00000000	     -0.00000000	     -2.35065327	      0.03145849	     -0.26915118	      0.00000000	      0.00000000	      0.00000000	      0.00000000	      0.00000000	      0.00000000	     -0.10853998	     -1.54571072	     -0.72375615	      0.00000000	      0.00000000	      0.00000000
     16.53199253	     27.46963372	     65.65766234	     45.77497135	     66.56961418	     29.99143550	      7.97361856	    351.94917535	     16.50291325	    108.00525352	     18.05240512	      4.55564777	     10.14163102	     19.58089313	    387.63132776	     37.36497950	    110.85269940	    103.17276304	    116.83368731	     20.06952312	      9.91175286	     17.76543727	      6.93471823	      5.01472389	     15.49627617	     14.37777134	     29.43045418	    102.78427617	      9.76586077	     20.06238081	     20.93822560	      3.35409449	   1149.88054630	     89.33505585	     66.39866494	      5.16737979	    301.64998425	     17.43403047	     16.76468485	     50.20454995	     27.57849976	     14.36226631	    -29.76533861	    -19.77153781	     -3.17233361	     15.35128311	      1.50118354	     -0.01211496	      0.00486268	      0.00281385	      0.01083432	      0.01552485	     -0.00313828	     89.19809080	      3.95256137	      4.42124095	    -20.11388637	      3.06624237	     -0.94322580	      0.00000000	     -0.00000000	     -0.00000000	     -2.37058585	      0.15619907	     -0.13416024	      0.00000000	      0.00000000	      0.00000000	      0.00000000	      0.00000000	      0.00000000	      0.09479102	     -1.58934285	     -0.64651719	      0.00000000	      0.00000000	      0.00000000
     16.54639251	     51.32492776	    127.40722676	     69.65830608	     99.46793760	     48.58791639	     12.06272066	    366.79810351	     13.48322138	    218.88864453	     37.26072350	      4.69156971	     10.18256320	     16.59213042	    836.71477726	     32.92478272	    126.94618161	    152.95110508	    152.58630961	     17.61008729	     10.66487274	     23.15212759	      7.82045658	      5.57869536	     18.47632377	     14.34652547	     52.29673040	    182.90121686	     12.34221295	     19.67164231	     24.90425763	      3.26884279	   1039.70256379	     96.26502519	     61.22272055	      5.27666946	    643.65267364	     18.23583664	     19.65201499	     58.34778850	     31.85491296	     13.18612425	     15.34082387	    -51.14045835	     -0.19709663	     35.95104300	     -3.06374117	     -0.01566032	      0.00854018	      0.00455215	      0.00867273	      0.02992432	     -0.00625158	     91.61377531	    -11.24978809	      8.86856775	    -23.57108116	      3.22731231	     -1.53628035	     -0.00000003	      0.00000012	      0.00000002	     -2.36889114	      0.16107872	     -0.09249888	      0.00000000	     -0.00000000	      0.00000000	     -0.00000000	     -0.00000000	     -0.00000000	      0.25863520	     -1.62491623	     -0.53757710	      0.00000000	     -0.00000000	      0.00000000
     16.56079250	     15.50298903	     34.79696749	     28.03035772	     47.57096177	     16.27620380	      6.47759433	     93.58727482	      7.19354385	    567.72366204	     85.94354519	      4.97332919	     10.61843395	     14.85952119	     29.24002669	     17.65132232	     54.82290571	     58.70886126	    139.78144792	     27.31141610	     11.58316542	     18.74361045	     10.26109517	      6.51568394	      5.28634964	     16.25437016	    175.45522301	    706.09665005	     14.78554972	     19.35050251	     29.14130891	      3.21823857	    243.21882564	     27.20931714	     62.66431380	      6.17209953	   1387.05848126	     19.76005580	     54.37661069	    462.20641796	    133.36318223	    -12.52430432	    115.97636254	    -33.66096969	     55.88281257	     -6.15355683	    -15.13607865	     -0.00810958	      0.00298708	      0.00311220	     -0.00224202	      0.06957301	     -0.02395254	     89.41784943	     -8.95451575	      8.80325684	    -24.41866156	      3.29728781	     -1.75759673	     -9.96901997	     37.68996433	      4.92138554	     -1.80753465	      0.03804363	     -0.10330531	      0.00000000	     -0.21358752	      0.00000000	     -0.00000000	     -0.00000000	     -0.00000000	      0.39099429	     -1.65063326	     -0.41699250	      0.00000000	     -0.00000000	      0.00000000
     16.57519248	      6.63319010	      9.68025389	     29.50250841	     79.49766633	      5.99458730	      5.61159073	    247.59587831	      6.68126569	     17.67493690	     14.69323482	     20.84618347	     49.04030339	     15.29625541	    149.92942237	    184.54058700	    412.29578830	    155.59144942	    408.20907181	    182.98855123	    150.33656366	     40.05212193	     39.25795879	     31.74208171	      3.12690781	     12.91551827	      5.31313894	     11.46704605	     19.56216148	     18.91623511	     32.60433197	      3.14573046	    513.87187935	     60.88647981	     72.63783467	      7.58973648	    381.55463599	    358.04788810	     28.24565336	     80.34734532	     44.40059600	     -2.68728572	    -27.04067868	     18.27198058	    -14.93860306	     -0.86533213	     -0.35970067	     -0.02880478	     -0.00423781	      0.00496238	      0.00049931	      0.01424324	      0.00545942	     78.90894837	      3.41710991	      3.38809943	    -22.03673328	      3.31409001	     -1.67369744	    -78.04606538	    417.32952448	     17.27053109	      0.04927578	     -0.01026639	      0.02321289	      0.00000000	      0.71212438	      0.00000000	      0.00000000	      0.00000000	      0.00000000	      0.50369152	     -1.66502596	     -0.30562581	      0.00000000	      0.00000000	      0.00000000
     16.58959247	      6.36858547	      9.27319720	      6.89262372	     39.05349171	      5.79480564	      5.49477732	    126.02691760	      6.59034270	      6.00517819	      6.38545173	     36.57224299	    129.93940045	     22.43224045	    158.22640630	    246.46184740	    474.25054749	     45.76147237	    651.73941756	    315.29064189	    285.84921450	     61.48978193	     72.44720749	     69.28943865	      2.98897017	     12.75220212	      4.89915637	     10.85947549	    166.10318057	     18.77203901	     35.19357401	      3.11553747	    277.79221201	     30.63232297	     92.05653055	     48.72685467	    197.24764874	    651.54763436	     70.17378172	    619.39715683	    167.78054122	    -12.11332680	    -27.89307426	     62.37257142	    -19.52630358	    -32.90978302	      0.97500459	     -0.03039489	     -0.01482859	      0.00549886	     -0.00252183	      0.00771762	      0.00777983	     60.96314194	     11.60199087	     -2.82798614	    -17.65823028	      3.29011304	     -1.49237781	   -119.08642399	    701.66648089	     16.82107460	      0.07562067	      0.00103817	      0.01645332	      0.00000000	      2.60165547	      0.00000000	      0.00000000	      0.00000000	      0.00000000	      0.60305814	     -1.67103581	     -0.21748338	      0.00000000	      0.00000000	      0.00000000
     16.60399246	      6.32836586	      9.30449708	      6.70183844	     11.70983522	      5.71117638	      5.43859314	     29.09047040	      5.79355210	      5.14408715	      5.34990073	     46.95313113	    178.68250839	     35.73513898	     41.51497366	    220.44917115	    380.54356052	     11.42130157	    722.08748630	    331.33855035	    292.85351016	     69.26442271	     80.81652096	     74.32166694	      2.98226026	     12.91314274	      4.76557163	     10.92673437	    183.17414800	     18.86160992	     36.42037022	      3.11266328	    100.52597531	      7.74537308	    814.20907185	     68.61081368	    179.53304138	    829.94508378	    144.62072295	   1326.69204049	    354.01304605	     -4.56866187	     -9.79055428	     39.81238675	     -6.17207115	    -22.57119441	      3.37503620	     -0.02538801	     -0.01817646	      0.00505606	     -0.00584730	      0.01025185	      0.01046879	     42.32203235	      7.74037867	     -4.95104029	    -13.87492029	      3.25694485	     -1.37598068	   -152.40133300	    940.84535201	     19.42762313	      0.10181683	      0.01063344	      0.01301507	      0.00000000	      4.59512816	      0.00000000	      0.00000000	      0.00000000	      0.00000000	      0.68493684	     -1.67633819	     -0.15458310	      0.00000000	      0.00000000	      0.00000000
     16.61839244	      6.48634342	      9.70037185	      6.57797047	      7.27596170	      5.65440563	      5.44850175	     11.85513041	      5.98680569	      4.70586561	      6.53132412	     59.82484415	    242.50219302	     47.05340734	     44.58558989	    173.97932988	    266.85702271	     10.97328849	    725.72216570	    303.30767303	    254.40017634	     73.34714888	     80.35606278	     67.66584385	      3.05350051	     13.36082850	      4.93636066	     11.71435774	    150.45891501	     19.17589846	    192.42268960	      3.19270726	     15.22642502	      5.92432892	   1663.27547081	     79.46409085	    207.67042116	   1026.54705395	    238.30021005	   2176.32705747	    579.11762949	     10.96377516	     -2.20613723	    -16.24949289	     10.68704147	      8.72878940	      2.33421006	     -0.01885506	     -0.01857918	      0.00416573	     -0.01131940	      0.01622758	      0.01551543	     27.51629618	     -5.86682190	     -2.44960408	    -11.47241200	      3.16552827	     -1.32244344	   -167.44352006	   1124.05389269	     15.37269461	      0.12414430	      0.01493434	      0.01265056	      0.00000000	      6.43244467	      0.00000000	     -0.00000000	     -0.00000000	     -0.00000000	      0.73688872	     -1.69100193	     -0.10854569	      0.00000000	     -0.00000000	      0.00000000
     16.63279243	      6.76702458	     10.31392027	      6.41528820	      6.86323933	      5.59765981	      5.50907868	     11.59353958	      6.24818043	      4.65862350	      8.69176440	     72.05770206	    310.89635145	     75.94282572	     45.42182863	    147.42306807	    207.94897986	     10.47767952	    868.45529464	    316.67397901	    235.96223899	     94.10432530	     91.23170675	     66.68210813	      3.17880399	     13.97988943	      5.40763000	     12.95404293	    105.50139747	     19.62774202	    422.01814839	      3.21071229	     15.21583618	      6.05780778	   2586.53646339	     91.47281816	    274.80344857	   1185.27660571	    320.14763201	   2916.29646331	    777.55799040	     20.97039204	     -0.72845681	    -48.67054734	     16.54064776	     25.65926887	     -0.66317694	     -0.01981635	     -0.02003343	      0.00502675	     -0.01844210	      0.02391468	      0.02271009	     15.00054206	    -21.17195417	      1.32059689	     -8.79508131	      2.83315211	     -1.17679408	   -155.32796171	   1249.65933612	      0.80375636	      0.14175159	      0.01329161	      0.01421465	      0.00000000	      7.82811954	      0.00000000	     -0.00000000	     -0.00000000	     -0.00000000	      0.74399178	     -1.72368939	     -0.06951629	      0.00000000	     -0.00000000	      0.00000000
     16.64719241	      7.09489570	     11.01533777	      6.20827482	      7.11264972	      5.52906416	      5.60375269	     11.39899482	      6.72411548	      4.91959268	     10.82661028	     76.85186664	    346.17298569	    174.22890782	     43.74789816	    129.34881184	    158.57155588	      9.90717803	   1165.61289789	    372.89424189	    243.66942954	    136.20725201	    117.31921341	     74.45451670	      3.33404213	     14.82396960	      5.99894536	     14.04480121	     77.14890299	     20.10718627	    503.63101144	      3.29783994	     15.70663205	      6.25355510	   3398.44797034	    117.97965291	    351.10018835	   1210.96152792	    361.70505361	   3301.97164073	    884.85861376	     13.18382573	      5.09738864	    -34.39469019	      6.97351800	     16.48222745	     -1.27776507	     -0.02367102	     -0.02477978	      0.00698852	     -0.02452995	      0.02753928	      0.02872627	      2.30165693	    -30.69362366	      2.97744789	     -4.88949417	      2.18524520	     -0.84846365	   -112.96340840	   1316.89264221	    -17.49585842	      0.15496897	      0.00797379	      0.01647969	      0.00000000	      8.73495536	      0.00000000	      0.00000000	      0.00000000	      0.00000000	      0.69389857	     -1.77734538	     -0.03631690	      0.00000000	      0.00000000	      0.00000000
     16.66159240	      7.44088959	     11.75308862	      5.99501288	      6.17850873	      5.47470270	      5.73425147	     11.20662737	      7.17987804	      5.39153248	      9.24108472	     69.27385430	    315.98770172	    312.72651966	     73.56297820	     99.45006481	     95.34094274	      9.34619263	   1441.64331127	    413.24831970	    238.27998099	    181.12161196	    139.75758647	     77.80002753	      3.49771368	     15.36606147	      6.43060375	     14.61257945	     46.69863333	     20.52337408	    458.80449567	      3.34719078	     16.32035829	      6.43995304	   3893.23801154	    140.46309512	    364.60727677	   1063.89412036	    355.97720332	   3269.92344009	    881.00128302	     -7.35515944	     10.17403020	      6.36968180	     -7.68194821	     -5.67106358	      1.58693165	     -0.02780580	     -0.02998394	      0.00914191	     -0.02755237	      0.02028194	      0.02844588	     -8.50435791	    -31.36333262	      1.78899144	     -1.49056529	      1.49109377	     -0.47441363	    -46.34080775	   1321.76072160	    -28.55456073	      0.16487261	      0.00185219	      0.01771952	      0.00000000	      9.25055954	      0.00000000	      0.00000000	      0.00000000	      0.00000000	      0.58028857	     -1.84652985	     -0.01936255	      0.00000000	      0.00000000	      0.00000000
     16.67599238	      7.80729161	     12.51659832	      5.84019112	      5.80623526	      5.48496346	      5.91067781	     11.12408512	      7.54978064	      5.97012377	      4.75066281	     54.20223394	    244.88528307	    353.96548733	    616.46129684	     52.35320038	     24.89879090	      8.88602466	   1465.58387842	    384.59284265	    196.52621065	    196.91329795	    136.75087169	     67.18233249	      3.65759099	     15.98915093	      6.61740492	     14.65179015	     16.69333164	     20.82455668	    436.22652512	      3.39018080	     17.00604361	      6.63102732	   3503.25620428	    139.39245099	    293.82214132	    828.89007837	    330.78158331	   3062.05476044	    829.77837552	    -19.22611400	      5.67198583	     33.52145306	    -12.77891260	    -18.72342331	      4.17948897	     -0.02819123	     -0.03212770	      0.01004291	     -0.02824618	      0.00763032	      0.02259654	    -13.08351757	    -24.81484995	     -0.63572767	     -0.75198863	      1.15591922	     -0.28767982	     30.54933721	   1258.41503366	    -26.94415909	      0.17283301	     -0.00346556	      0.01642246	      0.00000000	      9.44213141	      0.00000000	     -0.00000000	      0.00000000	     -0.00000000	      0.40441619	     -1.91815241	     -0.03385023	      0.00000000	     -0.00000000	      0.00000000
     16.69039237	      8.18399992	     13.26464014	      5.79623115	      5.60702179	      5.59734833	      6.12669474	     11.28680980	      7.79526772	      6.59612523	      3.31868876	     38.97432423	    176.08952875	    361.11362499	    957.25696951	     11.75947760	     13.75130242	      8.59060755	   1150.55732403	    284.19793034	    132.58631533	    166.64239955	    107.11275077	     47.85098822	      3.79935620	     64.25202309	      6.63636705	     14.35802898	      9.75386163	     20.94122927	    533.84326254	      3.41027834	     17.87849773	      6.85404622	   2824.52735901	    117.54269449	    141.04485911	    600.79390581	    252.43071766	   2352.42387743	    642.60106131	    -13.22929795	     -3.80786127	     23.31365453	     -6.50869890	    -11.20867361	      1.45009290	     -0.01643002	     -0.02899236	      0.00789355	     -0.02283314	     -0.00322515	      0.01573836	    -10.74863347	    -15.62060594	     -1.73062085	     -2.55277778	      1.31314090	     -0.40897489	    100.08793659	   1124.75860411	    -15.24516510	      0.17984162	     -0.00764716	      0.01265730	      0.00000000	      9.29482761	      0.00000000	      0.00000000	     -0.00000000	      0.00000000	      0.17373009	     -1.97469146	     -0.09029769	      0.00000000	      0.00000000	      0.00000000
     16.70479236	      8.52493712	     13.88794538	      5.87243227	      5.61862382	      5.79919126	      6.34844444	     11.73131903	      7.91856626	      7.26634989	      3.68005127	     28.50784684	    129.48556288	    331.11497055	    987.37124560	     11.93074191	     13.49617170	      8.48014190	    656.81068271	    180.14655678	    111.97328595	    103.95662803	     71.97933570	     35.60554759	      3.90497259	    138.20606868	      6.62482085	     14.02270179	     35.70603828	     21.07635237	    675.89194409	      4.55297321	     19.02109445	      7.10632651	   2112.48238819	     86.62321425	     15.16905698	    441.57226515	    145.60905140	   1361.71132897	    376.34298556	     -1.76012977	     -7.82521288	     -7.70663483	      1.76518962	      6.46879012	     -5.87216285	      0.00673524	     -0.02080793	      0.00166553	     -0.01342136	     -0.00835873	      0.01092239	     -6.07692014	     -8.55092070	      0.72358102	     -4.91498995	      1.74147235	     -0.79645761	    145.95882928	    931.33325557	     -0.98390212	      0.18627634	     -0.01080309	      0.00845481	      0.00000000	      8.71519304	      0.00000000	      0.00000000	     -0.00000000	      0.00000000	     -0.10059908	     -1.99741551	     -0.19102448	      0.00000000	      0.00000000	      0.00000000
     16.71919234	      8.77663717	     14.28897079	      6.02380247	      5.75595461	      6.03110888	      6.62360948	     12.32545380	      9.20892337	      7.96907693	      4.04289085	     19.79659006	     91.05006191	    266.16946682	    737.80324554	     27.43842858	     13.61646970	      8.51353808	    313.84087806	    118.30003887	    114.02339237	     58.07173222	     50.22313177	     29.60598746	      4.10578804	    195.34659462	      6.69180460	     13.88732433	     70.40657943	    194.77065611	    671.91867285	     10.71516012	     20.31849237	      7.34155290	   1613.85403427	     60.62957851	     16.29297277	    302.11387623	     59.32148027	    535.25400751	    150.36096598	      3.34084835	     -7.00366491	    -25.37575740	      5.63132167	     15.73913714	    -10.09677922	      0.02779730	     -0.01206777	     -0.00365154	     -0.00524813	     -0.01022047	      0.00709328	     -5.19711738	     -6.01983916	      6.99802551	     -5.70783957	      2.10476291	     -1.28094964	    159.63763150	    703.43565343	      8.83849692	      0.19232723	     -0.01304785	      0.00617804	      0.00000000	      7.53244202	      0.00000000	     -0.00000000	      0.00000000	     -0.00000000	     -0.40419559	     -1.96849339	     -0.33242960	      0.00000000	     -0.00000000	      0.00000000
     16.73359233	      9.15857371	     63.47403815	      6.16210686	      5.92214233	      6.20180961	      7.75706517	     12.83238870	     14.58037087	      8.64855373	      4.27728955	     15.95926459	     69.07491651	    192.43206549	    441.50768686	     11.86733027	     13.16907132	      8.57459790	    252.96273130	    102.48194141	    106.74749492	     54.91566402	     47.39072623	     26.31758695	      6.97476230	    280.79722161	      6.83314465	     13.98022837	     64.25189186	    337.41541199	    529.60668518	     14.52126953	     21.46549366	      7.50384090	   1109.67897074	     52.83671920	     17.60313389	    236.26017512	     16.78840817	     50.32128986	     27.50045198	      5.57782059	     -8.28258927	    -17.92116015	      6.47592016	     10.83155414	     -5.34447862	      0.04268734	     -0.01075686	     -0.00520236	      0.00625628	     -0.00681537	      0.00558543	    -10.64783550	     -7.27753265	     14.42607501	     -3.30428584	      2.20176700	     -1.63370318	    141.81590047	    472.73358071	     11.08004610	      0.19876425	     -0.01428668	      0.00649012	      0.00000000	      5.54966210	      0.00000000	     -0.00000000	      0.00000000	     -0.00000000	     -0.71912768	     -1.87290483	     -0.50670402	      0.00000000	     -0.00000000	      0.00000000
     16.74799231	      8.91667078	     92.18074970	      6.23233309	      6.04303902	      6.24185119	      7.01953972	     13.05780536	     47.26186834	      9.19139816	      4.73371248	     10.88450525	     41.46986540	    153.36780159	    388.38502612	      9.37645090	     12.92773754	      8.55823354	    301.16747950	     85.44804844	     69.77642632	     74.23452088	     50.56781738	     22.16569780	     15.94639746	    443.55348711	      6.95960619	     14.13922053	     35.02754219	    505.12933867	    220.88669384	     21.30821752	     22.15580570	      7.57267696	    469.85549063	     56.27294947	     32.02601537	    152.04323503	     16.88250612	     50.70668560	     27.76137590	      7.82751179	     -8.80031497	      0.97113879	      4.45603212	     -0.74065459	      5.40901402	      0.06066574	     -0.01589122	     -0.00438588	      0.03065313	     -0.00161632	      0.00389756	    -19.39143419	     -8.48698964	     18.16442004	      2.93107969	      2.05181369	     -1.65583947	    102.68808089	    270.13500774	      6.82802211	      0.20754017	     -0.01362004	      0.00781914	      0.00000000	      2.77240802	      0.00000000	     -0.00000000	      0.00000000	     -0.00000000	     -1.02599888	     -1.70091036	     -0.69976920	      0.00000000	     -0.00000000	      0.00000000
     16.76239230	      8.42447549	     50.30350065	      6.23451989	      6.10130649	      6.18702946	      6.39468884	     12.91569369	     49.35618228	      9.52672173	      4.65278565	      4.54145381	     10.48572052	    130.03512358	    346.58460606	      9.10759965	     12.80100632	      8.44497040	    256.97211775	     45.76162698	     23.23124844	     71.35221818	     40.39220748	     14.12394713	     13.99130050	    460.68887602	      7.02873839	     14.25965323	     10.17170186	    522.31113481	     25.57436246	     19.08957576	     22.07086888	      7.51145007	     35.40108285	     50.72393269	     48.78400040	     32.98153179	     17.63564150	     52.87045773	     28.93021952	      3.99562082	      4.77138189	     17.90818382	     -3.04749097	    -11.81273606	     13.96771485	      0.06036922	     -0.01756656	     -0.00254174	      0.03646692	      0.00071881	      0.00095548	    -26.48506110	     -4.67647223	     14.71497157	     12.31167407	      1.75961748	     -1.26942503	     57.97240276	    116.62549607	     -0.28071299	      0.22158589	     -0.00850813	      0.00755937	      0.00000000	     -0.36613541	      0.00000000	      0.00000000	     -0.00000000	      0.00000000	     -1.30829091	     -1.45077138	     -0.88849675	      0.00000000	      0.00000000	      0.00000000
     16.77679228	     18.38264345	    138.45515044	      6.25476846	      6.13859444	      6.40534858	     15.50579305	     12.59821261	     60.35931478	    101.80730816	     13.48544958	      4.08269672	      8.05871794	    154.84567984	     20.42456450	      9.05084777	     12.94805506	      8.33507812	    110.50090480	     26.70248828	     24.43069137	     46.57405517	     31.31629390	     12.33422327	     27.58789161	    399.94181022	     30.19680268	    110.94240968	     11.00935110	    547.65249834	     24.42388841	     18.65577575	     35.05513902	     14.52108525	     34.44041258	     33.27747539	    196.35411555	     14.43657846	     19.03217212	     56.86019921	     31.03183742	     14.08636185	     47.55364976	     20.72915768	      0.40875498	    -13.99313971	      9.88110393	      0.06173697	     -0.01290283	     -0.00419734	      0.04997020	      0.00877698	     -0.00324700	    -30.97435964	      4.41378423	      6.55593140	     22.54281194	      1.33475649	     -0.62135807	      0.71112461	      0.92207340	     -0.12864073	     -0.69165284	     -1.24290748	     -1.03341572	      0.00000000	     -0.06094415	      0.00000000	      0.00000000	     -0.00000000	      0.00000000	     -1.55529530	     -1.13127930	     -1.04241009	      0.00000000	      0.00000000	      0.00000000
     16.79119227	     37.86231474	    161.02847642	      6.19855811	      6.11073046	      8.27435135	     30.20168321	     13.19265183	     50.95399553	     73.30146653	     10.25433179	      3.96577735	      8.00702083	    147.60244914	     19.54158161	      9.10861589	     13.33927304	      8.30094649	     13.48009807	     12.70692823	     24.50515586	     18.17222571	     19.55243797	      9.56269887	     29.30558509	    272.57254389	     15.08023443	     52.21841360	      9.34934056	    459.45770854	     26.80170227	     14.17991761	    165.17381128	     36.12488932	     35.33163216	     13.00293510	    173.33715367	     14.86279496	     20.81984976	     61.99801081	     33.69307540	    -12.36018582	     12.41284770	     13.86552980	     -4.86484381	     -7.93961252	      1.51274278	      0.04993261	     -0.00691936	     -0.00457438	      0.04615524	      0.00836770	     -0.00212374	    -34.69413262	     10.18902535	      0.40525150	     30.89004875	      0.72205247	     -0.09593126	     -0.00000000	     -0.00000000	      0.00000000	     -0.49803954	     -1.44011982	     -0.94566345	      0.00000000	      0.00000000	      0.00000000	     -0.00000000	      0.00000000	     -0.00000000	     -1.76186433	     -0.76234233	     -1.13169096	      0.00000000	     -0.00000000	      0.00000000
     16.80559225	     80.88854954	    251.96689869	     11.28725591	      6.12446954	     41.67252448	     57.56171031	     34.32186833	     39.62948730	     98.94448471	     15.04496087	      4.17840909	      8.28518052	     10.23348885	    280.04174437	      9.36133638	     13.83196325	      8.41847585	     13.17776844	      7.70914991	     27.33316003	      5.10873427	      8.14768332	      8.10713044	     33.87170850	    184.62194865	     13.71578126	     39.16332192	      4.34210798	    422.21384954	     28.23784819	     10.73539273	    127.58971845	     38.74381259	     36.91567691	      4.47203367	    275.20508770	     15.99933031	     22.69237409	     67.48186284	     36.46722859	    -11.29308096	    -22.77160586	    -10.43634660	     -2.57390375	      5.83996443	     -6.70237781	      0.04443847	      0.00031996	     -0.00526780	      0.03841345	      0.01514155	     -0.00275605	    -39.18155693	      6.69187105	     -0.36272057	     34.14675557	     -0.03066118	      0.06448686	     -0.00000000	     -0.00000000	      0.00000000	     -0.25343799	     -1.56171833	     -0.82427543	      0.00000000	      0.00000000	      0.00000000	     -0.00000000	      0.00000000	     -0.00000000	     -1.92634053	     -0.37034744	     -1.13718494	      0.00000000	     -0.00000000	      0.00000000
     16.81999224	    122.32107667	    341.29215445	     32.80009528	      6.20632139	     72.74327141	     87.36284761	     52.01718488	     37.18270049	    114.96804108	     17.71851526	      4.50238389	      8.75555118	      9.75340317	    333.87823467	      9.61819922	     14.17147005	      8.63001819	     12.96153416	      7.74296079	     47.91404802	      4.87353978	      5.64310897	     10.39108920	     40.95529113	    133.22648173	     13.57501062	     38.93687578	      0.81591260	    431.21655272	     28.38470488	      9.95731674	    104.50462709	     43.93055563	     39.13918566	      4.25582065	    326.24145310	     17.62605916	     24.33497401	     72.50255158	     38.91168205	     19.10516463	    -58.61927041	    -42.52402467	      5.44354237	     21.81503986	    -14.29508699	      0.04474799	      0.00562291	     -0.00668563	      0.03844509	      0.02262711	     -0.00397545	    -39.41359998	     -2.13872334	      0.99858885	     32.56090263	     -0.71050581	     -0.04540392	     -0.00000000	     -0.00000000	      0.00000000	      0.00882329	     -1.63482671	     -0.69392569	      0.00000000	      0.00000000	      0.00000000	     -0.00000000	      0.00000000	     -0.00000000	     -2.04698246	      0.02060009	     -1.05670922	      0.00000000	     -0.00000000	      0.00000000
