Moment_knee_angle_r
version=1
nRows=51
nColumns=5
inDegrees=no

This analysis gathers basic information about muscles during a simulation (e.g., forces, tendon lengths, moment arms, etc).
Units are S.I. units (second, meters, Newtons, ...)
If the header above contains a line with 'inDegrees', this indicates whether rotational values are in degrees (yes) or radians (no).

endheader
time	recfem_r	vaslat_r	vasint_r	vasmed_r
     12.31332899	    -23.78361784	     -7.62079401	     -2.38382396	     -3.33112045
     12.32946231	    -16.17741117	     -7.78295226	     -2.27235320	     -3.25639382
     12.34559562	    -10.37294220	     -7.74562659	     -2.19053017	     -3.19766674
     12.36172894	     -6.51017154	     -7.51143158	     -2.16016445	     -3.18778839
     12.37786226	     -4.55640889	     -7.10550186	     -2.17024821	     -3.22472229
     12.39399558	     -4.53046954	     -6.73629101	     -2.22635177	     -3.31230052
     12.41012889	     -5.77613027	     -6.71506172	     -2.36327871	     -3.47912634
     12.42626221	     -7.51139217	     -7.19526900	     -2.63604381	     -3.80848306
     12.44239553	     -9.11487819	     -7.56829031	     -2.85843251	     -4.02997806
     12.45852884	    -11.59308609	     -8.35900487	     -3.28584048	     -4.53666944
     12.47466216	    -13.99746851	     -8.53165822	     -3.55744196	     -4.78479091
     12.49079548	    -15.26596946	     -7.96491396	     -3.58232016	     -4.67578255
     12.50692880	    -15.43224535	     -7.30181605	     -3.55447817	     -4.50955520
     12.52306211	    -13.98984953	     -8.11451104	     -3.35618295	     -4.17361707
     12.53919543	    -13.48810496	     -9.05991492	     -3.67448139	     -4.73027815
     12.55532875	    -15.65186178	    -10.84419879	     -4.50582616	     -5.79162632
     12.57146207	    -19.03481652	    -13.23719576	     -5.64743314	     -7.21786606
     12.58759538	    -22.06879617	    -15.38872793	     -6.70127972	     -8.50153897
     12.60372870	    -22.56412420	    -16.49586803	     -7.25779728	     -9.16564491
     12.61986202	    -19.44346266	    -16.16542971	     -7.10120647	     -8.97397478
     12.63599533	    -14.14757676	    -14.54012626	     -6.30547498	     -8.01121186
     12.65212865	     -9.18334994	    -12.19991514	     -5.18170434	     -6.62811803
     12.66826197	     -5.89509385	     -9.92666069	     -4.12810844	     -5.29950267
     12.68439529	     -4.19064882	     -8.33053403	     -3.42381157	     -4.39594769
     12.70052860	     -4.02968769	     -7.45231909	     -3.28518459	     -4.06014139
     12.71666192	     -3.72307154	     -6.97244619	     -3.38750463	     -4.32212823
     12.73279524	     -3.23656593	     -8.02073418	     -3.42673131	     -4.52999632
     12.74892855	     -2.69644180	     -9.44031566	     -3.45842048	     -4.75979491
     12.76506187	     -2.15591446	    -10.26291884	     -3.27488185	     -4.66168684
     12.78119519	     -1.79975594	     -9.98817656	     -2.94280764	     -4.28380335
     12.79732851	     -1.69206774	     -8.84038791	     -2.65070398	     -3.92121023
     12.81346182	     -1.68726869	     -6.17721595	     -2.20951140	     -3.25673060
     12.82959514	     -1.80807549	     -3.27861594	     -1.81965636	     -2.58338168
     12.84572846	     -2.05280455	     -2.92686049	     -1.70609252	     -2.29524073
     12.86186177	     -2.36658318	    -10.15494803	     -2.30048012	     -3.30268801
     12.87799509	     -2.63757154	    -29.34294339	     -4.11942975	     -6.80258392
     12.89412841	     -2.76816914	    -59.08926720	     -7.30352327	    -13.22757695
     12.91026173	     -2.81421766	    -90.72169745	    -11.16923139	    -21.25737670
     12.92639504	     -3.13952701	   -113.49025995	    -14.30057473	    -27.93568075
     12.94252836	     -4.32688201	   -123.62837209	    -15.89929152	    -31.45391875
     12.95866168	     -6.84007943	   -122.21713267	    -15.91951845	    -31.57292795
     12.97479500	    -10.57681385	   -109.40439323	    -14.39719568	    -28.30625559
     12.99092831	    -14.54429531	    -87.69591716	    -11.69680582	    -22.52680468
     13.00706163	    -16.77708436	    -60.74136136	     -8.27591447	    -15.38156131
     13.02319495	    -16.00038686	    -35.62788159	     -5.07513271	     -8.91889950
     13.03932826	    -12.96726418	    -17.91317521	     -2.92767709	     -4.73346469
     13.05546158	     -9.12962918	     -8.36005370	     -1.94921340	     -2.90838462
     13.07159490	     -5.78766179	     -5.03627193	     -1.82782244	     -2.72087928
     13.08772822	     -4.04617399	     -4.94835382	     -2.04727242	     -3.12357254
     13.10386153	     -4.46768759	     -5.54468032	     -2.15442678	     -3.29096647
     13.11999485	     -6.50483885	     -5.70757754	     -2.03584640	     -3.03018525
