TendonPower
version=1
nRows=51
nColumns=5
inDegrees=no

This analysis gathers basic information about muscles during a simulation (e.g., forces, tendon lengths, moment arms, etc).
Units are S.I. units (second, meters, Newtons, ...)
If the header above contains a line with 'inDegrees', this indicates whether rotational values are in degrees (yes) or radians (no).

endheader
time	recfem_r	vaslat_r	vasint_r	vasmed_r
     12.31332899	     -0.00000000	     -0.00000000	     -0.00000000	     -0.00000000
     12.32946231	     -0.00000000	     -0.00000000	     -0.00000000	     -0.00000000
     12.34559562	     -0.00000000	     -0.00000000	     -0.00000000	     -0.00000000
     12.36172894	     -0.00000000	     -0.00000000	     -0.00000000	     -0.00000000
     12.37786226	     -0.00000000	     -0.00000000	     -0.00000000	     -0.00000000
     12.39399558	     -0.00000000	     -0.00000000	     -0.00000000	     -0.00000000
     12.41012889	     -0.00000000	     -0.00000000	     -0.00000000	     -0.00000000
     12.42626221	     -0.00000000	     -0.00000000	     -0.00000000	     -0.00000000
     12.44239553	     -0.00000000	     -0.00000000	     -0.00000000	     -0.00000000
     12.45852884	     -0.00000000	     -0.00000000	     -0.00000000	     -0.00000000
     12.47466216	     -0.00000000	     -0.00000000	     -0.00000000	     -0.00000000
     12.49079548	     -0.00000000	     -0.00000000	     -0.00000000	     -0.00000000
     12.50692880	     -0.00000000	     -0.00000000	     -0.00000000	     -0.00000000
     12.52306211	     -0.00000000	     -0.00000000	     -0.00000000	     -0.00000000
     12.53919543	     -0.00000000	     -0.00000000	     -0.00000000	     -0.00000000
     12.55532875	     -0.00000000	     -0.00000000	     -0.00000000	     -0.00000000
     12.57146207	     -0.00000000	     -0.00000000	     -0.00000000	     -0.00000000
     12.58759538	     -0.00000000	     -0.00000000	     -0.00000000	     -0.00000000
     12.60372870	     -0.00000000	     -0.00000000	     -0.00000000	     -0.00000000
     12.61986202	     -0.00000000	     -0.00000000	     -0.00000000	     -0.00000000
     12.63599533	     -0.00000000	     -0.00000000	     -0.00000000	     -0.00000000
     12.65212865	     -0.00000000	     -0.00000000	     -0.00000000	     -0.00000000
     12.66826197	     -0.00000000	     -0.00000000	     -0.00000000	     -0.00000000
     12.68439529	     -0.00000000	     -0.00000000	     -0.00000000	     -0.00000000
     12.70052860	     -0.00000000	     -0.00000000	     -0.00000000	     -0.00000000
     12.71666192	     -0.00000000	     -0.00000000	     -0.00000000	     -0.00000000
     12.73279524	     -0.00000000	     -0.00000000	     -0.00000000	     -0.00000000
     12.74892855	     -0.00000000	     -0.00000000	     -0.00000000	     -0.00000000
     12.76506187	     -0.00000000	     -0.00000000	     -0.00000000	     -0.00000000
     12.78119519	     -0.00000000	     -0.00000000	     -0.00000000	     -0.00000000
     12.79732851	     -0.00000000	     -0.00000000	     -0.00000000	     -0.00000000
     12.81346182	     -0.00000000	     -0.00000000	     -0.00000000	     -0.00000000
     12.82959514	     -0.00000000	     -0.00000000	     -0.00000000	     -0.00000000
     12.84572846	     -0.00000000	     -0.00000000	     -0.00000000	     -0.00000000
     12.86186177	     -0.00000000	     -0.00000000	     -0.00000000	     -0.00000000
     12.87799509	     -0.00000000	     -0.00000000	     -0.00000000	     -0.00000000
     12.89412841	     -0.00000000	     -0.00000000	     -0.00000000	     -0.00000000
     12.91026173	     -0.00000000	     -0.00000000	     -0.00000000	     -0.00000000
     12.92639504	     -0.00000000	     -0.00000000	     -0.00000000	     -0.00000000
     12.94252836	     -0.00000000	     -0.00000000	     -0.00000000	     -0.00000000
     12.95866168	     -0.00000000	     -0.00000000	     -0.00000000	     -0.00000000
     12.97479500	     -0.00000000	     -0.00000000	     -0.00000000	     -0.00000000
     12.99092831	     -0.00000000	     -0.00000000	     -0.00000000	     -0.00000000
     13.00706163	     -0.00000000	     -0.00000000	     -0.00000000	     -0.00000000
     13.02319495	     -0.00000000	     -0.00000000	     -0.00000000	     -0.00000000
     13.03932826	     -0.00000000	     -0.00000000	     -0.00000000	     -0.00000000
     13.05546158	     -0.00000000	     -0.00000000	     -0.00000000	     -0.00000000
     13.07159490	     -0.00000000	     -0.00000000	     -0.00000000	     -0.00000000
     13.08772822	     -0.00000000	     -0.00000000	     -0.00000000	     -0.00000000
     13.10386153	     -0.00000000	     -0.00000000	     -0.00000000	     -0.00000000
     13.11999485	     -0.00000000	     -0.00000000	     -0.00000000	     -0.00000000
