ActiveFiberForceAlongTendon
version=1
nRows=51
nColumns=5
inDegrees=no

This analysis gathers basic information about muscles during a simulation (e.g., forces, tendon lengths, moment arms, etc).
Units are S.I. units (second, meters, Newtons, ...)
If the header above contains a line with 'inDegrees', this indicates whether rotational values are in degrees (yes) or radians (no).

endheader
time	recfem_r	vaslat_r	vasint_r	vasmed_r
     12.31332899	    407.09132779	     99.60763338	     28.53321860	     36.64531633
     12.32946231	    255.20930879	    107.79682125	     27.45598044	     36.98075492
     12.34559562	    142.18159047	    110.33656490	     26.49374075	     36.95825652
     12.36172894	     66.22931104	    104.90952890	     25.56775850	     36.43957306
     12.37786226	     23.60621121	     90.79181107	     24.22546091	     35.00617227
     12.39399558	     13.26967402	     73.73449992	     22.73602075	     33.15955050
     12.41012889	     21.79519696	     62.74978741	     21.92045116	     32.10292394
     12.42626221	     30.29215339	     60.64033664	     21.87480458	     32.13885567
     12.44239553	     30.42978374	     62.27423254	     21.70080463	     32.09845271
     12.45852884	     25.51543855	     63.15538927	     21.15122521	     31.63847123
     12.47466216	     19.69000645	     60.59795909	     19.87334785	     30.13288221
     12.49079548	     15.27636302	     56.20619777	     18.32640049	     28.16995695
     12.50692880	     12.36888187	     52.16845494	     16.94889882	     26.39482749
     12.52306211	     10.49133277	     49.71907202	     15.73407704	     24.83235600
     12.53919543	      9.64707666	     47.45890889	     14.89303668	     23.82996419
     12.55532875	      9.35753828	     45.26941444	     14.12021260	     22.81644785
     12.57146207	      8.94201959	     42.73327046	     13.27230424	     21.64609153
     12.58759538	      8.14408023	     39.98576342	     12.38622577	     20.37149441
     12.60372870	      7.15249603	     37.74300899	     11.63314026	     19.26612851
     12.61986202	      6.52201736	     36.69963396	     11.18009353	     18.59881578
     12.63599533	      7.05711209	     36.92211198	     11.09173905	     18.45828359
     12.65212865	      9.56354648	     37.42745098	     11.26609667	     18.64550670
     12.66826197	     14.68538130	     36.36199903	     11.42902714	     18.69299261
     12.68439529	     21.63405125	     32.86743964	     11.37307098	     18.30557145
     12.70052860	     26.08178005	     30.59717449	     11.35214915	     18.17825226
     12.71666192	     26.32855176	     38.56330670	     12.49503980	     20.08319521
     12.73279524	     22.76411451	     62.96066598	     15.83947636	     25.86828806
     12.74892855	     18.14178237	     99.74982893	     20.86618432	     34.33574207
     12.76506187	     15.41160312	    132.61004994	     25.84081764	     42.16924263
     12.78119519	     15.13039430	    141.23024425	     28.19140939	     45.09747570
     12.79732851	     16.01244995	    112.48127570	     25.85864268	     40.10417722
     12.81346182	     17.93403648	     58.02987456	     20.54809306	     29.93765746
     12.82959514	     20.54071000	      0.03869029	     14.40614383	     17.65333099
     12.84572846	     23.90682372	     -5.12780810	     12.48749660	     11.95691071
     12.86186177	     27.48180276	    150.23166775	     24.95998991	     33.70312503
     12.87799509	     29.18540550	    577.51910354	     65.29977641	    114.04401530
     12.89412841	     26.64476286	   1284.86757116	    139.99868200	    272.22533906
     12.91026173	     21.60352789	   2120.18255621	    236.99076998	    486.89427122
     12.92639504	     23.63534131	   2840.45568409	    326.71742504	    693.36894772
     12.94252836	     46.83136321	   3247.76653673	    380.50355811	    822.12927820
     12.95866168	    100.91666361	   3244.08006914	    384.04553339	    833.50964522
     12.97479500	    180.20905061	   2835.86121851	    338.59967642	    727.70360150
     12.99092831	    255.84328015	   2142.40297161	    258.10057664	    541.24681282
     13.00706163	    288.95692896	   1375.99534859	    166.73781579	    335.73630739
     13.02319495	    262.46994987	    739.20115701	     89.71816231	    169.28732017
     13.03932826	    194.15861900	    326.79441109	     41.33824118	     69.49774267
     13.05546158	    116.79996699	    124.15597618	     21.70560573	     31.12525777
     13.07159490	     51.57556666	     58.93151571	     20.39983730	     29.21438476
     13.08772822	     12.67588793	     57.25881965	     24.77326727	     37.63593115
     13.10386153	      8.32570694	     64.55725889	     25.56751099	     39.03757582
     13.11999485	     28.00742178	     59.43987750	     20.78509921	     30.05801424
