inDegrees=no
DataType=double
version=3
OpenSimVersion=4.5.2-2025-05-03-6a4c6ec41
endheader
time	/jointset/ground_pelvis/pelvis_tilt/value	/jointset/ground_pelvis/pelvis_list/value	/jointset/ground_pelvis/pelvis_rotation/value	/jointset/ground_pelvis/pelvis_tx/value	/jointset/ground_pelvis/pelvis_ty/value	/jointset/ground_pelvis/pelvis_tz/value	/jointset/hip_r/hip_flexion_r/value	/jointset/hip_r/hip_adduction_r/value	/jointset/hip_r/hip_rotation_r/value	/jointset/hip_l/hip_flexion_l/value	/jointset/hip_l/hip_adduction_l/value	/jointset/hip_l/hip_rotation_l/value	/jointset/walker_knee_r/knee_angle_r/value	/jointset/patellofemoral_r/knee_angle_r_beta/value	/jointset/walker_knee_l/knee_angle_l/value	/jointset/patellofemoral_l/knee_angle_l_beta/value	/jointset/ankle_r/ankle_angle_r/value	/jointset/ankle_l/ankle_angle_l/value	/jointset/subtalar_r/subtalar_angle_r/value	/jointset/subtalar_l/subtalar_angle_l/value	/jointset/ground_pelvis/pelvis_tilt/speed	/jointset/ground_pelvis/pelvis_list/speed	/jointset/ground_pelvis/pelvis_rotation/speed	/jointset/ground_pelvis/pelvis_tx/speed	/jointset/ground_pelvis/pelvis_ty/speed	/jointset/ground_pelvis/pelvis_tz/speed	/jointset/hip_r/hip_flexion_r/speed	/jointset/hip_r/hip_adduction_r/speed	/jointset/hip_r/hip_rotation_r/speed	/jointset/hip_l/hip_flexion_l/speed	/jointset/hip_l/hip_adduction_l/speed	/jointset/hip_l/hip_rotation_l/speed	/jointset/walker_knee_r/knee_angle_r/speed	/jointset/patellofemoral_r/knee_angle_r_beta/speed	/jointset/walker_knee_l/knee_angle_l/speed	/jointset/patellofemoral_l/knee_angle_l_beta/speed	/jointset/ankle_r/ankle_angle_r/speed	/jointset/ankle_l/ankle_angle_l/speed	/jointset/subtalar_r/subtalar_angle_r/speed	/jointset/subtalar_l/subtalar_angle_l/speed	/forceset/addbrev_r/activation	/forceset/addlong_r/activation	/forceset/addmagDist_r/activation	/forceset/addmagIsch_r/activation	/forceset/addmagMid_r/activation	/forceset/addmagProx_r/activation	/forceset/bflh_r/activation	/forceset/bfsh_r/activation	/forceset/edl_r/activation	/forceset/ehl_r/activation	/forceset/fdl_r/activation	/forceset/fhl_r/activation	/forceset/gaslat_r/activation	/forceset/gasmed_r/activation	/forceset/glmax1_r/activation	/forceset/glmax2_r/activation	/forceset/glmax3_r/activation	/forceset/glmed1_r/activation	/forceset/glmed2_r/activation	/forceset/glmed3_r/activation	/forceset/glmin1_r/activation	/forceset/glmin2_r/activation	/forceset/glmin3_r/activation	/forceset/grac_r/activation	/forceset/iliacus_r/activation	/forceset/perbrev_r/activation	/forceset/perlong_r/activation	/forceset/piri_r/activation	/forceset/psoas_r/activation	/forceset/recfem_r/activation	/forceset/sart_r/activation	/forceset/semimem_r/activation	/forceset/semiten_r/activation	/forceset/soleus_r/activation	/forceset/tfl_r/activation	/forceset/tibant_r/activation	/forceset/tibpost_r/activation	/forceset/vasint_r/activation	/forceset/vaslat_r/activation	/forceset/vasmed_r/activation
12.31332898999801	0.05082705772483718	-0.02588504527868463	-0.191867961398482	2.33143729484641	0.9277981422011191	1.060941606686749	-0.1857886272241402	0.0411693120965194	-0.0132020048795954	0.5444031543790784	-0.06670515606759522	-0.04064294781814244	0.3156246510203514	0.3156246510203514	1.985600211799787	1.985600211799787	0.2675319455490026	-0.1535401781625395	-0.09612369296897288	-0.1220272443310383	-1.439685545956471	1.567677558411771	3.874368141584597	0.1698250435169973	0.8022758470630601	-0.2484350137114257	-3.157630171484157	-1.079657085574951	-3.604824019331975	5.644097490139823	0.952907757673246	-2.293703935172002	-1.474695276380265	-1.474695276380265	-8.137055392691732	-8.137055392691732	-0.7807721694664083	2.128366888187935	-4.493738768400629	-0.6284927328545041	0.01021460576404904	0.0101209198270777	0.01042994709988522	0.01021310689181751	0.0104095950697567	0.01154884446284545	0.01044490679638318	0.02334124021922026	0.8124575139480269	0.1179083104755228	0.02563447369939943	0.03379391913664457	0.01010379833614603	0.01003910487391045	0.01035455433695081	0.01022914586694207	0.01017663873220222	0.7274690633610683	0.0557192828510318	0.01461711834503174	0.3401268194763904	0.05667037676772122	0.03333579942417823	0.01546447205608079	0.6421805504218033	0.3632902016722813	0.5253796836140743	0.02937332722359342	0.114267799672931	0.1781964918970662	0.04628369267896976	0.01018744536573632	0.01076154759650967	0.5783245911607293	0.2779170527132749	0.3728404122416865	0.5924765451030062	0.01671928195973612	0.0201667980527697	0.01455126660068909
12.329462307198	0.0196932418516744	0.007290546399469026	-0.138583505823995	2.334824025130148	0.9411284672016121	1.057401241728564	-0.2317435715424593	0.01607815718026723	-0.07437144359871876	0.6200839770657982	-0.04332084341475995	-0.08889914813214092	0.2684152173593742	0.2684152173593742	1.835038805257747	1.835038805257747	0.2226431776354372	-0.1266789095158474	-0.160891801710919	-0.1622870098261897	-2.073694146226261	1.801853045113081	3.153229405782388	0.2025513838958555	0.7817203031727926	-0.2157656172134631	-2.382816942691442	-1.457153138343767	-3.918227924682133	4.588243222856016	1.288830785477125	-2.720046377210773	-2.178813728031695	-2.178813728031695	-9.472940662404618	-9.472940662404618	-3.514807861261355	1.595676596034111	-3.221866230595235	-1.893665431595859	0.008681961808832021	0.03931150476511273	0.01047955648462165	0.04604468038274197	0.01040767950420625	0.005163606503704602	0.01002632167646691	0.02179595233686443	0.7735252021705803	0.1660624891479109	0.02171112513006821	0.02440822228452394	0.06029239634697806	0.07438284105585416	0.01021868673516518	0.01014359230072126	0.01010505450527525	0.549889261188902	0.03848598067542766	0.01236486673237947	0.3178907714304697	0.03621986726999599	0.02059638591007498	0.01153978135954634	0.60100303125296	0.3737713463217601	0.5212590593154703	0.01999718628036923	0.07245017161256928	0.1189848602407949	0.0320410078618821	0.02877118229381016	0.01159884448269292	0.4121410578983005	0.1894111784363232	0.4938224943347514	0.4161381774318635	0.01668862531495825	0.02268048810687794	0.01522943151192499
12.34559562439799	-0.0156223353714577	0.03776004996066103	-0.09182042571805621	2.338241965790552	0.9536623065108316	1.054088988790955	-0.2662951041174449	-0.01025083448995736	-0.1380140342213942	0.6864620668906454	-0.01983024456218054	-0.1339007890333453	0.2330590436806533	0.2330590436806533	1.67450719311358	1.67450719311358	0.1491740720714088	-0.102688431831253	-0.2007032055341083	-0.1975521500007835	-2.515964146715639	1.791353697874545	2.454697883197982	0.2185444544680368	0.73032085368607	-0.1881275866992405	-1.439307393468224	-1.743794035717634	-4.070720493539241	3.496355023037264	1.50676973827552	-2.691423408140053	-1.742763390502333	-1.742763390502333	-10.65886593781366	-10.65886593781366	-6.074572915310404	1.237402688196548	-1.260350159600079	-2.117489008546577	0.01205583139581288	0.07732200926593932	0.01037804739969264	0.06673239483308534	0.009615699975290532	0.001412643699702038	0.00981947652754615	0.03906164655545813	0.6870508001733178	0.1875112030128819	0.02161917338139749	0.0198514233469768	0.09427351565089323	0.122730029993548	0.01010764027931912	0.01007243071200322	0.01001440098012602	0.3695334748306377	0.02386848446484616	0.01108778714536872	0.28078077672305	0.02241242908295883	0.0141343910125589	0.01693939545369527	0.5635418516652959	0.3516672015023513	0.4771902710265368	0.01525046653621177	0.07927676963661692	0.0667568315195378	0.0394118913887192	0.0433339275404794	0.0131259730273759	0.2530140829369216	0.1241194108369491	0.5499215571129558	0.2621797676698435	0.01596284414148173	0.02305126659879616	0.01513693659167071
12.36172894159799	-0.05542833960912136	0.06325844900761356	-0.05559404550114568	2.341614737724024	0.9647374795303265	1.051122869983379	-0.2822318501212682	-0.03873672702598437	-0.2011050389961422	0.73597587056813	0.004351601209331882	-0.1700778840671885	0.2239424187870978	0.2239424187870978	1.498165668317804	1.498165668317804	0.03837416826628003	-0.08176557664535701	-0.1997967698548642	-0.2176553009388222	-2.620486454150198	1.5038213687322	1.804130723717051	0.2118220301918674	0.6372799441790182	-0.1676101713535781	-0.3446641275141618	-1.924743764813379	-3.743687195502133	2.291920493540504	1.631147837625125	-1.976394897119617	0.2172645480104736	0.2172645480104736	-11.63608534274524	-11.63608534274524	-7.818802974360035	1.159178871318077	1.282043373475292	-0.8691747873613384	0.02574508003273749	0.1298801855901858	0.0101355561791588	0.06512097534205516	0.008427145223197484	0.006466906422150632	0.01005256127248927	0.07742451837068497	0.5530670502843582	0.174745194504024	0.02557640987294631	0.02119455447816906	0.1017781033112052	0.1488957970584785	0.01003925747290249	0.01002660412632471	0.009934508395232617	0.2026115465658112	0.01400511806035785	0.01114168561331264	0.2228597144552492	0.01874614421156216	0.01697694631146402	0.03603547059330599	0.5325100657621712	0.2904014288851281	0.3878415978165405	0.01639951123225866	0.1536404102565166	0.0288869135026416	0.07384110711511165	0.05008360756548738	0.01526863591076725	0.11994480470082	0.09572945644963661	0.5201240460220758	0.1586688170229915	0.01436193381957592	0.02049721584370153	0.01401415343703453
12.37786225879798	-0.09548282836844618	0.08302489692116344	-0.0305008983701697	2.344781884134519	0.9739160632590719	1.048495589764029	-0.2785450932418747	-0.06963303387786182	-0.2529672095377241	0.7634447675292801	0.03081288172967186	-0.1898140583540166	0.254557713154905	0.254557713154905	1.305519248519613	1.305519248519613	-0.09190182587541496	-0.06138966589172431	-0.1589024822890436	-0.2094848106423643	-2.340726651718362	1.129708744392188	1.242167724470105	0.1892274883616604	0.5131430607118544	-0.1527589391863648	0.6949257961604227	-2.020063149422706	-2.586276340136652	0.9091924163855538	1.804732861763587	-0.6402629953694046	3.163872568751596	3.163872568751596	-12.40568455877504	-12.40568455877504	-7.919161423717075	1.324610834133911	3.456447307474008	1.44676593616137	0.05395676816926521	0.1979133628419596	0.009985874782923364	0.04635592479221763	0.008880622439723596	0.02746167146512425	0.01075779723239834	0.120081551824582	0.4237005922147125	0.1444243556744834	0.02963931007800686	0.02479020509499047	0.08453361230953782	0.1592841044629886	0.01001511484962601	0.01000815186480152	0.009950418184593418	0.076280277363305	0.009433200599790291	0.01193794709868533	0.1506791713311192	0.02299948560699501	0.02648234600106982	0.06604405373812816	0.5063648373137577	0.2149592666317758	0.2889539423380281	0.01998142280157875	0.2715087793648597	0.009277353494767947	0.1201090380571914	0.04711793120975268	0.01766875996203052	0.03376965971045809	0.09898888830270368	0.4428920720493977	0.1223573754978573	0.01236029519214879	0.01611381150070873	0.01228927517119394
12.39399557599797	-0.1295392330438874	0.09857329663649469	-0.01434486941431918	2.347614774606654	0.980986307906822	1.046139979145924	-0.259543504866991	-0.1017628931899294	-0.2788803274987126	0.7660731566140483	0.06200343171478945	-0.186261077827785	0.3308309987317806	0.3308309987317806	1.100521651986827	1.100521651986827	-0.2086994383551534	-0.03920043865934213	-0.09574293594334539	-0.1657485156038798	-1.745994814391947	0.9004225878678618	0.8343786580289707	0.1629372116566084	0.3755494752652208	-0.1407029192671136	1.441510857350881	-1.979641795789003	-0.5667933944784167	-0.6092045183845736	2.134415791153694	1.029107749483592	6.14139030980806	6.14139030980806	-12.88686743867521	-12.88686743867521	-6.176916640049548	1.509553488111857	4.226658002271918	3.829625731637888	0.09558875071950713	0.2757901696873638	0.010240503571825	0.02386246542611838	0.01360807872837309	0.06424157866165386	0.01140857481805815	0.1464722180119661	0.3547557618843164	0.1205193207426297	0.02922853375387767	0.02553258953868944	0.0565157036192926	0.1637604421652447	0.01001922925691127	0.01000883096592669	0.01013319053128594	0.005672802522987012	0.00863392934305263	0.01227093785984296	0.08003090145587835	0.02849104455098982	0.03552031558057616	0.09917649149520505	0.4784051562411165	0.1589509987224629	0.2257052431721727	0.02057426039466678	0.3817390239697639	0.004862333886822673	0.1549511271251242	0.03635690199025624	0.02081383852708883	-0.001889577886040592	0.1120441717057686	0.3808615507536169	0.1370885253426482	0.01070734847951484	0.01200021087674303	0.01073509925100236
12.41012889319797	-0.1525524685108699	0.1129015494245244	-0.003286676897715723	2.350085504751602	0.9858782513337339	1.043991183988396	-0.2321655947902941	-0.131540686791867	-0.2680491673627417	0.743902188617964	0.09996108018424214	-0.1567104230157031	0.448293625069629	0.448293625069629	0.8913109511481543	0.8913109511481543	-0.2852470907395287	-0.01667577539900927	-0.03672818591465043	-0.09283183532278674	-0.978533682664964	0.8963867062179647	0.6470571934832181	0.140815726361384	0.2356170458837102	-0.1297285368863944	1.774571457051072	-1.662669925439461	1.84039713866284	-2.06865071861914	2.571327850512774	2.637222560787662	8.425031667222916	8.425031667222916	-12.80805985361041	-12.80805985361041	-3.401270433335708	1.353204798384174	3.241830103700161	5.179441417846312	0.1404246510500802	0.3482397251803642	0.01091931115695159	0.009140504375589007	0.02317346637101222	0.1039287829718691	0.01089587882882345	0.1513200678012923	0.3504281326483444	0.1111388964550557	0.0234996651575438	0.02153695863225593	0.03483197557516826	0.1638850176362064	0.01003006433018401	0.01001632788033656	0.01040466097245778	-0.01477729789223129	0.009264733178914375	0.01122834155166814	0.02899792388553625	0.03064422900365753	0.03856677927037485	0.1272308474518774	0.4423308022050011	0.1341945259152414	0.2112899849298146	0.01688322094006307	0.4409320762611584	0.007900454331155625	0.1666873506935819	0.02373716597160985	0.0255607548900814	-0.003569086482291666	0.1150653440790559	0.3619503116619339	0.1595189974770217	0.00985328211832503	0.009656901033261531	0.00987736647563224
12.42626221039796	-0.1624283529104677	0.1283529259700235	0.00680889138420772	2.352229517538159	0.988546267556229	1.042008806839219	-0.2031571011397942	-0.153100466604258	-0.2203983925334888	0.7008098981318984	0.1445087911703067	-0.1046987894220587	0.5952126610067174	0.5952126610067174	0.6911076652373171	0.6911076652373171	-0.315677763079788	-0.000532228254646357	-0.005257850417758708	-0.01142731149386767	-0.1994414622117794	0.9975999623600073	0.6743857123763903	0.1227486129404929	0.09360712474005461	-0.1190828545189173	1.739712263774154	-0.9607158288387745	3.880283480092515	-3.168668104372842	2.913980274496385	3.783404039701712	9.780946040509113	9.780946040509113	-11.775061277499	-11.775061277499	-0.8763079909976168	0.5745731227449673	0.9556306912429062	4.788021500594709	0.1701066212672087	0.3898704820857715	0.01139621454020925	0.004926547985814146	0.03358477385011269	0.1264903646273443	0.008456933188018809	0.1473889278483331	0.3630607955541097	0.1060183287201604	0.01584320434405909	0.01527294714810225	0.02796801927995388	0.1545892357684517	0.01003479012879666	0.0100218783939284	0.01044728452527734	-0.0005503522812863211	0.009900491525156166	0.009110741358443086	0.01096203502971893	0.03344809550695734	0.0382772878390571	0.144833802756578	0.3994852667540779	0.1261481998445718	0.2202020295427652	0.01581741318950192	0.4383063920189982	0.01154565960709567	0.1630264177122846	0.01689998806433843	0.03106359837603925	0.006250334383379766	0.108306035640208	0.3625398373428412	0.1515976022004403	0.009711268230557946	0.009145441499199882	0.009705172995497967
12.44239552759795	-0.1602402330170977	0.1447074789721193	0.01845808777802975	2.354068152293816	0.9888651116591178	1.04019634977698	-0.176855799591903	-0.1606686287594306	-0.1473559969174366	0.6450977974917165	0.191995227739569	-0.03985178458522231	0.7580539650821297	0.7580539650821297	0.5178298026068913	0.5178298026068913	-0.3137236786999397	0.0006413887843538212	-0.01400969688913311	0.05086068597688242	0.4306571340065053	0.9880142680311288	0.7681316635775608	0.1043775847500476	-0.0588127444781221	-0.1060546134868964	1.532523621715301	0.03195129434542407	4.949086294726424	-3.614357325318468	2.908000419695104	4.174006079472973	10.33258178739284	10.33258178739284	-9.52598117884799	-9.52598117884799	0.5306982474379399	-0.6862221321422123	-1.7916454919986	2.648867391193272	0.1667725656256587	0.3749443357723463	0.01056505093756087	0.006934042323622411	0.03734154721740723	0.1183850175000905	0.005510333952651205	0.1507859799905095	0.3461370443408021	0.0949768319702919	0.01032763894212613	0.01042252249338483	0.03211849436697195	0.1362923007822963	0.01003436107265945	0.0100230721793362	0.009866815257199986	0.03427778755648519	0.01063322183655858	0.007796735976740423	0.02830483324146863	0.04696964253372561	0.04447065824928554	0.1504587001647708	0.3588885745141261	0.1166359096092323	0.2205471247958384	0.02882249890726558	0.3934463135965544	0.01301218568653177	0.1608491597908081	0.02077671507932435	0.03558059026972762	0.0131852861841695	0.1093203961368774	0.3481186463822042	0.107965701829147	0.009892006387195321	0.009571195006042671	0.00986958976729734
12.45852884479794	-0.1498993088504112	0.1589468693282335	0.03059044593831156	2.355580081624999	0.9865568364618548	1.038638746904265	-0.1535090889223253	-0.1522992940437668	-0.06667554617682284	0.5886162693388224	0.2354655247468514	0.02494015200506398	0.9256497488584726	0.9256497488584726	0.3900775369671605	0.3900775369671605	-0.299558812331943	-0.01583211235581614	-0.06358657696319803	0.07114282245440014	0.7515002480483056	0.7149452069594566	0.6761667634147628	0.08308394476771132	-0.233712909414563	-0.08525361772416637	1.450043838859982	0.983499359211191	4.875720434599996	-3.244267341425453	2.384218811550038	3.757988652909845	10.34614582260523	10.34614582260523	-6.203034675106732	-6.203034675106732	0.8289321728621444	-1.696843579343259	-4.21918025333464	-0.5072693009226001	0.1266089179943763	0.2981060318602305	0.007958055279843074	0.009833898445819526	0.02959346353322547	0.0828895668862409	0.00689455948115798	0.1668438999410625	0.2949639672724392	0.08021442159687846	0.008443685013114155	0.008592224289059536	0.0382358472782578	0.1179537403135253	0.01003884221019482	0.01002238298890359	0.008723375806131323	0.07594624212509506	0.01229249633162392	0.01005671424922134	0.06785580052299391	0.07495815478374308	0.06346372166677844	0.1470224501227915	0.3279834309857732	0.1018737080933582	0.2036747711201617	0.06111523268413543	0.3360180358427752	0.01275393587355974	0.1702090182915889	0.03333250135931003	0.04198763219299583	0.01404073209564355	0.130445072647967	0.3136421720383998	0.05285029419121087	0.01006708362072894	0.01005162714784246	0.01004617849322041
12.47466216199794	-0.1376763005541402	0.1667805391589293	0.03840604457839476	2.356734196499878	0.9811920519857305	1.037501567011938	-0.1285974441533694	-0.1319054290910704	0.004912154362013282	0.5441623025207959	0.2666257390826653	0.07832335272199369	1.091085166579795	1.091085166579795	0.3204662413215819	0.3204662413215819	-0.2864069479859599	-0.04017804077705125	-0.1449096025037874	0.04133211761639063	0.6385660813666135	0.1783879241519405	0.2203434192656296	0.06009678249310181	-0.4379962911315245	-0.0534734536231408	1.77356345734889	1.529775916001743	3.922838524272953	-2.121003214285602	1.366541744858432	2.791905713229132	10.09487067554929	10.09487067554929	-2.398794133174309	-2.398794133174309	0.6579183378501897	-1.542243324589739	-5.788600626795421	-3.508708165450806	0.06876717087528841	0.1907490149804083	0.005447270524684394	0.01110620009107205	0.01544560809644541	0.03998882804321417	0.01918499014859718	0.1893295385254556	0.2356895935795081	0.06937757169514205	0.009043679542497745	0.008957478602045895	0.04090068824920012	0.1067485489876354	0.01005718741439934	0.0100241833958772	0.008126886151257522	0.1061684687304242	0.01518637334481366	0.01745155275681316	0.1038553566949902	0.105537334617973	0.08827873114307755	0.1420004374215727	0.302788780487372	0.08798460893245477	0.1813756704230943	0.1031421214706721	0.2872437800716223	0.01205156134776169	0.1875252807496919	0.04585408466174264	0.05999567762291202	0.01176823225007321	0.1605159577071238	0.2784668501282465	0.01377878385026078	0.0101272894387334	0.01022494357011183	0.01011306731657594
12.49079547919793	-0.1308536295069059	0.1647339927766866	0.03619490198343483	2.357521533791094	0.9723674263088307	1.036940024525592	-0.09448793676238368	-0.1070130912168493	0.05727144995595329	0.5217493610004442	0.2789729463969335	0.1148660326673763	1.25152353732507	1.25152353732507	0.3104611969586795	0.3104611969586795	-0.2758254843114709	-0.05290784676503463	-0.2422885655056714	-0.02860750117895551	0.1021255665667447	-0.4985364383317864	-0.5305302609571914	0.03724833916896764	-0.6591023771216064	-0.01522318204029404	2.580666069494581	1.57608608332256	2.591434312344489	-0.5576466811041476	0.08309874257171357	1.723912511971912	9.770353692905102	9.770353692905102	1.106086752911841	1.106086752911841	0.6662581244185899	0.03247473225149733	-6.199753024511394	-5.295934603210766	0.02928514735650547	0.112029599737662	0.007816901151683552	0.0110453822229145	0.01067459650056658	0.01710542225370573	0.045896873799679	0.208537778522399	0.1915777360213818	0.06473612770986267	0.01024557998869505	0.009913103748804296	0.03958786009997581	0.1010613110071468	0.010087088630762	0.01003153478642801	0.01007383760245839	0.1076799859167185	0.01838587929845776	0.02785061413085649	0.1121624126872128	0.1184455949337481	0.1024244020990562	0.1450424497300901	0.2690920689612166	0.0791021842154659	0.165025521849337	0.1341403341999544	0.2547458338899778	0.01153855444430026	0.2017857225060847	0.04957344052697327	0.09756213408782433	0.009702256406956516	0.1722268563430038	0.2570428111011512	0.0002788131355910563	0.01011643442659349	0.01016084129621471	0.01010365490179802
12.50692879639792	-0.13474552332051	0.15152795773985	0.02141533868190564	2.357933111255062	0.9601087506423603	1.036977521389943	-0.04488645213366704	-0.08341397963885809	0.088563917522977	0.5247460914047394	0.2705622480846186	0.1361585772737022	1.406362228677787	1.406362228677787	0.3503113396390435	0.3503113396390435	-0.2621346206309338	-0.03682881846649443	-0.3367705339245788	-0.1160229728373309	-0.6152847901404692	-1.158779018800038	-1.280898973207164	0.01298357387157431	-0.8543523644524076	0.01900982326329061	3.612166652763082	1.396184162520774	1.366337309914791	0.9218044132031066	-1.128997822668589	0.9377255010342862	9.41832695195545	9.41832695195545	3.715561398409497	3.715561398409497	1.073897816190215	2.308947022849938	-5.407643121922908	-5.417162456873291	0.03979566784950333	0.1132395704984124	0.02013964236834302	0.01088447102308611	0.03187666089175493	0.03471058265036313	0.08367646109854864	0.2183638813638164	0.1681941011244126	0.06300330788089441	0.01091564135187079	0.01046524484327873	0.03501241736135996	0.09620113708434883	0.01011395882153285	0.01004411742039558	0.01586558749129802	0.07698088926169572	0.02010159612700861	0.03552159666457747	0.08653658453841841	0.1029646470587485	0.09452127706450607	0.1635677979347585	0.2164509952312485	0.07454210877612422	0.1547704443055234	0.1364893469084359	0.2383784514516098	0.01119542140438166	0.2064717677937674	0.04283610359979347	0.1504963509322711	0.009076380076787927	0.1476665176514199	0.2466734952871723	0.003827964151675437	0.01010238258151633	0.01005190820170541	0.01008477099387812
12.52306211359791	-0.1490403758746153	0.1282486906019552	-0.003326068725058683	2.357909781807641	0.9453219386186621	1.037479050711297	0.02009794517820854	-0.06100198491048898	0.1032305313192203	0.5471621235122697	0.2448427144376126	0.1479562102111611	1.554593367892088	1.554593367892088	0.4236242876874319	0.4236242876874319	-0.2398948893679897	0.01331825414821616	-0.4107905488240182	-0.196099220086085	-1.080759174860091	-1.688757139269376	-1.726834373329982	-0.01693344832035443	-0.9596920851649585	0.0415766205534334	4.364697844827707	1.424187875676391	0.5322347804936686	1.707942415451569	-1.978027469702768	0.5550704448908454	8.933289554225302	8.933289554225302	5.205968336370319	5.205968336370319	1.686306677987677	4.32865084180508	-3.685708111683686	-4.149122951275525	0.1051493534770004	0.2019099902219692	0.04252766261118658	0.01124659073819287	0.08177423429620323	0.09253876227451718	0.1243591271240012	0.2189724985632951	0.1610520356328924	0.06142776999319031	0.01091901957598229	0.01048608523103125	0.02961633977062508	0.0930390524773979	0.01012316916190254	0.01005853387899136	0.02399064071844766	0.02901482200758223	0.01891981937828658	0.03532973652452965	0.04213938407118629	0.06693930879037932	0.06792368128862332	0.1997288572514214	0.153242177508412	0.07226455921811636	0.1455996804382399	0.1086195435581523	0.2372081342826526	0.01088570082633608	0.2069774129053088	0.0309453441655333	0.2061419928808389	0.009443099738003519	0.09453288009776373	0.2395010800868326	0.01104916309262775	0.01010780595429787	0.01000748016089838	0.01008416811218756
12.53919543079791	-0.1663963122629478	0.09744616169627476	-0.03207179550175308	2.357338131204834	0.9299207132077097	1.038262966635038	0.09237802634109915	-0.03393623557158694	0.1082208058441693	0.5738398955722441	0.2089166115186425	0.1558360131941141	1.692722286946888	1.692722286946888	0.5126961964827434	0.5126961964827434	-0.2083200658152781	0.09262076113699125	-0.4533748954674517	-0.2515195639441552	-0.915512138786829	-2.055030159002132	-1.778359870526406	-0.05447931346388281	-0.9210381300627085	0.05480390620352325	4.428355871926449	1.941314690094199	0.1377111013922145	1.340971178234345	-2.351276059149937	0.4508471863088106	8.130980864863627	8.130980864863627	5.632417709684188	5.632417709684188	2.186576262774524	5.730927727078096	-1.57937305100585	-2.235474535737485	0.198397897942535	0.3359190012144206	0.06707694800515207	0.0118344968224068	0.1426135075606793	0.1662303450661554	0.1620074184057611	0.2169696942117484	0.1661811209129583	0.06076017091815021	0.01064338670044511	0.01028088095688558	0.03129802932946796	0.09923591364010517	0.01011342705562135	0.01006960598891347	0.03006301974207267	-0.009792074763125023	0.01494539415471458	0.02744241273593416	0.004895634667356562	0.02916101852189295	0.03654994549684808	0.2503937494048997	0.1076473356308813	0.07117619767751243	0.1372394078561677	0.06565667374488754	0.2512536383499154	0.01060862241582415	0.2182040464314026	0.01972307690595598	0.2582432932110603	0.009967332936409487	0.03960958729715981	0.2373023566870701	0.01433810277099351	0.01011460764815169	0.01002014939765528	0.01008841074503884
12.5553287479979	-0.1758192431402729	0.0618959977147496	-0.05953874225571287	2.356120893494382	0.9163828730749084	1.039260008567328	0.1603787463172811	0.00532687865469899	0.1098053787513172	0.5850852687661139	0.1702482637255509	0.1626154541584286	1.814366777305233	1.814366777305233	0.6012872215529288	0.6012872215529288	-0.1709340585831807	0.1934071929116359	-0.4630628189387597	-0.2770983654046153	-0.1063383317098319	-2.276366879251798	-1.601424612877833	-0.09558075370984033	-0.7289420425257888	0.06952736243586102	3.848952549525482	2.894189973468307	0.07827790006340767	-0.2091799078442396	-2.332792469890827	0.4259202056264779	6.865205268147793	6.865205268147793	5.123939547983237	5.123939547983237	2.392468099169151	6.665951749134929	0.3180376389691258	-0.4825612099462855	0.2784859171875347	0.4523161832016005	0.08166911946350036	0.01207264334644326	0.1858879277807472	0.2207535493528943	0.1977081931431131	0.2236765648564016	0.1828379665858779	0.0638785561075248	0.01045255112190908	0.01012892986127518	0.05058982312675854	0.1240557960650928	0.01009458235392812	0.01007056255441265	0.03012214045052753	-0.01097568085232649	0.01002168213735267	0.01714544125464856	-0.001620985167470855	0.006219173374437865	0.01357524917095759	0.308369478414852	0.1102870778421891	0.07210897129572692	0.1353454364944336	0.0279123735114311	0.2790889724002023	0.01041191791213373	0.2543905900680458	0.01154070209558209	0.3128961548710975	0.01020872801045409	0.01071501442938741	0.2515676520752992	0.01337901568511102	0.01009746786034474	0.01002710861324185	0.0100728508813884
12.57146206519789	-0.1698709690567297	0.0241607067060562	-0.08421314446730946	2.354274137426599	0.9068972991076282	1.040586754785568	0.2174847202552629	0.06086734819284375	0.1120774564813787	0.5650491681304528	0.1340997687375491	0.1685314799180122	1.911704942183712	1.911704942183712	0.6749437678854463	0.6749437678854463	-0.132577578093541	0.3076581333633074	-0.4465682855941671	-0.278966594776751	0.8863037066015487	-2.347025997197377	-1.469551624270163	-0.1307585312544301	-0.4293590798975598	0.09665562065140546	3.193606223064418	3.921472580656863	0.2005255385032997	-2.416704200171863	-2.09021723679151	0.3533890312022847	5.119737361716488	5.119737361716488	3.790808653107333	3.790808653107333	2.323715691505746	7.149063072991579	1.624584587314565	0.5430785211828162	0.3154620361600737	0.5057938562722314	0.078533076049581	0.01181187074040817	0.1912802053656637	0.2319284349909615	0.2358169794439009	0.2492786086511872	0.2106333763460613	0.07310163147046561	0.01042770401048943	0.01010392975375927	0.08981659893279857	0.1708488731273574	0.01007302516035026	0.01005416824783213	0.02430711076766724	0.04608100336094467	0.007125359426245371	0.009959533445989341	0.03446133546670989	0.005861626544711979	0.004111801528913314	0.3631336652478394	0.1706496276529814	0.07768075906344282	0.1445748937486294	0.007382944631181242	0.3153469330369754	0.01026074785329538	0.3179634879284358	0.007777280290507667	0.3767356215424839	0.01017734933581398	0.02216687089426824	0.2905049529287863	0.01106421420015944	0.01005005177508042	0.009984131349435977	0.01002910780757942
12.58759538239788	-0.150741624606734	-0.01279584741639738	-0.1084014299605455	2.35198737762651	0.9026144142754124	1.042473414716999	0.2680639238336404	0.1299104186437333	0.1167225851900707	0.5095008819713694	0.1031173152799642	0.1726770389983418	1.977787309233463	1.977787309233463	0.7211654431658916	0.7211654431658916	-0.09672617397034938	0.4234308784941028	-0.4143387767456181	-0.2703222358010597	1.397089444808114	-2.20649515250314	-1.555690048415152	-0.1486836001930424	-0.09910867150395312	0.1384744057778779	3.171479321658103	4.54768463803813	0.3545842252484843	-4.433610117846921	-1.749968794314004	0.1967604495285686	3.015081220965961	3.015081220965961	1.782010791873089	1.782010791873089	2.109724171546572	6.794278111329699	2.265345367219329	0.6270247376688298	0.3029717903520479	0.4875850530041865	0.05989969079770013	0.01140535675100244	0.1586462520703867	0.1986821170515008	0.274127526683042	0.2934965298577873	0.246000943877162	0.08784069828899087	0.01044984920376946	0.01013853505323037	0.1355902253198999	0.229856452954562	0.01004529951333784	0.01001966999721128	0.01653913225923495	0.1594350702736879	0.009278579748509146	0.007630161483827989	0.1059425643988374	0.02724371001064189	0.005822523252848067	0.4019051002529889	0.2665655338937533	0.08895569698607791	0.162876259558696	0.003090218639433715	0.3506753016158732	0.01004252498726622	0.3944048406125501	0.01213586111922114	0.4412989468155473	0.01005827427956214	0.06863804758694955	0.3470650574128388	0.009601035039725174	0.009995676749361717	0.009915612647937611	0.00997948354667258
12.60372869959788	-0.1297424638108821	-0.04526931963570074	-0.1354632084684303	2.349620477005919	0.903479818670774	1.045089320753047	0.3251667429632852	0.2030618912222468	0.1230894678725902	0.4270796974328363	0.07823554377758211	0.1739138793547598	2.008238104441506	2.008238104441506	0.7307600543363978	0.7307600543363978	-0.06481784364065651	0.5224871959215751	-0.3763117669625921	-0.2659160498324665	1.054286350314292	-1.819585944614639	-1.809202002782816	-0.1401040306465598	0.1972928660446405	0.1852148223033471	4.045911363180772	4.438206240429354	0.395285821463126	-5.621532236306805	-1.379777876983267	-0.04570336779664166	0.7353688732316618	0.7353688732316618	-0.6436058845817128	-0.6436058845817128	1.851596218467539	5.175190462046605	2.359486216181136	-0.1123444252877493	0.2546859349333331	0.4191712049906215	0.03585319411603997	0.01125594210009185	0.1051353081084182	0.1393094879144856	0.2993703363127422	0.3408439064036252	0.280896027464415	0.103937126346867	0.01041909200359023	0.01015615122619031	0.1646059741791622	0.2777561545822205	0.01001014636000823	0.009984428672838193	0.0105778831145312	0.2941689038529272	0.01768080899120739	0.008425351025020142	0.1853175625472702	0.06246098078412021	0.01343416211219169	0.4128111758448091	0.3560831175680683	0.1020355180434485	0.1827480719917647	0.006670380533224839	0.3748903801818916	0.009719628877560341	0.4565983454143176	0.02823606740032455	0.482212805769604	0.009983405077844159	0.1279992914683895	0.3999031514281083	0.009376259939512445	0.009982226047472183	0.00991977190613965	0.009973731345141758
12.61986201679787	-0.1196425712457502	-0.07008904434951232	-0.1663301763093386	2.347639359704439	0.9086907602439567	1.048373657123213	0.4004267252993102	0.2680825347088769	0.1282367321864592	0.3321870167641163	0.05918295572549846	0.1709263593775385	2.001622956673811	2.001622956673811	0.699681442638962	0.699681442638962	-0.03739816126856428	0.5843980119278425	-0.3402239504433767	-0.2768408053301324	0.08904158337931994	-1.287026209031011	-1.994589647001961	-0.1014685821997127	0.4354854051595086	0.2190830834443019	5.346851534239615	3.573533458592598	0.1913061211720639	-5.967174926650834	-1.051699045586276	-0.3760174243755147	-1.548079953352585	-1.548079953352585	-3.132531762306607	-3.132531762306607	1.550077939078478	2.355102210280538	2.044425174434745	-1.31384874211163	0.1954567595049624	0.3356798799411811	0.01681075025774544	0.01140319394774936	0.05328884942070236	0.07957818003351272	0.2963128594495339	0.3684008847627164	0.304852589964243	0.1157521770444941	0.0103519500878615	0.0101349023199726	0.159688050439914	0.2898242637079637	0.009986149926785287	0.009986742315312106	0.00729444790296825	0.3942000836319729	0.02954991043355514	0.009862343370958176	0.2376700613204809	0.09760002918756523	0.02183700646261532	0.3899818981928577	0.4028715213964391	0.1106750510618825	0.1966802041848622	0.01056758371428536	0.3820380054187325	0.009532827267004693	0.4771817851208021	0.05313278010040999	0.4759886520712963	0.009972492629323855	0.1731014797534852	0.4269241438871516	0.009757631379019357	0.01005222632669615	0.0100975624259727	0.0100556889725218
12.63599533399786	-0.1257358576233003	-0.08682419217132646	-0.1978517551720486	2.34649817939114	0.9173249054306081	1.051985432591819	0.4940400802820011	0.3150345603801336	0.1275944631819496	0.2349851516096917	0.04424189660373277	0.1620786521434135	1.959053293078893	1.959053293078893	0.6301571854634408	0.6301571854634408	-0.01557159540911758	0.59478415117829	-0.3119588131273913	-0.3069835388355467	-0.8474489530405929	-0.8365828691202563	-1.867033314183638	-0.03787212523728345	0.6227701305193645	0.2244437725183692	6.193302812617548	2.240770944282887	-0.3134146775434829	-5.9795837657923	-0.8636520197130397	-0.7998279398728305	-3.69156908736108	-3.69156908736108	-5.29893339963214	-5.29893339963214	1.142894864650007	-1.030238472885793	1.413836266710702	-2.498772325623419	0.1519739761938083	0.2702191784458699	0.007239412536848447	0.01143148981160937	0.02005404265542696	0.04161844180184206	0.2624866934615371	0.3611085633161469	0.3094585392355356	0.1190932521186296	0.01031305015868539	0.01009635580143077	0.1226441841651416	0.2572878218266323	0.01001203575452201	0.01006092101915818	0.00598104214466947	0.4146159678159657	0.03839909818306197	0.01062468344271686	0.2417802878002583	0.1166772231024664	0.02693128870535266	0.3376372028029695	0.3950164481293159	0.1124250095534025	0.2009764177377183	0.01186925452645009	0.3732218139281681	0.01004694632438011	0.4429946947277367	0.07582909583125047	0.4186856488184817	0.009984692688925184	0.1862709502505179	0.4192343201407144	0.01012244126836207	0.01018551580441599	0.01040181527695596	0.01019823262149109
12.65212865119785	-0.1429879007185918	-0.09854820375777641	-0.2242169434605162	2.346492791515569	0.9286155339949402	1.055426357515756	0.5933542344256643	0.3398127643807792	0.1168225544327476	0.1369515560207224	0.03046632828019397	0.1453573444815085	1.883927959893219	1.883927959893219	0.5308139329926858	0.5308139329926858	-0.001300650055215496	0.5502307443121505	-0.2956904044714609	-0.3519914201573647	-1.210501608387023	-0.6573220162717679	-1.35889434871475	0.03656943688533713	0.7662467310470548	0.1983014208683682	5.974498758151066	0.8529123002061295	-1.030322728505432	-6.142010049336024	-0.8671158202407159	-1.340893372491826	-5.556673441558747	-5.556673441558747	-6.768844856245712	-6.768844856245712	0.6015752941139048	-4.259790183278376	0.5952871814092424	-3.192773837199627	0.1401613117290711	0.2401199884944036	0.005314688988154406	0.01071199088613507	0.01187643407830748	0.03630979669873552	0.2118244065580742	0.3200776339360403	0.2923734750558854	0.1121069009065	0.01032988389166767	0.01008105427321419	0.07247336767757234	0.193227933740778	0.01011415580337758	0.01018379687117586	0.007417028816850199	0.3492710473284303	0.03849382572283422	0.01067114824323866	0.2012841853877378	0.1100809656157788	0.0264980688508431	0.2695387875833719	0.3434214424024925	0.1094740611062549	0.1956465599098213	0.01128394927653965	0.3535290395043784	0.0118303917252033	0.3631809502794088	0.08591904123422753	0.3285593380797679	0.009987781230443171	0.1662767135013899	0.3833052046784133	0.01026712910359538	0.01025477088460182	0.01051359782366959	0.01025472284724153
12.66826196839785	-0.16117451553274	-0.1096733316263438	-0.2403686116959833	2.347644199763125	0.941761229087117	1.05827366986061	0.6811323086865565	0.3442112462013837	0.09418240967431284	0.0352572600023295	0.01527228585383562	0.1182358550521987	1.78179488721444	1.78179488721444	0.4159610892227867	0.4159610892227867	0.003673645082763381	0.4559739381978227	-0.2925764207655832	-0.4008762249644091	-0.9548930438868993	-0.7220712974490254	-0.6290236428839313	0.102854347353985	0.8518652144350983	0.1529216152615795	4.78319531631723	-0.2818899656029192	-1.739630256542302	-6.443914215210397	-0.9809553020753148	-2.047102190780377	-7.023246194371001	-7.023246194371001	-7.223445743250874	-7.223445743250874	-0.006025936411320862	-7.000397657779036	-0.1653015146295806	-3.057134201011752	0.1552095892131057	0.2393538507816859	0.007493915713902434	0.009156868309398655	0.02545281926820202	0.06014787942779071	0.1639571839500761	0.2579532639519313	0.2582529411304353	0.09525110048472078	0.01038048622253527	0.01013194326172227	0.03097794529804196	0.1219006210926178	0.01025352087960395	0.01023945012487129	0.01469831844536323	0.2321373858723382	0.02984838302095932	0.01043016892466817	0.1378281736171486	0.0816321230927652	0.02137229066413393	0.2029696260677826	0.2666933400779087	0.1037399766058226	0.1824491368820112	0.01049359993605653	0.3255898882154704	0.01483439226718325	0.2644796665808024	0.08421760008827213	0.2325138177145999	0.009991670786138813	0.1246707658977153	0.3323950974168233	0.01027605575362011	0.01008331551012934	0.009976132329859423	0.0100284179585848
12.68439528559784	-0.1729040957635624	-0.1222169267068265	-0.2448094900766513	2.34968074083864	0.9556350791554438	1.060371001088665	0.7461405854728723	0.3330746708119886	0.06183068082636162	-0.0691178816088294	-0.00141249488555083	0.07787256920371657	1.659574994978349	1.659574994978349	0.3038568827133911	0.3038568827133911	-0.0006888708715943985	0.3206487721894711	-0.2990082055103155	-0.4399817609162192	-0.4639619939405304	-0.7830517811456833	0.05791790154207875	0.1447935217007243	0.8547524808427234	0.1080559356974294	3.238607070116168	-1.083344052512636	-2.20025728580209	-6.432202862992453	-1.006856444857155	-2.929877450767966	-8.049364224293575	-8.049364224293575	-6.477400255080489	-6.477400255080489	-0.5351632265728071	-9.238531885785848	-0.5395005343430266	-2.036975040625457	0.1765634184069735	0.2456653556565734	0.01284641735978184	0.008346711421438642	0.05136488243354131	0.09817005042888301	0.1324036507937329	0.1894313562517077	0.2166429068739715	0.07288895313417455	0.0104162578441883	0.01025808687707611	0.009135265475298441	0.06354235031776431	0.01031435279624402	0.01009405352114645	0.0305785762329398	0.1137370383318867	0.0180658709010894	0.01015049172415849	0.07586168158217962	0.04620588101939543	0.01486020617207107	0.150634194244599	0.1811522879733586	0.09480589260915379	0.1637948297478712	0.0104243725860456	0.2870123027617233	0.01797562554031869	0.1753164195883819	0.08258054995588551	0.1520001833797911	0.01003373423401135	0.07750738461231635	0.2787530924811329	0.01023915502610514	0.009665246083758277	0.008750740373523636	0.009524243581226843
12.70052860279783	-0.1776399385086185	-0.1336945077556989	-0.239958718811802	2.352143797195991	0.9688199240064277	1.061861684253847	0.7874932616132055	0.3110627514806464	0.02515976806553525	-0.1676523494056686	-0.01639077680840916	0.02242524453756307	1.52392539199952	1.52392539199952	0.2137593621633162	0.2137593621633162	-0.01194947800253734	0.1545584489618927	-0.3064119681888465	-0.4582757868069007	-0.1493086541306613	-0.5634390081477957	0.5004715297561916	0.1559798458243071	0.7669250281853796	0.07981513111314213	1.930733855766394	-1.63587547807699	-2.265995006203756	-5.681377364846021	-0.7652740227997787	-3.87080028258217	-8.709127641409486	-8.709127641409486	-4.565802460550642	-4.565802460550642	-0.8312230904929614	-10.86231618644124	-0.2626830208711698	-0.4397846869148025	0.1853017128583462	0.2388746599168539	0.02312285763082768	0.01180157444798426	0.07834880594216438	0.1315676720160706	0.1212028876168546	0.1258102943886526	0.1794089864891442	0.05372654952282253	0.01039526740207477	0.01038536358992357	0.004468951690718518	0.02709960946934643	0.01021372882360154	0.009825772228634018	0.05391062835794418	0.03194453967493888	0.009281637538120115	0.009828437003964078	0.03165584201001211	0.01899929763380961	0.01021530202881586	0.1157470372346988	0.1016896679333772	0.08354382888253092	0.1423684929129506	0.01096818099493987	0.2346981083844914	0.01956207758989616	0.1102932027709711	0.09311405987777829	0.09824904944082406	0.01012767239867037	0.03846807979203928	0.2324406232136708	0.01011627493982662	0.009437032950688786	0.007929834448813856	0.009250712367792208
12.71666191999783	-0.1794537030866221	-0.13852715009673	-0.2304011974914905	2.354567162855662	0.9800148219855553	1.063079017952045	0.8107462017327889	0.2813966229678088	-0.009141877972299157	-0.2481056755528902	-0.02485702229044725	-0.04676249260477554	1.379608396668145	1.379608396668145	0.1620986987042314	0.1620986987042314	-0.02547373279274891	-0.02764988892107658	-0.3035253465567948	-0.4518990527711104	-0.1272315341500524	0.02765895888999459	0.6400524604797476	0.1415535345535384	0.6119189831039586	0.07483054509799733	1.020838531931823	-2.025806366496336	-1.920578538439073	-4.199865256280736	-0.2359526675483482	-4.603153368718202	-9.151903122112435	-9.151903122112435	-1.786334525426468	-1.786334525426468	-0.7896155508950885	-11.44352031320227	0.7213506504332713	1.15566255996613	0.1758974783812809	0.2135388185771477	0.03911625395311479	0.02303601404909291	0.09714165412941042	0.1455620818198075	0.1266118496337092	0.07405862837415596	0.1586725967292919	0.04564097699884116	0.01034443460073327	0.01036116972660985	0.007897729952846601	0.0115086563055305	0.0101016696890623	0.009946728170454194	0.07876674921187232	-0.002380374316331902	0.006154623157384202	0.009540538767429645	0.0103564995139572	0.00655431908979566	0.008678436676757236	0.09333790704275215	0.04234666181361382	0.0744033770067199	0.1199466561918002	0.01153828107287463	0.1711079012561766	0.01854493358526256	0.0675663302536444	0.1194094241728943	0.0727243619888811	0.01020847084816911	0.01479285550659299	0.2016632656220108	0.00984374996290008	0.01026753574600937	0.00973980842927258	0.01018818236855547
12.73279523719782	-0.1819013467592262	-0.1316649955407194	-0.2206831400956603	2.356633616994084	0.9884702813251812	1.064391399350425	0.8208531969376037	0.2466291561078247	-0.03494206173392131	-0.3018925644407474	-0.02323697770808814	-0.1236300950350639	1.229003626857257	1.229003626857257	0.1587124282386174	0.1587124282386174	-0.03555618251020424	-0.2049750380116839	-0.2802839090755306	-0.4256144220291539	-0.2135721903888941	0.8465708648246137	0.5351886106933031	0.1138280024364	0.4327514092483419	0.0908166842909825	0.2799666469237501	-2.2586382626014	-1.236926243859267	-2.429551982716763	0.4361793869169294	-4.814370356347273	-9.506884008067054	-9.506884008067054	1.347745539553954	1.347745539553954	-0.3950531746625311	-10.52156024707207	2.212133407297729	2.179371198046352	0.1533093644769056	0.1765521974880418	0.0574253969041083	0.04204331352187957	0.1030475327610033	0.1344792832463081	0.1395061284521991	0.03740021414266434	0.1619688860572704	0.04885071738407488	0.01039903579011418	0.01007126903837011	0.01175005848231473	0.009835085448226939	0.01042632249774184	0.01124815611531614	0.09706512506789552	0.0003811366008732876	0.008209446363012136	0.00973280712368995	0.008320324739555216	0.006322545563208206	0.009646310481226444	0.07611494267224705	0.01029987399474642	0.07152021237373528	0.09647080887760565	0.01171438585160725	0.1059191867123618	0.01549579628376162	0.03874755853205262	0.1571971430013203	0.06833178790912055	0.01013190416414349	0.006127608823105981	0.190119564904082	0.009571314169844043	0.01286367066577969	0.01599853904664651	0.01308904573420575
12.74892855439781	-0.1847568568899702	-0.1114074184967636	-0.2138717971380071	2.358232140825437	0.9941051529095549	1.066077585406663	0.8182282505333697	0.2094729739990376	-0.04768600169867937	-0.3286414541635606	-0.01081803473753012	-0.1979884926151236	1.073142258130291	1.073142258130291	0.2046138470367096	0.2046138470367096	-0.03705449554439264	-0.3542705261625743	-0.2315615169078679	-0.3899057919131827	-0.1466621931613644	1.647131666649728	0.2992626980711215	0.08501913458690658	0.2665734917140662	0.1195287815019318	-0.5892003015445326	-2.321176359081992	-0.3264507155779043	-0.9115462136859429	1.071900518474493	-4.307558867028789	-9.79867161571045	-9.79867161571045	4.263389796205104	4.263389796205104	0.2591280118026913	-8.16847187992774	3.812975577189092	2.395242648944153	0.1244400613356973	0.137368209210452	0.07117310115762851	0.06311492784453697	0.09633929494426302	0.1033252785953956	0.1499737823648145	0.01657995093655436	0.1836598244684586	0.05622366057417409	0.01070907401813385	0.009642366010410049	0.01299964051338823	0.01304414268428157	0.01162750262052301	0.01409309741037335	0.1024806178769514	0.02280378619111022	0.01396084024765894	0.01102930126139011	0.01729297212132878	0.01196622310794921	0.01191571864758011	0.0601285631740592	0.001517063743062059	0.07311389446903289	0.07201829583131043	0.01153946087229806	0.05180728856171489	0.01217332612349022	0.01895587874510667	0.1998744952589497	0.07380075337008496	0.009793924321165303	0.006846091667857599	0.1948846820162841	0.009753792314168805	0.01685234264641689	0.02568895191189321	0.01744967844553648
12.7650618715978	-0.1844594393539418	-0.07967215167745501	-0.2111186914585608	2.359407257125783	0.9972650816278614	1.068256129761749	0.7999325635364916	0.1723192560132303	-0.04480808260191695	-0.3350391509995876	0.01092156556899239	-0.258351013377924	0.9137428361294266	0.9137428361294266	0.2926475546072454	0.2926475546072454	-0.02701469951912171	-0.4599423468466411	-0.1593581177441219	-0.3555748302378012	0.2007425083940148	2.243161770221426	0.04613700600329997	0.06172423573699211	0.1276904363479887	0.1501477492246508	-1.675416514645441	-2.266651964611221	0.6779693165147311	0.05431301826066083	1.588378141932132	-3.117164984238195	-9.914901472189724	-9.914901472189724	6.535110768959811	6.535110768959811	0.9957768084390564	-5.188438698921654	5.053690842389856	1.964293805832519	0.09431119134805351	0.102161565105775	0.07416505181939954	0.0767923090294769	0.08065315436905102	0.06508721357787564	0.1534786850194984	0.01144210220160951	0.202248549873169	0.06051016527436179	0.01121353158914684	0.009570307392391663	0.01195456211335223	0.01356495839782616	0.01354789756615888	0.01762018597624549	0.09317095485644351	0.04920737187348793	0.02137502414695003	0.01344084412340982	0.02836239290022215	0.01808559547574505	0.01441155545863316	0.04651845952520291	0.005499069161466861	0.07148117164481115	0.05070102548932835	0.01136142667742878	0.01837958547769753	0.01006235532321809	0.008506121024478472	0.2423592290812054	0.08107494765867633	0.009359147435963609	0.01047282702831206	0.2097630216619925	0.01081046583526239	0.02049544044594745	0.03421027383679049	0.02128062696310562
12.7811951887978	-0.1768607085562161	-0.04043775127390938	-0.2120483756160242	2.360253911054183	0.9983423869901084	1.070878590367859	0.7636421515972799	0.1362699721010841	-0.02609334017625572	-0.329921172524241	0.0401506325842849	-0.2957700341410644	0.7553205697195007	0.7553205697195007	0.4110179885862411	0.4110179885862411	-0.00547310203203856	-0.5211060904190601	-0.07291556497748396	-0.3303349660691609	0.7623366888217976	2.565808806471885	-0.1537181745967343	0.04382517839465304	0.007669278907727957	0.1734908566156509	-2.807056148640632	-2.189616980953542	1.613085098003098	0.5136037237303985	2.011152365416921	-1.516883435824204	-9.632736156532234	-9.632736156532234	8.02319630318965	8.02319630318965	1.634354375354638	-2.620681462596263	5.521417538902417	1.157594486875274	0.06669235891665592	0.07400981922897068	0.06492549306285633	0.07587722258348194	0.06080235941086322	0.03369688886984522	0.1528344378610352	0.02095633140483283	0.1950824696628125	0.06013467348774151	0.01147734131757425	0.01048105114818768	0.01001399049189769	0.008989545064910558	0.01504693250271571	0.01971702367822498	0.07254310168285767	0.066431504250897	0.02679365419102252	0.01549263830055374	0.03471092245028326	0.02157609434340298	0.01611082644940406	0.0390081039595181	0.01396477470963689	0.06022636984595305	0.04173749980917386	0.01138524022326183	0.008538223493287686	0.009420797117465959	0.00895196852049427	0.2815272213352195	0.08889350659945466	0.009398415584084056	0.01291079129535346	0.233087457472624	0.01235851180384808	0.02168445548988985	0.03601083245366754	0.02232290579763025
12.79732850599779	-0.1599109547535388	0.001825804951151798	-0.2157177542835798	2.360828440159231	0.9974870321637271	1.073790694392694	0.7109915215667837	0.1013820466324653	0.005830672071888098	-0.319504179914224	0.07572596548709232	-0.3070125975151749	0.606426932863968	0.606426932863968	0.5479323856710283	0.5479323856710283	0.02501389695464593	-0.5495196482961392	0.01304537534038383	-0.3195705897579078	1.346268165302706	2.616770002242662	-0.298736710501416	0.0272980480590257	-0.1141253253725634	0.1859209801933004	-3.677439720089003	-2.11529635620435	2.287624830978832	0.7352687129178574	2.380794463712436	0.07135301794192594	-8.697640419872265	-8.697640419872265	8.862365039548397	8.862365039548397	2.067614368820043	-1.05056403903542	4.965813935498138	0.08283644808383894	0.04458647636619389	0.05437651429922701	0.04788701559521914	0.06153444776153489	0.04136986628170439	0.01650214772754267	0.1536298180496476	0.04092469608148513	0.1633526893506139	0.06057798631701714	0.01087181505369558	0.01233058805361613	0.00877080474305858	0.004432899953049057	0.01441171518695898	0.01821723080358012	0.04846359067455647	0.06381257797671752	0.02527448956827546	0.01446226984715138	0.03303131524957965	0.02095684362389056	0.01591595561021323	0.03946351819674623	0.02402213990638002	0.04288203434267912	0.055035925584037	0.01134224968519877	0.01787571107065066	0.009591988452315642	0.01914177430531507	0.3137038931500719	0.09876997889067043	0.01058203417007815	0.01285619914884582	0.2736934165552468	0.01266426998007869	0.0194420975212914	0.02851963596218847	0.01962926538006523
12.81346182319778	-0.134919955473207	0.04278552323864743	-0.2216540775992135	2.36111907072589	0.9945014502634224	1.076831874015235	0.6484842743773099	0.06838755720398157	0.04535878512599288	-0.30525341070714	0.1166041272400549	-0.2957885833860074	0.4792837793017157	0.4792837793017157	0.6950347668832665	0.6950347668832665	0.06031056866582761	-0.5605654603098384	0.08148045522470961	-0.3282448409257692	1.739169799655613	2.409363172500062	-0.4405073075966498	0.008325908654191465	-0.2586241839606591	0.1899405753073031	-4.009699036099681	-1.940962421500104	2.532529308531499	1.018837502943468	2.662562910361163	1.22780515344809	-6.933984763885183	-6.933984763885183	9.324698614062029	9.324698614062029	2.237596347069887	-0.3873863953865677	3.367311673954825	-1.254033839735326	0.02950535092910289	0.04276779849638302	0.03128185023705595	0.04388373643414365	0.02615915101264359	0.01196265316795358	0.1579104831903589	0.06213257479813323	0.1409344300229551	0.07345938859617324	0.009253322760315874	0.01348314387958228	0.009887540981518478	0.01053290772054889	0.01086332749203109	0.01294312902212335	0.03082548809249938	0.03906900252546205	0.01465404918376674	0.008827160744536679	0.02420489745544553	0.01622860209553387	0.01329695039726777	0.04486369094639883	0.03426566223423515	0.0338471931796905	0.09359095594790491	0.01075397297326388	0.03583000131911278	0.009906180278002233	0.0334704956952365	0.3310812012483709	0.108519232893763	0.0128054222159227	0.01082822019296211	0.3474550719901818	0.009537432076179402	0.0145646777055093	0.01406143834742869	0.01399299735051027
12.82959514039777	-0.1062478247806758	0.07835416721058368	-0.230218925419726	2.361074137299833	0.9889194398160925	1.079903741473267	0.5860496817265897	0.04022247464760681	0.084971249822267	-0.284515731194148	0.160499570807773	-0.2713537319115905	0.3875792976327055	0.3875792976327055	0.8482944819223301	0.8482944819223301	0.0946511747334858	-0.5647814512948032	0.1170090526873617	-0.3600160999407265	1.789205248835181	1.963112908226525	-0.6189997526369027	-0.01402249674384945	-0.4362240762605134	0.18984996623902	-3.671733748579395	-1.514661934857444	2.296358109569036	1.557943049322431	2.745293638527199	1.705074026394521	-4.348103253411579	-4.348103253411579	9.653280547398751	9.653280547398751	2.023616416251415	-0.1407730517493069	0.9622338664984783	-2.699770638635924	0.02100382685598869	0.03608938990162169	0.02250024719283143	0.03489388579562425	0.01753763355988482	0.0136199961541593	0.1615411222381379	0.07302083962483269	0.1686823631613859	0.1097670100800193	0.007866676990461452	0.01103440913758617	0.01430709649105207	0.0353724129419227	0.006623929922947008	0.007464500588509919	0.02675128386577701	0.007842324857536102	0.001746015776607632	0.002260356363897577	0.01386647282942306	0.01032578471155095	0.009781381015446639	0.04841770841382412	0.04079325812775336	0.04716841505573559	0.1473855614232326	0.009870006074811685	0.04930656271518163	0.01019133628444524	0.04342362711262812	0.3224961269687232	0.1110766863214759	0.01448155812630007	0.008722573178438355	0.4607735754872763	0.00344788471141301	0.009318307567603188	8.609816645197346e-06	0.007634639509631117
12.84572845759777	-0.07989640968666648	0.1050923264994554	-0.2417265785678381	2.360652214606019	0.9802574703281932	1.082943412054434	0.5342241670010883	0.02148601979583654	0.117764901994018	-0.2526575550970306	0.2032958315965451	-0.2445765208246636	0.342881481166913	0.342881481166913	1.006608081041142	1.006608081041142	0.1200393000697629	-0.5647390169347869	0.1099844405805263	-0.4136321027993701	1.451449087938836	1.33730491362652	-0.7813033626352086	-0.03783577010111755	-0.6369882250340423	0.1849652728038425	-2.723440054559906	-0.7943838255023091	1.716908745076827	2.399019584384992	2.524069132871097	1.559913338253268	-1.18776519582654	-1.18776519582654	9.957108477267719	9.957108477267719	1.261347227996572	0.1774689519430633	-1.78726469276628	-3.849046148299469	0.01711799323870939	0.03026396064832636	0.02315483791239502	0.0385619554471452	0.01530831993579414	0.01566652180290904	0.1564061709500963	0.06693159926851788	0.2504998424674237	0.1651579853214623	0.00955971835938714	0.003777630300264186	0.02077923373604491	0.07442623325024644	0.007732351372519791	0.008920256241841805	0.03507284890525667	0.005494927194079346	0.004472295709844799	0.00550597058316107	0.0120432294910828	0.01037587471792122	0.009968373282206979	0.04457674876826451	0.03921865968175382	0.08054791520311134	0.1936647418043935	0.01047443937970233	0.04944143637147937	0.01058513655640901	0.04277710438787163	0.2821004222625433	0.1002284454956632	0.01373388172983	0.00978397788032815	0.590472685231753	0.001457293003091512	0.007207677279806971	-0.001021050932316869	0.004674925767664533
12.86186177479776	-0.06166943236292904	0.1210508558862792	-0.2545945475700752	2.35985310676735	0.9683891979025754	1.085808697952747	0.5009870579160882	0.01572026800922914	0.1403111522426691	-0.205280542412012	0.2399929043648806	-0.2227856262753924	0.3505836053501913	0.3505836053501913	1.169407160648128	1.169407160648128	0.1286494034668629	-0.5571935023599021	0.05961338121026899	-0.48001876995204	0.7927079276726849	0.6485143809138744	-0.75326345411125	-0.06043329567903767	-0.8267966258692534	0.166376932264088	-1.412093621287312	0.05508975790769649	1.075316004898403	3.473347413536686	1.998631185210096	1.158360893751759	2.053672623700474	2.053672623700474	10.19601413892452	10.19601413892452	0.0719286715607606	0.7928986728502663	-4.285657577022685	-4.19576368784269	0.01537023723848514	0.02322606434140627	0.02794219799339049	0.0479319871223387	0.01647147535232448	0.01563866373385226	0.1358806580530646	0.0475581803546348	0.3360517773225986	0.2124125257942539	0.01737234909781974	-0.003001802606144487	0.02553190764599587	0.1086261790858207	0.0214247904236289	0.02466079196924387	0.04570401818751284	0.07059797873487365	0.04348159581343752	0.03150029095344766	0.02953660984279693	0.02532104296467462	0.01987606272330374	0.0335581175721064	0.02988174591300907	0.111644647077369	0.2070880405850523	0.01521575331490446	0.03710321673133831	0.01099312409613063	0.03246015557989889	0.2184183520891204	0.07705659284710532	0.0126735594714286	0.0173599781298981	0.6837214056022392	0.01811192721966189	0.01296830049999062	0.02692143425976291	0.01195501936254829
12.87799509199775	-0.05558806050033683	0.1264388603171418	-0.2639251841845308	2.358710643286436	0.9538798754812441	1.088175676895768	0.4890952604985722	0.0224835384799887	0.1537117321595307	-0.1396090347188667	0.2667858144057093	-0.2060301776022924	0.4065033211006824	0.4065033211006824	1.334580208079804	1.334580208079804	0.1201647035620017	-0.5377957506756824	-0.02507350784663587	-0.5430182014655395	-0.04057381645786834	0.03751959047465202	-0.3218066251003774	-0.08059586754355298	-0.9569926321481685	0.1219143821304541	-0.122249579011916	0.7291615112711571	0.6215154171569421	4.659201265916206	1.314903525152351	0.9961456240956954	4.709205101284291	4.709205101284291	10.22887303601987	10.22887303601987	-0.8365847565662525	1.620655971763771	-5.962839979977443	-3.403970163151636	0.01391775787637754	0.01600207514553405	0.02946967119834472	0.05305929740898031	0.01720696523614876	0.01386657170310514	0.1006507884538624	0.02602232193296803	0.3578030035861015	0.2186439664804491	0.03221552887768205	0.004383972995183397	0.02508330407527928	0.1165035901444969	0.05048078364315137	0.05687812572752394	0.04733030532772587	0.2156232415649086	0.1255049371194661	0.08446755094325457	0.07079903960861239	0.05931184433136738	0.04236356331623642	0.02072200750717924	0.0186712829311347	0.115556060990993	0.1766662689945443	0.02526209516181217	0.02100233541140972	0.01081001059041634	0.01947664861250219	0.1514306047612572	0.04989521791713156	0.0223120716722266	0.03215961058334724	0.6912329239961197	0.07042321659119437	0.03160376122008524	0.09598645518788274	0.03773018204581743
12.89412840919774	-0.06304780315806378	0.1233576343880034	-0.2622089300332063	2.357259390633102	0.9380536643708539	1.089571882523561	0.4947481880368841	0.03676623431825035	0.1616634842460715	-0.05489241335390972	0.2829725279023416	-0.1873560238539478	0.4957158042131208	0.4957158042131208	1.497418885275301	1.497418885275301	0.1078396092419482	-0.5051365721631327	-0.1274577621261648	-0.5839488757173017	-0.8734619167283252	-0.4051341948121153	0.601741801249028	-0.09928361818804254	-0.986020500350379	0.04685593170670539	0.7308808039774812	0.9874798758372533	0.4036935126762067	5.829832691438066	0.7046466331461202	1.406597264364911	6.13698279377166	6.13698279377166	9.884802486726372	9.884802486726372	-0.5464774943910857	2.401844342568387	-6.484941468024302	-1.502578161152675	0.01227762630575904	0.01092828526239452	0.02484770341954026	0.05126221982467177	0.01569972205683844	0.01171067901871041	0.0602814081782403	0.01187040011044715	0.2909006466719748	0.1750880211549775	0.05231618890902662	0.04113531470584517	0.02143200617592522	0.09151601608123745	0.08919403646250745	0.0994377759707567	0.03712622143775055	0.4100710829069721	0.2329049137276821	0.1525478753438142	0.1284862630406991	0.1063561999594071	0.07341567140630101	0.01161633704446183	0.01181314438623057	0.08781826176627489	0.1161461740108042	0.0384061158872691	0.009739451966340861	0.009437238954175083	0.01061492363822788	0.09858282506680052	0.02796754318471743	0.06157859511567519	0.05079164846323789	0.6077766025897584	0.1686711049382602	0.06572189121019634	0.2059176597260011	0.08711663152896831
12.91026172639774	-0.08272359361817572	0.1144248691435749	-0.2424377533957659	2.355508367778238	0.9227092282674935	1.089566654477935	0.508280604234342	0.05170751425204557	0.1669483209956396	0.04762377124321133	0.2912384556774091	-0.1573505127542467	0.5953568096105066	0.5953568096105066	1.650690310883682	1.650690310883682	0.113450174887391	-0.461863297750131	-0.2287438324582713	-0.5878555577249855	-1.540753401975725	-0.6995481869209267	1.86721106394375	-0.1181352579213961	-0.8982846577694934	-0.04876569382712004	0.8427929729918328	0.8413368800056762	0.2681158545023104	6.855521112600805	0.3458766577004479	2.354936993522449	6.012172059348615	6.012172059348615	9.0280848944808	9.0280848944808	1.142380004490194	2.918161598681282	-5.915187540911958	1.092061993312472	0.01104949953904211	0.009310506372678115	0.01720069931408174	0.04754590955896644	0.01290206286648379	0.01021702329152636	0.02764033296226234	0.007137539796286814	0.1731247219463418	0.1058504922271244	0.0754035643478807	0.1094686676090665	0.02441872083393074	0.04853723909516299	0.1255945695972585	0.1403364897512277	0.02208976569409683	0.5971181007471793	0.3325247629577397	0.2133444613982456	0.1861877815868414	0.1528089093733449	0.103738693251917	0.008045898300703897	0.0105191141432688	0.04736058919568643	0.05502104555901326	0.04996499796713529	0.005972492331022122	0.007594921136380888	0.00769283836004302	0.0646744987517288	0.01550759323730658	0.1464707417852157	0.06829586807189318	0.475375122463813	0.3071295448731758	0.1123653578062323	0.3413583714888828	0.1565669865117011
12.92639504359773	-0.1108006174928624	0.1011473786956504	-0.2017548548337321	2.353455129477004	0.9096585355096974	1.087996639200487	0.5167894689371227	0.06282448359693134	0.1693978545304368	0.1643906670305165	0.2958574023491053	-0.1100813312860675	0.6813062813920655	0.6813062813920655	1.785565246806193	1.785565246806193	0.1520067311526634	-0.4127603915437787	-0.3143270730603517	-0.5488522605033366	-1.897397800370569	-0.9513696722894257	3.133467125386105	-0.1363794211446875	-0.706337126147089	-0.1431713874858502	0.1199277855358624	0.5535902598908008	0.0332846597647298	7.572978872018414	0.2481776641455735	3.473033237743608	4.505652465011894	4.505652465011894	7.600666547684652	7.600666547684652	3.330523073766917	3.134176187146573	-4.672203365874585	3.699159941264408	0.0107976019018049	0.01049284578418677	0.0112915073483068	0.04617197772586359	0.01070295433680422	0.009665890839323628	0.01021243879027881	0.008021768968091552	0.06669137339431856	0.04575325604334442	0.09988916651073103	0.1893683875241498	0.045135013740476	0.01523275415599878	0.1482811128370551	0.1677549992383901	0.01119364383691963	0.7313824084313799	0.3973685952673823	0.2484846531728653	0.2288023700850779	0.1865721376979109	0.124831086393164	0.008310688262319437	0.01067426917597481	0.01688807762041613	0.015995584544177	0.05574576317156075	0.007222064709754763	0.008500368548709407	0.008286321263763125	0.04435699089341979	0.01110993223826509	0.2754108266845883	0.08273381396332916	0.3445487205736906	0.4574692574815979	0.1619546184077151	0.4757784254383323	0.23159212216875
12.94252836079772	-0.1413227895804731	0.08346197237242883	-0.1431393587495875	2.351147202109054	0.9003584735251839	1.085072267498356	0.5076119469719819	0.07045228298383135	0.166913900213499	0.2889056868354406	0.2999347408966753	-0.04672252742035522	0.7354948557527872	0.7354948557527872	1.893016562964401	1.893016562964401	0.2201123455954255	-0.3617642948058378	-0.377695158370938	-0.4727947537612151	-1.83326916597597	-1.239875486993936	4.043737111469069	-0.1484803432595363	-0.4391611257310085	-0.2133040802810765	-1.313464442159936	0.4331473515632767	-0.3409810668806121	7.790397982307955	0.2559947238396545	4.284221638747725	2.168472371072808	2.168472371072808	5.640335746668941	5.640335746668941	4.730571055011954	3.178500246351939	-3.286241756151163	5.572458917149077	0.01105979360932791	0.01217255307464596	0.008983803441749434	0.04540159069083471	0.009863273201646792	0.009789602508792995	0.006369315661618666	0.01009774233741864	0.007150889627298269	0.01327015577571762	0.1218021827515464	0.2472708387834519	0.08269925501002086	0.01690360715746723	0.1516669939378214	0.1745194099548337	0.007832748496657561	0.8022410096564163	0.4203259289780239	0.2532932274812908	0.2521388134459811	0.2043407064818411	0.1337630562740116	0.009827865692803788	0.007345188225327644	0.003945860945153122	0.0007126883392371351	0.0541476590779251	0.009999984740793322	0.01736981890324186	0.009442802951744546	0.03037130580191836	0.01080252014311913	0.4225949224668246	0.09682710688812639	0.2378924818882286	0.569707721169204	0.2010123944663899	0.5772950203051254	0.2905734081653307
12.95866167799771	-0.1671525399101616	0.06100304935422041	-0.07428808400591681	2.348754555228715	0.8957428409115085	1.081318013255826	0.4714169175096174	0.07847436353809528	0.1580163749569305	0.4118513742780681	0.3034891447408781	0.02465749806407417	0.7496424288508252	0.7496424288508252	1.96537704303314	1.96537704303314	0.2985067168577098	-0.3102981328729434	-0.4202060824479585	-0.3764912009673624	-1.32968253917171	-1.522925116567366	4.382296043912822	-0.1452294315565792	-0.1311267686827854	-0.2440961287528191	-3.17396964831069	0.5976134773682957	-0.7528811957010414	7.377008876694183	0.1533121043278206	4.432278047138581	-0.3875175230173056	-0.3875175230173056	3.281261142829301	3.281261142829301	4.653440531458553	3.209576629398556	-2.155606398128426	6.126115111951254	0.01041852543752637	0.01140720067205886	0.008871660959097156	0.04083703717605192	0.009691348508140464	0.01018321488065079	0.00914756815248609	0.0114221966686804	-0.01183700764900113	0.004184685920629048	0.1321370145717038	0.2576930942473903	0.1189440912675031	0.06173126941917821	0.1365939415303832	0.159249967859403	0.00938827271289795	0.8248087417050591	0.4091286166918894	0.2343401577491516	0.2635037292749645	0.2102056285002958	0.1325532294573732	0.01100950514194037	0.0009327567427518547	0.0009941466288150148	-0.003423961132657036	0.04621275250178503	0.01224409501113802	0.0383422916328453	0.01022545416353423	0.01821523279345028	0.01108642055862387	0.5448705015290897	0.1147889458362249	0.1503981011235294	0.5900349333224059	0.2173780287179671	0.6160007715919724	0.3134893829990715
12.97479499519771	-0.1820858198917827	0.03496482522913596	-0.004900042266675009	2.346593120973918	0.8961641938856861	1.077414457193055	0.4042750943106847	0.09050626301505851	0.1430425009096189	0.5231379622600341	0.3033707535569306	0.09207534738310073	0.7240400402107324	0.7240400402107324	1.997799152013441	1.997799152013441	0.3643587281404161	-0.2578647390592927	-0.4480057079015254	-0.2833717381494892	-0.5255469467366071	-1.661233224228036	4.117471097574244	-0.1185427936334111	0.1801926400931659	-0.2316520854497506	-5.092189236992428	0.9015024324904873	-1.105616393577054	6.382699668964547	-0.218729744864355	3.795517693869266	-2.747036189184261	-2.747036189184261	0.7361212901274514	0.7361212901274514	3.285432802417639	3.291525130491135	-1.454058886285522	5.148612170310965	0.007905747950785445	0.006687995135839555	0.008975063067475699	0.03137275174546828	0.009227335162171829	0.01051447096474806	0.01230572221352838	0.01215656507996938	-0.01461776738770952	0.004646565639689626	0.1219203811763555	0.2189811111909401	0.1321004058550966	0.1310048925415735	0.1084124600007936	0.1263159554970401	0.01160733349284464	0.8139282154034549	0.3719570041500025	0.2006390996441702	0.2728373425545771	0.2077492939962088	0.1237776422294691	0.01135242859989435	0.0009631163766311672	-0.0002220315455062887	-0.004471919568103814	0.03478822068303292	0.01292532737217993	0.07001797086083608	0.01156391390060101	0.006908662025711637	0.01031096738603479	0.5987017209664947	0.1373176058072643	0.07454242604218121	0.4959906941378353	0.2049814068148302	0.5756099485906622	0.2910964261110582
12.9909283123977	-0.1835486587454287	0.008705552468527616	0.05595195322443378	2.345062842187587	0.9013381344437257	1.074030621198562	0.3085228592561384	0.1066714466919569	0.1228120602006465	0.6153593663435794	0.2947523229939064	0.143552504716745	0.6636561258718685	0.6636561258718685	1.989248358952463	1.989248358952463	0.4015460501029042	-0.2039598193203874	-0.4680472888272276	-0.2163714271906832	0.292790565152685	-1.546600735831065	3.355362332666847	-0.06704677103263197	0.4528004890491341	-0.1817230221663367	-6.685087979011529	1.077122917278303	-1.43428785365714	5.068223970122844	-0.8976163418125727	2.49722266891842	-4.723413294283178	-4.723413294283178	-1.748971594054251	-1.748971594054251	1.2441304372833	3.369043658351646	-1.123689692376123	2.938335083877171	0.005094493689636014	0.001055637691617465	0.009167993163191585	0.02170922071806501	0.008611535987670522	0.01049931647101926	0.01312211232339521	0.01269596258800941	-0.01124273704573734	0.006468146441937057	0.09208957737059334	0.1519664900131212	0.117577320055554	0.1857518777347903	0.07493627036541561	0.08519676036999604	0.01222095336412301	0.7677932856918837	0.310549821862548	0.1581331805075742	0.2825631588928909	0.1944900874695965	0.1076414863963124	0.01071568276365206	0.02309993332332196	0.003625347255410419	0.006182228118165801	0.02350902372559142	0.01109018726979676	0.10309066954505	0.01433121478133007	-0.0001707878214446974	0.00889922570794356	0.5604979852861856	0.1586416270237692	0.01989545534914394	0.3246396587705269	0.1665854014940473	0.4650242532424048	0.2300242118795933
13.00706162959769	-0.1741330623657825	-0.0137132314568476	0.1015328833281234	2.344515833730396	0.9103123348041917	1.071692375346389	0.1923055313052397	0.1234599538078566	0.09641508059971084	0.686513390346531	0.273179668287258	0.1707007454835792	0.5752020752748691	0.5752020752748691	1.942567592315573	1.942567592315573	0.4026937616190852	-0.1495625555723132	-0.4839573505624358	-0.1899680861381532	0.8157087286355738	-1.219206686177805	2.273371289132766	0.001147101429477913	0.6453470572758677	-0.1064240907641683	-7.631240602933199	0.9652664884657783	-1.874947637864006	3.788443892884751	-1.805055406539217	0.8546118722645172	-6.204728804002213	-6.204728804002213	-3.963230636237918	-3.963230636237918	-0.985511402888098	3.340197562109698	-0.8591910645935487	0.2707007758231894	0.007046737613523367	0.003758690378916992	0.01129522257251775	0.02062610852139764	0.009501384663778045	0.009937437989596318	0.01157067843795465	0.01272136288875695	0.01323144448276614	0.01213720835469873	0.05631095317577657	0.086212755351011	0.09198167641752433	0.195226644186828	0.04429125676174758	0.04742456903528255	0.01141239334230755	0.673970439804274	0.2273043706244035	0.1109398634934203	0.2854511831798702	0.16529855606607	0.0837878766448204	0.009122864265555171	0.07821425092784268	0.02618501997276678	0.04798151811650804	0.01522013277826533	0.006794001877508257	0.1234379369045894	0.01762947537663489	0.005242535940470177	0.009044433680462809	0.4415754097716697	0.1678344778205928	0.01217202473832114	0.1597363657878081	0.1139403441557163	0.3185029254602297	0.1509542172869804
13.02319494679768	-0.1604329514072881	-0.03011327623596807	0.1282635104381466	2.345111659216086	0.9215754206152782	1.070697251662884	0.06774305064998291	0.1366104506273741	0.06082693629014266	0.7398432582066339	0.2360877530750614	0.1711210169750093	0.467347899720313	0.467347899720313	1.86337229884716	1.86337229884716	0.3653247270290272	-0.09700977480519361	-0.4924194103646757	-0.2043019915791463	0.8817506439646484	-0.8724139461588438	1.070548667477662	0.07032521772767111	0.7304398928942707	-0.02075174525451498	-7.748572818863131	0.6464753494582244	-2.51251291942739	2.797533374700078	-2.803136602683492	-0.7241443626737122	-6.985061866177919	-6.985061866177919	-5.794687820274078	-5.794687820274078	-3.289088897999539	3.161578407930651	-0.1582850261347249	-1.852719380670031	0.01989384782924539	0.02635092963369302	0.01692360513312063	0.03499411984878299	0.01398532035077651	0.00905687448393095	0.008810897208585683	0.01231079025456136	0.0786975240486374	0.02825784749073151	0.03164222344501841	0.04428977026998969	0.07635653321612038	0.1644188009648792	0.02235311951080043	0.02145545447819164	0.01033630703560114	0.5293767702148672	0.1357972142284448	0.06504039533477807	0.2712454597292714	0.1211121496340848	0.05531786153836041	0.007501553703698	0.1602207535404371	0.07651018542483896	0.1300431904397494	0.01045600400672874	0.003854523502705038	0.1201955320487858	0.01927850538180499	0.03212956930107506	0.01370718143830447	0.286492771112854	0.1548746907184618	0.07237149523210201	0.07664335622138742	0.06382344637858778	0.1799557514365052	0.07944447766252606
13.03932826399768	-0.149328449395418	-0.04212868706240683	0.1358945764568622	2.346728945236622	0.9333656943763419	1.07107471309369	-0.05214039438699405	0.1445662362494699	0.01316988689862219	0.7805084902132937	0.1831350126095101	0.1489121989109191	0.3532185886278591	0.3532185886278591	1.758113077816171	1.758113077816171	0.2882144655205403	-0.04835432655621064	-0.4822691197636818	-0.2441183516940879	0.5768296317954433	-0.7450435806102793	-0.06492714267913738	0.1232456437455126	0.7077047925971511	0.06030451272933231	-7.067243744956451	0.3690333561987376	-3.272019666443952	2.114893747702151	-3.76332795653272	-1.880338461410675	-6.766464928912308	-6.766464928912308	-7.247777776845791	-7.247777776845791	-5.751551679902409	2.904016490863525	1.433648999122861	-2.608292838671234	0.04532022616830606	0.07296643672524686	0.02466640511383809	0.06152621695946018	0.02255391378457704	0.008976562598956812	0.007068969573001863	0.01386735048926819	0.1773357141445332	0.054760346562589	0.02568136174530934	0.03187977128930664	0.07857140438732868	0.1279011078233205	0.01087647419544913	0.009200460233252113	0.009754899166722408	0.3543905044511792	0.05906336325575006	0.02850970218771115	0.2347344262033866	0.07253584855794759	0.02953684013249669	0.008443639239713519	0.2437297436606974	0.1427157889368274	0.2313878845906533	0.007745505600859712	0.01078989812718156	0.09352353238978506	0.01853468196402987	0.08128646265134644	0.02493923322954776	0.1498948721896106	0.1187753582940359	0.1889546980991139	0.08964063241712465	0.02983354192018857	0.0812628185799993	0.03327741093090621
13.05546158119767	-0.1438358254326225	-0.05523330447058628	0.1271198937048352	2.348985656146883	0.9440914258391028	1.072594311623139	-0.1571222121840373	0.1497508433689817	-0.04629314724559337	0.8111921936549815	0.1154599672457242	0.113024704981009	0.2516310649164348	0.2516310649164348	1.632226541427011	1.632226541427011	0.1722120121725693	-0.00352527902844605	-0.4386749121101056	-0.283587404722261	0.1869273875878504	-0.9897735652467186	-0.9814899061977505	0.1486608415598022	0.6050820546443499	0.1237101888589028	-5.864882494682305	0.344915564098357	-3.948258592807556	1.548304719112919	-4.611722961824155	-2.429710569713603	-5.374675074469392	-5.374675074469392	-8.398272391802841	-8.398272391802841	-8.259662133402925	2.712754837598627	3.94736629718937	-1.71951920145539	0.07658068067519666	0.1323941391804004	0.03028306150454278	0.08500908746357431	0.03300897307880959	0.01167985486609023	0.01038558635975663	0.02169331255436797	0.2647381534398199	0.08073887903653741	0.03236429961017916	0.03825266893198682	0.09098105031178899	0.1140061136828891	0.00766292251720959	0.006870129011171165	0.009716745947884981	0.1877131556757698	0.0149207144023643	0.007981903333842615	0.1795911176104323	0.03379503224697084	0.01389274332414034	0.0154928536424349	0.2962660601615484	0.1928810824715025	0.3049564600634513	0.00609563487803239	0.03550433660880427	0.0555308327223127	0.01793216549624223	0.1406289397032458	0.04276709395588899	0.06544842896231629	0.07104551873223279	0.310310049486801	0.1489811352715105	0.01517649254428939	0.02994295228436662	0.01456383620652295
13.07159489839766	-0.1413784500086811	-0.07672369598805449	0.106581936895324	2.351375687820894	0.9526852120434008	1.074835558347084	-0.242751195015539	0.1568651231964709	-0.1130660658989448	0.8299429717451174	0.0346645431827735	0.07395777618702627	0.1836213840671552	0.1836213840671552	1.489374187515662	1.489374187515662	0.02434422959578424	0.04010505221417887	-0.3513607231775483	-0.2956270628253103	0.0350526655259199	-1.60942679733058	-1.585416532074013	0.1458987758157415	0.4647941030955501	0.1598137721495502	-4.602954585380616	0.5932947411130123	-4.320841724283436	0.8511152210374073	-5.332459608057112	-2.405617801771414	-2.994157294448375	-2.994157294448375	-9.318271690020316	-9.318271690020316	-10.25695859929046	2.70503265647218	6.812650858775939	0.4340979856450826	0.1009771263429428	0.1811437234155884	0.03054871757751842	0.08943998899627525	0.04177249483002407	0.01914941792993691	0.02431657099040757	0.03806922799286705	0.2928728433639443	0.09201420502258163	0.03929979878686352	0.04654555125083238	0.09989319922737591	0.1194810239943035	0.008660058113152755	0.008757255446390094	0.009935331675810096	0.06590543665409514	0.004051674912015634	0.005902575774332657	0.1177403461063788	0.0133224520122427	0.01122389111430378	0.03077988280275471	0.2975373524717305	0.1988880055461008	0.3104820676751776	0.007399530498578328	0.07560109464143121	0.02256648042692481	0.02136977461990128	0.1926354444470231	0.0658356475331827	0.03161283813323131	0.02940432834420455	0.3751708533192206	0.1876938603281678	0.01311277364904557	0.01310711589521102	0.01272710133815286
13.08772821559766	-0.1360353772956404	-0.1123791856879839	0.0793766352256926	2.353470308152937	0.9587756769667505	1.077330962359436	-0.3108778251641419	0.1697842688108012	-0.1803954456592647	0.8323725840758285	-0.05752219086891074	0.03999231530766791	0.164202307851951	0.164202307851951	1.332155499211675	1.332155499211675	-0.141110343768771	0.0861568375194605	-0.2211111266380387	-0.2623990110648106	0.314187962576532	-2.491827350698189	-1.852944512174346	0.1232089165461341	0.3228704691885419	0.1640508830127331	-3.736092176029999	0.9587293187878412	-4.26689439954763	-0.1136470202432163	-5.94320213154575	-1.991302148889819	-0.1410434306338538	-0.1410434306338538	-10.03444504836214	-10.03444504836214	-10.99280678741328	2.897524700802582	9.186788481352142	3.080178430010505	0.1075975210259837	0.1970233069423079	0.02680394800353723	0.0719740874671773	0.04646267671597808	0.03221256178525087	0.05358689421764214	0.06005256150865224	0.2520455119448732	0.08253315335909729	0.03825323063959695	0.04570685256831358	0.09532509362758283	0.1188907502052725	0.01041663383065696	0.01065522265802109	0.01018703840304483	0.004376195376222566	0.01281796922805989	0.02090515888362486	0.0645707958657685	0.00989442684324239	0.0188330882470787	0.05320817691183335	0.2504751338817677	0.1605188956837696	0.246540574592038	0.0159151002182072	0.1154323086579074	0.005002513956939151	0.0304103883471429	0.2274537797171549	0.09292799700257137	0.02406690577742065	0.006279172006115413	0.3559565273489427	0.1713169538525161	0.01430160782795646	0.01152583973987055	0.01491370045760267
13.10386153279765	-0.1234892158721775	-0.1631564811285866	0.04951598883035173	2.35509210099134	0.962690500544648	1.07975038702539	-0.3672797999955843	0.1893591185757794	-0.2433131480964683	0.8170550132249036	-0.1586589848134571	0.01441251477005993	0.1935454541777262	0.1935454541777262	1.163703136386576	1.163703136386576	-0.3092277051276218	0.1367144840883294	-0.05918292168315632	-0.1829352662913865	1.016546926343375	-3.50167971548769	-1.834238378496337	0.09115139954707595	0.1960027280041445	0.139196506624378	-3.472765960857233	1.271166502345191	-3.818979664432891	-1.324050727560161	-6.474362741837272	-1.389803247872828	2.674322114006848	2.674322114006848	-10.55812179137929	-10.55812179137929	-10.13661745504414	3.224074955933635	10.58838454349398	5.559353330322999	0.09395973384533436	0.1730389812929425	0.0232704837185707	0.04263530063394566	0.04714919002197059	0.0500446860245728	0.09872682502991346	0.08197945466021643	0.1714123413764719	0.05705029149918898	0.02889900464710629	0.03460057728021899	0.07529496883347472	0.09243665889314168	0.01132459832743426	0.01099838776560584	0.01041519703109231	-0.006082124534024822	0.02613292974743137	0.04917119915930274	0.03004646554445848	0.0165271089084734	0.03164438344061134	0.07946845332034809	0.1742669349213184	0.100797485448669	0.1448037216883753	0.03443299057378554	0.1382444150252669	0.003057145400960548	0.0433942635639077	0.2473393941086838	0.1233288154170865	0.01953166833359485	0.002580590606045226	0.2696220125028374	0.1075402277894441	0.01338191669834568	0.01181513071691345	0.01410617061060805
13.11999484999764	-0.1049106281463244	-0.2237377284580736	0.01908030657747571	2.356372261442522	0.9653428689436049	1.082025233432049	-0.4182950911356607	0.2132151653606166	-0.3018400270670065	0.7897872602690819	-0.2648817411910014	-0.005121216294639807	0.2535821339158497	0.2535821339158497	0.9888798335164043	0.9888798335164043	-0.4737800941471292	0.1907541543995468	0.1186327111226095	-0.07444844335627288	1.970630261272449	-4.55076657003082	-1.649308959289422	0.05657967700638925	0.08182641061307633	0.09666232687307534	-3.648698257392981	1.491337969311165	-3.142659505269933	-2.665948529422674	-6.963295172044007	-0.7306438786078986	5.293782049701957	5.293782049701957	-10.95212099900241	-10.95212099900241	-8.17455817898909	3.605790824424721	11.24701661620968	7.722343402725299	0.06721346037847949	0.1222706139858919	0.02186811125132493	0.0110819227899096	0.04558684726365047	0.07055114399356698	0.1541158213815395	0.101411250489754	0.08106362264836794	0.02430834896152686	0.01520734920140107	0.01785128306244626	0.04534324267537285	0.04353286721378972	0.01140783117684056	0.01015717061511517	0.01063616963794866	0.01093308831104486	0.0375266844801167	0.08485166809025881	0.01077883725090046	0.02679222397005787	0.04594707732961942	0.1068119899767017	0.08751725112614089	0.03876028852084116	0.03432309127798596	0.06042536701357773	0.1435004858124138	0.01003405271339046	0.05786827651689343	0.2600922026668278	0.1558515393953886	0.01003879173376177	0.01031402503530273	0.1516230237271423	0.02140350763651734	0.01006184072923114	0.01001925621393782	0.01004338419974408
