MomentArm_knee_angle_r
version=1
nRows=51
nColumns=5
inDegrees=no

This analysis gathers basic information about muscles during a simulation (e.g., forces, tendon lengths, moment arms, etc).
Units are S.I. units (second, meters, Newtons, ...)
If the header above contains a line with 'inDegrees', this indicates whether rotational values are in degrees (yes) or radians (no).

endheader
time	recfem_r	vaslat_r	vasint_r	vasmed_r
     11.75332959	     -0.05245331	     -0.04971839	     -0.04776474	     -0.04718533
     11.76959624	     -0.05275789	     -0.05006848	     -0.04823454	     -0.04771357
     11.78586289	     -0.05288458	     -0.05020567	     -0.04845215	     -0.04795477
     11.80212954	     -0.05277880	     -0.05009678	     -0.04827725	     -0.04776113
     11.81839619	     -0.05231399	     -0.04955755	     -0.04756969	     -0.04696305
     11.83466284	     -0.05159447	     -0.04857028	     -0.04652480	     -0.04572028
     11.85092949	     -0.05079051	     -0.04723900	     -0.04547924	     -0.04437781
     11.86719614	     -0.04962740	     -0.04540468	     -0.04428423	     -0.04285982
     11.88346279	     -0.04761680	     -0.04275380	     -0.04234615	     -0.04059897
     11.89972944	     -0.04515570	     -0.03974755	     -0.04005708	     -0.03802294
     11.91599609	     -0.04413031	     -0.03827060	     -0.03927462	     -0.03704570
     11.93226274	     -0.04261404	     -0.03637480	     -0.03807932	     -0.03568697
     11.94852939	     -0.03930205	     -0.03277879	     -0.03515922	     -0.03262375
     11.96479605	     -0.03568325	     -0.02895874	     -0.03195150	     -0.02934509
     11.98106270	     -0.03239483	     -0.02554537	     -0.02904774	     -0.02642926
     11.99732935	     -0.02973204	     -0.02280299	     -0.02669436	     -0.02408163
     12.01359600	     -0.02752251	     -0.02221679	     -0.02468212	     -0.02208419
     12.02986265	     -0.02605782	     -0.02197203	     -0.02327819	     -0.02069637
     12.04612930	     -0.02570105	     -0.02187984	     -0.02283215	     -0.02025630
     12.06239595	     -0.02656516	     -0.02200702	     -0.02345586	     -0.02087178
     12.07866260	     -0.02847513	     -0.02225935	     -0.02498974	     -0.02238887
     12.09492925	     -0.03104936	     -0.02325454	     -0.02708485	     -0.02447059
     12.11119590	     -0.03413466	     -0.02624429	     -0.02964401	     -0.02702567
     12.12746255	     -0.03796135	     -0.03017992	     -0.03298402	     -0.03039170
     12.14372920	     -0.04213619	     -0.03471675	     -0.03675875	     -0.03428944
     12.15999585	     -0.04484464	     -0.03804494	     -0.03918119	     -0.03692115
     12.17626250	     -0.04629656	     -0.04036492	     -0.04050295	     -0.03853018
     12.19252915	     -0.04967606	     -0.04499857	     -0.04400404	     -0.04252112
     12.20879580	     -0.05137966	     -0.04809091	     -0.04610773	     -0.04519532
     12.22506245	     -0.05307495	     -0.05028466	     -0.04859305	     -0.04810929
     12.24132910	     -0.05405301	     -0.05049588	     -0.05025175	     -0.04976085
     12.25759575	     -0.05447469	     -0.05010538	     -0.05100266	     -0.05036436
     12.27386240	     -0.05437740	     -0.05021061	     -0.05085010	     -0.05025055
     12.29012905	     -0.05379471	     -0.05057741	     -0.04982538	     -0.04937323
     12.30639570	     -0.05261474	     -0.04983714	     -0.04791452	     -0.04735461
     12.32266235	     -0.05112358	     -0.04764623	     -0.04576474	     -0.04475184
     12.33892900	     -0.04972595	     -0.04514537	     -0.04410612	     -0.04264390
     12.35519565	     -0.04775084	     -0.04236757	     -0.04204535	     -0.04026065
     12.37146231	     -0.04628069	     -0.04046161	     -0.04057468	     -0.03861126
     12.38772896	     -0.04584602	     -0.03989340	     -0.04016017	     -0.03814085
     12.40399561	     -0.04605002	     -0.04019913	     -0.04038100	     -0.03839206
     12.42026226	     -0.04685643	     -0.04130275	     -0.04121312	     -0.03932940
     12.43652891	     -0.04822623	     -0.04312758	     -0.04263341	     -0.04092444
     12.45279556	     -0.04946088	     -0.04491120	     -0.04394287	     -0.04244787
     12.46906221	     -0.05036376	     -0.04638560	     -0.04493128	     -0.04366572
     12.48532886	     -0.05099683	     -0.04752960	     -0.04568056	     -0.04464181
     12.50159551	     -0.05148041	     -0.04836226	     -0.04633715	     -0.04548623
     12.51786216	     -0.05180809	     -0.04886141	     -0.04680586	     -0.04606424
     12.53412881	     -0.05188350	     -0.04896600	     -0.04691227	     -0.04619248
     12.55039546	     -0.05169457	     -0.04868837	     -0.04663615	     -0.04585748
     12.56666211	     -0.05136751	     -0.04817187	     -0.04617445	     -0.04528045
