Moment_knee_angle_r
version=1
nRows=51
nColumns=5
inDegrees=no

This analysis gathers basic information about muscles during a simulation (e.g., forces, tendon lengths, moment arms, etc).
Units are S.I. units (second, meters, Newtons, ...)
If the header above contains a line with 'inDegrees', this indicates whether rotational values are in degrees (yes) or radians (no).

endheader
time	recfem_r	vaslat_r	vasint_r	vasmed_r
     11.75332959	    -58.18877670	     -7.68411486	     -2.68251100	     -4.02753238
     11.76959624	    -40.78032946	     -7.59564816	     -2.65397574	     -3.98938061
     11.78586289	    -26.48753464	     -7.64453122	     -2.67075553	     -4.01164529
     11.80212954	    -16.33121625	     -7.91281204	     -2.75616361	     -4.12861487
     11.81839619	    -10.79705910	     -8.36285535	     -2.89847985	     -4.32263915
     11.83466284	     -9.32687275	     -8.93012609	     -3.08861397	     -4.57625143
     11.85092949	    -10.16855013	     -9.57531285	     -3.33511426	     -4.89671839
     11.86719614	    -11.71291050	    -10.21731300	     -3.62282559	     -5.26074606
     11.88346279	    -13.38916919	    -10.71405613	     -3.88846610	     -5.56956549
     11.89972944	    -15.60417350	    -11.09562598	     -4.14158414	     -5.83775487
     11.91599609	    -19.51098548	    -11.93460838	     -4.59774790	     -6.39026456
     11.93226274	    -24.29554428	    -12.68906215	     -5.07003914	     -6.93641862
     11.94852939	    -27.65543762	    -12.71296087	     -5.30587792	     -7.11052756
     11.96479605	    -28.75351280	    -12.35358706	     -5.41512065	     -7.10114890
     11.98106270	    -27.42287308	    -11.81870628	     -5.45274517	     -7.00435285
     11.99732935	    -24.25592738	    -11.25229221	     -5.44999507	     -6.87141083
     12.01359600	    -20.06520244	    -11.49528722	     -5.35639410	     -6.64496840
     12.02986265	    -16.13678386	    -11.69182016	     -5.23057197	     -6.41617308
     12.04612930	    -13.31191952	    -11.70300213	     -5.16887793	     -6.31802449
     12.06239595	    -11.64631003	    -11.55324484	     -5.20413073	     -6.39361804
     12.07866260	    -10.66909413	    -11.21281223	     -5.28282383	     -6.56966364
     12.09492925	     -9.75232858	    -11.01323722	     -5.30269264	     -6.70533377
     12.11119590	     -8.55357615	    -11.40780255	     -5.22653712	     -6.74551456
     12.12746255	     -7.11151018	    -11.71995299	     -5.08477093	     -6.73472279
     12.14372920	     -5.54652140	    -11.68759466	     -4.79614711	     -6.55850977
     12.15999585	     -4.00194823	    -10.81456071	     -4.20199259	     -5.93864837
     12.17626250	     -2.83054277	     -9.56340533	     -3.51799507	     -5.13497434
     12.19252915	     -2.13003246	     -8.71452072	     -3.04264295	     -4.60148814
     12.20879580	     -1.71110951	     -7.66887874	     -2.58648841	     -4.04066115
     12.22506245	     -1.64043553	     -6.73531844	     -2.32450181	     -3.72388238
     12.24132910	     -1.88516236	     -5.76094675	     -2.19335749	     -3.47522315
     12.25759575	     -2.28808028	     -5.12607505	     -2.14075924	     -3.08500227
     12.27386240	     -2.46701194	     -6.75754619	     -2.23518637	     -2.66419505
     12.29012905	     -2.14368998	    -15.43981404	     -2.97170998	     -3.46948841
     12.30639570	     -1.82027873	    -37.31155636	     -5.15049509	     -7.69979703
     12.32266235	     -3.22525895	    -73.65206887	     -9.20508898	    -16.44239591
     12.33892900	     -8.36268446	   -117.70328944	    -14.63929250	    -28.19144304
     12.35519565	    -17.14642380	   -154.76950969	    -19.53109210	    -38.39923744
     12.37146231	    -27.61976352	   -176.85176341	    -22.67148369	    -44.44915107
     12.38772896	    -37.84663957	   -181.91729608	    -23.60886844	    -45.84875482
     12.40399561	    -45.92538185	   -168.80366405	    -22.05384760	    -42.50375696
     12.42026226	    -50.38447409	   -141.53785777	    -18.48100697	    -35.61767311
     12.43652891	    -50.10804934	   -106.05366555	    -13.77663441	    -26.78350348
     12.45279556	    -44.47806348	    -68.31460427	     -8.94441654	    -17.53299474
     12.46906221	    -35.00225684	    -36.27139648	     -5.15520721	     -9.89814962
     12.48532886	    -24.37470769	    -15.39544431	     -3.01404292	     -5.19427589
     12.50159551	    -15.11771089	     -6.30634033	     -2.35030483	     -3.41546018
     12.51786216	     -8.81504599	     -5.35838080	     -2.52400384	     -3.50977411
     12.53412881	     -5.99489986	     -7.43162833	     -2.88758727	     -4.17497663
     12.55039546	     -6.18376234	     -8.88465303	     -3.08362921	     -4.57042564
     12.56666211	     -8.13625965	     -8.92032178	     -3.09285638	     -4.57947503
