PassiveFiberForce
version=1
nRows=51
nColumns=5
inDegrees=no

This analysis gathers basic information about muscles during a simulation (e.g., forces, tendon lengths, moment arms, etc).
Units are S.I. units (second, meters, Newtons, ...)
If the header above contains a line with 'inDegrees', this indicates whether rotational values are in degrees (yes) or radians (no).

endheader
time	recfem_r	vaslat_r	vasint_r	vasmed_r
     11.72666272	     92.29936533	    143.16031435	     53.32927667	     87.67319265
     11.74346270	     86.17176789	    118.12579056	     43.69654836	     73.13185744
     11.76026269	     78.28024996	     97.61589206	     35.89869767	     61.13293718
     11.77706267	     71.60343170	     83.21765130	     30.36749578	     52.46811001
     11.79386265	     69.92794941	     76.01788092	     27.49845255	     47.88298120
     11.81066264	     76.09334372	     75.99221176	     27.36460619	     47.57466018
     11.82746262	     93.00412939	     83.15949287	     29.98668200	     51.62396899
     11.84426260	    125.71419231	     98.51692071	     35.68993394	     60.52664517
     11.86106259	    182.41070309	    123.89749132	     45.21694621	     75.24577732
     11.87786257	    273.74295558	    161.72146264	     59.86121147	     97.33467046
     11.89466255	    402.30616174	    211.87055198	     80.20973500	    127.00330241
     11.91146254	    563.37000173	    275.12716779	    107.35955114	    165.26032556
     11.92826252	    723.88643264	    342.98595042	    138.74990747	    207.82972110
     11.94506250	    834.62938406	    404.26241640	    169.67652718	    248.19475073
     11.96186248	    874.10491950	    459.52089271	    197.21329675	    282.92854891
     11.97866247	    838.96884064	    510.42633284	    219.69224144	    311.82853243
     11.99546245	    760.48912558	    553.10846855	    238.67416947	    336.36171528
     12.01226243	    655.01053239	    581.18198380	    251.38615916	    352.74251750
     12.02906242	    536.40214879	    587.54008645	    254.41003490	    356.57034527
     12.04586240	    422.87771073	    571.16377825	    247.16973334	    347.13809622
     12.06266238	    328.87788798	    538.48175085	    232.67990702	    328.34394296
     12.07946237	    258.52456489	    497.30410436	    214.59277682	    304.90468073
     12.09626235	    204.86856414	    451.94591216	    194.55386365	    279.26041671
     12.11306233	    160.84305942	    404.51287672	    170.86423414	    249.29028151
     12.12986232	    123.42973304	    352.24143103	    144.42668321	    214.90334991
     12.14666230	     90.31834700	    292.44736241	    116.39414711	    177.29322259
     12.16346228	     62.30329675	    230.91796455	     89.40413329	    139.85574371
     12.18026227	     42.05042322	    178.26778187	     67.51023804	    108.58651889
     12.19706225	     28.38764603	    136.41911923	     50.87517719	     84.02104711
     12.21386223	     20.98342076	    108.74554387	     40.14865871	     67.70790113
     12.23066222	     18.32826190	     95.18946483	     34.85851160	     59.45863067
     12.24746220	     19.02413667	     93.69255613	     34.12735204	     58.23128887
     12.26426218	     22.17660398	    102.20089801	     37.20644934	     62.96227943
     12.28106217	     27.36421911	    118.94525813	     43.46653572	     72.60642346
     12.29786215	     34.48014408	    141.75600848	     52.21659295	     85.91344347
     12.31466213	     43.25631506	    166.99600885	     62.19006069	    100.79969135
     12.33146212	     53.17108033	    190.11222146	     71.58671698	    114.54524588
     12.34826210	     63.95927996	    208.22114593	     79.12330942	    125.39240869
     12.36506208	     75.53806524	    220.33140191	     84.25858653	    132.70638513
     12.38186206	     87.85173992	    226.52195943	     86.93220614	    136.48914571
     12.39866205	    100.73538594	    227.19285095	     87.27135315	    136.95887589
     12.41546203	    113.80394070	    222.57076216	     85.37123658	    134.25633051
     12.43226201	    126.31795468	    212.75263662	     81.30222270	    128.46268985
     12.44906200	    136.93668837	    198.09985773	     75.27131330	    119.82680244
     12.46586198	    143.56405006	    179.58265914	     67.75117325	    108.95048332
     12.48266196	    144.12500459	    159.04450366	     59.54778536	     96.91814233
     12.49946195	    138.88743284	    139.57099199	     51.89006245	     85.51098583
     12.51626193	    131.35429880	    124.48592229	     46.02229903	     76.64251577
     12.53306191	    125.92447480	    115.75221778	     42.61939344	     71.43185857
     12.54986190	    125.07472977	    113.25474968	     41.58681998	     69.81907482
     12.56666188	    127.88725107	    114.68310220	     42.03967530	     70.48279215
