MuscleActuatorPower
version=1
nRows=51
nColumns=5
inDegrees=no

This analysis gathers basic information about muscles during a simulation (e.g., forces, tendon lengths, moment arms, etc).
Units are S.I. units (second, meters, Newtons, ...)
If the header above contains a line with 'inDegrees', this indicates whether rotational values are in degrees (yes) or radians (no).

endheader
time	recfem_r	vaslat_r	vasint_r	vasmed_r
     11.72666272	    -19.45399772	    212.23667025	     68.33593293	    103.06404806
     11.74346270	     61.20445359	    168.87316348	     54.30267022	     82.60453872
     11.76026269	     59.15491044	    103.03400259	     33.59209599	     51.40662293
     11.77706267	     24.02656015	     45.61190049	     15.47670165	     23.66035526
     11.79386265	     -0.16134673	     14.20012596	      5.12686527	      7.76117967
     11.81066264	    -10.36208809	     -1.82268171	     -0.67437147	     -1.00949320
     11.82746262	    -40.78892426	    -22.21555830	     -8.00312550	    -11.91438584
     11.84426260	   -104.69872212	    -51.80599477	    -18.11106514	    -26.86024745
     11.86106259	   -169.01755097	    -82.63487409	    -28.78260945	    -42.20763248
     11.87786257	   -202.27024907	   -108.39711639	    -39.05127384	    -56.15982851
     11.89466255	   -203.99402620	   -123.20533095	    -46.76957282	    -65.41569111
     11.91146254	   -209.24484434	   -138.33892920	    -55.98307708	    -76.31646478
     11.92826252	   -164.86505623	   -125.64294511	    -55.23674041	    -72.65669609
     11.94506250	    -90.14380293	   -102.64551325	    -49.46914750	    -62.94268582
     11.96186248	     -2.02606633	    -94.64194088	    -40.17687756	    -49.46042496
     11.97866247	     69.98861188	    -81.86557918	    -33.19096205	    -42.58868684
     11.99546245	    107.29264777	    -62.91040816	    -25.95568972	    -33.26765770
     12.01226243	    130.43306795	    -31.88967006	    -13.34374189	    -17.07538239
     12.02906242	    133.83265275	      7.18126658	      3.02031561	      3.86152266
     12.04586240	    119.88568884	     40.96861191	     17.14412179	     21.93437306
     12.06266238	    103.72674548	     61.32625320	     25.36228020	     32.47776812
     12.07946237	     98.27371770	     71.23385516	     29.07912133	     37.26420477
     12.09626235	    110.49077343	     77.36506160	     33.28811556	     40.96172988
     12.11306233	    122.16922520	     79.26247732	     39.03747768	     49.36236230
     12.12986232	    122.00950309	     93.34515360	     42.82885462	     55.68295493
     12.14666230	    103.82610079	    104.13980643	     44.55248253	     59.95566551
     12.16346228	     67.53635852	    102.27963387	     40.85172085	     57.03963199
     12.18026227	     32.90835219	     89.65537171	     33.31242426	     47.99196902
     12.19706225	     14.36609444	     74.52878816	     26.10469607	     38.24642293
     12.21386223	      6.97488376	     48.46297094	     17.21908486	     24.68996769
     12.23066222	      3.66923387	     19.47407844	      8.19010907	     11.39671615
     12.24746220	     -0.64874796	     -0.84109871	     -0.41428617	     -0.62751918
     12.26426218	    -14.48272651	    -33.06660148	    -10.08560475	    -18.80611613
     12.28106217	    -47.71539152	   -151.86663525	    -26.87472868	    -54.63955991
     12.29786215	    -91.35628681	   -379.61153011	    -52.72672280	   -102.72954797
     12.31466213	   -118.14920684	   -587.22499918	    -74.84801528	   -137.46201136
     12.33146212	   -118.79455255	   -632.88532207	    -78.80615380	   -141.82565979
     12.34826210	   -108.88079418	   -532.73223050	    -66.60982067	   -122.60911082
     12.36506208	    -97.52581501	   -353.61594921	    -45.02120863	    -86.09808727
     12.38186206	    -86.73113364	   -152.65439808	    -19.88056124	    -39.06019005
     12.39866205	    -76.97579303	     43.17499254	      5.72197576	     11.31456360
     12.41546203	    -69.31504784	    217.48296126	     29.03056795	     56.92181160
     12.43226201	    -62.24724514	    336.56721989	     45.06176371	     87.13581138
     12.44906200	    -48.86563714	    360.80860072	     49.24214948	     93.86359236
     12.46586198	    -23.25087653	    285.98203842	     42.03069291	     78.63046552
     12.48266196	      6.25561856	    162.51605012	     29.21755258	     52.58530820
     12.49946195	     20.19177974	     61.45706074	     17.42603318	     28.86022922
     12.51626193	     16.34952398	     18.58317387	     10.20025490	     15.09707189
     12.53306191	      7.32953196	     10.75840893	      5.92624837	      8.33779373
     12.54986190	     -0.65371124	      3.93701207	      1.58781172	      2.27526287
     12.56666188	    -13.25717107	    -11.28340823	     -3.96881722	     -5.87128471
