PassiveFiberForce
version=1
nRows=51
nColumns=5
inDegrees=no

This analysis gathers basic information about muscles during a simulation (e.g., forces, tendon lengths, moment arms, etc).
Units are S.I. units (second, meters, Newtons, ...)
If the header above contains a line with 'inDegrees', this indicates whether rotational values are in degrees (yes) or radians (no).

endheader
time	recfem_r	vaslat_r	vasint_r	vasmed_r
     15.31999300	     97.75525624	    133.19654125	     49.61295815	     81.43057773
     15.33545965	    105.56682875	    125.41015012	     46.60913131	     76.92490514
     15.35092630	    111.80157804	    117.26659557	     43.47504607	     72.19240905
     15.36639295	    116.45722609	    109.36828512	     40.43148140	     67.55908856
     15.38185960	    121.48844824	    103.48453309	     38.14122435	     64.03804340
     15.39732626	    130.19964045	    101.72747757	     37.39936987	     62.87084203
     15.41279291	    146.58569372	    105.86406716	     38.88447215	     65.12260663
     15.42825956	    175.26752102	    117.19868678	     43.13074714	     71.58988723
     15.44372621	    221.53737654	    136.66396055	     50.61246913	     82.88006770
     15.45919286	    289.91836024	    164.39755050	     61.60198316	     99.16765852
     15.47465951	    380.80028710	    199.20880880	     75.90728590	    119.84831831
     15.49012616	    494.32264251	    240.88849730	     93.74691758	    145.03780187
     15.50559281	    619.27569429	    285.93523930	    114.01875908	    172.93600413
     15.52105947	    728.60107721	    328.93703266	    134.50355405	    200.35243783
     15.53652612	    796.87629559	    366.99309992	    153.74708325	    225.48007475
     15.55199277	    806.83393822	    399.56915964	    170.71326223	    247.17104254
     15.56745942	    755.25731854	    427.46354065	    184.12289762	    263.98793616
     15.58292607	    658.87937542	    447.07939992	    192.89904869	    275.19843072
     15.59839272	    545.56960043	    455.21461599	    196.55919033	    279.91176586
     15.61385937	    437.05715054	    450.21873198	    194.47895112	    277.15654370
     15.62932602	    342.33181996	    432.77251244	    186.92814453	    267.33064828
     15.64479268	    261.66525959	    405.50665341	    174.25793438	    251.40041354
     15.66025933	    193.45151943	    372.23184223	    157.24406631	    229.68351647
     15.67572598	    137.11650699	    332.71396817	    137.23636782	    203.62462711
     15.69119263	     92.45844237	    286.83712697	    115.40044892	    174.48396526
     15.70665928	     59.39948504	    237.70372556	     93.34152179	    144.21402157
     15.72212593	     37.53143443	    191.93628851	     73.76301858	    116.65370343
     15.73759258	     24.08421793	    153.43877921	     57.98594548	     93.86096818
     15.75305923	     16.35031179	    123.57065603	     46.12979470	     76.24439418
     15.76852588	     12.83330098	    104.78953356	     38.78327323	     65.07063165
     15.78399254	     12.21951271	     97.08769100	     35.70396576	     60.28272089
     15.79945919	     13.73906886	     99.58087655	     36.50269297	     61.45619245
     15.81492584	     17.03174813	    111.45768746	     40.90510588	     68.18387881
     15.83039249	     22.06572978	    131.87486172	     48.71485106	     80.02479175
     15.84585914	     28.91622517	    158.69977908	     59.32127202	     95.81765231
     15.86132579	     37.47517588	    187.33621857	     71.05065420	    112.87651259
     15.87679244	     47.55381531	    212.86859881	     81.85918556	    128.28028923
     15.89225909	     58.41379183	    230.48894170	     89.54821072	    139.08425586
     15.90772575	     69.24366128	    236.91983599	     92.47517306	    143.14538408
     15.92319240	     79.79592645	    232.35034628	     90.59441894	    140.49048542
     15.93865905	     90.22296023	    219.47887789	     85.11311462	    132.78383792
     15.95412570	    100.59502071	    202.03101186	     77.73468843	    122.34748335
     15.96959235	    110.25901806	    183.08712777	     69.84479446	    111.08167660
     15.98505900	    117.46882748	    164.04529207	     62.06194118	     99.82431015
     16.00052565	    120.36511728	    145.32516123	     54.55836325	     88.80596598
     16.01599230	    118.76309781	    127.50221547	     47.54201737	     78.34748804
     16.03145896	    114.78077007	    111.65262204	     41.39763383	     69.05727565
     16.04692561	    111.81240947	     99.17692056	     36.59847625	     61.70096488
     16.06239226	    112.81361460	     91.10284001	     33.47220262	     56.84521427
     16.07785891	    118.94203644	     87.30810840	     31.95172029	     54.44212445
     16.09332556	    128.56968120	     86.20262131	     31.44009769	     53.59456097
