PennationAngle
version=1
nRows=51
nColumns=5
inDegrees=no

This analysis gathers basic information about muscles during a simulation (e.g., forces, tendon lengths, moment arms, etc).
Units are S.I. units (second, meters, Newtons, ...)
If the header above contains a line with 'inDegrees', this indicates whether rotational values are in degrees (yes) or radians (no).

endheader
time	recfem_r	vaslat_r	vasint_r	vasmed_r
     15.31999300	      0.18944808	      0.24429512	      0.05970394	      0.39688130
     15.33545965	      0.18634067	      0.24716812	      0.06038486	      0.40123133
     15.35092630	      0.18412219	      0.25055424	      0.06118323	      0.40633654
     15.36639295	      0.18264854	      0.25439037	      0.06208269	      0.41209413
     15.38185960	      0.18125786	      0.25787631	      0.06289658	      0.41730946
     15.39732626	      0.17906071	      0.25963619	      0.06330663	      0.41993887
     15.41279291	      0.17533668	      0.25832032	      0.06300007	      0.41797300
     15.42825956	      0.16987921	      0.25336567	      0.06184288	      0.41055846
     15.44372621	      0.16310653	      0.24538146	      0.05996180	      0.39852815
     15.45919286	      0.15589657	      0.23588082	      0.05768946	      0.38404128
     15.47465951	      0.14919041	      0.22651863	      0.05540706	      0.36956272
     15.49012616	      0.14329939	      0.21793739	      0.05327083	      0.35603306
     15.50559281	      0.13856689	      0.21066487	      0.05141857	      0.34432111
     15.52105947	      0.13533934	      0.20507233	      0.04995369	      0.33511088
     15.53652612	      0.13361631	      0.20091958	      0.04883149	      0.32809211
     15.55199277	      0.13335968	      0.19783081	      0.04798867	      0.32284420
     15.56745942	      0.13457332	      0.19544361	      0.04739588	      0.31917284
     15.58292607	      0.13717939	      0.19386411	      0.04703521	      0.31688279
     15.59839272	      0.14096044	      0.19319674	      0.04688514	      0.31590985
     15.61385937	      0.14567740	      0.19349806	      0.04695294	      0.31634959
     15.62932602	      0.15123741	      0.19475827	      0.04723670	      0.31818087
     15.64479268	      0.15782543	      0.19691366	      0.04775388	      0.32138743
     15.66025933	      0.16587230	      0.19984307	      0.04853440	      0.32623957
     15.67572598	      0.17595094	      0.20377538	      0.04960692	      0.33293851
     15.69119263	      0.18879803	      0.20918557	      0.05103525	      0.34190590
     15.70665928	      0.20511112	      0.21642261	      0.05288876	      0.35361334
     15.72212593	      0.22473966	      0.22532279	      0.05511201	      0.36769455
     15.73759258	      0.24673748	      0.23538967	      0.05757087	      0.38328712
     15.75305923	      0.27004969	      0.24617536	      0.06014995	      0.39973011
     15.76852588	      0.29087263	      0.25570982	      0.06239107	      0.41406959
     15.78399254	      0.30411790	      0.26152437	      0.06374619	      0.42275870
     15.79945919	      0.30567818	      0.26180507	      0.06381152	      0.42317787
     15.81492584	      0.29520970	      0.25650704	      0.06257719	      0.41526226
     15.83039249	      0.27676473	      0.24752386	      0.06046895	      0.40176877
     15.84585914	      0.25615141	      0.23762927	      0.05811069	      0.38672177
     15.86132579	      0.23783298	      0.22913276	      0.05604919	      0.37362988
     15.87679244	      0.22318924	      0.22291756	      0.05451603	      0.36392091
     15.89225909	      0.21204144	      0.21911216	      0.05356602	      0.35790296
     15.90772575	      0.20378635	      0.21765432	      0.05319956	      0.35558163
     15.92319240	      0.19751595	      0.21823275	      0.05334514	      0.35650373
     15.93865905	      0.19247546	      0.22045768	      0.05390297	      0.36003758
     15.95412570	      0.18824977	      0.22390857	      0.05476200	      0.36547847
     15.96959235	      0.18480492	      0.22820921	      0.05582278	      0.37219547
     15.98505900	      0.18243701	      0.23320844	      0.05704273	      0.37993147
     16.00052565	      0.18144471	      0.23895277	      0.05842859	      0.38874645
     16.01599230	      0.18177597	      0.24545512	      0.05997927	      0.39863973
     16.03145896	      0.18288644	      0.25244242	      0.06162654	      0.40917348
     16.04692561	      0.18383474	      0.25918948	      0.06320258	      0.41927159
     16.06239226	      0.18367278	      0.26467282	      0.06447881	      0.42746064
     16.07785891	      0.18206599	      0.26824972	      0.06531165	      0.43280759
     16.09332556	      0.17966192	      0.27037842	      0.06580808	      0.43599480
