TendonForce
version=1
nRows=51
nColumns=5
inDegrees=no

This analysis gathers basic information about muscles during a simulation (e.g., forces, tendon lengths, moment arms, etc).
Units are S.I. units (second, meters, Newtons, ...)
If the header above contains a line with 'inDegrees', this indicates whether rotational values are in degrees (yes) or radians (no).

endheader
time	recfem_r	vaslat_r	vasint_r	vasmed_r
     16.21332493	    843.57053649	    644.95988615	    173.68948694	    269.24912119
     16.23012491	    581.33913138	    450.46387481	    126.73721105	    196.12508688
     16.24692490	    369.83248686	    296.89919883	     89.67610385	    138.19011869
     16.26372488	    218.42808537	    197.27260359	     66.02171096	    101.04179427
     16.28052486	    134.05297750	    154.25010171	     56.64773734	     86.06903494
     16.29732485	    118.70020421	    159.29919559	     59.44034632	     89.85146062
     16.31412483	    151.98534885	    191.17112357	     69.36936220	    104.54541215
     16.33092481	    205.37146949	    229.31834392	     81.93357133	    123.10908693
     16.34772480	    270.14029840	    266.49953120	     95.86114133	    143.27170826
     16.36452478	    359.72806628	    307.22981630	    112.67470969	    166.89010207
     16.38132476	    497.80043195	    359.70410355	    135.19408785	    197.73735449
     16.39812475	    689.02097052	    422.23493266	    163.19000807	    234.91422632
     16.41492473	    901.71208021	    488.26038491	    194.54910825	    275.11108398
     16.43172471	   1080.31286027	    550.99240191	    226.61814646	    314.74453868
     16.44852469	   1171.39255285	    606.39963660	    256.07472644	    349.73045203
     16.46532468	   1156.94078370	    655.15665554	    280.00396810	    377.23375530
     16.48212466	   1066.37508705	    695.68197823	    298.77883906	    399.51557164
     16.49892464	    940.27344668	    724.10963000	    312.16514795	    415.28574491
     16.51572463	    799.09034770	    734.35987931	    317.29386910	    421.16919931
     16.53252461	    657.23894345	    722.56682880	    312.25329541	    414.93909859
     16.54932459	    528.48292117	    690.84333178	    298.00149588	    397.78903653
     16.56612458	    418.41466919	    644.77495946	    277.16995879	    372.86034071
     16.58292456	    322.59767925	    588.26347846	    249.48118541	    340.73276511
     16.59972454	    239.38987730	    522.36899773	    215.06036529	    299.19107442
     16.61652453	    170.83443879	    445.20646029	    177.70120507	    252.26291677
     16.63332451	    116.90355503	    361.30881018	    140.29660339	    203.22789911
     16.65012449	     77.95105262	    280.56787296	    106.31986823	    156.95015137
     16.66692448	     53.50746397	    215.36280475	     79.57293869	    119.69137883
     16.68372446	     38.82225270	    165.74654797	     59.45762552	     91.54918824
     16.70052444	     32.84333522	    134.54278327	     47.34017292	     74.98572315
     16.71732443	     33.42889534	    115.37012252	     42.20178107	     67.56831291
     16.73412441	     38.99749472	    101.49371850	     42.30282885	     63.84231268
     16.75092439	     46.04980316	    114.04614313	     45.16336994	     58.77522976
     16.76772438	     49.98960522	    247.50261067	     54.24636702	     64.77602855
     16.78452436	     49.92166168	    664.50464180	     85.68501869	    123.56843815
     16.80132434	     57.28271382	   1480.34631254	    162.33244069	    285.11928870
     16.81812433	     97.60624966	   2600.07495999	    290.93645593	    555.69368740
     16.83492431	    192.35247376	   3728.48753314	    443.69705543	    871.92584181
     16.85172429	    338.18292400	   4576.83040731	    574.57989375	   1144.85305481
     16.86852427	    504.36715494	   4951.22493087	    641.75712968	   1297.18876929
     16.88532426	    651.43421183	   4805.38273383	    627.90536256	   1292.08498434
     16.90212424	    746.77316376	   4192.29666100	    540.30888083	   1133.28865907
     16.91892422	    766.75155317	   3230.94115693	    404.42066730	    861.44661116
     16.93572421	    701.35960327	   2128.55710544	    258.72122037	    552.65848213
     16.95252419	    567.18101536	   1148.60640933	    140.98691383	    292.19657350
     16.96932417	    401.64993422	    472.38363120	     69.21132624	    127.75674305
     16.98612416	    248.85830191	    136.26680702	     39.96752513	     58.37404255
     17.00292414	    141.76564494	     52.54888606	     37.36067379	     50.60516443
     17.01972412	     92.55211886	     86.71438771	     44.35675857	     65.27507830
     17.03652411	     96.79005140	    129.71891924	     49.82145851	     76.20053464
     17.05332409	    135.00735657	    141.83383364	     50.73414670	     76.58531654
