Static Optimization
version=1
nRows=51
nColumns=59
inDegrees=no
This file contains static optimization results.

endheader
time	addbrev_r	addlong_r	addmagDist_r	addmagIsch_r	addmagMid_r	addmagProx_r	bflh_r	bfsh_r	edl_r	ehl_r	fdl_r	fhl_r	gaslat_r	gasmed_r	glmax1_r	glmax2_r	glmax3_r	glmed1_r	glmed2_r	glmed3_r	glmin1_r	glmin2_r	glmin3_r	grac_r	iliacus_r	perbrev_r	perlong_r	piri_r	psoas_r	recfem_r	sart_r	semimem_r	semiten_r	soleus_r	tfl_r	tibant_r	tibpost_r	vasint_r	vaslat_r	vasmed_r	pelvis_tx_residual	pelvis_ty_residual	pelvis_tz_residual	pelvis_tilt_residual	pelvis_list_residual	pelvis_rotation_residual	hip_flexion_r_reserve	hip_adduction_r_reserve	hip_rotation_r_reserve	knee_angle_r_reserve	ankle_angle_r_reserve	subtalar_angle_r_reserve	hip_flexion_l_torque	hip_adduction_l_torque	hip_rotation_l_torque	knee_angle_l_torque	ankle_angle_l_torque	subtalar_angle_l_torque
    145.36000000	      0.06791579	      0.24229730	      0.01002574	      0.01002162	      0.01005252	      0.03516955	      0.01002645	      0.14982992	      0.01005826	      0.01013401	      0.01715746	      0.03751368	      0.28265836	      0.01000274	      0.01001550	      0.01000569	      0.01000454	      0.22085522	      0.13850002	      0.12874560	      0.11685998	      0.11103742	      0.08340707	      0.11911587	      0.34870220	      0.01030599	      0.01026213	      0.14850719	      0.33974425	      0.01000895	      0.10748597	      0.01471002	      0.01705716	      0.31468262	      0.10070164	      0.01003818	      0.05741406	      0.01000533	      0.01000179	      0.01000329	     -1.52625866	    -31.66527023	     -6.04246411	     -4.16395980	     14.95648557	     -4.11321701	      0.02794109	     -0.01215774	     -0.00476776	      0.03311166	     -0.00360978	      0.00127814	     -0.01151903	     -0.01314643	      0.01583139	      0.01213514	      0.00479589	     -0.00425770
    145.37648000	      0.04753438	      0.15548450	      0.01003590	      0.01003038	      0.01007139	      0.01911101	      0.01002212	      0.07203176	      0.01010940	      0.01052023	      0.01487819	      0.02430079	      0.15704082	      0.14679566	      0.01001919	      0.01000792	      0.01000670	      0.13743642	      0.07026866	      0.04813124	      0.07863655	      0.06986996	      0.04939156	      0.05358115	      0.22902200	      0.01014162	      0.01009936	      0.06277965	      0.21179578	      0.01003065	      0.06352878	      0.01002962	      0.01007883	      0.09660711	      0.08083843	      0.01055481	      0.04821769	      0.01001038	      0.01000354	      0.01000645	     -0.64817771	     -1.54406004	      0.10083392	     -0.50178513	      0.83345373	     -0.34123549	      0.01756136	     -0.00756406	     -0.00149757	      0.01632047	     -0.00072299	      0.00155715	     -0.05492884	      0.00622394	      0.00158682	      0.03750298	      0.00393721	     -0.00303193
    145.39296000	      0.09411897	      0.02145997	      0.01010719	      0.08396719	      0.01011951	      0.01002961	      0.01001869	      0.01033895	      0.38602202	      0.11624891	      0.01003506	      0.01001574	      0.01000557	      0.65001870	      0.01000240	      0.01000174	      0.01000375	      0.01003421	      0.01000588	      0.01000316	      0.08505585	      0.01001909	      0.01001137	      0.01003628	      0.43772703	      0.08730757	      0.13395618	      0.01000272	      0.15644920	      0.01002039	      0.01010871	      0.08042758	      0.01027715	      0.01000242	      0.01034332	      0.46313328	      0.01000935	      0.02284991	      0.06638868	      0.03648639	     -1.31101546	      8.58849769	      3.37150517	     -1.14566328	     -6.56983800	      1.67334755	     -0.00489781	     -0.00473135	      0.04729950	     -0.00082756	      0.02185980	     -0.00974713	     -0.08846379	      0.02163873	     -0.00427704	      0.05857014	      0.00357598	     -0.00258312
    145.40944000	      0.09610860	      0.19475186	      0.01010578	      0.01005327	      0.03236289	      0.07687901	      0.01002849	      0.02742332	      0.23148047	      0.06212793	      0.01004405	      0.01002087	      0.01002157	      0.13893338	      0.01002641	      0.01001290	      0.01001475	      0.01013708	      0.01015050	      0.01016549	      0.01565890	      0.02063556	      0.02001998	      0.04893643	      0.12577219	      0.05929088	      0.10140857	      0.04399670	      0.13588581	      0.04946538	      0.03335718	      0.01002343	      0.01007081	      0.01000347	      0.03334120	      0.23058028	      0.01001183	      0.01002398	      0.01000839	      0.01001519	      0.78047489	     12.42417349	      0.94480808	      2.18268481	     -4.82232980	     -0.85584480	      0.01229885	     -0.00028729	     -0.00148252	      0.00638281	      0.01395513	     -0.00733875	     -0.10826562	      0.06670030	     -0.02737417	      0.07232054	      0.00293049	     -0.00095311
    145.42592000	      0.14226024	      0.25841542	      0.02181329	      0.01011031	      0.09492719	      0.12811332	      0.01036953	      0.03804108	      0.12097700	      0.03325783	      0.01005795	      0.01002923	      0.02688790	      0.02831532	      0.01003178	      0.01001890	      0.01004238	      0.01003306	      0.01005382	      0.01007439	      0.01020075	      0.01081724	      0.01191080	      0.08113493	      0.09791792	      0.02864189	      0.04742258	      0.02993695	      0.12800134	      0.01005533	      0.02976465	      0.01025050	      0.01407904	      0.01000488	      0.01031612	      0.12096890	      0.01001682	      0.01001369	      0.01000440	      0.01000836	      2.15480128	      0.13103373	      2.88753395	      2.69342606	     -3.43915482	     -1.73901944	      0.01227857	      0.00383064	     -0.00198653	      0.00890908	      0.00846390	     -0.00404762	     -0.11689032	      0.12693999	     -0.05620017	      0.07680062	      0.00172116	      0.00031712
    145.44240000	      0.19169093	      0.34755649	      0.03535099	      0.01008268	      0.13463368	      0.17567227	      0.01004485	      0.03263478	      0.09965762	      0.02679592	      0.01006589	      0.01003240	      0.01004902	      0.01000977	      0.01001848	      0.01001164	      0.01002848	      0.01001991	      0.01002953	      0.01003603	      0.01009570	      0.01021495	      0.01104825	      0.10096246	      0.12470456	      0.02453082	      0.04247349	      0.04911300	      0.16677050	      0.01791280	      0.03142181	      0.01003261	      0.01014258	      0.01000529	      0.01027460	      0.09483784	      0.01001793	      0.01001952	      0.01000659	      0.01001242	      1.20240474	     -4.93894199	      0.37682758	      0.63061839	      1.40324172	     -0.48385733	      0.01663666	      0.00599447	     -0.00288482	      0.00748149	      0.00757232	     -0.00373573	     -0.11686095	      0.13234773	     -0.06337368	      0.07435187	     -0.00003306	     -0.00199759
    145.45888000	      0.20553731	      0.38504926	      0.01277755	      0.01005087	      0.12482832	      0.18133949	      0.01003146	      0.04727391	      0.11605593	      0.03070576	      0.01005171	      0.01002513	      0.01002305	      0.01000979	      0.01001531	      0.01000910	      0.01001656	      0.01002110	      0.01003034	      0.01003585	      0.01014760	      0.01080506	      0.01676024	      0.11134979	      0.17282784	      0.02953490	      0.05299474	      0.07525776	      0.20764974	      0.04143257	      0.04986623	      0.01002748	      0.01010372	      0.01000405	      0.01748230	      0.10833064	      0.01001355	      0.01001413	      0.01000465	      0.01000902	     -2.11479496	     -4.47331063	     -3.04267602	     -3.45245768	      5.01156936	      2.15340352	      0.02072252	      0.00532541	     -0.00304172	      0.01055724	      0.00925463	     -0.00469339	     -0.11636781	      0.06432386	     -0.04969884	      0.07083590	     -0.00261568	     -0.00602606
    145.47536000	      0.16334769	      0.32601170	      0.01007816	      0.01003538	      0.06315537	      0.13054748	      0.01002647	      0.06247580	      0.12434623	      0.03307557	      0.01004490	      0.01002218	      0.01002696	      0.01001359	      0.01001580	      0.01000840	      0.01001107	      0.01006215	      0.01007438	      0.01007409	      0.02643746	      0.03982805	      0.04277002	      0.09328190	      0.20671125	      0.03404085	      0.06225680	      0.08976815	      0.21539034	      0.04196246	      0.06989268	      0.01003036	      0.01009050	      0.01000358	      0.06801800	      0.11321024	      0.01001173	      0.01001158	      0.01000378	      0.01000747	     -3.93480646	     -2.93032594	     -2.95162401	     -4.28519654	      3.04621206	      2.87645189	      0.02087238	      0.00172979	     -0.00209385	      0.01331131	      0.00992019	     -0.00534989	     -0.12902282	     -0.01187242	     -0.02183079	      0.07526029	     -0.00638983	     -0.00620971
    145.49184000	      0.10841317	      0.23764720	      0.01005017	      0.01003153	      0.01334620	      0.07412635	      0.01002836	      0.06974824	      0.12430057	      0.03230036	      0.01004409	      0.01002159	      0.01003079	      0.01002305	      0.01001992	      0.01000940	      0.01001003	      0.05254632	      0.01861579	      0.01267260	      0.06117638	      0.06685267	      0.06066842	      0.06909273	      0.20592399	      0.03498772	      0.06612106	      0.09474827	      0.19293581	      0.02934029	      0.07835520	      0.01004194	      0.01009502	      0.01000349	      0.10115017	      0.11139900	      0.01001117	      0.01001143	      0.01000376	      0.01000747	     -0.04106608	     -1.97508787	      1.52600243	      1.61942584	     -3.06881086	      0.22381593	      0.01810997	     -0.00150269	     -0.00125279	      0.01401090	      0.00966239	     -0.00556563	     -0.15610451	     -0.01692842	      0.01554196	      0.09099597	     -0.01081683	     -0.00024509
    145.50832000	      0.09036299	      0.20933563	      0.01005093	      0.01003208	      0.01167344	      0.05758689	      0.01003457	      0.07304897	      0.12242830	      0.03266780	      0.01004840	      0.01002210	      0.01004094	      0.01003486	      0.01003324	      0.01001215	      0.01001079	      0.08190263	      0.03976055	      0.02883795	      0.06720533	      0.07152980	      0.06338318	      0.06363188	      0.19645536	      0.03501198	      0.06599142	      0.09541347	      0.17911819	      0.03838838	      0.07980143	      0.01006639	      0.01039037	      0.01000355	      0.10588879	      0.11024452	      0.01001105	      0.01001253	      0.01000419	      0.01000829	      6.84457555	      3.34150156	      6.32679375	      8.87224871	     -8.00949279	     -3.40229594	      0.01654908	     -0.00229517	     -0.00138515	      0.01378110	      0.00923455	     -0.00557974	     -0.18151780	      0.04822181	      0.04546956	      0.10995840	     -0.01388077	      0.00742022
    145.52480000	      0.10828513	      0.24438801	      0.01005603	      0.01003372	      0.01428825	      0.07992202	      0.01003895	      0.07077222	      0.12552761	      0.03260501	      0.01004321	      0.01002107	      0.01003081	      0.01002875	      0.01003140	      0.01001361	      0.01001265	      0.02571436	      0.02704207	      0.04136808	      0.04571984	      0.06350450	      0.06339052	      0.07645086	      0.18103467	      0.03450470	      0.06727358	      0.12031319	      0.17901535	      0.08643386	      0.07771099	      0.01006583	      0.01014604	      0.01000314	      0.09331743	      0.11433050	      0.01001074	      0.01001506	      0.01000512	      0.01001008	     11.45181855	     14.07678509	     10.61748839	     18.43047269	    -10.75127580	     -5.10084280	      0.01692108	     -0.00102348	     -0.00314146	      0.01260019	      0.00918750	     -0.00578662	     -0.19928944	      0.20511770	     -0.02984988	      0.10107131	      0.03392008	      0.00202424
    145.54128000	      0.15842393	      0.32203214	      0.01017053	      0.01004493	      0.07551127	      0.14186026	      0.01004768	      0.04491626	      0.13332707	      0.03399359	      0.01004137	      0.01001991	      0.01002226	      0.01002287	      0.01005118	      0.01002299	      0.01002455	      0.01003020	      0.01010098	      0.02902454	      0.01016198	      0.02750023	      0.04853345	      0.09481437	      0.12789678	      0.03639390	      0.07286547	      0.14823348	      0.16760917	      0.14147339	      0.05633157	      0.01005927	      0.01011674	      0.01000276	      0.04238776	      0.11922749	      0.01001019	      0.01002571	      0.01000901	      0.01001739	    -16.19421370	     -8.15991338	    -18.43919463	    -29.83351806	     25.98407239	      4.01700909	      0.01677495	      0.00328485	     -0.00605975	      0.00760980	      0.00926806	     -0.00637632	      0.03551641	     -0.37534223	      0.12567942	     -0.06599470	     -0.05453392	     -0.07804045
    145.55776000	      0.18909078	      0.35810767	      0.02061044	      0.01006120	      0.11794747	      0.17575121	      0.01004222	      0.01481035	      0.14227827	      0.03480615	      0.01004000	      0.01001900	      0.01001715	      0.01002013	      0.01003818	      0.01002199	      0.01004261	      0.01001772	      0.01004026	      0.01011680	      0.01006853	      0.01026183	      0.02289968	      0.09235218	      0.10390660	      0.03919996	      0.08156375	      0.12251058	      0.16247203	      0.18031259	      0.03358603	      0.01005546	      0.01007209	      0.01000244	      0.01142287	      0.11977800	      0.01000980	      0.01008186	      0.01003186	      0.01005797	      9.47239634	      2.01356031	     12.89641730	     27.38177672	    -26.40036834	      8.74745612	      0.01609738	      0.00596091	     -0.00616558	      0.00223772	      0.00903690	     -0.00714573	     -0.33871323	      0.24320940	     -0.43443433	      0.05640130	     -0.06954626	     -0.18195111
    145.57424000	      0.15819299	      0.30629712	      0.01011032	      0.01004055	      0.06777261	      0.12945290	      0.01002449	      0.01593821	      0.14610745	      0.03460699	      0.01004121	      0.01001928	      0.01001700	      0.01002348	      0.01001736	      0.01000961	      0.01001335	      0.01003003	      0.01004236	      0.01004840	      0.01039209	      0.01335139	      0.01670108	      0.06495895	      0.16853413	      0.04130694	      0.08881296	      0.04402002	      0.19058219	      0.20785541	      0.04315078	      0.01005556	      0.01004203	      0.01000229	      0.05304089	      0.11659721	      0.01001014	      0.01008360	      0.01003363	      0.01005941	    -12.20228570	      4.30040677	      6.82320965	    -18.91652703	     -8.11840898	    -11.58149275	      0.01744428	      0.00240617	     -0.00251506	      0.00211147	      0.00839851	     -0.00761967	     -0.16875856	     -0.32480549	      0.48994708	     -0.11070833	     -0.18622319	      0.11174315
    145.59072000	      0.12889113	      0.21740842	      0.01004465	      0.01004197	      0.01074279	      0.02486295	      0.01001387	      0.01299484	      0.14067141	      0.03395378	      0.01004651	      0.01002135	      0.01001690	      0.01002596	      0.01000515	      0.01000316	      0.01000502	      0.11089234	      0.01001732	      0.01000805	      0.12101651	      0.01017105	      0.01003129	      0.01030292	      0.33581737	      0.04249803	      0.09171040	      0.01000639	      0.22984391	      0.18327420	      0.03334627	      0.01005636	      0.01002728	      0.01000231	      0.10854426	      0.11397029	      0.01001166	      0.01074619	      0.01037027	      0.01058157	     20.23929047	     -3.13572570	      2.27307540	     36.88179667	      1.47479481	     10.64191365	      0.01489649	     -0.00294887	      0.01580912	      0.00083302	      0.00766257	     -0.00718366	     -0.06138284	      0.02814180	     -0.10836750	     -0.31760609	     -0.19359956	      0.25867423
    145.60720000	      0.10105429	      0.16469671	      0.01003403	      0.01003962	      0.01008234	      0.01020554	      0.01001226	      0.02099215	      0.12540722	      0.03247618	      0.01005785	      0.01002590	      0.01001988	      0.01003262	      0.01000467	      0.01000282	      0.01000431	      0.30215274	      0.01002202	      0.01000754	      0.18607687	      0.01229259	      0.01003146	      0.01012452	      0.35608341	      0.04129906	      0.08566779	      0.01000515	      0.22084847	      0.14957972	      0.03993956	      0.01006256	      0.01002730	      0.01000252	      0.14180208	      0.11255435	      0.01001493	      0.01008994	      0.01004264	      0.01006967	      3.67709746	     -1.81613071	     -5.47736902	      1.04379639	      5.29822624	      3.03902784	      0.01368051	     -0.00495717	      0.01984519	      0.00305879	      0.00696343	     -0.00586644	     -0.00560932	     -0.51708970	      0.35731364	     -0.41620395	     -0.37054603	      0.45747162
    145.62368000	      0.02833615	      0.09196252	      0.01002878	      0.01002372	      0.01005206	      0.01061698	      0.01001677	      0.05802854	      0.10419258	      0.03034109	      0.01007670	      0.01003371	      0.01003228	      0.01005999	      0.01001731	      0.01000793	      0.01000716	      0.21589903	      0.07571489	      0.01160583	      0.10234623	      0.08526645	      0.05901660	      0.01747619	      0.18482140	      0.03617329	      0.06870063	      0.01179643	      0.15205809	      0.14655918	      0.08339768	      0.01006761	      0.01003617	      0.01000296	      0.13353315	      0.10940687	      0.01002075	      0.01004156	      0.01001627	      0.01002803	      3.50226979	     -1.93414017	     -6.73105308	      3.15918847	      7.49890343	      4.95227134	      0.01415799	     -0.00571898	      0.00162083	      0.00846830	      0.00619949	     -0.00422157	      0.06730383	     -0.53612382	      0.23319282	     -0.49321333	     -0.40484024	      0.60889027
    145.64016000	      0.01634286	      0.04368317	      0.01007454	      0.01004965	      0.01016683	      0.01663021	      0.01003110	      0.01104664	      0.08568661	      0.02808853	      0.01010293	      0.01004376	      0.01001994	      0.01002513	      0.01015225	      0.01005642	      0.01002866	      0.01015979	      0.01614443	      0.04194245	      0.01095551	      0.02081501	      0.03167207	      0.01154885	      0.04051480	      0.02948473	      0.04963816	      0.10922537	      0.05458956	      0.09099547	      0.02635847	      0.01006435	      0.01004971	      0.01000355	      0.03621454	      0.10532512	      0.01002868	      0.01156505	      0.01238119	      0.01176375	     -1.42035000	      0.33902108	      0.00895597	     -0.84618351	     -1.10557320	     -3.61856747	      0.00568704	     -0.00119255	     -0.00272940	     -0.00028230	      0.00549023	     -0.00293939	      0.06028043	     -0.41984293	      0.24857688	     -0.43656783	     -0.45048835	      0.66428345
    145.65664000	      0.13071609	      0.21667376	      0.03603354	      0.01004938	      0.10986468	      0.16101429	      0.01005385	      0.01051367	      0.07997688	      0.02810046	      0.01010637	      0.01005011	      0.01001777	      0.01001687	      0.02287383	      0.07848964	      0.11133883	      0.01000663	      0.01001545	      0.01004569	      0.01001938	      0.01003340	      0.01008728	      0.06939841	      0.01011822	      0.02845356	      0.04453312	      0.18660121	      0.10615000	      0.10534522	      0.03579012	      0.01003295	      0.01004818	      0.01000387	      0.01004503	      0.10492829	      0.01003389	      0.01703689	      0.03587429	      0.02125591	      0.69899418	      2.51938726	      4.28357428	      4.51216330	     -3.56434129	      2.93811729	      0.00864487	      0.00801727	     -0.01255935	     -0.00120394	      0.00511896	     -0.00259406	      0.07245537	     -0.19256075	     -0.03072635	     -0.36514472	     -0.38856639	      0.60380461
    145.67312000	      0.09970715	      0.15607860	      0.03249803	      0.01007048	      0.08460140	      0.12447765	      0.01009130	      0.01033465	      0.09032805	      0.02998800	      0.01010301	      0.01004523	      0.01001508	      0.01001089	      0.01274811	      0.03561683	      0.08046173	      0.01000818	      0.01001879	      0.01004681	      0.01002256	      0.01003577	      0.01007355	      0.04489377	      0.01011019	      0.03615880	      0.06170041	      0.09893087	      0.08099778	      0.07777026	      0.02458890	      0.01002788	      0.01005970	      0.01000381	      0.01004480	      0.10906724	      0.01002901	      0.01981629	      0.04957977	      0.02755688	     -0.11274772	      0.78786316	      1.73944051	     -0.54623568	     -1.24003443	     -2.85372365	      0.00536358	      0.00597295	     -0.00925681	     -0.00165667	      0.00512121	     -0.00334261	      0.06048437	     -0.19174514	      0.13068517	     -0.22744392	     -0.39602004	      0.56390567
    145.68960000	      0.07816397	      0.11453957	      0.01234329	      0.03702567	      0.02475599	      0.01775998	      0.01004407	      0.01029891	      0.10742739	      0.03226135	      0.01008564	      0.01003910	      0.01001271	      0.01000777	      0.01002241	      0.01001602	      0.01003544	      0.17220900	      0.01008846	      0.01002559	      0.09961525	      0.01957477	      0.01008434	      0.01136404	      0.10525390	      0.04893340	      0.08937502	      0.01001715	      0.04092348	      0.02339702	      0.01018408	      0.01012187	      0.01035088	      0.01000361	      0.05399021	      0.11152704	      0.01002372	      0.01652478	      0.04265805	      0.02315312	      1.11681503	     -0.30984448	      2.55641285	      0.47767806	     -0.52331044	      6.52669907	      0.00171919	      0.00279313	      0.00775179	     -0.00130847	      0.00513374	     -0.00459098	      0.03647056	     -0.23867846	     -0.07460637	     -0.13651508	     -0.28392558	      0.41936341
    145.70608000	      0.05264614	      0.09625083	      0.01033170	      0.01465274	      0.01074113	      0.01051204	      0.01006399	      0.02715743	      0.11782707	      0.03375032	      0.01010456	      0.01003664	      0.01001436	      0.01000864	      0.01002026	      0.01001434	      0.01002825	      0.34578213	      0.03097221	      0.01002881	      0.17189560	      0.07418859	      0.01092255	      0.01371947	      0.15520988	      0.05653816	      0.10620618	      0.01001510	      0.05129540	      0.03016210	      0.01553352	      0.01162890	      0.01248702	      0.01000368	      0.12362725	      0.10823342	      0.01002170	      0.01030605	      0.01005234	      0.01014066	     -1.59816165	     -1.92301591	      0.54092084	     -4.20262277	     -1.62966687	     -1.07380364	      0.00362270	      0.00016167	      0.00999774	      0.00272442	      0.00489457	     -0.00537514	      0.00225207	     -0.35980921	      0.04468269	     -0.02371976	     -0.27909819	      0.31250842
    145.72256000	      0.01166826	      0.04770151	      0.01003622	      0.01004291	      0.01004763	      0.01007798	      0.01002852	      0.10123186	      0.11457282	      0.03181835	      0.01008537	      0.01004002	      0.01003285	      0.01002689	      0.01002120	      0.01001268	      0.01001281	      0.31410065	      0.06548672	      0.01005328	      0.15094815	      0.09521443	      0.03416754	      0.02088726	      0.17048411	      0.05356464	      0.10068101	      0.01002689	      0.09300951	      0.01311896	      0.07362468	      0.02833590	      0.01290156	      0.01000419	      0.14788359	      0.10278004	      0.01002375	      0.01002741	      0.01000946	      0.01001783	     -3.95877586	      0.01347142	     -3.47292819	     -7.49528591	      1.02304465	     -7.18740326	      0.00784603	     -0.00422268	      0.00611246	      0.01141890	      0.00453810	     -0.00509564	      0.01300154	     -0.37791082	      0.09724929	      0.02355819	     -0.23117756	      0.18071200
    145.73904000	      0.01039681	      0.02566871	      0.01004110	      0.01004101	      0.01005434	      0.01010743	      0.01004715	      0.09679207	      0.09958185	      0.02885085	      0.01011270	      0.01004826	      0.01004950	      0.01004209	      0.01003068	      0.01001731	      0.01001590	      0.16741264	      0.04073067	      0.01025393	      0.08192257	      0.06128708	      0.03240324	      0.02534982	      0.11993902	      0.04317125	      0.07849874	      0.01018115	      0.08665292	      0.01011532	      0.07568255	      0.07246499	      0.01907695	      0.01000505	      0.09315928	      0.09749833	      0.01003003	      0.01002508	      0.01000851	      0.01001621	      2.68321665	      0.26509616	     -4.11791806	      6.13527103	      5.78854639	      4.14624301	      0.00707700	     -0.00406175	      0.00225979	      0.01191431	      0.00422186	     -0.00394858	      0.08782401	     -0.07867422	     -0.11093042	      0.00095804	     -0.12931781	      0.08196375
    145.75552000	      0.03643290	      0.05355558	      0.01232633	      0.01452369	      0.01584997	      0.01735101	      0.03031826	      0.02450943	      0.08185492	      0.02540314	      0.01019537	      0.01006021	      0.01002095	      0.01001160	      0.01005236	      0.01006086	      0.01040275	      0.03221243	      0.01009404	      0.01002633	      0.02661386	      0.01172491	      0.01015626	      0.02156254	      0.04043947	      0.03207346	      0.05430376	      0.01003725	      0.02260904	      0.01012242	      0.01272498	      0.13271090	      0.04054331	      0.01000614	      0.01513772	      0.09121167	      0.01003953	      0.01024158	      0.01008248	      0.01016256	     -0.07282869	     -2.23440990	      1.79755587	     -0.15881345	     -1.99811043	     -5.02481648	      0.00097757	      0.00163871	      0.00246296	      0.00330889	      0.00395603	     -0.00270731	      0.06978128	     -0.06027209	      0.12697307	      0.03772999	     -0.10948542	      0.06034002
    145.77200000	      0.06602570	      0.08166410	      0.03902739	      0.01030145	      0.06219691	      0.07790262	      0.11895408	      0.02542213	      0.06864235	      0.02224639	      0.01015327	      0.01007229	      0.01002789	      0.01001647	      0.01378769	      0.03575784	      0.07401749	      0.01001706	      0.01003609	      0.01007273	      0.01004158	      0.01005211	      0.01007956	      0.03987271	      0.01011091	      0.02445318	      0.03812355	      0.01179917	      0.03405344	      0.01004274	      0.01775234	      0.15727028	      0.05024849	      0.01000704	      0.01004749	      0.08302559	      0.01005096	      0.01005746	      0.01002002	      0.01003719	     -1.17734708	      5.53694395	      1.38361338	     -2.14415350	     -3.13347180	      0.79444583	      0.00083344	      0.00464573	     -0.00402803	      0.00401202	      0.00369185	     -0.00192502	      0.13013830	      0.02626350	      0.01662640	     -0.01020025	     -0.00439526	      0.00369414
    145.78848000	      0.07340883	      0.08339341	      0.05607044	      0.02357801	      0.07519525	      0.08148026	      0.14353384	      0.01577124	      0.11235927	      0.03739491	      0.01011061	      0.01004742	      0.01001278	      0.03772005	      0.01880228	      0.05882694	      0.11559633	      0.01001808	      0.01003665	      0.01006422	      0.01004355	      0.01005220	      0.01007672	      0.03732906	      0.01009179	      0.03343250	      0.04701128	      0.01014795	      0.01593636	      0.01003762	      0.01063219	      0.18608339	      0.05907265	      0.01000412	      0.01004486	      0.14681004	      0.01003372	      0.01007158	      0.01002582	      0.01004666	     -1.82716187	     -0.14405632	      4.11391886	     -2.54878660	     -5.24215250	      1.66245517	     -0.00055139	      0.00556237	     -0.00317290	      0.00272064	      0.00666155	     -0.00267210	      0.14797951	      0.04878049	      0.00242870	     -0.01733800	      0.00226035	     -0.00196964
    145.80496000	      0.05942987	      0.06692111	      0.04341569	      0.01341782	      0.06207407	      0.07319165	      0.15836982	      0.02838022	      0.09941745	      0.03271063	      0.01012400	      0.01004971	      0.01001664	      0.03498665	      0.03167973	      0.06610827	      0.09601834	      0.01001887	      0.01004241	      0.01012982	      0.01004371	      0.01005577	      0.01009792	      0.03919126	      0.01008416	      0.02981406	      0.04238421	      0.01552239	      0.01932375	      0.01002450	      0.01696515	      0.21545981	      0.06794540	      0.01000463	      0.01004303	      0.12733824	      0.01003454	      0.01003482	      0.01001229	      0.01002218	     -0.55035948	     -0.99716861	      0.99576330	     -0.97733209	     -1.17400809	      0.39797071	     -0.00005008	      0.00441786	     -0.00397961	      0.00562582	      0.00593429	     -0.00243440	      0.18356804	      0.05208263	     -0.00489534	     -0.03616450	      0.00902958	     -0.00683714
    145.82144000	      0.03812607	      0.04376117	      0.02545293	      0.01022124	      0.04186782	      0.05797292	      0.16214325	      0.04048290	      0.08105444	      0.02516698	      0.01012491	      0.01005693	      0.04034033	      0.01000187	      0.04124517	      0.06534202	      0.06356819	      0.01002106	      0.01005507	      0.01048150	      0.01004523	      0.01006599	      0.01014374	      0.03919475	      0.01008974	      0.02832690	      0.04472215	      0.04066888	      0.02181368	      0.01001717	      0.02470775	      0.22969925	      0.07310634	      0.01000620	      0.01004364	      0.09470159	      0.01003686	      0.01002065	      0.01000714	      0.01001285	      2.18202836	     -1.95634121	     -2.78333842	      2.82893398	      4.54894189	     -1.29748256	      0.00061459	      0.00276183	     -0.00459578	      0.00883184	      0.00459938	     -0.00232931	      0.21825697	      0.06283822	     -0.00884540	     -0.05497946	      0.01276996	     -0.00964666
    145.83792000	      0.01606938	      0.01361863	      0.02471910	      0.01089738	      0.02887517	      0.03169522	      0.15830021	      0.03402821	      0.11554941	      0.03474288	      0.01008258	      0.01003875	      0.07762999	      0.01000106	      0.04531417	      0.07195109	      0.06725516	      0.01003434	      0.01010263	      0.01171818	      0.01006805	      0.01010104	      0.01019374	      0.03112645	      0.01008821	      0.04057870	      0.06683429	      0.03130662	      0.01045368	      0.01001551	      0.01461547	      0.23152889	      0.07587548	      0.01000458	      0.01005337	      0.13169816	      0.01002324	      0.01002187	      0.01000774	      0.01001368	      3.60756347	     -3.92368862	     -3.59891708	      5.31011730	      5.65477584	     -1.82568392	     -0.00068869	      0.00165266	     -0.00285452	      0.00782926	      0.00654029	     -0.00359172	      0.22716837	      0.07261245	     -0.01212491	     -0.06181255	      0.01310164	     -0.01077767
    145.85440000	      0.01337282	      0.01103651	      0.03262188	      0.03078949	      0.02734204	      0.01806951	      0.18622890	      0.03460730	      0.10300128	      0.02997135	      0.01008162	      0.01003795	      0.05584900	      0.01000574	      0.03985319	      0.07261040	      0.08351099	      0.01000425	      0.01026420	      0.01219181	      0.01010193	      0.01019661	      0.01051504	      0.03208792	      0.01008996	      0.03869199	      0.06729216	      0.01258027	      0.01013005	      0.01001172	      0.01151984	      0.28889417	      0.09859738	      0.01000502	      0.01005456	      0.10968396	      0.01002139	      0.01001850	      0.01000670	      0.01001163	      1.00113995	     -3.80261038	     -0.28383441	      1.81613714	     -0.90664980	     -0.56080952	     -0.00219893	      0.00153555	     -0.00068836	      0.00824068	      0.00577635	     -0.00366422	      0.20582589	      0.05538156	     -0.01313104	     -0.05455738	      0.01166704	     -0.01103270
    145.87088000	      0.05375374	      0.03091932	      0.10023222	      0.14448117	      0.07977950	      0.02397793	      0.20637843	      0.01132800	      1.23773263	      0.41783142	      0.01000734	      0.01000312	      0.01000116	      0.73042570	      0.01418953	      0.08401826	      0.21131622	      0.04430750	      0.01017990	      0.01005337	      0.02931803	      0.01065934	      0.01012825	      0.02711699	      0.01008639	      0.33516178	      0.53615389	      0.01003182	      0.01004134	      0.01001621	      0.01006660	      0.31977008	      0.11797142	      0.01000032	      0.01009120	      1.69433571	      0.01000173	      0.04659793	      0.13281430	      0.07488663	     -5.49939076	      3.51727608	      6.74572403	     -8.01182168	    -12.08433651	      1.71135286	     -0.00769121	      0.00578976	      0.00597734	     -0.00166527	      0.08356307	     -0.03830058	      0.17442941	      0.00626968	     -0.01245669	     -0.04161326	      0.01027547	     -0.01067551
    145.88736000	      0.13169439	      0.12676181	      0.14322381	      0.06001698	      0.17148222	      0.18516018	      0.21587402	      0.01113282	      1.78689580	      0.60474203	      0.01000428	      0.01000181	      0.01000066	      0.74516324	      0.17533817	      0.30420169	      0.34432161	      0.01000820	      0.01002343	      0.01040493	      0.01001745	      0.01002574	      0.01005448	      0.05024625	      0.01002294	      0.60536196	      1.04570568	      0.08422605	      0.01053375	      0.01001898	      0.01049498	      0.15313030	      0.06713484	      0.01000017	      0.01001550	      2.38557189	      0.01000099	      0.04524783	      0.13046516	      0.07250355	    -14.52377957	     20.58214406	     15.60072520	    -21.05052638	    -19.45469855	     -1.02306691	     -0.00436822	      0.01125154	     -0.01068056	     -0.00154137	      0.12692747	     -0.06761535	      0.15365175	     -0.04668250	     -0.02027080	     -0.03329176	      0.00973305	     -0.00921224
    145.90384000	      0.01001463	      0.01001725	      0.01001119	      0.01001100	      0.01001138	      0.01001631	      0.01000914	      0.08494520	      0.11290742	      0.01510368	      0.01003758	      0.01001968	      0.08175341	      0.01000026	      0.01002449	      0.01000866	      0.01000503	      0.51478715	      0.30561644	      0.24708639	      0.21041700	      0.22684979	      0.18048739	      0.01005676	      0.30355908	      0.11156868	      0.24577817	      0.28938451	      0.22889142	      0.34668786	      0.17391818	      0.01000870	      0.01001959	      0.01000325	      0.38194386	      0.01028605	      0.01000915	      0.01000709	      0.01000241	      0.01000445	     13.08399491	    -15.38761960	    -24.61575465	     22.63187843	     40.25806884	     -2.99611937	      0.02265755	     -0.02748875	     -0.00352530	      0.02070088	      0.00259558	     -0.01061426	      0.13773419	     -0.07588392	     -0.04593128	     -0.03087166	      0.00959417	     -0.00638516
    145.92032000	      0.04973395	      0.01125225	      0.17016324	      0.14955535	      0.14828447	      0.09483196	      0.32650437	      0.01146808	      1.38300766	      0.58195136	      0.01000640	      0.01000230	      0.01000054	      0.80226602	      0.22895155	      0.41416661	      0.46854665	      0.01001500	      0.01005069	      0.02850722	      0.01002891	      0.01004070	      0.01008146	      0.04263685	      0.01001961	      0.43915695	      0.61143103	      0.04913824	      0.01003318	      0.01000806	      0.01007609	      0.35186626	      0.14735968	      0.01000014	      0.01001844	      2.37349380	      0.01000148	      0.04128358	      0.12522851	      0.06540841	    -20.12868129	      8.35254992	     26.60568153	    -43.86213018	    -46.22297916	      4.38752751	     -0.01117816	      0.00914430	     -0.00458269	     -0.00133118	      0.12887153	     -0.04605269	      0.10983354	     -0.09180197	     -0.06848495	     -0.02859956	      0.00912624	     -0.00365723
    145.93680000	      0.01000605	      0.01000456	      0.01001374	      0.01006373	      0.01000806	      0.01000631	      0.01002472	      0.01077550	      0.01009810	      0.01452536	      0.05574803	      0.09600110	      0.04355831	      0.01000755	      0.09736085	      0.03050448	      0.01000958	      1.42597840	      0.74352045	      0.48997198	      0.54070492	      0.43419356	      0.27160432	      0.01002248	      0.10959115	      0.01004482	      0.01002020	      0.16983765	      0.01001462	      0.18991712	      0.01013398	      0.01750999	      0.01008585	      0.12337843	      0.56963072	      0.10326974	      0.24116848	      0.01179264	      0.01769389	      0.01251649	     20.77845556	      8.95689333	      6.70003000	     36.12328086	     -8.49246878	      2.98332068	     -0.00759660	     -0.03942206	      0.01842649	     -0.00018240	      0.00353490	      0.00778349	      0.07484983	     -0.11771355	     -0.04321903	     -0.02473951	      0.00849155	     -0.00349969
    145.95328000	      0.01913149	      0.02770781	      0.01454378	      0.01003817	      0.04619260	      0.12481695	      0.01014376	      0.01068900	      0.01004627	      0.03539730	      0.13181603	      0.22521786	      0.09369767	      0.01002251	      0.19521801	      0.21688755	      0.09241797	      0.01001017	      0.01006035	      0.14521807	      0.01002061	      0.01004744	      0.01565965	      0.01893718	      0.01003217	      0.01001742	      0.01000788	      0.30247858	      0.07905913	      0.20132356	      0.04377669	      0.01002192	      0.01005307	      0.27292675	      0.01002778	      0.31447034	      0.56352041	      0.02530452	      0.07659840	      0.03851491	    -20.38351963	     -7.97890778	     -3.65684280	    -36.02902732	      3.84755477	     -7.80787399	      0.00407935	      0.00168872	     -0.01705595	     -0.00086439	      0.01031065	      0.02069183	      0.04997804	     -0.13083079	      0.02876403	     -0.02170545	      0.00824067	     -0.00616175
    145.96976000	      0.01002665	      0.01002147	      0.01003340	      0.05589057	      0.01002170	      0.01001483	      0.01002521	      0.01029878	      0.01003512	      0.04942051	      0.16399101	      0.28057270	      0.14218489	      0.01006347	      0.01001868	      0.01001325	      0.01001246	      0.80786510	      0.23590335	      0.01005906	      0.35767760	      0.19029334	      0.04137247	      0.01004560	      0.23196170	      0.01001300	      0.01000622	      0.01001401	      0.01004123	      0.14613898	      0.01008651	      0.01868826	      0.01046724	      0.50047570	      0.32002855	      0.46114479	      0.69303582	      0.06636777	      0.20420595	      0.10243143	     -6.10001891	     -3.21531851	     -7.33457269	     -6.62903737	      8.34148912	      2.52358041	     -0.00253052	     -0.01101753	      0.02371322	     -0.00251671	      0.01379896	      0.02819269	      0.03740158	     -0.08311245	      0.08075040	     -0.01849874	      0.00810326	     -0.00876996
    145.98624000	      0.01002325	      0.01001681	      0.01004241	      0.01046883	      0.01002656	      0.01002049	      0.01003422	      0.01014071	      0.01003150	      0.05548282	      0.16897847	      0.28906192	      0.18192541	      0.14056227	      0.01243287	      0.01021249	      0.01002512	      0.44972656	      0.20728705	      0.09871046	      0.17608276	      0.12144655	      0.05876358	      0.01004842	      0.06990303	      0.01001174	      0.01000617	      0.01010608	      0.01004809	      0.19033265	      0.01015515	      0.01005163	      0.01007711	      0.66294469	      0.17410860	      0.53874495	      0.70644482	      0.09713494	      0.29719464	      0.14942183	     -4.32881399	     -1.59843459	     -3.82874925	     -7.36267104	      4.80284664	     -2.11057175	     -0.00264634	     -0.00980077	      0.00889925	     -0.00400562	      0.01506230	      0.03160346	      0.02680807	      0.02024839	      0.06312053	     -0.01210972	      0.00735947	     -0.00865048
    146.00272000	      0.01002844	      0.01001890	      0.01005456	      0.04982109	      0.01003004	      0.01001918	      0.01004039	      0.01011743	      0.01002892	      0.05304049	      0.16099699	      0.27831546	      0.21522151	      0.21836767	      0.01017354	      0.01008075	      0.01002563	      0.55120255	      0.20169224	      0.02135136	      0.22800881	      0.12773214	      0.03313769	      0.01004310	      0.11519958	      0.01001106	      0.01000671	      0.01002274	      0.01004075	      0.11668931	      0.01008149	      0.01051063	      0.01021864	      0.78627819	      0.19497853	      0.54621600	      0.66419478	      0.12699689	      0.38772954	      0.19552258	      3.87752795	      1.28290917	      2.92968243	      4.19298109	     -3.04147510	     -0.63986312	     -0.00498719	     -0.00819087	      0.01543972	     -0.00564775	      0.01459558	      0.03259111	      0.01305713	      0.11209490	      0.00373882	     -0.00332508	      0.00601670	     -0.00631228
    146.01920000	      0.01099003	      0.01009976	      0.01077695	      0.06860459	      0.01012491	      0.01003097	      0.01004003	      0.01042616	      0.01002807	      0.03916338	      0.13477016	      0.24042911	      0.23153174	      0.28348860	      0.01002030	      0.01001394	      0.01002220	      0.45175758	      0.07303669	      0.01002628	      0.21090335	      0.07579958	      0.01069328	      0.01008349	      0.18483253	      0.01001134	      0.01000776	      0.01000939	      0.01025126	      0.11511643	      0.01018084	      0.01032624	      0.01068164	      0.81189142	      0.16133649	      0.44735060	      0.54557517	      0.13306123	      0.40684740	      0.20587543	      3.64173129	      1.47980656	      3.42690963	      4.83475439	     -3.44202360	     -0.44857522	     -0.00276210	     -0.00322519	      0.01880107	     -0.00624528	      0.01131115	      0.02903797	      0.00001426	      0.13577013	     -0.03526142	      0.00367380	      0.00488019	     -0.00441963
    146.03568000	      0.04489053	      0.05895108	      0.01022586	      0.04452456	      0.01016667	      0.01004457	      0.01002020	      0.01021655	      0.01002745	      0.02404073	      0.10771136	      0.20095690	      0.23041504	      0.31212818	      0.01001195	      0.01000797	      0.01001286	      0.36502240	      0.01104465	      0.01001573	      0.19008474	      0.03838922	      0.01005033	      0.01006730	      0.23611335	      0.01001197	      0.01000808	      0.01000719	      0.03508220	      0.15115671	      0.01018922	      0.01002862	      0.01006183	      0.74744155	      0.14001898	      0.32961403	      0.42545197	      0.11432699	      0.35111030	      0.17843760	     -0.28969443	      1.18974763	      0.42105137	      0.71835816	      0.61167988	      0.44352913	      0.00024985	     -0.00202066	      0.01941084	     -0.00555209	      0.00753172	      0.02394495	     -0.00875364	      0.09278455	     -0.02521444	      0.00611169	      0.00459902	     -0.00471186
    146.05216000	      0.01063153	      0.03288270	      0.01006609	      0.01005476	      0.01009225	      0.01096436	      0.01002296	      0.01017171	      0.01002686	      0.01472381	      0.09057435	      0.17528705	      0.23505716	      0.29294671	      0.01025102	      0.01005381	      0.01002898	      0.02944994	      0.03987002	      0.05643186	      0.01734204	      0.03528287	      0.04212916	      0.01017310	      0.05708643	      0.01001265	      0.01000766	      0.11310825	      0.06130238	      0.30492367	      0.02247261	      0.01001419	      0.01003533	      0.64928059	      0.06694117	      0.25428531	      0.35029942	      0.06035788	      0.18633223	      0.09524871	     -4.36883166	     -2.13693582	     -1.27412859	     -5.65251680	      2.58502294	     -3.98226195	      0.00566136	     -0.00263226	     -0.00230828	     -0.00299641	      0.00491889	      0.01995729	     -0.01412952	      0.02368527	      0.01555800	      0.00511563	      0.00510343	     -0.00669681
    146.06864000	      0.01009769	      0.01006142	      0.01005013	      0.01012247	      0.01004479	      0.01003751	      0.01001946	      0.01026436	      0.01002955	      0.01186716	      0.07157674	      0.14084136	      0.18766089	      0.22159805	      0.01001469	      0.01000885	      0.01001123	      0.28701023	      0.01310350	      0.01002532	      0.14302387	      0.03334845	      0.01007893	      0.01005528	      0.18770535	      0.01001573	      0.01000882	      0.01001201	      0.05036631	      0.11747623	      0.01108304	      0.01002230	      0.01004565	      0.49359649	      0.11222235	      0.18027939	      0.27493308	      0.03613128	      0.11185626	      0.05762011	     -2.06930623	     -1.69951899	      1.48331256	     -2.61710034	     -2.18085968	      1.22885988	      0.00112263	     -0.00613946	      0.01277649	     -0.00181653	      0.00264805	      0.01490333	     -0.01830483	     -0.02967017	      0.05001361	      0.00476003	      0.00587446	     -0.00874868
    146.08512000	      0.01008069	      0.01010847	      0.01003469	      0.01003584	      0.01003827	      0.01006881	      0.01001820	      0.01993337	      0.01004296	      0.01357251	      0.04751333	      0.09127668	      0.14862564	      0.23552204	      0.01026123	      0.01002790	      0.01001329	      0.21245461	      0.12766377	      0.10480005	      0.09280621	      0.08910907	      0.06845202	      0.01021835	      0.12625224	      0.01002539	      0.01001385	      0.08503880	      0.08089288	      0.18647768	      0.04687860	      0.01001443	      0.01003527	      0.26229960	      0.12476052	      0.11835000	      0.18349553	      0.01008297	      0.01002428	      0.01004677	      4.13499301	     -0.61199782	     -0.82444235	      5.25291465	     -0.91725594	      0.26382247	      0.00725112	     -0.00759164	     -0.00007083	      0.00297073	      0.00143207	      0.00902382	     -0.02361893	     -0.04411736	      0.05373426	      0.00969338	      0.00640402	     -0.00964152
    146.10160000	      0.03855558	      0.14427960	      0.01003631	      0.01002776	      0.01007174	      0.02793481	      0.01001923	      0.05858423	      0.01007860	      0.01153146	      0.02528166	      0.04628445	      0.35535343	      0.01001201	      0.01006435	      0.01001861	      0.01001177	      0.09845830	      0.09664729	      0.12146968	      0.06088508	      0.09103368	      0.08909749	      0.03942496	      0.16789285	      0.01005506	      0.01003043	      0.17437015	      0.16292505	      0.07175618	      0.07635290	      0.01001552	      0.01004372	      0.11373264	      0.10676032	      0.05568566	      0.09729015	      0.01001841	      0.01000614	      0.01001139	      4.15377972	      1.22504795	     -2.65920578	      3.48663978	      2.49909846	     -0.03076012	      0.01527387	     -0.00505928	     -0.00434485	      0.01136425	      0.00050683	      0.00415972	     -0.03389197	     -0.02390967	      0.03384589	      0.02208558	      0.00638706	     -0.00933824
    146.11808000	      0.13969460	      0.01002810	      0.01005983	      0.32137271	      0.01002732	      0.01000769	      0.01000728	      0.01150862	      0.02336485	      0.01097926	      0.01054066	      0.01026361	      0.01002750	      0.09520439	      0.01000105	      0.01000073	      0.01000154	      0.43286881	      0.01000237	      0.01000119	      0.50457528	      0.01000550	      0.01000300	      0.01001111	      1.35042685	      0.05836636	      0.11850692	      0.01000091	      0.30650570	      0.01000435	      0.01003289	      0.46174920	      0.02617916	      0.04647357	      0.01007084	      0.01004385	      0.01005768	      0.03673325	      0.10917960	      0.05986849	      3.82460266	      0.31857062	      0.03851539	      5.55257404	     -1.47510428	      9.83134212	     -0.02821197	     -0.01485992	      0.14389440	     -0.00162945	     -0.00189213	     -0.00359779	     -0.05167120	      0.00634871	      0.01477403	      0.03971047	      0.00560523	     -0.00841806
    146.13456000	      0.14090924	      0.26951028	      0.03686853	      0.01013078	      0.10828895	      0.14869525	      0.02001030	      0.04381850	      0.17499759	      0.03205727	      0.01005205	      0.01002711	      0.01001958	      0.02075541	      0.01015601	      0.01008539	      0.01475530	      0.01002038	      0.01006421	      0.02335307	      0.01006611	      0.01128217	      0.03972909	      0.09865960	      0.05659273	      0.11306302	      0.21415152	      0.19524049	      0.11898040	      0.01002852	      0.02918358	      0.01170804	      0.02788048	      0.01000566	      0.01010147	      0.06259240	      0.01001389	      0.01001812	      0.01000635	      0.01001121	     -4.99578672	      3.69087433	      0.11641445	     -3.84706677	      0.75537792	     -4.46765854	      0.01260439	      0.00512371	     -0.00602319	      0.01002184	      0.00509439	     -0.00872023	     -0.07437301	      0.02956912	      0.00645336	      0.05754794	      0.00371322	     -0.00674124
    146.15104000	      0.15260250	      0.20572102	      0.07341920	      0.06675715	      0.11467077	      0.07142452	      0.01011092	      0.01061700	      0.38852886	      0.12634020	      0.01003139	      0.01001369	      0.01000331	      0.30057242	      0.01000564	      0.01000432	      0.01001626	      0.01001285	      0.01000823	      0.01000558	      0.01006999	      0.01001945	      0.01001364	      0.01953431	      0.18002464	      0.10040572	      0.15415371	      0.01000454	      0.11262777	      0.01002543	      0.01014098	      0.02333130	      0.01565688	      0.01000168	      0.01003734	      0.51066795	      0.01000801	      0.01764409	      0.04667926	      0.02678471	     -3.43426012	      0.84366676	      1.43504298	     -4.60033816	     -1.08414333	     -0.84109874	      0.00288639	      0.00572553	      0.01645432	     -0.00062133	      0.02220942	     -0.01015817	     -0.09353835	      0.04211039	      0.00556865	      0.07168992	      0.00058536	     -0.00406978
    146.16752000	      0.10273924	      0.21263539	      0.01008181	      0.01004597	      0.02806953	      0.07322955	      0.01010995	      0.07980232	      0.09105674	      0.02884165	      0.01009899	      0.01004794	      0.02029612	      0.03024148	      0.01002042	      0.01000985	      0.01001206	      0.01126936	      0.01020096	      0.01012476	      0.04850064	      0.03678913	      0.02380989	      0.07489008	      0.20737041	      0.02583275	      0.03953663	      0.01055704	      0.19273148	      0.01000874	      0.05616908	      0.01813744	      0.02046433	      0.01000615	      0.03607584	      0.11203855	      0.01002933	      0.01000749	      0.01000266	      0.01000468	      0.59762685	     -2.38981257	      0.46652158	      0.04478050	     -0.02273013	      0.17160637	      0.01617504	     -0.00158828	      0.00047752	      0.01971633	      0.00542490	     -0.00253988	     -0.10766494	      0.05064108	      0.00658976	      0.08056167	     -0.00334655	     -0.00067050
    146.18400000	      0.08979000	      0.18669548	      0.01005643	      0.01004047	      0.01114808	      0.04349573	      0.01001969	      0.03958151	      0.18953996	      0.05762176	      0.01005492	      0.01002418	      0.15624117	      0.01000230	      0.01001062	      0.01000571	      0.01000797	      0.07284091	      0.01008902	      0.01003352	      0.09099425	      0.03734396	      0.01093215	      0.03454422	      0.27488457	      0.05222777	      0.08069260	      0.01003383	      0.22930485	      0.03165875	      0.04624653	      0.01002030	      0.01004951	      0.01000274	      0.09884363	      0.22580267	      0.01001470	      0.01001499	      0.01000532	      0.01000945	      6.17943477	     -4.69381913	     -2.07313477	      5.44159434	      1.10944798	      2.31639936	      0.01708841	     -0.00449082	      0.00419316	      0.00982099	      0.01191993	     -0.00530242	     -0.11897984	      0.04890279	      0.00881657	      0.08689895	     -0.00711044	      0.00184028
