Length
version=1
nRows=51
nColumns=5
inDegrees=no

This analysis gathers basic information about muscles during a simulation (e.g., forces, tendon lengths, moment arms, etc).
Units are S.I. units (second, meters, Newtons, ...)
If the header above contains a line with 'inDegrees', this indicates whether rotational values are in degrees (yes) or radians (no).

endheader
time	recfem_r	vaslat_r	vasint_r	vasmed_r
    145.36000000	      0.55942934	      0.32544244	      0.31013299	      0.29793508
    145.37648000	      0.55795044	      0.32462190	      0.30931085	      0.29711891
    145.39296000	      0.55662216	      0.32422535	      0.30891129	      0.29672239
    145.40944000	      0.55588825	      0.32460463	      0.30929349	      0.29710168
    145.42592000	      0.55613095	      0.32599160	      0.31068001	      0.29847824
    145.44240000	      0.55758720	      0.32845818	      0.31311061	      0.30089109
    145.45888000	      0.56026502	      0.33186457	      0.31641948	      0.30416615
    145.47536000	      0.56394628	      0.33588107	      0.32029629	      0.30797473
    145.49184000	      0.56834701	      0.34016520	      0.32445903	      0.31202225
    145.50832000	      0.57313787	      0.34439668	      0.32863385	      0.31603712
    145.52480000	      0.57797245	      0.34833315	      0.33258615	      0.31979189
    145.54128000	      0.58265984	      0.35202243	      0.33636072	      0.32334505
    145.55776000	      0.58693359	      0.35553578	      0.34002608	      0.32677693
    145.57424000	      0.59026258	      0.35865743	      0.34335917	      0.32987182
    145.59072000	      0.59227814	      0.36122876	      0.34618021	      0.33246650
    145.60720000	      0.59279884	      0.36318489	      0.34838754	      0.33448134
    145.62368000	      0.59178229	      0.36448663	      0.34989237	      0.33584765
    145.64016000	      0.58937099	      0.36509270	      0.35059128	      0.33648021
    145.65664000	      0.58587925	      0.36490436	      0.35037703	      0.33628644
    145.67312000	      0.58163103	      0.36384857	      0.34915084	      0.33517511
    145.68960000	      0.57678487	      0.36180209	      0.34682104	      0.33305278
    145.70608000	      0.57128531	      0.35859910	      0.34329606	      0.32981351
    145.72256000	      0.56503309	      0.35416407	      0.33858582	      0.32543105
    145.73904000	      0.55835617	      0.34891807	      0.33317988	      0.32035236
    145.75552000	      0.55150077	      0.34322522	      0.32747105	      0.31492363
    145.77200000	      0.54465135	      0.33736088	      0.32172816	      0.30937188
    145.78848000	      0.53845583	      0.33202701	      0.31657646	      0.30432105
    145.80496000	      0.53335796	      0.32766173	      0.31232992	      0.30011641
    145.82144000	      0.52972722	      0.32451400	      0.30920228	      0.29701116
    145.83792000	      0.52770340	      0.32254477	      0.30719953	      0.29502537
    145.85440000	      0.52726288	      0.32160840	      0.30623119	      0.29406714
    145.87088000	      0.52837469	      0.32165577	      0.30628045	      0.29411585
    145.88736000	      0.53105343	      0.32279797	      0.30745948	      0.29528285
    145.90384000	      0.53522170	      0.32519471	      0.30988542	      0.29768927
    145.92032000	      0.54047931	      0.32879091	      0.31343576	      0.30121359
    145.93680000	      0.54604235	      0.33308586	      0.31759882	      0.30532852
    145.95328000	      0.55108702	      0.33731478	      0.32168348	      0.30932837
    145.96976000	      0.55515268	      0.34083050	      0.32511092	      0.31265218
    145.98624000	      0.55820043	      0.34323325	      0.32747901	      0.31493126
    146.00272000	      0.56049481	      0.34441534	      0.32865242	      0.31605487
    146.01920000	      0.56224692	      0.34442190	      0.32865894	      0.31606110
    146.03568000	      0.56335494	      0.34329551	      0.32754067	      0.31499040
    146.05216000	      0.56346457	      0.34104592	      0.32532234	      0.31285625
    146.06864000	      0.56227353	      0.33774088	      0.32209671	      0.30973065
    146.08512000	      0.55983004	      0.33362359	      0.31811764	      0.30583887
    146.10160000	      0.55660853	      0.32915664	      0.31379256	      0.30156735
    146.11808000	      0.55350196	      0.32508308	      0.30977367	      0.29757834
    146.13456000	      0.55153151	      0.32219725	      0.30684145	      0.29467085
    146.15104000	      0.55132859	      0.32091789	      0.30550953	      0.29335413
    146.16752000	      0.55285755	      0.32115721	      0.30576040	      0.29360188
    146.18400000	      0.55540696	      0.32233378	      0.30698231	      0.29481028
