DataType=double
version=3
OpenSimVersion=4.5.2-2025-05-03-6a4c6ec41
endheader
time	/jointset/patellofemoral_r|reaction_on_child_1	/jointset/patellofemoral_r|reaction_on_child_2	/jointset/patellofemoral_r|reaction_on_child_3	/jointset/patellofemoral_r|reaction_on_child_4	/jointset/patellofemoral_r|reaction_on_child_5	/jointset/patellofemoral_r|reaction_on_child_6
150.992	-7.840391625705482	1.734323116972154	1.287094897969242	23.6932156924406	-201.9322947246494	-390.1626128030181
151.00736	-7.157116864578507	1.801570941055576	1.57201010533932	2.981686869852066	-199.7613127456264	-348.0192393499205
151.02272	-5.882274450199891	1.768850302372034	1.660623624010051	-9.230206938843107	-172.4366147039821	-278.5172961275243
151.03808	-5.614087811388824	1.802699994659825	1.694930920433845	-9.631586358535163	-170.7517816356444	-256.1921400044372
151.05344	-6.633671785591785	1.886261940243512	1.732501369031151	-0.4021319318853244	-206.6720998858847	-285.5692621661228
151.0688	-8.507979219462726	2.037852850242285	1.827707076250743	8.987751894098485	-258.5279426216164	-332.0077751028111
151.08416	-11.64784422843625	2.222685782332071	1.894953510843033	22.32918572688436	-330.4139393181139	-396.7928271639122
151.09952	-16.38838739953364	2.506020644476629	2.105896191131968	35.3016683182925	-428.964082744457	-484.6990695672976
151.11488	-22.86034674370735	2.937579092853005	2.644717108894193	45.91432446492629	-562.1697475038189	-599.343735938637
151.13024	-34.19971911691312	3.525645896163135	3.873600841057006	65.15685136230451	-800.2921595341006	-807.6226809349115
151.1456	-50.14913528051785	4.375268038295929	6.029855743097022	86.4024322200796	-1140.793704526326	-1096.53329528935
151.16096	-66.84646411318104	5.449305882928967	8.547399496127206	103.4732811732284	-1510.93033207289	-1397.160527075016
151.17632	-82.98955399280388	6.292223157984257	10.60931348346115	135.8093838293741	-1883.618194908956	-1704.179081347567
151.19168	-89.40864628185869	5.471006271138908	10.4005836216162	195.3924893552477	-2057.341894785523	-1828.06468139045
151.20704	-83.94169764835779	3.874451534386246	7.832121060470133	269.5495801437544	-1971.854281032306	-1680.579583763354
151.2224	-78.6316395548326	2.735842161722184	5.119408418324246	342.6745817988084	-1866.220790084587	-1509.322549237189
151.23776	-75.65785892927289	2.501216610774976	2.880892781117829	386.7550839520064	-1767.376040443996	-1466.080867104526
151.25312	-71.11192839104633	2.834851107529592	1.016954634751388	395.1375961986166	-1591.148216337848	-1456.163720493979
151.26848	-65.41951365197254	3.246059005739342	-0.3842461473794496	385.3546645572646	-1353.472154187779	-1456.212454448428
151.28384	-61.59531949240045	3.381733929231637	-1.354816538790748	384.529594855353	-1115.419298140267	-1506.553139637244
151.2992	-60.77854469957561	3.235685189228249	-2.169300953222435	404.3894420199572	-887.6886656935123	-1623.776734567492
151.31456	-56.77693852345504	3.100159665569133	-2.515843520823479	395.2136360758523	-611.7059536109424	-1618.981916609253
151.32992	-47.61089298762106	3.351396068610304	-1.891711909415514	337.7307045237638	-345.7157990917441	-1415.662750612806
151.34528	-38.92658368561712	3.141107713634688	-1.220641663283685	281.5278421598275	-169.4990677215598	-1182.644562474338
151.36064	-31.4651776203107	2.481284171904934	-0.7458080771701412	233.5125830212341	-62.87422579802931	-973.0373281537098
151.376	-23.82104010166108	1.826619685439758	-6.416957551174871e-05	176.2188885702325	2.431208342081783	-763.3061756707014
151.39136	-17.32107604282585	1.23719889076323	0.8423566601560826	121.2692987770294	33.99690721591206	-591.0344578254092
151.40672	-12.6372740240279	0.7725955765426424	1.388131599910607	79.98260426229714	44.13063112072337	-466.7246164806713
151.42208	-9.894813299786396	0.5282991911607482	1.648045212804433	54.71728035096005	44.22109736681035	-394.7162078134984
151.43744	-9.015554630922001	0.4663713999968541	1.876655931715551	42.10259535279862	41.36838989340732	-378.1155520509859
151.4528	-9.660571273880366	0.5626024011169146	2.113310623625663	39.33367133730962	36.42933878616907	-406.7835754581388
151.46816	-11.66145212960256	0.8322587528253698	2.304914481000329	45.60530266917115	25.15434329886592	-471.465616694589
151.48352	-14.76965157238993	1.263931030717216	2.438544245806514	58.52746357885004	3.330920616710192	-563.1052706893628
151.49888	-36.95250484438627	2.050329847334214	2.166423922552966	226.600118923887	-83.09840660288384	-1299.480609677345
151.51424	-76.51953158929966	3.74830885048843	-0.1899288774257782	564.3330581546834	-311.8299895879352	-2543.822423019236
151.5296	-112.0328534746039	14.61895877147596	-2.594584966439569	805.5120164102489	-587.3075345836479	-3723.241326848387
151.54496	-138.0235673522911	31.78767497871168	-3.885877806852586	904.3797545247551	-848.5937208890459	-4733.566392817715
151.56032	-138.4186737483779	37.87140469277224	-5.318011950217387	914.591154175774	-990.1568181990749	-4882.046990777952
151.57568	-114.7845887928593	32.40122299875782	-4.503779050704599	760.8026534376024	-955.4264815476033	-4152.739678050381
151.59104	-85.40379444963243	23.66754865700601	-0.6619083220507456	497.5211853862551	-838.6999277525553	-3201.930914594291
151.6064	-55.82741133291717	14.73366052384553	3.713115828984103	224.0349369661893	-670.870434638922	-2213.167614983048
151.62176	-31.06303350100088	8.038652918642313	5.078418881748942	49.58061406844426	-468.9548117676399	-1325.049507346671
151.63712	-13.31536442074111	3.762356713674035	3.626774088432255	-24.99246993546364	-250.71063109723	-613.9355948882334
151.65248	-6.194750777479577	1.785203693997168	2.75882445037721	-36.22993705197428	-145.9422568098663	-309.9413891534532
151.66784	-6.250940803673629	2.016440160152515	4.023357904668853	-63.86420828787245	-177.458001174621	-330.3846893461214
151.6832	-5.743314710146241	2.142869481745164	4.001717208049111	-71.88896473915324	-183.1177127615183	-303.3349608849095
151.69856	-4.668170937619078	1.906034517696098	2.723680185745466	-57.47884061779499	-154.8636258567775	-232.4249382682833
151.71392	-4.371431632197395	1.781736640837526	2.044736938533317	-46.37719681915196	-148.4231009560362	-203.4886105120517
151.72928	-4.7767682988222	1.860552743467357	2.015244136484288	-41.20244372602073	-168.7961802807444	-213.3722184369916
151.74464	-5.424763630913516	1.905794087485959	1.974994012875812	-31.21698958127044	-198.0351949917387	-231.973549967763
151.76	-6.541144926918653	1.921194027731221	1.913243236462043	-15.24402797019541	-239.1273202728749	-261.420121443834
