Length
version=1
nRows=51
nColumns=5
inDegrees=no

This analysis gathers basic information about muscles during a simulation (e.g., forces, tendon lengths, moment arms, etc).
Units are S.I. units (second, meters, Newtons, ...)
If the header above contains a line with 'inDegrees', this indicates whether rotational values are in degrees (yes) or radians (no).

endheader
time	recfem_r	vaslat_r	vasint_r	vasmed_r
     15.83332460	      0.60812219	      0.37213271	      0.35666642	      0.34242127
     15.85039125	      0.60609771	      0.36752842	      0.35220414	      0.33810075
     15.86745790	      0.60399324	      0.36327322	      0.34813722	      0.33413127
     15.88452455	      0.60236721	      0.36001557	      0.34504247	      0.33109056
     15.90159120	      0.60189451	      0.35837300	      0.34348083	      0.32955042
     15.91865785	      0.60306837	      0.35870661	      0.34379829	      0.32986378
     15.93572450	      0.60601491	      0.36099778	      0.34597526	      0.33200877
     15.95279115	      0.61054678	      0.36494105	      0.34972606	      0.33568569
     15.96985780	      0.61629682	      0.37010595	      0.35469355	      0.34051561
     15.98692445	      0.62272172	      0.37598200	      0.36045263	      0.34605688
     16.00399110	      0.62918782	      0.38206871	      0.36655514	      0.35185837
     16.02105775	      0.63531831	      0.38817975	      0.37283770	      0.35777886
     16.03812440	      0.64027698	      0.39366337	      0.37864098	      0.36318340
     16.05519104	      0.64348459	      0.39804484	      0.38343921	      0.36758783
     16.07225769	      0.64491307	      0.40126485	      0.38709377	      0.37089684
     16.08932434	      0.64479867	      0.40340645	      0.38959994	      0.37313653
     16.10639099	      0.64348175	      0.40465428	      0.39102077	      0.37439097
     16.12345764	      0.64129781	      0.40506453	      0.39147386	      0.37478795
     16.14052429	      0.63843800	      0.40466440	      0.39103203	      0.37440086
     16.15759094	      0.63492256	      0.40347591	      0.38968063	      0.37320811
     16.17465759	      0.63066336	      0.40148628	      0.38735014	      0.37112722
     16.19172424	      0.62554005	      0.39852954	      0.38398141	      0.36808145
     16.20879089	      0.61939164	      0.39446420	      0.37950553	      0.36398157
     16.22585754	      0.61205842	      0.38913955	      0.37384046	      0.35871816
     16.24292419	      0.60369632	      0.38264305	      0.36713873	      0.35241035
     16.25999084	      0.59492705	      0.37541138	      0.35988797	      0.34551660
     16.27705749	      0.58606282	      0.36747848	      0.35215612	      0.33805405
     16.29412414	      0.57811243	      0.35967794	      0.34472172	      0.33077451
     16.31119079	      0.57200185	      0.35311718	      0.33843322	      0.32455749
     16.32825744	      0.56846351	      0.34889142	      0.33425000	      0.32042461
     16.34532409	      0.56781581	      0.34756406	      0.33289839	      0.31909477
     16.36239074	      0.56986069	      0.34920187	      0.33456312	      0.32073319
     16.37945739	      0.57392716	      0.35347370	      0.33877970	      0.32490043
     16.39652404	      0.57906103	      0.35951325	      0.34456523	      0.33062026
     16.41359069	      0.58428090	      0.36598279	      0.35072152	      0.33665719
     16.43065734	      0.58888658	      0.37167953	      0.35622409	      0.34199465
     16.44772399	      0.59247319	      0.37581340	      0.36028566	      0.34589720
     16.46479064	      0.59506353	      0.37817776	      0.36263703	      0.34814091
     16.48185728	      0.59689344	      0.37894626	      0.36340602	      0.34887242
     16.49892393	      0.59816716	      0.37838241	      0.36284158	      0.34833559
     16.51599058	      0.59902230	      0.37671770	      0.36118244	      0.34675422
     16.53305723	      0.59950562	      0.37407936	      0.35857455	      0.34425722
     16.55012388	      0.59957313	      0.37052765	      0.35510291	      0.34091162
     16.56719053	      0.59913917	      0.36618013	      0.35091042	      0.33684133
     16.58425718	      0.59811052	      0.36126675	      0.34623067	      0.33225994
     16.60132383	      0.59648910	      0.35616815	      0.34137631	      0.32747032
     16.61839048	      0.59461544	      0.35152253	      0.33687270	      0.32301370
     16.63545713	      0.59320603	      0.34812365	      0.33347085	      0.31965754
     16.65252378	      0.59300858	      0.34656069	      0.33186148	      0.31807734
     16.66959043	      0.59432981	      0.34691171	      0.33222583	      0.31843454
     16.68665708	      0.59669977	      0.34854025	      0.33389449	      0.32007447
