ActiveFiberForce
version=1
nRows=51
nColumns=5
inDegrees=no

This analysis gathers basic information about muscles during a simulation (e.g., forces, tendon lengths, moment arms, etc).
Units are S.I. units (second, meters, Newtons, ...)
If the header above contains a line with 'inDegrees', this indicates whether rotational values are in degrees (yes) or radians (no).

endheader
time	recfem_r	vaslat_r	vasint_r	vasmed_r
     32.69000000	    369.48637150	    112.66266985	     36.05021928	     57.89847735
     32.72150000	    429.95037053	    104.76200732	     35.63422121	     56.82191198
     32.75300000	    501.78817010	    102.05861608	     35.38372559	     56.41957471
     32.78450000	    593.02177156	    112.62813825	     35.66160956	     57.86868124
     32.81600000	    712.35074853	    136.31896015	     36.72847621	     61.30802775
     32.84750000	    872.59590604	    154.86587843	     38.37700617	     64.05737661
     32.87900000	   1076.15621411	    152.06178996	     40.00673483	     62.65689044
     32.91050000	   1299.03449531	    155.21711919	     41.17405314	     59.84293361
     32.94200000	   1501.64119815	    225.51680256	     41.70138762	     68.24705114
     32.97350000	   1657.99018585	    374.22868570	     42.65974330	    102.99046930
     33.00500000	   1777.58129282	    527.72992482	     51.22053794	    169.68240105
     33.03650000	   1894.45210463	    636.86372845	     83.58768103	    258.36458405
     33.06800000	   2031.57904099	    796.61092215	    152.65829904	    344.86526364
     33.09950000	   2189.38570569	   1180.66159700	    245.73910289	    400.24725121
     33.13100000	   2366.19524615	   1838.37393430	    326.01700715	    412.60262990
     33.16250000	   2573.36761137	   2582.13576423	    369.81918809	    406.92938224
     33.19400000	   2820.74866496	   3089.97813964	    390.29310076	    427.48716413
     33.22550000	   3106.72561062	   3162.84011156	    406.73709548	    480.62924563
     33.25700000	   3405.35365790	   2868.68837087	    407.47859963	    518.71641847
     33.28850000	   3681.09619736	   2432.51052369	    372.56096524	    502.68300255
     33.32000000	   3925.67467735	   2023.70974242	    313.31574659	    456.44918222
     33.35150000	   4154.23446749	   1702.53038241	    256.86824718	    416.82467428
     33.38300000	   4380.48696501	   1502.69755944	    206.16995989	    367.34114961
     33.41450000	   4584.15652462	   1441.87656604	    152.85849327	    285.27565971
     33.44600000	   4707.23756461	   1463.34890553	    115.56879601	    219.29499736
     33.47750000	   4695.39686130	   1475.92266106	    124.90577948	    240.56262545
     33.50900000	   4544.87871039	   1471.98445944	    177.69530004	    334.82761249
     33.54050000	   4298.64704472	   1546.45197365	    240.55509771	    418.02096430
     33.57200000	   3999.30916755	   1793.84473738	    292.57603604	    452.37872957
     33.60350000	   3663.05201849	   2221.86316356	    335.65655093	    484.22850233
     33.63500000	   3304.34437192	   2741.34598868	    371.72132021	    562.47526701
     33.66650000	   2969.99257087	   3186.24290221	    399.47923678	    663.59110701
     33.69800000	   2728.43154186	   3360.85403345	    427.53215379	    715.11344816
     33.72950000	   2607.08546337	   3148.40821804	    460.76436256	    679.99443628
     33.76100000	   2565.01076910	   2615.85747872	    473.56119197	    595.55335926
     33.79250000	   2530.89662387	   1982.04622129	    427.53224289	    516.30635480
     33.82400000	   2467.19354896	   1450.68896613	    316.81034256	    444.10802988
     33.85550000	   2395.39168198	   1085.20893579	    184.34526227	    343.49579021
     33.88700000	   2340.01126826	    810.66719041	     85.30700875	    215.10117769
     33.91850000	   2282.39535012	    546.13112392	     43.33659314	    106.94534123
     33.95000000	   2175.56903765	    298.93895519	     41.83681423	     56.44296138
     33.98150000	   1993.11692769	    134.35417191	     49.87975682	     54.01680017
     34.01300000	   1753.05928849	     88.02550688	     50.34630878	     65.07421872
     34.04450000	   1497.60438270	    137.27039475	     44.35234285	     65.72930361
     34.07600000	   1257.03017420	    231.60010864	     38.33022344	     55.71108562
     34.10750000	   1045.02227195	    312.09231056	     35.18102784	     51.55469542
     34.13900000	    881.75545437	    322.60259407	     35.05733004	     69.53280669
     34.17050000	    788.02709155	    251.96614510	     36.97568951	    104.77943275
     34.20200000	    755.74091180	    160.12688971	     38.20346916	    126.88391624
     34.23350000	    751.03218311	    125.00383892	     35.71624372	    106.22561770
     34.26500000	    747.72485343	    156.27900125	     29.67701975	     47.92338543
