DataType=double
version=3
OpenSimVersion=4.5.2-2025-05-03-6a4c6ec41
endheader
time	pelvis_tilt	pelvis_list	pelvis_rotation	pelvis_tx	pelvis_ty	pelvis_tz	hip_flexion_r	hip_adduction_r	hip_rotation_r	hip_flexion_l	hip_adduction_l	hip_rotation_l	knee_angle_r	knee_angle_r_beta	knee_angle_l	knee_angle_l_beta	ankle_angle_r	ankle_angle_l	subtalar_angle_r	subtalar_angle_l
13.63999529999784	0.0526128129421792	0.09308303692374106	-0.278240309746264	2.318752894050147	0.8799582548857205	1.056557734509367	-0.01296326479414081	-0.07549307843173389	0.09846415333808896	0.4267541926468956	-0.07770868255336288	-0.2238158075439996	0.552320731454936	0.552320731454936	2.07656610416397	2.07656610416397	0.4662534261442343	-0.335211511173822	-0.1714701444233462	-0.2307556973105774
13.65492861839783	-0.04377619322778827	0.08730546893628091	-0.1982521007062938	2.322798084389506	0.8876189311083941	1.051037012850632	-0.05015383704469634	-0.07267449414897843	0.0310733620093456	0.6371255393477573	-0.104843541169547	-0.2058896451295071	0.4469097663323437	0.4469097663323437	2.038800227439057	2.038800227439057	0.36649963927773	-0.2799716551877955	-0.1872938611773484	-0.1933863185361038
13.66986193679783	-0.125069746263697	0.08256319354972737	-0.1285150367803484	2.326698598438579	0.8957481985196154	1.046183371478952	-0.09693458378136256	-0.07278033347348399	-0.03702597157275613	0.8163712426495778	-0.1243817641116464	-0.1955941502318859	0.3473799138573869	0.3473799138573869	1.977747632432592	1.977747632432592	0.2540817526524578	-0.2288225901954303	-0.1901912404114607	-0.1677173738909353
13.68479525519782	-0.1818585122364741	0.0788558619923494	-0.07477998272227535	2.330296014999905	0.9044285641877601	1.042378208330903	-0.1565923936035112	-0.07664144153655608	-0.1072284834223658	0.9444188685870194	-0.1328976760052541	-0.1967032680918549	0.26574143568673	0.26574143568673	1.879812808390848	1.879812808390848	0.1233954636208505	-0.1831201468970259	-0.1738529319624816	-0.1585114858790416
13.69972857359781	-0.2130736107701334	0.07472703809872104	-0.03696488196697813	2.333445654918914	0.9132380010736489	1.039619089923971	-0.2241464506339766	-0.0825119218064165	-0.1793051455270559	1.016832787046645	-0.1321181434884988	-0.2080515074693834	0.2183842399783544	0.2183842399783544	1.743806480874474	1.743806480874474	-0.01949035141307594	-0.1408765280736405	-0.1431251501169953	-0.1608473657946511
13.71466189199781	-0.2241586069522571	0.06772225640568896	-0.01133278615297548	2.3360658298842	0.9214643951358196	1.037642837409423	-0.2897126401117193	-0.08727179199782391	-0.2478426204627635	1.041088707910558	-0.126691820595346	-0.2254271344659026	0.2183345935579134	0.2183345935579134	1.576510393993937	1.576510393993937	-0.1581960700741523	-0.09873948785298951	-0.1129940380470117	-0.1627709777801652
13.7295952103978	-0.2222036557657689	0.05547604120257738	0.006102785791966069	2.338158774319757	0.9284717685755433	1.0361470343488	-0.3443134613556734	-0.08801291231670481	-0.3017663315723542	1.028420471105032	-0.1211905519322604	-0.2443314458947366	0.269371187926026	0.269371187926026	1.386756258889969	1.386756258889969	-0.2739851785797058	-0.05512603348341277	-0.1011575096222555	-0.1513678240514683
13.74452852879779	-0.2117112756899632	0.03682022512638586	0.01746667541904376	2.339786640489258	0.933936702529053	1.034952389992751	-0.3839262318057377	-0.08274263058860842	-0.3284002067327048	0.987592553963513	-0.1183904535782577	-0.2614731263730513	0.3660477885671017	0.3660477885671017	1.18321257501935	1.18321257501935	-0.3552601294037956	-0.0123319473524967	-0.1186140479775009	-0.1191676623790002
13.75946184719779	-0.1939804567353476	0.01237410457109878	0.02310437770532118	2.341028607478602	0.9377923803325876	1.034029070658506	-0.4093610978519804	-0.07009573790916561	-0.3194305126158432	0.9244311774593164	-0.1190587388452868	-0.2745377369056334	0.4976541976014235	0.4976541976014235	0.9763248247197903	0.9763248247197903	-0.4017976355844747	0.02383996040419226	-0.1641811975327893	-0.06844503180150643
13.77439516559778	-0.169982027121723	-0.01548614677756373	0.0230598494336957	2.341952100874564	0.9399453590039775	1.033415138667153	-0.4227031547555302	-0.04898908335242056	-0.2751952408327407	0.8458512412191531	-0.1222757766031587	-0.2812406275547416	0.6526640577744435	0.6526640577744435	0.7808911116299615	0.7808911116299615	-0.4212252178974655	0.04682028007610067	-0.2256023941977632	-0.01190834010115033
13.78932848399777	-0.1438832766417603	-0.04303797957373168	0.01853572105263014	2.342611166035421	0.9399910960762116	1.03310772723667	-0.423266933928921	-0.01907733790683869	-0.2053219334766087	0.7637006285093791	-0.1254190930374231	-0.2788268114506402	0.8217405733388568	0.8217405733388568	0.615349017335905	0.615349017335905	-0.4215113793725129	0.05275796198017653	-0.2857451419507808	0.03104187253373791
13.80426180239777	-0.1240377422390777	-0.06590566279684679	0.01238040930750767	2.343060285182498	0.9371661692132339	1.032996040369122	-0.4061554309219094	0.01823673872489253	-0.1256978477480608	0.6942195242216976	-0.1239658913897872	-0.264341276108216	0.9986748209073104	0.9986748209073104	0.4966359335024642	0.4966359335024642	-0.4058038527593936	0.04264478438682155	-0.3300660826430234	0.04202426381273847
13.81919512079776	-0.1199777899859448	-0.08026345958705695	0.008467107614782195	2.3433570609687	0.9306636416137785	1.032865277461247	-0.3649083219582368	0.05943350725298564	-0.05324504934237186	0.6522258822428567	-0.1122330218722875	-0.2351875140910466	1.179347626879843	1.179347626879843	0.433302890740531	0.433302890740531	-0.3728334315606124	0.02202192010254762	-0.351777160335476	0.01237606167037967
13.83412843919775	-0.1365466911843753	-0.08455414276275258	0.01032331829309393	2.343536933692967	0.9202425895062516	1.032468456267852	-0.2971834925529841	0.0999621517565491	-0.0007427055661756413	0.6428852562756706	-0.08591269873455153	-0.189472926912326	1.359510124118953	1.359510124118953	0.4215258997479912	0.4215258997479912	-0.3211085051045206	-0.000989875203184115	-0.353106557721423	-0.05207057090187594
13.84906175759775	-0.1687572193369046	-0.08088729678934378	0.01943879669051567	2.343576632746549	0.9068251017777714	1.031645577365958	-0.2097894737970024	0.1361071099859058	0.02631600199049531	0.6561559436909911	-0.04558866990868558	-0.1263534516880776	1.532796395872971	1.532796395872971	0.4468149389614614	0.4468149389614614	-0.2529159441192296	-0.01761548585709963	-0.3429225563833569	-0.1332220427657727
13.86399507599774	-0.201798861457322	-0.07480484632880668	0.03380363362533238	2.343386931556855	0.8926319725491216	1.030447670068785	-0.1183642948854457	0.166067608269421	0.03000602281163675	0.668507888436852	0.001303414585481284	-0.0471380638344282	1.690421164518817	1.690421164518817	0.4899166078467765	0.4899166078467765	-0.175312968697326	-0.01939432945040601	-0.3319884039951381	-0.2084147640912469
13.87892839439773	-0.2181639992383635	-0.07290986042295972	0.04753179433143832	2.342856085575959	0.8805735215208341	1.029198775443678	-0.03964211429811439	0.1895528040740413	0.01791770449258086	0.6529000428068332	0.0424162697315496	0.04269425921608429	1.823057236600685	1.823057236600685	0.5327444849769849	0.5327444849769849	-0.09783911239178844	0.0006442728734940527	-0.3276567190902116	-0.259440662673191
13.89386171279772	-0.208601939513334	-0.0794290195769666	0.05221466987206037	2.341920732638389	0.873106061700628	1.028442850209831	0.01993766595843746	0.2067329012668603	6.606335613292859e-05	0.5925200084735875	0.06609425489507958	0.1319364091116118	1.923808310650908	1.923808310650908	0.5613730752350352	0.5613730752350352	-0.02885604869447597	0.04465915926747444	-0.3301820384124852	-0.2794376026302772
13.90879503119772	-0.1794957579814036	-0.09362116171432325	0.03969591953397502	2.340622125730905	0.871224266399907	1.028781739801869	0.07106344658572669	0.2176450059333914	-0.01406316437853699	0.4900082393430599	0.06748713847863283	0.204686391569829	1.990262506565539	1.990262506565539	0.5661238302669136	0.5661238302669136	0.02689333481554462	0.1054427303132309	-0.3325790783128028	-0.2750224441857665
13.92372834959771	-0.1505592421603746	-0.1095198792380891	0.005219223817118687	2.339124413941566	0.8742343651624811	1.030656740083987	0.1372931347371361	0.2221776009698039	-0.01787486011383336	0.3656266262426873	0.05135777431335928	0.2447977600269274	2.024229187737292	2.024229187737292	0.5406135334714574	0.5406135334714574	0.06814390781923436	0.1652335013117927	-0.3245204269365088	-0.26197571613413
13.9386616679977	-0.1433086089392785	-0.1185275288009985	-0.05011786762601703	2.337693470212628	0.8804188450464715	1.03413804761472	0.2407552783011772	0.2202391856581472	-0.009456608199848119	0.2449666617138155	0.02972519493495028	0.2420219219841569	2.029427923717158	2.029427923717158	0.481705217882647	0.481705217882647	0.09513414149164268	0.2013849063921963	-0.2984813304030726	-0.2560375231892154
13.9535949863977	-0.1676847047699673	-0.1140895663290721	-0.1186535964431991	2.336640344457642	0.8880969041373259	1.038809226049109	0.38674163953834	0.2120566879770351	0.007586626383206947	0.1442525123641462	0.0155718957388955	0.1964603353250849	2.008798931600447	2.008798931600447	0.3912352243495052	0.3912352243495052	0.1077713687083934	0.1965769207802431	-0.2546658112657912	-0.2642435639405084
13.96852830479769	-0.2159793066494841	-0.0959433162411101	-0.1882162867437508	2.336235506990061	0.8963680306090662	1.043854201854275	0.5579082522868331	0.1986529837226421	0.02531610366211779	0.06312159317759287	0.01631733341683475	0.1185105438046736	1.963228117509981	1.963228117509981	0.2786456120871079	0.2786456120871079	0.105496045098999	0.1466585453823202	-0.2017136969296784	-0.2821588332213087
13.98346162319768	-0.2681128990044717	-0.07072498308116985	-0.2467926874867589	2.33661120441893	0.9051259150236339	1.048374443765032	0.7224440565924812	0.1821649404826748	0.03513505425567807	-0.01081864314243382	0.03099693484975687	0.02410158658595901	1.892250339122268	1.892250339122268	0.1620185185610726	0.1620185185610726	0.0889155277451541	0.06056891224938532	-0.1527345309933113	-0.297914134951052
13.99839494159768	-0.3040575515360879	-0.0478862921371481	-0.2874996003226444	2.337690908903156	0.9144924293212868	1.05178312099249	0.850552950375363	0.1655044463693479	0.03235818698763818	-0.09016136218887116	0.05257771919874635	-0.07183191883337545	1.795738236695444	1.795738236695444	0.0649945169699901	0.0649945169699901	0.06173369446239867	-0.04614163038022052	-0.118975506325277	-0.2998127242213045
14.01332825999767	-0.3143535093139688	-0.03369098611901875	-0.3107045227853452	2.339197484775629	0.9242160141652577	1.054020035419956	0.9278626320804424	0.1512070010385993	0.01858912871979927	-0.1780397375658235	0.07335192799327089	-0.1595069083378714	1.675042499264064	1.675042499264064	0.009646322184024232	0.009646322184024232	0.03095773161338588	-0.1568863082820354	-0.1045562381836911	-0.2833967330124621
14.02826157839766	-0.302086863247093	-0.02775459179228414	-0.3220900914411212	2.340758808821564	0.93351314278702	1.055452567284466	0.9576139669468469	0.1399741375060179	-4.732398271927157e-05	-0.2671854681079653	0.08957520663220821	-0.2341478859636306	1.53283246309	1.53283246309	0.00895346035238398	0.00895346035238398	0.004426602499448594	-0.2550805115742737	-0.1048409904172646	-0.2545479638814723
14.04319489679766	-0.2769197852238895	-0.02433714665196415	-0.328492047388997	2.342058173937049	0.9413951426577705	1.056572497594731	0.9526480111336466	0.1299900711364325	-0.01772784990948089	-0.3465795660558846	0.1026434518143218	-0.293199648612491	1.372151170819574	1.372151170819574	0.06339258429462291	0.06339258429462291	-0.01316867143827884	-0.3254714897372666	-0.1089710782306409	-0.2264974880740087
14.05812821519765	-0.2472407384361135	-0.01671504593380778	-0.3345366976182705	2.342937855057977	0.9471285736854729	1.057725871962298	0.9251351714135565	0.1178324790841898	-0.03345517400729828	-0.4092264423666644	0.1169444413851572	-0.3340836470588064	1.195950017967741	1.195950017967741	0.1631055501335718	0.1631055501335718	-0.02292739967522513	-0.3599016534100857	-0.1050483701370121	-0.2120635074476024
14.07306153359764	-0.2162194653966367	-0.001060889174717191	-0.3417070000531635	2.343404153900696	0.9504484693204356	1.059025668719	0.8815417737286874	0.100572800101688	-0.05220586876863829	-0.4553048355385467	0.136616671429536	-0.3543130704706398	1.0080325198762	1.0080325198762	0.2934164626088268	0.2934164626088268	-0.03044961353993558	-0.3625517725534061	-0.08549885781168658	-0.2163817747945678
14.08799485199764	-0.1833540160119413	0.02248750133429957	-0.3492903407936199	2.343559045662003	0.9514105612187527	1.060420605588736	0.8246934755322508	0.07762646478861794	-0.08191383699619012	-0.489383961626601	0.1633240365107201	-0.3534421797626227	0.8150563202970527	0.8150563202970527	0.4404331452132359	0.4404331452132359	-0.04081819360122996	-0.3477053589912822	-0.05047208652141077	-0.2351270081885657
14.10292817039763	-0.1490761971738251	0.05120418902146583	-0.3556967832979145	2.343523708907456	0.9500489884899941	1.061798965672981	0.7594028554894773	0.05118537315333182	-0.1280266574556284	-0.5145044803017389	0.1956259130798744	-0.3348558403763636	0.6281064630369575	0.6281064630369575	0.5947017089685187	0.5947017089685187	-0.05404518559999551	-0.3312654750509935	-0.008125555914788876	-0.2585884928865809
14.11786148879762	-0.1183752287954285	0.08156441442751505	-0.3591902484950191	2.343398988944719	0.9461175807018427	1.063040558439563	0.696289428420187	0.02529418434357203	-0.1886568263688175	-0.5276166029404237	0.2294105036938511	-0.3054899928223196	0.4625058258937695	0.4625058258937695	0.7523304777951012	0.7523304777951012	-0.06617367983310402	-0.323099219475653	0.02825085526342538	-0.2779136880725478
14.13279480719762	-0.1003601523245265	0.1098683910369031	-0.3581156981120536	2.343260187405112	0.9391250226362398	1.064020065207901	0.6502473763983737	0.004534163013612717	-0.2529456792976302	-0.5198039012239336	0.258894465098235	-0.2731207134444495	0.335709235140539	0.335709235140539	0.9137636724482627	0.9137636724482627	-0.07594395964845843	-0.3248106522815197	0.04506444590186941	-0.2894492774885169
14.14772812559761	-0.1033707693905422	0.1318806169671405	-0.3512384806641374	2.34315280667005	0.9287021924412063	1.064619529227436	0.6337119123478052	-0.006860239214208713	-0.3035966546295776	-0.4816420324268108	0.278210906251425	-0.2428574409010749	0.2638615731650119	0.2638615731650119	1.080799501306341	1.080799501306341	-0.08946680373274013	-0.3324177812608116	0.03283358192925293	-0.2953218690931023
14.1626614439976	-0.1283725853531058	0.1429597773716488	-0.3385493922424376	2.343062961427483	0.9151391488276261	1.064787164032771	0.6483123331256209	-0.005434419652685346	-0.3225359185474205	-0.4104956005174319	0.2836863769498863	-0.2153710458471436	0.2572534428386599	0.2572534428386599	1.252989095286151	1.252989095286151	-0.1150576882695154	-0.3408240923980254	-0.01190312354877941	-0.3009380281692686
14.17759476239759	-0.1652862195256393	0.1397685791152629	-0.3220334196511816	2.342875069383379	0.8997690286040441	1.064603594391337	0.6801857127506091	0.01085570699784955	-0.2973063956976578	-0.3145902016387327	0.2761908470732763	-0.188229025410909	0.3150551335173851	0.3150551335173851	1.425128584526375	1.425128584526375	-0.1503843705563468	-0.3471296644215252	-0.08688752365076466	-0.311424069494372
14.19252808079759	-0.1959432783703058	0.122796434781731	-0.3051343725378194	2.342369903736749	0.884863564498519	1.064254047751417	0.7032156429129981	0.0413260022191289	-0.2256732277959601	-0.2101167925278497	0.2619443252789465	-0.1590858860391901	0.4218678336979443	0.4218678336979443	1.587511248747455	1.587511248747455	-0.1749972084727932	-0.3513277092021215	-0.1845101603600764	-0.3288335729818664
14.20746139919758	-0.2033092339849922	0.09730409853887512	-0.2901928191640003	2.341309828923393	0.8729352048370838	1.063850420391184	0.6904280254767451	0.08128596655110945	-0.1169527977922826	-0.1122105139112886	0.2502091451231522	-0.1277312232523008	0.5501833953669819	0.5501833953669819	1.729362873636089	1.729362873636089	-0.1595114460342741	-0.3546992945295774	-0.291824547861727	-0.3509602284862455
14.22239471759757	-0.181846792113461	0.07092618260663815	-0.2752803492223245	2.339586069428546	0.8657447772873934	1.063208976419215	0.6281499463840554	0.1226882994661289	0.009942309268572584	-0.0253232778454669	0.2483480147277682	-0.09525683962726668	0.669466423100609	0.669466423100609	1.843727583765501	1.843727583765501	-0.08720476971024463	-0.3574753914033839	-0.3925034785042377	-0.3718218594543929
14.23732803599757	-0.1420441731005324	0.04903365900091477	-0.2534347261915639	2.337328398319336	0.8636054212091396	1.061802078632713	0.5241247287808811	0.1575834392907923	0.1308685171799926	0.06031730978718498	0.2574333289401458	-0.06170865886609318	0.7565102339485608	0.7565102339485608	1.930487276639201	1.930487276639201	0.02932178414894308	-0.3575866433719218	-0.4715664524592366	-0.3836889588318801
14.25226135439756	-0.105195840499748	0.03135503946737124	-0.215914961097505	2.334891639400174	0.8654577817226237	1.058999187023826	0.4033022054002366	0.1822097606084983	0.2222572665015955	0.1628786728156102	0.271838621757669	-0.02508452673595242	0.8004646227113356	0.8004646227113356	1.994919777078433	1.994919777078433	0.1504623810136912	-0.3514389004999086	-0.5197312510198582	-0.3803485698021964
14.26719467279755	-0.09101273729395759	0.01275031485992522	-0.157714597529664	2.332730686427158	0.8696772091778332	1.054470439185763	0.2930051049431155	0.1980748168845157	0.2670919982092829	0.2965159162853963	0.2830933388439292	0.01693984511157145	0.8009747547634392	0.8009747547634392	2.042313236491445	2.042313236491445	0.2293833852836208	-0.3361254329750865	-0.5341412686937793	-0.3605060799995146
14.28212799119755	-0.1060258915136959	-0.01216418329757177	-0.08154030451125061	2.33125172144065	0.8750409928040924	1.048479558082519	0.2070196941308087	0.2089151162363849	0.2590258739053942	0.4601325947723935	0.2847949616247705	0.06383680764371062	0.7631463170054261	0.7631463170054261	2.072411069690792	2.072411069690792	0.2349287188043839	-0.3113914155391326	-0.5161677176072579	-0.329367787898164
14.29706130959754	-0.1404649168374109	-0.0440280048427607	0.002472935211258718	2.330710658779045	0.8811814095695548	1.041861673750746	0.1393170140236322	0.2164192841306952	0.2027366195756564	0.6349256495122925	0.2749476314568083	0.110390941269021	0.6940916259395994	0.6940916259395994	2.077955888808489	2.077955888808489	0.1635800413835929	-0.2798695874743719	-0.4693991507301764	-0.2968529777792268
14.31199462799753	-0.1750704289671853	-0.0774588588117652	0.08099668738722582	2.331163890363384	0.8882834808155434	1.035696637729753	0.07104559390170395	0.2186406404715711	0.1104422803310197	0.7924059989765986	0.2546846926421567	0.1481743768480851	0.6031633901183043	0.6031633901183043	2.048523463173477	2.048523463173477	0.03679582767604615	-0.2454478403080204	-0.3994791299278181	-0.2728980972464966
14.32692794639753	-0.1922466973484918	-0.1046600067420132	0.1428466664708449	2.3324530877263	0.8963943164613659	1.030883829854121	-0.0153176780688323	0.2121305738888725	-0.00329555117174811	0.9073646168086673	0.2252613113245704	0.1696538716171367	0.504081199314834	0.504081199314834	1.976737413708343	1.976737413708343	-0.110805199198605	-0.2110057047953944	-0.3147175275503628	-0.2624815188349402
14.34186126479752	-0.1838691619731397	-0.1208276223274757	0.1824238214122132	2.334242382782202	0.9049880527827175	1.027857576803924	-0.1253724107841383	0.1952570119611363	-0.1258167473611247	0.9676278398009293	0.1861822487345648	0.1719503487403482	0.4147014432912259	0.4147014432912259	1.862471259782976	1.862471259782976	-0.2451846513914497	-0.1771182799957324	-0.2253496323474209	-0.2635136355153683
14.35679458319751	-0.1519418400757389	-0.1266955542828752	0.2002100937830039	2.336141966711774	0.9131673470671484	1.026548078227552	-0.2525803932230216	0.1695523553471047	-0.2485013795783088	0.9760292109127715	0.1359975834440604	0.1575744413707552	0.351461819839689	0.351461819839689	1.71280387685689	1.71280387685689	-0.3439753030037588	-0.142545116083988	-0.1406092812480457	-0.2691276551883302
14.37172790159751	-0.1040959655249816	-0.1264943112210216	0.2012936557303889	2.337887208534322	0.9203149458264303	1.026522995766225	-0.3864617787610632	0.138403290037195	-0.3673950842515842	0.9460997697524717	0.07492951619859814	0.1321593489621078	0.3204256606955022	0.3204256606955022	1.538962180630505	1.538962180630505	-0.4028641643671518	-0.1060034766195697	-0.0649961840005476	-0.2729789644225534
14.3866612199975	-0.04877987433567374	-0.1241393800815584	0.1934495311477271	2.339457378939448	0.9266063319795919	1.027169220901947	-0.5208809371129322	0.1049858520855814	-0.4829519542260629	0.8963286128222974	0.006889749797767467	0.1016243316219831	0.3116207015392928	0.3116207015392928	1.353182499187744	1.353182499187744	-0.4359175526885138	-0.06772335017612857	0.003630577409657991	-0.273619774686624
