ModelForces
version=1
nRows=51
nColumns=77
inDegrees=no

This file contains the forces exerted on a model during a simulation.

A force is a generalized force, meaning that it can be either a force (N) or a torque (Nm).

Units are S.I. units (second, meters, Newtons, ...)
If the header above contains a line with 'inDegrees', this indicates whether rotational values are in degrees (yes) or radians (no).

endheader
time	addbrev_r	addlong_r	addmagDist_r	addmagIsch_r	addmagMid_r	addmagProx_r	bflh_r	bfsh_r	edl_r	ehl_r	fdl_r	fhl_r	gaslat_r	gasmed_r	glmax1_r	glmax2_r	glmax3_r	glmed1_r	glmed2_r	glmed3_r	glmin1_r	glmin2_r	glmin3_r	grac_r	iliacus_r	perbrev_r	perlong_r	piri_r	psoas_r	recfem_r	sart_r	semimem_r	semiten_r	soleus_r	tfl_r	tibant_r	tibpost_r	vasint_r	vaslat_r	vasmed_r	pelvis_tx_residual	pelvis_ty_residual	pelvis_tz_residual	pelvis_tilt_residual	pelvis_list_residual	pelvis_rotation_residual	hip_flexion_r_reserve	hip_adduction_r_reserve	hip_rotation_r_reserve	knee_angle_r_reserve	ankle_angle_r_reserve	subtalar_angle_r_reserve	hip_flexion_l_torque	hip_adduction_l_torque	hip_rotation_l_torque	knee_angle_l_torque	ankle_angle_l_torque	subtalar_angle_l_torque	calcn_r_RightGRF_Fx	calcn_r_RightGRF_Fy	calcn_r_RightGRF_Fz	calcn_r_RightGRF_px	calcn_r_RightGRF_py	calcn_r_RightGRF_pz	calcn_r_RightGRF_Tx	calcn_r_RightGRF_Ty	calcn_r_RightGRF_Tz	calcn_l_LeftGRF_Fx	calcn_l_LeftGRF_Fy	calcn_l_LeftGRF_Fz	calcn_l_LeftGRF_px	calcn_l_LeftGRF_py	calcn_l_LeftGRF_pz	calcn_l_LeftGRF_Tx	calcn_l_LeftGRF_Ty	calcn_l_LeftGRF_Tz
     16.27999149	     10.36052561	     15.21886275	      7.23948293	      7.11539304	      7.44771921	      8.53195452	     15.67201347	     13.69267751	      9.49978132	      5.23904791	     17.94582394	     72.70610426	    192.08464770	    606.82015128	     14.54515176	     17.59531799	     12.12020435	    276.65771468	    133.65848955	    149.12119426	     50.33761240	     56.98710731	     39.76318597	      4.11954937	    240.46820929	      6.81147321	     14.67885337	     93.59149811	    247.52924466	    896.67400335	     23.59205915	     26.12285999	      8.28578177	   1342.63626510	     86.03981245	     22.93505253	    262.24252706	     20.70430864	     61.09887850	     33.42825219	     -9.12909360	   -192.83225847	      7.67357952	     24.92052586	      3.89921002	     -2.55226612	      0.02419301	     -0.01410074	     -0.00368385	      0.00374047	     -0.00153793	      0.00311684	    -12.98723330	    -24.53488643	     17.38850996	     -1.00058976	      3.46995493	     -2.63488650	    218.38684584	    654.55784516	     37.94694524	      0.19375830	      0.03556635	     -0.00108766	      0.00000000	      3.87998142	      0.00000000	      0.00000000	     -0.00000000	      0.00000000	     -0.13288894	     -2.01299106	     -0.62006412	      0.00000000	     -0.00000000	      0.00000000
     16.29705814	     10.10225704	     14.75365370	      7.29917657	      7.22836316	      7.48305714	      8.54791671	     15.81202561	     44.97175968	     10.18688722	      5.90418690	     13.87182657	     48.48931700	    191.77691790	    561.97114771	     12.95259197	     18.00165380	     12.33798146	    117.91825784	    104.14959464	    144.20935607	     27.19958255	     47.72921215	     35.49466818	      5.68004890	    238.70925691	      6.58476810	     14.09080982	     83.08128692	    344.94158089	    327.27850087	     30.47406710	     26.45157619	      8.31078240	    394.89786423	     64.66072399	     76.35310895	    193.70644533	     20.62970289	     62.32480307	     33.75585610	    -11.94971226	      5.72064394	      1.59158047	     -7.37728231	      0.43817221	     -1.82655816	      0.02970568	     -0.01146329	     -0.00570476	      0.02077539	      0.00017206	      0.00250830	    -17.04162955	    -22.20379172	     17.80494770	     -0.76131679	      3.36694994	     -2.61181502	    154.14586573	    337.30253211	     23.48252735	      0.20155612	      0.02795381	      0.00006974	      0.00000000	      2.93466393	      0.00000000	      0.00000000	     -0.00000000	      0.00000000	     -0.47367326	     -1.86626921	     -0.97176564	      0.00000000	     -0.00000000	      0.00000000
     16.31412479	      9.78173128	     14.16460119	      7.33195977	      7.30846662	      7.48628265	      8.40919831	     15.76429621	     80.00959899	     55.27044555	     10.22070331	      5.61857920	     10.98591315	    106.96786099	    439.35232057	     13.10750731	     18.42689037	     12.49448115	    156.39507376	    103.63917213	    127.55828248	     40.78684317	     56.27781636	     33.92792581	     10.38587306	    331.76415263	      9.11172328	     21.74007530	     58.71440983	    427.64880377	     27.33894978	     41.09727967	     26.37600878	      8.30515560	     44.77279490	     75.15668965	    170.48702497	     20.05483567	     21.38578350	     64.57447510	     34.91477880	      6.47840410	     77.65858304	      9.88032768	    -11.97705091	    -12.61632710	      0.32915828	      0.03744496	     -0.01497399	     -0.00555265	      0.04062623	      0.00448548	     -0.00082413	    -16.50305406	    -21.13946530	     22.00128351	     -1.62784114	      3.46476359	     -2.79719336	     77.49280107	    115.05645810	      2.06708244	      0.21409169	      0.02050746	     -0.00169051	      0.00000000	      2.44736987	      0.00000000	     -0.00000000	      0.00000000	     -0.00000000	     -0.79206723	     -1.62405484	     -1.27812916	      0.00000000	      0.00000000	      0.00000000
     16.33119144	      9.50651466	     52.86552497	      7.34285126	      7.35213525	      7.47098523	      9.16804022	     15.44896191	    103.05316688	    106.64465867	     14.24317777	      5.55481374	     11.12438034	     79.21761972	     75.60259012	     13.39125352	     18.88407568	     12.62051293	     22.84332862	     49.59118330	     79.15275567	     43.21144949	     64.17287855	     35.91153247	     18.68184083	    608.63341700	     20.71706493	     81.28515952	     30.63654203	    795.90733424	     47.65280667	     60.05904198	     25.50935357	      8.12641908	     45.82809868	    110.12243227	    223.70345682	     20.82847151	     22.39746497	     67.65186607	     36.44190423	     36.44626816	     40.55439525	      2.36645264	     17.50979892	     -4.92219901	      4.33762577	      0.06730861	     -0.02055343	     -0.00722741	      0.05669248	      0.00806717	     -0.00272129	    -23.76176206	    -17.48938505	     29.13576188	      0.59157972	      3.28725563	     -2.94942924	     -0.00255020	     -0.00222267	      0.00047831	     -0.77410328	     -1.49318866	     -0.92510615	      0.00000000	     -0.00013873	      0.00000000	      0.00000000	     -0.00000000	      0.00000000	     -1.06564559	     -1.30090657	     -1.53253983	      0.00000000	     -0.00000000	      0.00000000
     16.34825809	     11.80183537	    142.59372447	      7.33835023	      7.36124571	      7.44257299	     36.83134872	     14.97105830	     95.54716230	     99.93322537	     13.44207328	      5.90207896	     11.90159564	     37.42562803	     87.81513991	     13.75545596	     19.35263468	     12.75568149	     15.83475210	      9.65683359	     32.06886537	      9.86782752	     46.11016735	     32.52778768	     24.60921200	    595.86373810	     17.75467860	     70.93997637	      4.77017079	    865.32653110	     57.39172911	     58.32964086	     24.10662353	      7.93938686	     53.00154596	     92.52663186	    225.01920752	     22.57513164	     23.55983724	     71.23555704	     38.17934592	     -5.32448380	    -35.68923880	    -17.72481366	      0.39134429	     13.51397057	      3.34515505	      0.07124970	     -0.01808549	     -0.00801932	      0.05570071	      0.00984362	     -0.00276248	    -54.72817747	    -13.61009173	     39.63770743	     11.58677106	      2.45990959	     -3.01496072	      0.00000000	      0.00000000	     -0.00000000	     -0.56838000	     -1.58859104	     -0.86530966	      0.00000000	      0.00000000	      0.00000000	     -0.00000000	      0.00000000	     -0.00000000	     -1.28734977	     -0.91892488	     -1.72082927	      0.00000000	      0.00000000	      0.00000000
     16.36532474	     67.97363879	    280.43533030	      7.30397049	      7.32050640	      7.38493596	     70.10309187	     14.38706114	     91.30808719	     81.27087744	     11.55630236	      6.29683396	     12.86010561	     30.85522836	     45.03296106	     14.11014221	     19.74032909	     12.89268997	     15.97438953	     10.04814864	     10.25380884	      6.04643996	     18.66381256	     21.08099961	     31.71986276	    656.07836179	     14.64953995	     55.79981998	      1.15459093	    954.87116094	     79.46152716	     56.55762329	     22.31725017	      7.71915769	     64.16762358	     76.89153908	    197.31207254	     24.36725478	     24.67688364	     74.74494049	     39.83803020	    -35.03299114	    -30.90171849	    -27.35584480	    -22.96725032	     21.73883341	      3.07856599	      0.07829740	     -0.01468247	     -0.00601317	      0.05491968	      0.01037878	     -0.00245184	    -91.86319177	     -1.08865102	     43.30628171	     30.51595361	      1.20869372	     -2.55742614	     -0.00000000	     -0.00000000	      0.00000000	     -0.39437895	     -1.62679421	     -0.84796463	      0.00000000	     -0.00000000	      0.00000000	      0.00000000	     -0.00000000	      0.00000000	     -1.47068464	     -0.51305705	     -1.81689207	      0.00000000	     -0.00000000	      0.00000000
     16.38239139	    119.21022547	    390.56820859	      7.22842994	      7.22330573	      7.31603359	    105.22568360	     13.72391257	     89.91698772	     70.64637331	     10.44730589	      6.52153503	     13.54144857	     25.33378243	     34.22067316	     14.44020444	     20.04588232	     13.00066307	     16.14557331	     10.75286996	     11.37555723	      5.91503707	      6.33698926	      9.48327297	     39.96652106	    693.90557205	     12.38108143	     45.06798491	      1.06898125	   1043.74931954	     94.82666746	     55.54689614	     20.31499613	      7.47615559	     73.38773181	     62.86924096	    182.37157805	     25.32557232	     25.63792424	     77.83379013	     41.25250330	    -27.79876016	     18.94609837	    -11.58822889	    -19.35356635	     10.72160961	     -1.75521183	      0.08566459	     -0.01115659	     -0.00485553	      0.05445030	      0.01081614	     -0.00218159	    -98.10163134	     28.41651724	     30.48938827	     49.78116093	     -0.09464200	     -1.06527487	      0.00000000	      0.00000000	     -0.00000000	     -0.25431828	     -1.61239469	     -0.89281569	      0.00000000	      0.00000000	      0.00000000	     -0.00000000	      0.00000000	     -0.00000000	     -1.63984333	     -0.13029207	     -1.79910201	      0.00000000	      0.00000000	      0.00000000
     16.39945804	    150.39378698	    446.77995817	      7.11176121	      7.08476257	     13.27743735	    152.71907466	     12.94626497	     96.59008994	     72.98166150	     11.02340339	      6.53490427	     13.78983165	     29.79513285	     47.24061332	     14.83749061	     20.40244923	     13.05720656	     16.56575594	     11.63681655	     12.69501953	      5.91702403	      7.34078001	     34.79521510	     50.59542978	    698.61625419	     13.48717882	     45.34900618	      3.81660816	   1184.38735178	    143.33051028	     60.03625090	     18.10990315	      7.20218288	     77.93205098	     59.35431162	    190.48184806	     25.29314899	     26.42898096	     80.42234243	     42.40592156	     12.64171415	     37.83782887	     21.08435893	     16.57640108	    -14.03398168	    -12.14559379	      0.09643050	     -0.00957871	     -0.00778337	      0.05798486	      0.01168700	     -0.00219422	    -74.83851094	     67.77765937	     10.19399676	     64.07897086	     -1.44146294	      0.82906103	     -0.00000000	     -0.00000000	      0.00000000	     -0.12565435	     -1.55435345	     -0.99497504	      0.00000000	     -0.00000000	      0.00000000	      0.00000000	     -0.00000000	      0.00000000	     -1.80839516	      0.18342309	     -1.67313931	      0.00000000	     -0.00000000	      0.00000000
     16.41652469	    162.02071527	    482.91733232	      6.97826078	      6.94943518	     17.34223411	    159.89276457	     12.03104784	    103.72258141	     85.01481039	     12.35463223	      6.39854298	     13.68366265	     27.21355722	     78.83882515	     15.36943869	     20.92660924	     13.06797446	     17.38686529	     12.59045920	     13.98319436	      6.10449529	     16.49474552	     65.32635461	     56.71009028	    756.10730281	     16.10950059	     58.80846196	     58.29626378	   1268.40335680	    226.16397141	     63.77284241	     15.53279989	      6.88207031	     78.22360433	     80.81529245	    213.46673929	     24.63916767	     27.00482683	     82.34869704	     43.24276700	     34.55563132	    -16.71167698	     32.68478408	     32.21641866	    -25.70483509	    -11.52463847	      0.10595085	     -0.00940964	     -0.00808362	      0.06156693	      0.01257091	     -0.00251775	    -74.46430885	     80.24719618	      0.20118749	     74.33697407	     -2.55788650	      1.29963069	      0.00000000	      0.00000000	     -0.00000000	      0.02732101	     -1.45950306	     -1.13075833	      0.00000000	      0.00000000	      0.00000000	     -0.00000000	      0.00000000	     -0.00000000	     -1.96371870	      0.39607495	     -1.48521363	      0.00000000	      0.00000000	      0.00000000
     16.43359134	    155.04215221	    482.03462205	      6.86298013	      6.86642103	     11.46058074	    128.37407981	     11.02792163	    102.90808213	     96.83257719	     13.31463926	      6.24757029	     13.44198264	     19.07108241	     98.07370047	     15.94856319	     21.57272293	     13.07540711	     18.47298299	     13.47567434	     15.09237276	     15.34791849	     38.05735225	     60.83618823	     54.51247925	    817.64761143	     19.21288624	     76.61675025	    148.37124528	   1233.38942816	    291.32029722	     62.20653788	     12.34002565	      6.54017885	     75.61233332	    107.30837699	    229.24544272	     23.91517701	     27.16679643	     83.02887883	     43.47895898	     18.81441411	    -84.55473457	      7.93082465	      7.35522300	     -7.67097422	      8.12758128	      0.10688643	     -0.00970869	     -0.00502038	      0.06092339	      0.01258218	     -0.00290038	   -104.20838336	     47.69114042	      0.14891195	     78.41421420	     -2.43944778	      0.08932807	     -0.00000000	     -0.00000000	      0.00000000	      0.22790054	     -1.33046089	     -1.26918996	      0.00000000	     -0.00000000	      0.00000000	      0.00000000	     -0.00000000	      0.00000000	     -2.07882418	      0.49383620	     -1.31327441	      0.00000000	     -0.00000000	      0.00000000
     16.45065799	    147.15022371	    455.31083453	      6.79101501	      6.86317344	     15.15579219	    114.87691786	     10.00993919	     89.87413057	     97.20525480	     12.80192669	      6.16811780	     13.28249319	     14.79884424	     76.69528549	     16.44871985	     22.24192626	     13.16739991	     19.51546214	     14.18306248	     15.95627975	     35.95637477	     56.44254170	     80.99510371	     51.29499008	    753.56353131	     20.01956549	     83.41870721	    228.65222488	   1118.27151779	    301.86188672	     55.38485938	      8.33391309	      6.22738603	     72.61426636	    103.58572309	    218.29702962	     23.51479967	     26.78704680	     82.09970605	     42.96148172	     -5.94842234	    -49.54431022	    -13.49203246	    -17.33963969	     12.20211422	     18.53069579	      0.09921197	     -0.00762855	     -0.00472040	      0.05379257	      0.01137737	     -0.00300597	   -114.12869056	     13.96028527	      1.08864886	     70.18978391	     -0.80639057	     -0.94819588	      0.00000000	      0.00000000	     -0.00000000	      0.46754569	     -1.16676037	     -1.38397823	      0.00000000	      0.00000000	      0.00000000	     -0.00000000	      0.00000000	     -0.00000000	     -2.13713529	      0.48835103	     -1.22333352	      0.00000000	      0.00000000	      0.00000000
     16.46772464	    142.69679756	    422.63292714	      6.77008243	      6.94035567	     27.19277480	    111.17513470	      8.97889914	     66.45983280	     84.90501550	     11.14111066	      6.18262655	     13.31730404	     12.80234481	     25.91977121	     16.85305360	     22.92267962	     13.44136221	     20.27839846	     14.66286300	     16.55386306	     28.45765069	     51.88666760	     84.40760993	     45.31850908	    621.46936355	     17.78072466	     74.79743053	    360.76034275	    964.15171101	    300.96860205	     45.07843008	      4.47935744	      6.00196882	     71.72863088	     79.88326248	    185.58815053	     23.47688692	     25.74678221	     79.27563641	     41.53948074	    -36.14816190	    154.20376410	    -10.82168065	    -26.86711139	     12.00873376	      6.41920573	      0.08715529	     -0.00347930	     -0.00548992	      0.04060449	      0.00954613	     -0.00272643	    -93.17493428	      8.15807895	      1.28209511	     52.78634332	      0.75216397	     -0.98391394	     -0.00000000	     -0.00000000	      0.00000000	      0.71057592	     -0.97343866	     -1.46273388	      0.00000000	     -0.00000000	      0.00000000	      0.13629097	     -0.08586941	      0.00856790	     -2.14551439	      0.41879300	     -1.22266665	      0.00000000	     -0.00680681	      0.00000000
     16.48479129	    123.54922766	    361.26966417	      6.79737065	      7.08248879	     23.61054652	     94.69145138	      7.92419395	     30.13185495	     83.40780884	     11.03411760	      6.20044921	     13.48863182	     11.04563716	     13.60084924	     17.18313712	     23.58974254	     13.91811315	     20.64923723	     14.90852673	     16.93268810	     25.42697066	     46.97362989	     74.74167680	     30.76907635	    520.38350687	     15.68238463	     66.76369396	    422.62918614	    836.42446916	    411.38928978	     33.13400079	      2.36745959	      5.89871955	     73.69085865	     68.63359072	    189.56628179	     23.51459418	     23.81771708	     73.82713551	     38.77780662	     11.32179573	     27.77469636	     -6.78657969	     23.92224621	     -0.00413248	    -12.45872307	      0.07725049	     -0.00183410	     -0.00586110	      0.01874977	      0.00998925	     -0.00259657	    -47.59215222	    -21.77633386	     13.86318514	    -49.44891060	      9.56231185	      2.93688701	      0.00000000	      0.00000000	     -0.00000000	      0.91855898	     -0.77068068	     -1.50805032	      0.00000000	      0.00000000	      0.00000000	    -97.98754869	    485.07855046	      2.05655921	      0.03394926	     -0.00695015	     -0.00134474	      0.00000000	      2.04147877	      0.00000000
     16.50185793	     84.19910407	    278.43239467	      6.86872899	      7.26539288	      6.01218377	     57.56640691	      6.99766897	      6.53267151	     82.42979272	     11.47183703	      6.18467330	     13.67099232	     10.62070002	      8.51599413	     17.38177704	     24.09817047	     14.50380319	     48.67449768	     15.31503551	     17.34790454	     63.81980316	     72.14054475	     79.90622121	     11.72728252	    554.89580379	     15.36037018	     60.37865517	    342.94796328	    832.34021292	    447.99200360	     27.55385237	      1.75384151	      5.97630972	     77.44383121	     87.02663143	    194.76710504	     23.29941411	     36.26605561	    210.91093563	     69.09919183	     -6.29144565	    -87.83831680	     -9.41362034	     -2.95973926	      1.26669595	     -6.44235681	      0.07986943	     -0.00730518	     -0.00513427	     -0.00131087	      0.01072758	     -0.00242488	    -82.45663528	    -77.07065402	     35.19882144	   -118.74767276	    -25.07994890	     19.09614418	     -0.00000000	     -0.00000000	      0.00000000	      1.07032828	     -0.59151263	     -1.53186081	      0.00000000	     -0.00000000	      0.00000000	   -145.74869580	   1041.38927486	      9.05715149	      0.07488283	     -0.00450478	     -0.01111792	      0.00000000	      2.00565682	      0.00000000
     16.51892458	     64.67892181	    243.16626190	      6.99294208	      7.46954488	      5.89499475	     38.50396453	      6.46349342	      5.63888486	     78.26225820	     11.03679702	      6.08482335	     13.74916411	     10.17279814	      4.80736630	     17.36679442	     24.29471428	     15.07031254	    274.42046072	     28.93066528	     17.16305041	     83.77306751	     83.20154408	     74.20332122	      5.23240251	    597.28594132	     13.72326323	     52.32719441	    274.46693354	    878.85036427	    359.52003640	     31.43140752	      1.65214128	      6.18541083	     81.38410421	     94.10837884	    189.91893511	     22.70193096	     57.66710343	    492.70836640	    141.69216799	     -0.06762949	    -58.12317514	      0.13561998	     -2.11988239	     -0.10967516	     -1.06714253	      0.08532039	     -0.01099908	     -0.00504382	     -0.00437759	      0.01088927	     -0.00208229	    -81.44498875	   -113.96669921	     51.01812366	   -185.80946919	    -79.72671250	     48.88280183	      0.00000000	      0.00000000	     -0.00000000	      1.16284396	     -0.46968078	     -1.54895240	      0.00000000	      0.00000000	      0.00000000	   -207.07841786	   1432.13665094	     13.27207185	      0.10784552	     -0.00421973	     -0.02245622	      0.00000000	      5.64813796	      0.00000000
     16.53599123	     38.83315428	    184.88173442	      7.14968190	      7.68107350	      5.96061266	     18.08134643	      6.51691712	      5.84485037	     70.63775439	     10.45678044	      5.94616692	     13.68024630	      9.80605058	      3.15190907	     17.10878079	     24.12502038	     15.52807905	    392.43571806	     89.96662641	     39.86973606	     83.93617687	     80.10469421	     61.45151995	      3.34925078	    555.96612283	     12.91414147	     39.87380631	    231.28779095	    819.67990036	    280.86892596	     31.39487683	      1.65134433	      6.46915841	     84.53876377	     89.06845297	    176.17818669	     21.85988514	     71.53848626	    647.75946935	    178.51942017	     15.78756939	     12.06564255	     13.82160387	      7.69232832	     -5.66113373	     -0.27489195	      0.07983927	     -0.01311287	     -0.00494453	     -0.00775829	      0.01032300	     -0.00158347	    -57.65764946	   -133.14325768	     62.91226062	   -253.38715311	   -126.57923762	     82.02309372	     -0.00000000	     -0.00000000	      0.00000000	      1.20046454	     -0.42965337	     -1.57081349	      0.00000000	     -0.00000000	      0.00000000	   -245.74199630	   1683.83635821	     24.34945518	      0.12791100	     -0.00526719	     -0.03489928	      0.00000000	     11.63534901	      0.00000000
     16.55305788	      7.59705743	     93.91449781	      7.32265354	      7.89601556	      6.10004685	      5.76963946	      7.27027546	      5.97382469	     63.34605416	      9.34736036	      5.76325746	     13.54106826	      9.81174518	      2.65439910	     16.63217395	     23.61097460	     15.82220489	    449.68072355	    136.27090646	     95.98802322	     75.63313924	     69.73618198	     46.46444075	      3.19902718	    440.31451831	     11.14119690	     31.29276392	    167.53068795	    634.05040671	    209.15054833	     26.70006451	      1.66026738	      6.79445715	     86.76762063	     76.31247853	    158.84099878	     21.02153119	     62.16335086	    635.24740070	    156.28299092	     14.35047283	     37.75691683	     14.68796869	      4.08705115	     -6.23872933	      1.96468246	      0.06268352	     -0.01432713	     -0.00392330	     -0.00920421	      0.00923787	     -0.00125461	    -36.05807418	   -150.05038856	     73.38511693	   -309.21139883	   -158.73690939	    108.83772478	     -0.00000000	     -0.00000000	      0.00000000	      1.18528820	     -0.48278337	     -1.60001374	      0.00000000	     -0.00000000	      0.00000000	   -228.38880985	   1855.76161221	     43.05393094	      0.13731345	     -0.00704959	     -0.04581948	      0.00000000	     17.09323417	      0.00000000
     16.57012453	      6.56512433	      9.51284013	      7.49992217	      8.11039523	      6.30245296	      5.74069891	      8.76253191	      6.32074962	     59.30335556	      9.12385287	      5.70027409	     13.36423480	     10.41068567	      2.69704525	     16.06630753	     22.85582685	     15.91617594	    497.60182683	    167.92358700	    129.96201400	     70.65309236	     62.13809220	     36.11496491	      3.34322736	    311.94799756	     12.34365955	     31.54173993	    111.08953189	    404.66661000	    155.75523960	     20.04430825	      1.70491807	      7.14002502	     88.35114037	     64.48513065	    145.89136416	     20.39872898	     49.03300577	    524.11569515	    126.97039997	     -5.07714367	     13.78215889	     -0.67276500	     -5.37906956	      1.06481042	      4.43291099	      0.04240515	     -0.01545454	     -0.00220279	     -0.00857660	      0.00823934	     -0.00118086	    -21.65881231	   -164.04534950	     78.28744215	   -333.14327410	   -181.71977858	    125.23553409	      0.00000000	      0.00000000	     -0.00000000	      1.11334351	     -0.62620038	     -1.62790229	      0.00000000	      0.00000000	      0.00000000	   -152.35349630	   1962.67397778	     59.12674447	      0.14327944	     -0.00811850	     -0.05317081	      0.00000000	     19.62374864	      0.00000000
     16.58719118	      6.97271505	      9.71045443	      7.67184997	      8.31432290	      6.55688421	      5.90178725	     10.86043168	      6.61618367	     60.81211155	      8.75636120	      5.55080757	     13.21598219	     11.69200111	      3.20702547	     15.41376135	     21.95687813	     15.81091764	    503.43615340	    174.90818755	    139.90552935	     67.63528096	     57.74407883	     30.34624209	      3.51561440	    230.45195897	     13.47701144	     43.00363916	     82.39820386	    254.33537349	    135.21111183	     16.21588308	      1.88161574	      7.49035170	     89.47766662	     59.13491767	    144.08760180	     20.04414884	     39.14902422	    431.87192711	    105.40303614	    -17.04131081	    -13.01072743	    -12.33297725	     -6.69423130	      5.60866697	      2.35345645	      0.02952771	     -0.01610113	     -0.00113856	     -0.00767056	      0.00783214	     -0.00134426	    -10.87650394	   -159.43583487	     70.99337660	   -308.71262507	   -199.40737194	    131.61274530	     -0.00000000	     -0.00000000	      0.00000000	      0.97635609	     -0.84187133	     -1.63782913	      0.00000000	     -0.00000000	      0.00000000	    -40.99707603	   1971.22461636	     62.79638631	      0.15235363	     -0.00706643	     -0.05645022	      0.00000000	     19.11969798	      0.00000000
     16.60425783	      7.50363421	     10.36654093	      7.82850159	      8.49199292	      6.83307572	      6.16804026	     13.17748346	      7.08080836	     64.94445353	      9.39750411	      5.55407876	     13.07492240	     13.56195897	      4.64834163	     14.77336746	     21.03782921	     15.54449413	    428.86736436	    133.07138443	     88.85211119	     61.24440780	     49.33089396	     23.05119598	      3.69897671	    211.15789146	     17.22630456	     58.48420184	     46.15956077	    225.89204981	    142.88998972	     16.04034514	      2.41056638	      7.83807101	     90.00121561	     56.81971485	    149.89933181	     19.92612194	     32.66126733	    336.82708983	     83.48595672	     -7.75769394	    -13.88415166	     -5.16995993	     -0.55081526	      0.67815004	     -1.83499864	      0.02480243	     -0.01376064	     -0.00034441	     -0.00631586	      0.00784220	     -0.00156926	     -2.88338182	   -131.36139203	     52.95006498	   -239.25383134	   -208.09084020	    128.99642887	     -0.00000000	      0.00000000	     -0.00000000	      0.76755907	     -1.09706365	     -1.61299623	      0.00000000	      0.00000000	      0.00000000	     76.86449536	   1849.21784273	     51.53239782	      0.16597478	     -0.00400423	     -0.05537846	      0.00000000	     17.08608853	      0.00000000
     16.62132448	      8.87731692	     34.74280471	      7.96867101	      8.64161506	      7.09929360	      6.50800849	     15.24669149	      7.36306487	     68.15550050	      9.73609385	      5.49369967	     12.96069310	     15.72617506	      8.39771165	     14.24837675	     20.24740990	     15.16700453	    332.57162826	     44.59387515	     11.68983097	     55.93907867	     31.96825036	      8.32546836	      3.89195820	    193.18341879	     19.87300421	     72.01189229	      9.03917237	    188.46809819	     98.41836744	      6.99261968	      3.96039536	      8.19199345	     89.70345746	     39.87402720	    155.86186605	     19.98004256	     24.31955911	    228.91552845	     57.89490818	      6.69054431	     -2.36393180	      8.17463020	      5.07952866	     -5.25091030	     -3.68979994	      0.01456278	     -0.00373382	      0.00315756	     -0.00436812	      0.00782742	     -0.00174118	      4.13023640	    -92.64562431	     33.31259478	   -149.95241805	   -200.59707784	    116.77435890	      0.00000000	     -0.00000000	      0.00000000	      0.48848499	     -1.34872375	     -1.54575342	      0.00000000	     -0.00000000	      0.00000000	    177.06594866	   1597.97544359	     29.77770970	      0.18151939	     -0.00048737	     -0.04924890	      0.00000000	     14.58245890	      0.00000000
     16.63839113	     57.30334197	    113.64558069	     12.67533474	     30.07211121	     17.41305144	     12.00422662	     16.97020648	      7.97160189	     67.93682882	     10.06166371	      5.54741256	     12.88143322	     17.81970091	     16.15439056	     13.92997562	     19.66496439	     14.84397688	    218.45508199	     12.74219281	     11.53419220	     40.08815676	     15.37812618	      4.94195276	      4.95081099	    106.15045471	     21.23098442	     76.66919515	      9.25603276	     69.37387153	     15.42551435	      3.62089580	      9.08678088	      9.66043655	     88.68475424	     14.17177049	    157.57070840	     20.20680908	     21.51496885	    133.43917968	     43.78236526	      7.59640779	      1.41259272	     10.23205773	      5.04615949	     -4.73251833	     -3.09157879	      0.00219819	      0.00350767	      0.00428052	     -0.00244596	      0.00755988	     -0.00177075	     11.70156134	    -54.55093966	     17.85021537	    -69.12352029	   -174.51714719	     95.13583480	     -0.00000000	      0.00000000	     -0.00000000	      0.15195709	     -1.55330762	     -1.44341158	      0.00000000	      0.00000000	      0.00000000	    238.10180186	   1252.87897444	      6.68182261	      0.19643386	      0.00236733	     -0.03783499	      0.00000000	     11.58754305	      0.00000000
     16.65545778	     70.34158682	    129.07748085	     35.38010982	     51.11985226	     39.43336426	     28.18309994	     45.27411046	      8.28536587	     65.67815603	      9.88901211	      5.59605849	     12.87233477	     19.63420351	     26.90134932	     13.75604645	     19.27713952	     51.27033674	     59.38305599	     10.83245807	     11.61917005	     14.83933265	      6.06255264	      4.89862135	      7.81355653	     41.74153570	     20.29971638	     73.93207539	      9.96147867	     34.76825607	     13.01587805	      3.66148570	     56.29222909	     26.00934598	     87.41993437	      5.00734289	    157.72976883	     20.60954991	     18.56033775	    123.75512067	     38.84849940	     -0.22977593	      0.28950832	      3.95198457	      0.76032105	     -2.69829182	     -0.45380989	     -0.00136017	      0.00531532	      0.00256276	     -0.00208794	      0.00721556	     -0.00171093	     18.77357310	    -18.22027560	      6.48789789	    -12.39834700	   -134.89715188	     68.07575271	      0.00000000	     -0.00000000	      0.00000000	     -0.22185520	     -1.67934185	     -1.32410339	      0.00000000	     -0.00000000	      0.00000000	    245.38150156	    870.91895076	     -8.04353450	      0.21101222	      0.00584668	     -0.02288375	      0.00000000	      8.03740756	      0.00000000
     16.67252443	     74.12608734	    111.49365984	     35.88166449	      9.14853781	     57.63517637	     87.50726245	    147.48276011	     11.40805219	     63.23553735	     10.02249620	      5.71602058	     12.92191993	     21.20191371	     36.50209223	     25.17499014	     65.74504127	    168.85845529	     16.37206934	     10.79726128	     11.79686354	      5.80748507	      5.72938606	      5.13160353	     18.21583787	     15.01885179	     19.32933550	     68.85328827	     45.91845507	    144.22390304	     14.49131206	      7.07495751	     29.16745428	     14.03452321	     86.44477239	      4.98717041	    158.37909466	     21.09626418	     15.59403472	     49.28066221	     26.44439591	     -3.27640510	      4.43060189	     -0.96605571	     -3.20153503	     -1.90955662	      3.33763238	      0.00321610	      0.00545466	     -0.00651281	      0.00148952	      0.00695668	     -0.00164016	     24.05881498	     10.48380886	     -0.76916227	     17.75255799	    -90.78285309	     41.59744097	     -0.00000000	      0.00000000	     -0.00000000	     -0.61258973	     -1.71444634	     -1.20248917	      0.00000000	      0.00000000	      0.00000000	    202.41687083	    516.18877378	     -9.58707412	      0.22825465	      0.01366725	     -0.00833965	      0.00000000	      4.80278788	      0.00000000
     16.68959108	     68.45507293	     82.59515204	     34.03729218	      8.57707725	     61.48149767	    110.01971531	    247.34771344	     23.18816994	     62.08528551	     10.03054353	      5.75626743	     12.97307882	     22.67073149	     42.60982502	     26.29618562	     75.75483735	    187.71496975	     16.48638598	     10.85848117	     11.87290594	      5.86608715	      5.81353245	      5.34490696	     24.27362745	     15.15993065	     18.64202327	     66.61006847	     99.37903319	    193.71632591	     15.70546159	     13.76324615	     47.38939879	     18.03389385	     86.08010384	      5.05404507	    159.53951232	     21.44162720	     14.68944987	     47.77143148	     25.18700105	     -0.82371821	      9.89709364	     -6.15927039	     -5.45251136	      4.28697437	      3.61980160	      0.00423461	      0.00467404	     -0.00992948	      0.00530979	      0.00686774	     -0.00161308	     27.45232318	     19.30383782	     -3.56327730	     26.49717899	    -50.64308861	     19.81949228	      0.00000000	     -0.00000000	      0.00000000	     -1.00249576	     -1.66257016	     -1.07813474	      0.00000000	     -0.00000000	      0.00000000	    133.58082856	    240.97609501	     -1.00766093	      0.25114348	      0.03089247	      0.00171434	      0.00000000	      3.18866795	      0.00000000
     16.70665773	     53.86759195	     65.14170024	     37.59365984	      9.36755368	     51.13455583	     75.76840640	    243.66013168	     14.46199108	     62.04794738	     10.26175412	      5.77972496	     12.92279586	     24.12562504	     46.52145320	     19.19211241	     55.13783735	    153.47338994	     16.63016085	     10.96496991	     12.11372330	      5.93181479	      5.90350970	      5.56546827	     17.67072774	     15.31496672	     19.00549395	     65.35391467	     54.23905048	     95.77856498	     16.74628542	      6.10812258	    213.95799100	     29.83912351	     86.40470390	      5.07468050	    159.83170300	     21.38296166	     15.67718539	     48.52760774	     26.15090450	     -2.66738389	      7.87609843	    -15.03045655	    -10.00975693	     16.39317143	     -1.79488077	     -0.00017230	      0.00387814	     -0.00578964	      0.00225739	      0.00695714	     -0.00157739	     28.76420372	     10.10362148	     -3.12668600	     22.75732573	    -20.07322575	      4.64448515	     -0.00000000	      0.00000000	     -0.00000000	     -1.37402250	     -1.53610426	     -0.94035945	      0.00000000	      0.00000000	      0.00000000	     71.03147722	     68.70346921	      9.76899261	      0.27839160	      0.06137408	      0.00593960	      0.00000000	      3.45747692	      0.00000000
     16.72372438	     45.13642641	     78.15051776	     39.25985381	     42.50801844	     37.85214187	     29.94233089	    195.31092032	      9.71571101	     62.75882764	     10.23316514	      5.66986212	     12.76051204	     25.50340185	     50.02700578	     19.81729925	     51.27059351	    105.33949616	     17.25385231	     11.51486474	     12.51506365	      6.30527135	      6.24138155	      6.04193308	     11.17564400	     15.69550889	     18.66836519	     61.89917465	     12.42553004	     22.68745345	     17.62851490	      3.78474335	    459.03024865	     44.01215838	     87.34378284	      5.16114848	    157.98174480	     21.03611235	     21.45128256	    101.61845416	     40.38289575	     20.06853902	     -7.15653975	     -2.15194054	     20.41906609	      2.02493942	     -6.11349368	     -0.00387734	      0.00372972	     -0.00001311	     -0.00096351	      0.00719429	     -0.00149553	     67.93052346	     19.16972462	     -1.91660015	     -4.31491886	      2.30317465	     -0.81459400	      0.00000000	     -0.00000000	      0.00000000	     -1.70856828	     -1.34751785	     -0.78789651	      0.00000000	     -0.00000000	      0.00000000	      0.00000093	      0.00000071	      0.00000017	     -0.42587784	     -1.77993989	     -0.39970891	      0.00000000	      0.00000005	      0.00000000
     16.74079103	     48.80533842	     96.71068233	     42.01474464	     55.24230705	     37.70645091	     21.49843405	    201.91617299	      9.38748680	     63.72780142	     10.02726666	      5.37290951	     12.38322043	     26.48417702	     53.09805300	     19.66837394	     54.28393482	     97.43899566	     43.30429573	     11.86431256	     12.56949849	      9.17211468	      6.46421396	      6.30370088	     11.27458726	     15.75999069	     17.54791348	     53.77759441	     13.41704438	     22.66029279	     18.58977783	      3.75777964	    631.90649000	     51.57745151	     88.51876146	      5.19947681	    151.26717245	     19.90687343	     21.51077566	    157.43240857	     46.27428197	     -3.29791002	    -20.05252894	      9.15797456	      4.73922250	     -9.35906754	     -1.92126934	     -0.00455210	      0.00423361	      0.00139421	     -0.00127468	      0.00755132	     -0.00135637	     64.20845371	     29.90266879	      1.11797619	     -2.68634579	      2.34448868	     -0.66334499	     -0.00000000	      0.00000000	     -0.00000000	     -1.98924956	     -1.10461884	     -0.64611572	      0.00000000	      0.00000000	      0.00000000	     -0.00000000	     -0.00000000	     -0.00000000	     -0.11512653	     -1.81278133	     -0.38893568	      0.00000000	     -0.00000000	      0.00000000
     16.75785768	     54.72426557	    111.78830665	     45.12473813	     58.40036259	     41.01340510	     24.24415084	    217.15742305	      9.22281007	     62.63443032	      9.58880959	      5.15969132	     12.01577464	     26.74685605	     54.56550398	     18.88835077	     52.58603027	    100.65697532	     49.77095291	     11.79263056	     12.76211972	     10.29437524	      6.46621826	      6.56665809	     12.87585354	     15.90831986	     15.90161852	     43.45153538	     14.53984098	     22.75972490	     19.13265582	      3.75797843	    728.67915894	     54.90851904	     89.24645046	      5.27865639	    137.39014418	     19.14359979	     21.23647195	    136.81069845	     42.75006497	     -5.19628799	      3.89574683	     18.90382160	     -0.76335333	    -17.10782849	      2.98140303	     -0.00462314	      0.00488514	      0.00158988	     -0.00099236	      0.00757707	     -0.00122330	     66.73486683	     40.43298751	      3.64741529	     -3.49870947	      2.10076214	     -0.37372448	      0.00000000	     -0.00000000	      0.00000000	     -2.20277696	     -0.81788295	     -0.56241246	      0.00000000	     -0.00000000	      0.00000000	      0.00000000	      0.00000000	      0.00000000	      0.12039774	     -1.80290915	     -0.36678397	      0.00000000	      0.00000000	      0.00000000
     16.77492433	     57.39211173	    117.85957342	     45.98239828	     57.70881070	     42.33053774	     26.55485748	    230.07991350	      8.99147295	     55.03136286	      8.33825051	      5.09848121	     11.81703638	     25.96433190	     53.21726571	     16.42394228	     48.96156241	    101.93508200	     38.15452428	     11.59745836	     12.80271970	      8.77563924	      6.32312260	      6.63528817	     14.00677390	     16.00162677	     13.07861536	     34.55037027	     15.29462761	     22.95904858	     19.76611886	      3.75369569	    776.33523001	     57.49118912	     88.38939165	      5.34579083	    114.02986862	     19.06763598	     18.01051778	     54.27559760	     29.90512702	     -2.53997453	     25.48688292	     12.41581560	     -2.43969633	    -10.76141367	      4.78263873	     -0.00464100	      0.00521738	      0.00161528	      0.00009396	      0.00663464	     -0.00105334	     66.94970477	     38.03189158	      5.22005932	     -4.75080340	      1.66659816	     -0.26052225	     -0.00000000	      0.00000000	     -0.00000000	     -2.33953435	     -0.51755403	     -0.57316366	      0.00000000	      0.00000000	      0.00000000	     -0.00000000	     -0.00000000	     -0.00000000	      0.27380844	     -1.78401852	     -0.31324922	      0.00000000	     -0.00000000	      0.00000000
     16.79199098	     45.89300243	     95.24985452	     29.55976623	     34.12814198	     30.14497787	     23.35829457	    261.14451768	     21.64405057	     41.02272818	      6.47718403	      5.26537133	     11.94111623	     24.18897446	     49.31923233	     13.85066527	     19.89766844	     58.92536662	     17.56172579	     11.52750580	     12.74513721	      6.57222412	      6.29141051	      6.56609240	     16.07985633	     17.24455499	     11.40567685	     30.33295856	     15.57604273	     24.41824533	     21.22592941	      3.80305016	    927.35806588	     68.08491627	     85.28072451	      5.40855284	     83.61013562	     19.96482034	     18.31956979	     55.00057896	     30.28373467	     -0.40437346	     10.79091880	     -5.58141075	     -3.07785210	      4.54141287	      1.99651099	     -0.00193856	      0.00386812	      0.00092996	      0.00933253	      0.00478793	     -0.00088305	     66.15903482	     23.36960134	      6.26838453	     -7.07555635	      1.39709206	     -0.53275928	      0.00000000	     -0.00000000	      0.00000000	     -2.40149982	     -0.25438596	     -0.66398738	      0.00000000	     -0.00000000	      0.00000000	      0.00000000	      0.00000000	      0.00000000	      0.36001532	     -1.77080870	     -0.23548507	      0.00000000	      0.00000000	      0.00000000
     16.80905763	     15.75653342	     28.10986039	     12.89736852	     14.41171294	     12.05899575	     10.29785684	    305.95781850	     37.72836902	     50.08079678	      8.51305231	      5.76322889	     12.46430267	     22.46960396	    119.65305413	     16.50359643	     24.78888479	     24.79602807	     20.73997107	     13.27885026	     13.61437064	      7.24319434	      7.12137178	      7.15485074	     15.61193573	     18.69347258	     13.35280948	     40.98088061	     15.49062099	     23.90238504	     23.70144444	      6.03935943	   1065.82510135	     81.44643980	     80.85599501	      5.54225191	    106.74469191	     21.72897281	     19.98355660	     60.00707113	     32.83755124	      7.66834164	    -40.77758595	    -16.96654011	      1.45797563	     14.58717898	     -3.77677168	     -0.00113469	      0.00118450	      0.00047029	      0.01960700	      0.00565883	     -0.00127065	     75.40709359	      6.43245345	      6.38622174	    -12.91543774	      1.70164996	     -1.17963695	      0.00000000	     -0.00000000	      0.00000000	     -2.41381875	     -0.07084271	     -0.76877583	      0.00000000	     -0.00000000	      0.00000000	      0.00000000	      0.00000000	      0.00000000	      0.40837017	     -1.76283776	     -0.14893295	      0.00000000	      0.00000000	      0.00000000
     16.82612428	      8.81384384	     12.42634940	      7.72983618	      7.96621972	      7.23865242	      7.42626964	    347.12127859	     59.95529014	     72.39780706	     11.92904960	      6.19349589	     13.15402268	     41.04082687	    189.07072413	     40.47849079	     49.60488894	     12.76737344	     67.65957076	     50.31479972	     71.52073396	      7.59752094	     13.25490520	     17.46704849	     11.31274486	     16.20468481	     16.33280009	     63.30017215	    113.09258444	     23.05552475	     26.81858578	     17.12015458	   1177.84708323	     93.71442745	     77.68660368	      5.77307814	    163.93259106	     23.88545478	     22.31783835	     67.23611517	     36.37622539	      9.30436741	    -61.44659911	    -14.97639842	      2.81449971	     13.63685811	     -6.08068395	      0.00064972	     -0.00513897	     -0.00073065	      0.03628859	      0.00815537	     -0.00227011	     93.30022813	     -1.54381532	      4.37446934	    -20.59506824	      2.54471872	     -1.91748130	     -0.00000000	      0.00000000	     -0.00000000	     -2.41385227	      0.02452801	     -0.81794894	      0.00000000	      0.00000000	      0.00000000	     -0.00000000	     -0.00000000	     -0.00000000	      0.45086884	     -1.75522232	     -0.06377267	      0.00000000	     -0.00000000	      0.00000000
     16.84319093	      8.80808948	     12.33109550	      8.18442696	      9.62221624	      7.40220828	      7.48938795	    409.56127629	     48.39976872	    106.63888149	     19.27353123	      6.75044198	     14.11090763	     18.13555739	    330.21135146	     95.07005902	    171.88856004	     26.01613630	    123.49807648	     74.97211837	     94.63499191	     11.37861574	     15.90298132	     18.78579680	     12.20842205	     15.31124385	     22.66489562	     96.60049910	    101.49708022	     22.49737334	     29.94163106	      9.06285141	   1165.66901261	    105.15358012	     79.04386790	      5.42923549	    276.05002467	     26.24702361	     24.82029201	     74.92144845	     40.11366159	    -19.55167503	     53.65906942	     -8.72690026	    -15.00922512	      7.02688777	     -0.97912545	     -0.00536548	     -0.00381383	      0.00012720	      0.03230303	      0.01296112	     -0.00407084	    105.59648400	      3.88314878	     -0.44093562	    -25.61116809	      3.47575740	     -2.36018704	      0.00031383	     -0.00010423	      0.00002320	     -2.42078387	      0.05210135	     -0.78624857	      0.00000000	     -0.00001570	      0.00000000	      0.00000000	      0.00000000	      0.00000000	      0.50829764	     -1.74496599	      0.01507084	      0.00000000	      0.00000000	      0.00000000
     16.86025758	      8.70059187	     12.06652103	     16.32792114	     33.75000169	      7.89923475	      7.50937370	    143.12432037	      7.62710786	    146.15423670	     26.99606343	      7.13108539	     14.93124922	     18.34296773	     36.24156768	    133.06675390	    263.83978169	    108.44590096	    136.56514789	     83.95342661	    105.13005293	     11.69965165	     14.56581896	     17.18350669	      3.83816068	     14.81179104	     43.10541918	    200.23731532	     87.14871963	     22.04991239	     32.68949856	      3.47790140	    294.05337033	     28.00787183	     84.56110261	      5.71864215	    364.50509557	     27.90587016	     42.98620316	    269.56165914	     81.91073080	     22.02031016	     86.84537871	      8.05652295	     39.57635301	     -7.17837029	      5.61827385	     -0.01003416	     -0.00230531	      0.00064686	     -0.00071915	      0.01904727	     -0.00819762	    105.46731543	     14.56151876	     -5.76945687	    -26.94076861	      4.12713620	     -2.41711483	   -100.90601332	    265.43706214	    -11.79854795	      0.01216421	      0.00382306	      0.00240810	      0.00000000	      5.21073618	      0.00000000	     -0.00000000	     -0.00000000	     -0.00000000	      0.58304206	     -1.73268088	      0.08552675	      0.00000000	     -0.00000000	      0.00000000
     16.87732423	      8.49154978	     11.72401461	      8.47086526	     36.36632042	      7.46311710	      7.43813392	    158.87605805	      7.08250834	     13.54379945	      8.51301820	     13.00685750	     25.13442108	     19.65172948	     38.82347980	    297.30867744	    531.34231691	    106.31751629	    476.87225182	    264.18482787	    295.73464580	     42.11694817	     51.63406045	     57.47240948	      3.48197977	     14.42466067	      4.75056728	     11.23958214	    251.68375832	     21.74800467	     34.78859963	      3.40827470	    350.41556210	     29.23690752	     89.02816926	     19.66657425	    183.15667776	    152.99948539	    123.15261565	   1192.17222588	    307.56619482	     -4.48871442	    -32.32407873	     19.66422341	     -1.86778084	    -15.00788247	      0.80476320	     -0.01883721	     -0.00927782	      0.00242553	     -0.00303268	      0.00590765	      0.00169395	     97.03366057	     19.63865832	     -6.76437800	    -26.28907421	      4.37791657	     -2.29703542	   -137.62138930	    810.98132144	    -17.25985569	      0.05584990	      0.01210905	      0.00614880	      0.00000000	      4.62235128	      0.00000000	      0.00000000	      0.00000000	      0.00000000	      0.66231270	     -1.72247055	      0.14947881	      0.00000000	      0.00000000	      0.00000000
     16.89439088	      8.33475560	     11.50887401	      8.03962585	     36.89948196	      7.38756984	      7.39037541	    131.46793310	      6.64032455	      5.69401894	      4.33893679	     43.74258721	    169.42338939	     29.24984335	     41.83623066	    369.22203084	    622.89296768	     82.95946845	    667.23829639	    367.14593697	    395.79499949	     58.79770493	     72.69575169	     80.87600102	      3.46673957	     14.35102904	      4.95362278	     11.89481776	    329.52928654	     21.77098984	     36.08454001	      3.41453074	    306.53561078	     21.98757585	   1210.26991642	     33.00959960	    136.45937071	    694.67975212	    232.94964165	   2232.75787999	    576.74952593	     -5.39686967	    -39.80344415	     14.93328341	    -17.27101010	    -11.98648827	     -4.92065219	     -0.02305803	     -0.01287706	      0.00380204	     -0.00595262	      0.00336479	      0.00624746	     82.58084785	     19.67877591	     -3.31051970	    -23.99093612	      4.16564543	     -2.05558764	   -179.46744647	   1265.17320747	    -11.82966305	      0.09363012	      0.01748872	      0.00836503	      0.00000000	      3.15465589	      0.00000000	     -0.00000000	     -0.00000000	     -0.00000000	      0.72706095	     -1.72054046	      0.21269790	      0.00000000	     -0.00000000	      0.00000000
     16.91145753	      8.24673575	     11.48956972	      8.11017888	     32.40163419	      7.22729468	      7.32696983	     54.87534507	      6.96591102	      5.41558951	      6.14790512	     72.97899936	    295.21058377	    136.60415189	     50.05525790	    336.08854082	    538.64659256	     52.24342078	    692.33640428	    370.75915453	    381.93588386	     61.62652000	     75.86922407	     83.49352122	      3.51142092	     14.66567437	      5.38057698	     12.96517371	    299.35783738	     22.12852454	     36.51384285	      3.48900364	    137.90070423	      9.95116899	   2861.35827251	     37.50523421	    230.17313681	   1149.88331373	    359.56385180	   3409.34107475	    886.62468200	      6.52700096	     -7.62878156	     -2.06908031	     -5.00522961	      1.79381615	     -1.78989425	     -0.02210773	     -0.01278275	      0.00417175	     -0.01041842	      0.00770191	      0.01287945	     62.21370611	     20.06647815	     -1.76801082	    -20.21440609	      3.53790624	     -1.55680299	   -205.69032836	   1610.77995292	    -13.38863044	      0.11813825	      0.01803871	      0.01004168	      0.00000000	      2.36733948	      0.00000000	      0.00000000	      0.00000000	      0.00000000	      0.75955688	     -1.73292830	      0.27985154	      0.00000000	      0.00000000	      0.00000000
     16.92852417	      8.24811541	     11.68731474	      7.73077436	     27.81114458	      6.97835143	      7.24321152	     16.09206399	      7.25569294	      5.48252609	      8.00475437	     96.96273837	    404.71516862	    307.48366828	    413.42594757	    276.08245133	    422.51894072	     32.59850535	    706.93782119	    351.92268532	    337.05520610	     65.14123449	     77.14242767	     82.84630444	      3.58797087	     15.34201870	      5.84184503	     13.94841607	    235.96346268	     22.74363185	    222.67489827	      3.59313941	     23.23131873	      7.31968562	   4155.24653536	     40.26281431	    362.26487190	   1500.98891155	    475.87320893	   4487.12571056	   1177.94424776	     10.55862937	      9.96163412	    -17.40789132	     11.29547444	     14.12422902	      5.49790725	     -0.02022043	     -0.01163918	      0.00413889	     -0.01620099	      0.01270509	      0.02122693	     41.37648706	     16.07259739	     -4.93036038	    -16.12241202	      2.76350742	     -0.87012019	   -189.89667583	   1851.95595742	    -34.31335238	      0.13120845	      0.01447834	      0.01223139	      0.00000000	      2.77141327	      0.00000000	     -0.00000000	     -0.00000000	     -0.00000000	      0.74669175	     -1.76400111	      0.34758238	      0.00000000	     -0.00000000	      0.00000000
     16.94559082	      8.35271376	     12.08228532	      7.28704732	     24.16656719	      6.69328135	      7.16420735	     15.16803797	      7.70052209	      5.84616022	      8.73368395	    109.97415732	    466.82642003	    513.32239398	   1157.13317606	    267.06060921	    396.64704947	     23.93531096	    869.86811436	    395.13239585	    351.09085200	     83.13889920	     93.59472116	     98.48985046	      3.67879580	     16.21899893	      6.15612360	     14.50222059	    220.43931038	     23.46079062	    497.78237053	      3.70109297	     23.12086717	      7.35511164	   4880.43106897	     50.19930980	    502.37283791	   1676.17678420	    539.39455125	   5089.20130227	   1349.32084139	      4.84897901	      4.18297359	    -19.35463790	     14.41025636	     14.57208487	      6.22502301	     -0.02188719	     -0.01291659	      0.00441975	     -0.02141372	      0.01355839	      0.02853286	     25.87165587	     -2.63165909	     -7.08366300	    -11.53281647	      2.08895900	     -0.31854251	   -121.62121940	   1982.91375151	    -63.51390954	      0.13945068	      0.00869945	      0.01563022	      0.00000000	      4.55316992	      0.00000000	      0.00000000	      0.00000000	      0.00000000	      0.68032963	     -1.81619523	      0.40103451	      0.00000000	      0.00000000	      0.00000000
     16.96265747	      8.56582942	     12.63238413	      6.85432056	     12.79734095	      6.44052055	      7.13975009	     14.60956354	      8.06961717	      6.35296208	      4.62070369	    110.72479699	    473.79443974	    690.57889375	   1948.11492708	    303.61022943	    440.43048504	     11.06925944	   1201.99297533	    505.07763942	    426.78783352	    118.57316188	    129.05641068	    133.20594429	      3.76756370	     17.10012742	      6.29889244	     14.66067905	    256.34456618	     24.10249416	    592.60917560	      3.78437661	     23.00504888	      7.42265899	   5113.97784303	     77.11779342	    571.93848636	   1676.91656338	    525.38253609	   4978.84515884	   1332.12884359	     -4.60304961	     -1.30865925	     -4.11659512	      1.01852423	      1.98036065	     -0.78216736	     -0.02584011	     -0.01767414	      0.00477255	     -0.02370253	      0.00734726	      0.03225517	     13.19237654	    -34.66593633	     -2.27794957	     -4.90860661	      1.50662697	     -0.13554066	    -14.20798035	   1985.32339235	    -79.48360815	      0.14813021	      0.00169054	      0.01936603	      0.00000000	      7.12661859	      0.00000000	     -0.00000000	     -0.00000000	     -0.00000000	      0.55776640	     -1.88865250	      0.41640784	      0.00000000	     -0.00000000	      0.00000000
     16.97972412	      8.87511774	     13.27486133	      6.58843055	      7.42425382	      6.29768259	      7.21365764	     14.10194405	      8.29949461	      6.88015250	      3.84579343	    102.16171566	    438.90732226	    757.43794783	   2349.35940336	    297.98511921	    421.13234527	     10.28051377	   1571.91105687	    599.57622997	    472.90467756	    166.28571411	    169.14894108	    161.75256628	      3.85204677	     17.84585514	      6.36608196	     14.63542975	    254.77694671	     24.50899092	    619.99146482	      3.82944947	     22.83910010	      7.48828188	   4870.23705880	    121.64659150	    516.21357345	   1544.15318799	    429.02869119	   4085.34980517	   1102.71985124	    -11.76728579	      4.57669351	     19.12090684	    -15.25034550	    -15.16226762	     -5.91982065	     -0.02615196	     -0.02302782	      0.00518949	     -0.02104426	     -0.00181077	      0.03182824	     -0.68363846	    -64.28441938	      8.16522465	      2.57647119	      1.01267831	     -0.31972845	    104.06564913	   1848.03563633	    -70.47154722	      0.15734921	     -0.00593699	      0.02105548	      0.00000000	      9.10659580	      0.00000000	      0.00000000	     -0.00000000	      0.00000000	      0.38368198	     -1.97336781	      0.36861721	      0.00000000	     -0.00000000	      0.00000000
     16.99679077	      9.22988573	     13.90917680	      6.46479754	      6.31684996	      6.30167448	      7.38155878	     13.79040970	      8.38913263	      7.51088586	      4.03502593	     89.07329438	    379.92336929	    674.59172775	   2142.96024876	    209.71316692	    253.49379184	     10.03884878	   1681.81905873	    573.60970619	    414.99831132	    198.41668158	    182.72511110	    154.17441333	      3.92777925	     18.41856291	      6.46915140	     14.62025763	    187.64000322	     24.59392074	    735.28318845	      3.97532431	     22.87226104	      7.57175541	   4128.60236829	    161.65526711	    368.36445779	   1330.23555174	    282.05117133	   2694.69711107	    733.73854281	     -9.05283651	      7.88459599	     27.02189313	    -14.10914708	    -19.59237797	     -2.87632398	     -0.01779121	     -0.02555906	      0.00498016	     -0.01432632	     -0.00719844	      0.02801625	    -12.20351376	    -76.20638182	     17.66414831	      7.01903090	      0.83037095	     -0.72472255	    202.12919140	   1583.59053702	    -41.34264355	      0.16423616	     -0.01314878	      0.01836654	      0.00000000	      9.33578716	      0.00000000	     -0.00000000	      0.00000000	     -0.00000000	      0.17055059	     -2.05265506	      0.24132835	      0.00000000	      0.00000000	      0.00000000
     17.01385742	      9.54441709	     14.39952952	      6.48409008	      6.31034182	      6.42547629	      7.58036561	     13.79699272	      8.39223106	      8.40887641	      4.51026111	     73.83564389	    308.18152795	    491.58216562	   1522.70295190	    108.97988134	     49.15695059	     10.07774538	   1311.29192410	    421.02757316	    300.72485347	    173.74330130	    151.63840072	    116.72568063	      3.98121442	     80.15335713	      6.69675437	     14.75675121	    136.43110946	     24.47540836	    937.53218800	      8.39393568	     23.25305857	      7.68946285	   3084.80301871	    162.03658276	    185.26956487	   1069.81248844	    134.30170951	   1285.14256482	    352.33439191	     -0.58466237	      0.06681456	      6.17089621	      1.70517093	     -2.41431007	      1.60227096	     -0.00167569	     -0.02319489	      0.00240873	     -0.00681022	     -0.00759796	      0.02236855	    -15.51722160	    -68.00274375	     20.85701967	      6.60633733	      1.13310199	     -1.14695776	    255.11485326	   1232.28207933	     -7.77486216	      0.16954415	     -0.01888293	      0.01053617	      0.00000000	      7.76716398	      0.00000000	      0.00000000	     -0.00000000	      0.00000000	     -0.06564086	     -2.10232492	      0.03397946	      0.00000000	     -0.00000000	      0.00000000
     17.03092407	      9.73020402	     14.62088970	      6.58996170	      6.43862204	      6.58704062	      7.72173576	     14.04038908	      8.55292168	      9.53729115	      5.00936031	     54.03495418	    220.40947354	    296.50588771	    880.88323976	     53.77397028	     16.36088475	     10.27544728	    669.93785073	    239.73552828	    206.86570374	     99.52485768	     95.73326698	     74.95680930	      3.99454982	    184.96501759	      7.05961795	     15.10414586	    120.96872293	     76.65671622	   1000.00949775	     16.00057983	     23.88344791	      7.82507244	   2106.34388407	    116.82854113	     20.55836825	    749.79274167	     26.90689439	    184.50668214	     55.02394792	      2.53477469	     -6.50371202	    -20.47343038	      9.78495331	     17.46087204	      0.89879048	      0.01461194	     -0.01570503	     -0.00185686	     -0.00093848	     -0.00615004	      0.01586196	    -11.84012527	    -47.13127188	     16.52578421	      3.26446861	      1.77065302	     -1.38354871	    252.01775653	    852.12009379	     14.64525703	      0.18193698	     -0.02075858	     -0.00058890	      0.00000000	      5.39544538	      0.00000000	     -0.00000000	      0.00000000	     -0.00000000	     -0.31122206	     -2.09836228	     -0.23969411	      0.00000000	      0.00000000	      0.00000000
     17.04799072	      9.78611489	     38.68803507	      6.69800645	      6.60151364	      6.69934089	      8.86148722	     14.32048659	     52.36540066	     10.69382580	      5.36153392	     23.63456616	    100.95609118	    214.12421659	    610.21702733	     31.29605618	     16.54383777	     10.52218667	    192.78788967	    159.04634401	    212.01114615	     39.14240467	     69.98510501	     64.41393173	     13.87128354	    311.36951421	      7.42400791	     15.52555071	    145.05255576	    467.87802950	    280.43033168	     33.12197910	     24.48685137	      7.94824347	   1254.05507022	     78.55386063	     21.64191887	    315.68764779	     20.13211935	     60.65453167	     33.04372513	      2.26905231	     -3.10701375	    -19.91583419	      3.53878746	     14.75754199	     -0.53111737	      0.03736711	     -0.01017981	     -0.00763217	      0.02545220	     -0.00647778	      0.00695960	     -7.62437692	    -22.53914911	      7.38105461	     -0.13699986	      2.44040175	     -1.36133588	    201.49815565	    504.10459472	     19.19179113	      0.21257032	     -0.01031547	     -0.01085525	      0.00000000	      3.56557465	      0.00000000	      0.00000000	     -0.00000000	      0.00000000	     -0.55720609	     -2.02067356	     -0.56016503	      0.00000000	     -0.00000000	      0.00000000
     17.06505737	     11.05482981	     89.96842434	      6.75984230	      6.73798273	      6.71697265	     26.39472022	     15.00667350	     86.13028290	     11.48309664	      5.43772733	      6.53283667	     20.44681629	    162.96969026	    544.02308813	     16.53625575	     16.94240521	     10.72473734	     66.29091549	    129.34128219	    183.24457459	     18.17760664	     53.41139756	     47.33772089	     32.12778391	    266.35273214	      8.63485822	     17.79933342	     89.84986757	    472.61575896	     29.07832234	     34.72458890	    211.53858774	     29.19678269	    470.61564386	     37.37368173	     22.21182793	     42.46926505	     20.91739620	     63.01100086	     34.25861594	      4.58963899	      4.10644617	      4.27472751	     -3.61024404	     -5.72181299	      0.94539863	      0.03628920	     -0.00798667	     -0.00812930	      0.04659961	     -0.00419795	      0.00063459	     -5.25815372	     -2.81451590	     -0.07634639	     -2.85201542	      3.05047303	     -1.29288255	    129.32098867	    234.61338350	     10.31493368	      0.26027493	      0.02675876	     -0.01965291	      0.00000000	      3.06720459	      0.00000000	      0.00000000	     -0.00000000	      0.00000000	     -0.79801169	     -1.85060566	     -0.90897336	      0.00000000	     -0.00000000	      0.00000000
     17.08212402	     14.18932237	     92.69188238	      6.76129470	      6.80809092	      6.65798096	     35.87848561	     42.99228811	     83.59670167	     12.32741354	      5.13602304	      4.30226445	      8.97954112	    133.50267694	    210.96227350	     12.25929286	     17.49625545	     10.82827253	     18.05769983	     97.51019774	    139.08476088	      8.23141444	     41.09229943	     34.44407567	     33.42642706	    239.37469724	     12.13657230	     43.26955423	     46.39770562	    462.65669173	     30.18441052	     30.89826963	    385.10632298	     52.58658465	     92.76889421	     18.26922761	     21.01640923	     14.35739896	     21.91327566	     66.02269250	     35.76996225	      6.08149116	     11.00233089	     20.13196054	     -4.03447965	    -17.30189526	      1.04830592	      0.03390509	     -0.00699683	     -0.00762904	      0.04930492	     -0.00124276	     -0.00053235	     -2.82544499	      4.47895047	      0.37555696	     -5.99444111	      3.72814168	     -1.51477246	     65.47522300	     63.02528824	     -1.89214341	      0.30544788	      0.09362685	     -0.03742039	      0.00000000	      3.65022842	      0.00000000	     -0.00000000	      0.00000000	     -0.00000000	     -1.02766626	     -1.56669892	     -1.26537328	      0.00000000	      0.00000000	      0.00000000
     17.09919067	     29.87657596	    130.74814281	      6.71738866	      6.80289218	      6.57218302	     40.09584434	     13.90507889	     67.42882641	     62.61925486	      8.93534967	      3.95445859	      8.16977941	     45.24671012	     18.16086573	     12.35841762	     18.10895997	     10.82364570	     17.51762049	     32.09258835	     62.65233610	      7.11266451	     28.20935802	     21.25240777	     28.73441642	    322.29207890	      9.79638139	     22.69553071	     15.14956588	    546.35991115	     31.50964534	     27.59122858	    116.94028976	     20.23929524	     33.11610580	     19.02837979	    150.76386869	     14.03827420	     22.95646675	     69.18974172	     37.33223754	     28.73538265	      1.42880923	     11.17799084	     28.93213618	     -6.61386685	     -1.84469314	      0.03835605	     -0.00755632	     -0.00616556	      0.04205987	      0.00556034	     -0.00094995	      0.35241753	     -0.23823973	      8.01279987	    -10.39310847	      4.52320419	     -2.06211778	      0.00000752	      0.00000469	     -0.00000066	     -0.58202759	     -1.62639446	     -0.94661789	      0.00000000	      0.00000056	      0.00000000	      0.00000000	     -0.00000000	      0.00000000	     -1.23301667	     -1.15079229	     -1.59434638	      0.00000000	     -0.00000000	      0.00000000
     17.11625732	     38.47908925	    108.27012052	      6.76733502	      6.76704956	      9.97474783	     34.56228841	     37.71322615	     38.92942287	     65.92472559	      8.79139983	      4.05631248	      8.39910828	     11.90723394	     23.23352204	     12.49285960	     18.59082603	     10.73919627	     17.11607525	      9.39521353	     17.23515261	      6.28684789	      6.89276292	      6.49752966	     19.63073776	    136.30616544	      9.92184318	     22.08994943	      0.69495963	    282.84724501	     32.38145809	     13.39157707	    197.40038352	     33.06895951	     40.12397827	      5.57837845	    144.05468803	     14.61030607	     23.90142942	     72.08746512	     38.72947889	     -7.71644270	     -8.36114847	     -5.33981566	     -1.18503619	      5.08599484	     -0.14764638	      0.01776302	     -0.00159941	     -0.00304444	      0.02484691	      0.00840707	     -0.00134377	    -11.63358422	    -11.30203780	     18.08541337	     -9.55723980	      4.94574902	     -2.65121019	     -0.00000000	     -0.00000000	      0.00000000	     -0.26744400	     -1.83507324	     -0.63476872	      0.00000000	     -0.00000000	      0.00000000	     -0.00000000	      0.00000000	     -0.00000000	     -1.38699962	     -0.61236353	     -1.84463658	      0.00000000	      0.00000000	      0.00000000
     17.13332397	     82.61067791	    183.08691663	     29.82653473	     14.00187481	     44.08263430	     52.41194290	    101.57842670	     20.93371791	     88.75807737	     10.78193161	      4.29326940	      9.04461294	     13.97932588	     26.45355408	     16.74138740	     18.92318054	     57.74107359	     16.36568585	      8.42151163	     10.72999728	      5.92828766	      5.70576746	      3.46173992	     18.58605909	     15.68356825	     11.52086340	     35.35574088	      0.49832489	     51.47887144	     32.53088854	      4.20235702	    243.30944295	     46.33570049	     50.74778408	      5.26476499	    160.69468692	     15.75494313	     24.71993258	     74.62667098	     39.92497725	    -50.52106676	      4.34663315	    -23.43294506	    -49.78522044	     10.28129225	      5.95850831	      0.00043195	      0.00715556	     -0.00136552	      0.01333831	      0.01631360	     -0.00284580	    -43.67507982	    -18.45712046	     26.99885240	     -0.66398480	      4.76192043	     -3.05384047	      0.00000000	      0.00000000	     -0.00000000	      0.00311229	     -1.93480223	     -0.26601681	      0.00000000	      0.00000000	      0.00000000	      0.00000000	     -0.00000000	      0.00000000	     -1.45315909	     -0.01295420	     -1.97628518	      0.00000000	     -0.00000000	      0.00000000
