PassiveFiberForce
version=1
nRows=51
nColumns=5
inDegrees=no

This analysis gathers basic information about muscles during a simulation (e.g., forces, tendon lengths, moment arms, etc).
Units are S.I. units (second, meters, Newtons, ...)
If the header above contains a line with 'inDegrees', this indicates whether rotational values are in degrees (yes) or radians (no).

endheader
time	recfem_r	vaslat_r	vasint_r	vasmed_r
     16.27999149	    120.04094429	    130.33515241	     47.00077007	     78.39615577
     16.29705814	    109.30428706	    116.24029118	     41.79529584	     70.39672294
     16.31412479	    101.03988957	    106.26950737	     38.11646166	     64.67889442
     16.33119144	     97.15317272	    101.56490135	     36.34848505	     61.89389443
     16.34825809	     98.87227751	    102.25338972	     36.53669893	     62.15328662
     16.36532474	    107.10435894	    108.05688036	     38.58807499	     65.32246541
     16.38239139	    123.32905384	    118.92279999	     42.49530401	     71.36254359
     16.39945804	    150.80056558	    135.53337283	     48.54572511	     80.64801785
     16.41652469	    195.77792977	    159.54413622	     57.44907085	     94.14463197
     16.43359134	    268.01145817	    193.27525533	     70.26026841	    113.22511751
     16.45065799	    379.43926973	    239.29293897	     88.29943942	    139.48292883
     16.46772464	    544.32463351	    301.56959691	    113.72603886	    175.60991890
     16.48479129	    755.65998720	    377.39591964	    146.38465601	    220.60982847
     16.50185793	    968.93971966	    457.13172267	    183.00800039	    269.28879134
     16.51892458	   1130.52451378	    531.34931520	    219.59350098	    316.19301867
     16.53599123	   1202.63491446	    592.93889001	    251.82937284	    356.03864750
     16.55305788	   1177.04390634	    641.24753835	    276.11767314	    384.96155874
     16.57012453	   1078.01282774	    673.93384827	    291.52348261	    403.12112283
     16.58719118	    937.21916412	    688.01517575	    297.98482826	    410.94798660
     16.60425783	    781.79965336	    682.20715974	    295.47395243	    407.82206959
     16.62132448	    631.44709356	    658.55507408	    284.77266467	    394.86159659
     16.63839113	    497.02242350	    620.67272335	    266.57747148	    373.41752710
     16.65545778	    381.30418480	    571.12814177	    241.23281427	    342.69826060
     16.67252443	    283.72594431	    510.33911383	    209.94087233	    303.49834328
     16.68959108	    203.74956259	    439.13955338	    175.58204389	    259.06031103
     16.70665773	    140.35771048	    363.09838160	    141.14970793	    213.05013332
     16.72372438	     93.03965613	    289.31494986	    109.62101770	    169.51655304
     16.74079103	     61.11575109	    226.00032687	     83.84401750	    132.90751600
     16.75785768	     40.81197437	    175.07870607	     63.98090947	    103.93877994
     16.77492433	     28.25101810	    135.12552827	     48.92025365	     81.35740621
     16.79199098	     21.44822452	    107.46100030	     38.71306774	     65.68229111
     16.80905763	     18.65936940	     91.92872153	     32.95908986	     56.65672820
     16.82612428	     18.76101132	     87.55353753	     31.23266831	     53.85583930
     16.84319093	     21.10753490	     93.26378993	     33.18513127	     56.84130383
     16.86025758	     25.38732165	    108.28162672	     38.53977751	     65.17763350
     16.87732423	     31.56529904	    131.59560508	     47.00517180	     78.25994101
     16.89439088	     39.55309109	    160.20141931	     57.66908155	     94.47205807
     16.91145753	     48.87622308	    187.73709289	     68.22655950	    110.22152811
     16.92852417	     58.98030206	    206.72239973	     75.69924935	    121.18769327
     16.94559082	     69.49387713	    212.47828715	     78.07168716	    124.62986018
     16.96265747	     80.04074537	    204.63622444	     75.10413564	    120.29700949
     16.97972412	     89.93747575	    186.58493911	     68.17939648	    110.14236980
     16.99679077	     97.82112765	    163.26841222	     59.32340312	     97.00564603
     17.01385742	    102.24898394	    139.62635448	     50.47280725	     83.68695811
     17.03092407	    102.76182565	    119.19989581	     42.93110823	     72.16702009
     17.04799072	    100.51091347	    103.65697709	     37.22895072	     63.32976349
     17.06505737	     98.08017552	     93.41385709	     33.45096977	     57.39812261
     17.08212402	     98.61866322	     88.34204918	     31.54283399	     54.36024392
     17.09919067	    104.81772968	     88.00633850	     31.36475588	     54.04012370
     17.11625732	    118.11638374	     91.59680494	     32.62896138	     56.00081931
     17.13332397	    137.76937256	     97.69950840	     34.81246623	     59.41077949
