MomentArm_knee_angle_r
version=1
nRows=51
nColumns=5
inDegrees=no

This analysis gathers basic information about muscles during a simulation (e.g., forces, tendon lengths, moment arms, etc).
Units are S.I. units (second, meters, Newtons, ...)
If the header above contains a line with 'inDegrees', this indicates whether rotational values are in degrees (yes) or radians (no).

endheader
time	recfem_r	vaslat_r	vasint_r	vasmed_r
    142.88000000	     -0.04959343	     -0.04421220	     -0.04711908	     -0.04632335
    142.89576000	     -0.04919384	     -0.04475916	     -0.04652444	     -0.04594130
    142.91152000	     -0.04876075	     -0.04511026	     -0.04577817	     -0.04535239
    142.92728000	     -0.04822598	     -0.04516615	     -0.04479616	     -0.04445096
    142.94304000	     -0.04739218	     -0.04461225	     -0.04341906	     -0.04301986
    142.95880000	     -0.04589969	     -0.04294654	     -0.04140918	     -0.04075620
    142.97456000	     -0.04430695	     -0.04077076	     -0.03955442	     -0.03850630
    142.99032000	     -0.04186674	     -0.03763051	     -0.03722138	     -0.03576906
    143.00608000	     -0.03823466	     -0.03340908	     -0.03386158	     -0.03205035
    143.02184000	     -0.03660733	     -0.03130938	     -0.03260081	     -0.03060165
    143.03760000	     -0.03284550	     -0.02726326	     -0.02934803	     -0.02721243
    143.05336000	     -0.02874768	     -0.02307584	     -0.02579414	     -0.02363827
    143.06912000	     -0.02577695	     -0.02013108	     -0.02327978	     -0.02116129
    143.08488000	     -0.02389862	     -0.01943219	     -0.02169354	     -0.01960676
    143.10064000	     -0.02273606	     -0.01960063	     -0.02065017	     -0.01858673
    143.11640000	     -0.02223172	     -0.01964770	     -0.02011584	     -0.01806516
    143.13216000	     -0.02226611	     -0.01965467	     -0.02000519	     -0.01795722
    143.14792000	     -0.02273110	     -0.01963901	     -0.02023718	     -0.01818355
    143.16368000	     -0.02357539	     -0.01958591	     -0.02077719	     -0.01871079
    143.17944000	     -0.02477370	     -0.01944989	     -0.02161069	     -0.01952568
    143.19520000	     -0.02628544	     -0.01946076	     -0.02270752	     -0.02060024
    143.21096000	     -0.02823069	     -0.02122153	     -0.02421069	     -0.02207539
    143.22672000	     -0.03077953	     -0.02370595	     -0.02633229	     -0.02417239
    143.24248000	     -0.03388594	     -0.02692896	     -0.02906675	     -0.02692531
    143.25824000	     -0.03705398	     -0.03040936	     -0.03194002	     -0.02989598
    143.27400000	     -0.03847379	     -0.03230730	     -0.03315713	     -0.03124276
    143.28976000	     -0.04029009	     -0.03475696	     -0.03490436	     -0.03320292
    143.30552000	     -0.04305499	     -0.03832031	     -0.03775651	     -0.03637755
    143.32128000	     -0.04460244	     -0.04065868	     -0.03947375	     -0.03840735
    143.33704000	     -0.04552543	     -0.04212878	     -0.04063226	     -0.03982959
    143.35280000	     -0.04609775	     -0.04292171	     -0.04138391	     -0.04072657
    143.36856000	     -0.04614370	     -0.04297834	     -0.04144173	     -0.04079431
    143.38432000	     -0.04561967	     -0.04225588	     -0.04074572	     -0.03996687
    143.40008000	     -0.04469944	     -0.04078930	     -0.03956786	     -0.03852280
    143.41584000	     -0.04320430	     -0.03848682	     -0.03788383	     -0.03652369
    143.43160000	     -0.04072483	     -0.03526248	     -0.03531106	     -0.03365039
    143.44736000	     -0.03892353	     -0.03296465	     -0.03354428	     -0.03169500
    143.46312000	     -0.03839942	     -0.03218662	     -0.03311265	     -0.03118340
    143.47888000	     -0.03817765	     -0.03187056	     -0.03295581	     -0.03099589
    143.49464000	     -0.03814441	     -0.03185430	     -0.03294660	     -0.03098533
    143.51040000	     -0.03822873	     -0.03203386	     -0.03304287	     -0.03109759
    143.52616000	     -0.03829596	     -0.03224938	     -0.03313667	     -0.03121494
    143.54192000	     -0.03836285	     -0.03249829	     -0.03324945	     -0.03135634
    143.55768000	     -0.03855308	     -0.03288915	     -0.03349299	     -0.03163699
    143.57344000	     -0.03889184	     -0.03343104	     -0.03387778	     -0.03206838
    143.58920000	     -0.03935563	     -0.03408438	     -0.03437401	     -0.03261825
    143.60496000	     -0.03984360	     -0.03473130	     -0.03488387	     -0.03318037
    143.62072000	     -0.04020401	     -0.03520374	     -0.03526353	     -0.03359812
    143.63648000	     -0.04031160	     -0.03536704	     -0.03539584	     -0.03374362
    143.65224000	     -0.04014632	     -0.03520765	     -0.03526669	     -0.03360160
    143.66800000	     -0.03981657	     -0.03485822	     -0.03498536	     -0.03329209
