TendonLength
version=1
nRows=51
nColumns=5
inDegrees=no

This analysis gathers basic information about muscles during a simulation (e.g., forces, tendon lengths, moment arms, etc).
Units are S.I. units (second, meters, Newtons, ...)
If the header above contains a line with 'inDegrees', this indicates whether rotational values are in degrees (yes) or radians (no).

endheader
time	recfem_r	vaslat_r	vasint_r	vasmed_r
    142.88000000	      0.45839085	      0.22828115	      0.20855495	      0.20670216
    142.89576000	      0.45839085	      0.22828115	      0.20855495	      0.20670216
    142.91152000	      0.45839085	      0.22828115	      0.20855495	      0.20670216
    142.92728000	      0.45839085	      0.22828115	      0.20855495	      0.20670216
    142.94304000	      0.45839085	      0.22828115	      0.20855495	      0.20670216
    142.95880000	      0.45839085	      0.22828115	      0.20855495	      0.20670216
    142.97456000	      0.45839085	      0.22828115	      0.20855495	      0.20670216
    142.99032000	      0.45839085	      0.22828115	      0.20855495	      0.20670216
    143.00608000	      0.45839085	      0.22828115	      0.20855495	      0.20670216
    143.02184000	      0.45839085	      0.22828115	      0.20855495	      0.20670216
    143.03760000	      0.45839085	      0.22828115	      0.20855495	      0.20670216
    143.05336000	      0.45839085	      0.22828115	      0.20855495	      0.20670216
    143.06912000	      0.45839085	      0.22828115	      0.20855495	      0.20670216
    143.08488000	      0.45839085	      0.22828115	      0.20855495	      0.20670216
    143.10064000	      0.45839085	      0.22828115	      0.20855495	      0.20670216
    143.11640000	      0.45839085	      0.22828115	      0.20855495	      0.20670216
    143.13216000	      0.45839085	      0.22828115	      0.20855495	      0.20670216
    143.14792000	      0.45839085	      0.22828115	      0.20855495	      0.20670216
    143.16368000	      0.45839085	      0.22828115	      0.20855495	      0.20670216
    143.17944000	      0.45839085	      0.22828115	      0.20855495	      0.20670216
    143.19520000	      0.45839085	      0.22828115	      0.20855495	      0.20670216
    143.21096000	      0.45839085	      0.22828115	      0.20855495	      0.20670216
    143.22672000	      0.45839085	      0.22828115	      0.20855495	      0.20670216
    143.24248000	      0.45839085	      0.22828115	      0.20855495	      0.20670216
    143.25824000	      0.45839085	      0.22828115	      0.20855495	      0.20670216
    143.27400000	      0.45839085	      0.22828115	      0.20855495	      0.20670216
    143.28976000	      0.45839085	      0.22828115	      0.20855495	      0.20670216
    143.30552000	      0.45839085	      0.22828115	      0.20855495	      0.20670216
    143.32128000	      0.45839085	      0.22828115	      0.20855495	      0.20670216
    143.33704000	      0.45839085	      0.22828115	      0.20855495	      0.20670216
    143.35280000	      0.45839085	      0.22828115	      0.20855495	      0.20670216
    143.36856000	      0.45839085	      0.22828115	      0.20855495	      0.20670216
    143.38432000	      0.45839085	      0.22828115	      0.20855495	      0.20670216
    143.40008000	      0.45839085	      0.22828115	      0.20855495	      0.20670216
    143.41584000	      0.45839085	      0.22828115	      0.20855495	      0.20670216
    143.43160000	      0.45839085	      0.22828115	      0.20855495	      0.20670216
    143.44736000	      0.45839085	      0.22828115	      0.20855495	      0.20670216
    143.46312000	      0.45839085	      0.22828115	      0.20855495	      0.20670216
    143.47888000	      0.45839085	      0.22828115	      0.20855495	      0.20670216
    143.49464000	      0.45839085	      0.22828115	      0.20855495	      0.20670216
    143.51040000	      0.45839085	      0.22828115	      0.20855495	      0.20670216
    143.52616000	      0.45839085	      0.22828115	      0.20855495	      0.20670216
    143.54192000	      0.45839085	      0.22828115	      0.20855495	      0.20670216
    143.55768000	      0.45839085	      0.22828115	      0.20855495	      0.20670216
    143.57344000	      0.45839085	      0.22828115	      0.20855495	      0.20670216
    143.58920000	      0.45839085	      0.22828115	      0.20855495	      0.20670216
    143.60496000	      0.45839085	      0.22828115	      0.20855495	      0.20670216
    143.62072000	      0.45839085	      0.22828115	      0.20855495	      0.20670216
    143.63648000	      0.45839085	      0.22828115	      0.20855495	      0.20670216
    143.65224000	      0.45839085	      0.22828115	      0.20855495	      0.20670216
    143.66800000	      0.45839085	      0.22828115	      0.20855495	      0.20670216
