Inverse Dynamics Generalized Forces
inDegrees=no
nColumns=21
nRows=51
DataType=double
version=3
OpenSimVersion=4.5.2-2025-05-03-6a4c6ec41
endheader
time	pelvis_tilt_moment	pelvis_list_moment	pelvis_rotation_moment	pelvis_tx_force	pelvis_ty_force	pelvis_tz_force	hip_flexion_r_moment	hip_adduction_r_moment	hip_rotation_r_moment	hip_flexion_l_moment	hip_adduction_l_moment	hip_rotation_l_moment	knee_angle_r_moment	knee_angle_r_beta_force	knee_angle_l_moment	knee_angle_l_beta_force	ankle_angle_r_moment	ankle_angle_l_moment	subtalar_angle_r_moment	subtalar_angle_l_moment
15.91879051	6.702949792237281	-11.82514738993946	0.8131728905447211	4.337003883258616	86.00477388340019	34.95265344011059	45.88999619624055	-46.01181893475271	4.85506683649705	-30.27113077805638	-24.64568875340196	34.47433247976853	-22.15205516377247	-0.1036013878881186	5.710752515908823	0.05370656981299822	-27.58555501619424	2.402650980461876	9.131256479058875	-2.737530483769365
15.93759048999999	-4.613837167304896	-1.221187231839185	1.506272461370701	0.009715074982462713	18.89736424073208	1.304001854895081	69.80855602891688	-3.013134658040618	-2.848624000443383	-72.38023574243044	-6.069065983437228	31.74692727107682	-13.20100595468609	-0.0870716394296374	16.79182686069506	0.07240921688446833	-12.14057517452407	0.9110503664104102	4.605305895383602	-2.170906831454657
15.95639046999999	-4.771223607885534	4.081074072889168	-1.187202922811002	-2.484341869173003	-25.76976898822198	-12.32269515033429	82.87415139562098	24.25631617482288	-5.488965497626518	-91.09815013881223	11.85340477993356	24.14159080865458	-10.62806470482371	-0.06591767358964241	28.00446407725607	0.06852264442001341	-1.306229225407493	-0.01267808550017896	1.300987776139877	-1.436932417031312
15.97519044999999	-0.5970250190702543	3.83622469170139	-3.146645542397382	-3.320186871245812	-25.12465266799295	-8.537410926151653	83.38829621044449	32.40380329028125	-4.080371967139049	-90.21138542567807	23.76471614729592	14.19230341734867	-10.9264564081123	-0.0464446707116874	38.36300012908724	0.04556824940117627	3.508939423152737	-0.7596316994075585	-0.311777005633219	-0.3777208530116457
15.99399042999999	1.22207430618068	0.3909925884458742	-2.070536361807412	-3.239606462123197	-4.035048256305815	1.081266695750083	77.070695965993	26.68481719868821	-1.534945274429063	-83.42772131653486	26.94719525435767	6.238801979482632	-11.43399598156996	-0.03450607525315416	46.87836274656952	0.01867211704324235	3.663561586909932	-1.764385794464223	-0.5740388319528731	0.8267992486160324
16.01279040999998	0.1263713479410717	-2.541222702860049	0.5010527012420597	-1.694875028804268	-1.050452965905862	5.691881839214409	70.91158386635757	17.10208204528391	-0.5284311945103056	-79.88496523879901	23.56631463331711	2.787266356526078	-11.35445089980877	-0.03108840765419815	52.60835208724569	0.002548130402133613	2.140734661172126	-2.512856570543765	-0.3199261461440575	1.24977966448122
16.03159038999998	-0.3709748822051476	-2.859883319480691	1.935235197913461	1.597754838397091	-12.63588591390761	3.964283456141927	66.72903420432294	10.66914934727426	-1.858881647994341	-76.71134502153728	18.34519680981898	2.983562971093665	-10.27227099354121	-0.03318785184033684	54.78729811017809	0.0003076484536707755	1.109202491282195	-1.507261849029662	-0.1659270083739038	-0.2783907256228192
16.05039036999998	1.171765492488688	-1.273386008337557	1.598056090029865	3.781127730048292	-3.31359568247455	1.401446686724068	62.69619518155844	8.438224993802287	-4.516356815681291	-68.38915416437257	13.73639236924085	4.75246732917869	-8.034444021876526	-0.03742443510728036	51.88496400863803	0.003525584499378934	1.059865052236236	1.569637934067703	-0.2637870865219211	-3.076337599332937
16.06919034999997	2.223594309092087	0.5369602079716174	0.6215338108131183	1.46988044950116	31.48695608505352	0.8414376064210137	58.40566650324366	8.65271745806939	-6.908753939605512	-58.36022355250562	6.904888429814705	7.692676830933217	-5.621885834994658	-0.04245243340101855	38.92265694266037	0.001084481545127404	1.600638374784788	2.933885150739688	-0.5138581544566556	-2.598371182676281
16.08799032999997	0.691702574100685	1.617080648937933	-0.2115214352935543	-3.544845790029908	48.11344952995042	0.05280232074047894	55.84663717292105	10.17136823543962	-7.918586858479088	-55.76922257115863	-7.274931882538916	13.157334536292	-4.743983953997382	-0.0486127155396427	7.727412181537405	-0.01155843581716061	2.298174035975598	-4.896556130503205	-0.7874836369510374	7.827541902728511
16.10679030999997	-1.517479423152211	1.561004657946168	-1.028906850712833	-5.491082007085758	18.60815160983729	-1.824396317693485	55.98927841385639	12.12886005298866	-7.167879947750794	-62.1541260743179	-29.72637603428958	21.93937619955729	-6.207551972363004	-0.05555228129322632	-46.24676831465934	-0.02893224338660655	2.87641214950425	-27.58930806595336	-0.9865814709061127	31.27786830669415
16.12559028999997	-1.401528320479523	0.3319421726833116	-1.698386853367063	-2.201194425715055	-22.85023299356815	-1.687121469297127	56.20828709024739	12.11655650461293	-4.850823041117808	-67.55302913894781	-55.78694178157441	33.16897464208946	-9.002319406849143	-0.06011941787868723	-117.6691822196689	-0.04011537934491899	3.132940445168386	-63.31690431165901	-1.034477656645099	63.62227976358349
16.14439026999996	0.6216526781333032	-0.9959785870769152	-1.474555030468524	2.345906264360661	-28.11485285955041	1.41584266983291	52.00114893845944	6.757736147220935	-1.578297277404544	-61.36752397626285	-81.00203326848052	45.52619848526373	-11.1662884759269	-0.05719851017034853	-194.1669106805969	-0.0381940611804884	2.956488476480052	-103.5312421729871	-0.8959369582772748	96.59019595107031
16.16319024999996	1.601500043145054	-0.6698955849722977	-0.1418061240648207	3.516385440541131	-0.1128745716879463	3.027129125673168	41.24813433284125	-5.370071725898118	1.860791607987071	-42.72799616210633	-104.9750108864919	57.8095003388729	-11.44031521665145	-0.04367689801466606	-263.3403634714899	-0.02671396771313727	2.433890509849703	-139.3637824084685	-0.6287984407574746	123.5070066973548
16.18199022999996	0.3190783269496731	1.307876371025332	1.32847155397108	0.9712432370308248	20.97699186692196	-0.08870798783740386	26.62607007997012	-21.5738545150937	4.947241581169664	-18.9789186317528	-127.4110852203813	67.6319559538517	-10.00991104544345	-0.02196181986414264	-314.5051583142483	-0.01700707392074649	1.855113184253743	-166.5543364224439	-0.398409556115764	141.587101041295
16.20079020999995	-1.496108558966259	2.224663697279654	1.721951759813798	-2.200570269947765	14.38402550899684	-3.962521084373522	13.80517917025098	-35.73901910666532	7.643608036017754	1.90045152838458	-143.3852655304125	71.30111228530752	-7.831169520999445	0.0008194523257688772	-337.0137457477229	-0.01898798636711947	1.541648206278271	-184.9255994695397	-0.3940369020684704	150.6120889832709
16.21959018999995	-1.750260053952903	-0.1210544064806305	0.7877224462370049	-3.171310290740458	-4.794505494660895	-2.434962529285039	7.082375474086224	-41.36228660197693	9.894163172103763	15.60521833241618	-145.8749871171426	66.53126357229286	-5.502337812659079	0.017521574997153	-322.6832445734856	-0.03426577490505858	1.618858746294815	-194.9712082160189	-0.6777805729449378	151.1480798490757
16.23839016999995	-0.2853509523136977	-3.813139857527028	-0.760352432108805	-1.595058428051143	-14.2680354149512	3.78767346011603	6.260456733892953	-34.97390273800247	10.90011938209888	21.49436300035892	-132.2410535137255	54.82091689553796	-2.824241759267973	0.02541912067209968	-272.0304545545753	-0.05697396861163578	1.924831919892538	-195.7775371937984	-1.092871201683968	143.7172774080199
16.25719014999995	1.429817259153499	-4.478856096043768	-1.991418568569357	0.852202348024517	-9.082869965800439	7.373864479959376	7.251663423942198	-18.10073690305249	9.365693741245584	21.54342854079189	-106.2250408760374	40.33230307880689	0.7033785761022605	0.02696752089602585	-197.2610110826095	-0.07925133227051726	2.140800778010927	-185.5998489026708	-1.34588160311381	128.778031593048
16.27599012999994	1.986440796039236	-0.8759170068600602	-2.138378930915942	2.299157790051372	1.345136458800667	3.863872384192206	5.497536813109527	3.138510185046083	4.995255386750802	19.41958758164357	-74.24864640958747	26.74177477347909	5.078087433573465	0.02699559788830994	-117.9800161328707	-0.0951263838817437	2.038349874657594	-163.7971741711249	-1.230409112293894	107.3556410733371
16.29479010999994	1.008089870874887	3.03172370235927	-0.8321976537439211	1.919126124329536	7.371517088924186	-2.495460481042719	-0.9750031960311443	20.71487351000096	-0.308214527349743	18.80844039778901	-41.98707198585968	15.65818184460908	9.520444450943767	0.0289956237820558	-52.41727453797398	-0.101158565776289	1.642307493047951	-132.4362433906279	-0.8048895638784302	81.83851208972062
16.31359008999994	-0.9812667690614651	2.864401981670632	1.21339680697735	0.08125507565660556	5.987866940458104	-4.350408786321918	-11.07880189080279	28.79187181004626	-3.403369489816741	21.37720910512196	-14.50513273679672	7.422292298542126	13.06269792758164	0.03312676107875701	-10.18123116357803	-0.0965623173758212	1.196872726580847	-96.43006427976958	-0.3501906236870032	55.9204889893069
16.33239006999993	-2.648008182338138	-0.5607155183428459	2.131035208899785	-1.615760666306484	0.2941215363595165	-0.6162527360225556	-22.23895850512868	27.32165242758196	-2.630955979502401	26.53712329905325	3.583155278554044	2.155478654923505	15.50547569255253	0.0367361481971504	9.177236519985724	-0.08387201345890354	0.9858131167231692	-61.83915128885603	-0.1331599182733867	33.3395163472043
16.35119004999993	-2.03959877137624	-2.463999365635231	0.7172964822379448	-0.9022567694191914	-2.96991286074704	2.826736883455928	-32.29258559685704	22.1667436271151	0.5307006848421399	33.34095087500057	11.1008360168694	-0.3244021161528519	17.84255696113404	0.03645143759671712	12.27228701244778	-0.06821852975479008	1.117104876072965	-33.40462982735815	-0.1923075965348733	16.44857605955977
16.36999002999993	1.349176707145664	-0.6444842440611009	-1.633645532309419	2.43146620431766	1.087723585541442	1.569237847058171	-40.86735296482247	20.25109764625031	2.939659889567895	41.42736922402593	12.53943618406641	-0.8102602965228232	21.72340011597551	0.03043486243581679	7.042086010416483	-0.05447112656022109	1.352123464568134	-13.35041054949145	-0.3327755221066314	5.798976688653218
16.38879000999993	4.366191854185028	1.595999595040706	-2.165039950794552	4.647071024256373	8.283854751159913	-1.452395072284086	-49.65748104751633	23.20168368294938	2.888554883939544	49.77631643199429	14.15559434704522	-0.2594125183733478	28.35924688408695	0.01982361654752367	0.01061773620666329	-0.04444813648078719	1.114661754900244	-1.854893387541449	-0.3066215303936236	0.5951259397477148
16.40758998999992	2.982784382812065	0.1669286973162277	-0.3406377179637702	2.229984060802845	7.25109451478829	-0.4803017170379687	-60.41691366140724	26.38299324190294	1.342160689689469	56.55575494598944	17.05547054701945	0.7974685409794675	37.61583995807732	0.008521759099212147	-5.134288450462843	-0.03679321015585354	-0.08953496719714184	2.470444955671219	-0.01348519954029359	-0.8199897118778827
16.42638996999992	-1.648351841478528	-3.601481945736441	1.264001604578874	-2.210926297327577	-5.458373848697612	4.143443912443834	-71.42488980051732	25.37268369057553	0.1910824546024763	60.9747608311798	16.30816099608179	2.156546524175896	47.74374670287496	0.0007904160110171205	-8.035182867854266	-0.02969164009104056	-1.883316781829558	2.452976874635141	0.3824147865726155	-0.4980529020926925
16.44518994999992	-3.24876790048066	-3.607882308685434	0.4940055995105532	-2.424898303210113	-15.21073685118971	4.823798518699581	-77.09292990438337	21.70938409311767	0.1001113221452368	63.57733388909093	8.147663442753696	3.422564679375875	55.70683096465838	-0.002158144217722457	-9.958749305084547	-0.02388666168612623	-2.689540631539289	1.269890418612104	0.4633721178503709	-0.1009119729676608
16.46398992999992	1.33525498545929	3.075862407039727	-1.405567585626987	2.597919303100396	-5.024562769878508	-3.30175515268289	-73.80889316466651	18.49366878714087	0.7052551043357707	64.53643464720157	-3.50228516426806	3.779201972573146	57.6507055476627	-0.003395671540910723	-11.26658467421708	-0.02300683054672491	-1.087550480675855	0.8284535981152999	-0.1275694509543729	-0.2646993000956752
16.48278990999991	6.610005158587324	10.2422102571665	-1.733437308080626	6.200406234468272	17.47173689433404	-12.97772342948648	-65.80233308936481	11.01633538615079	2.390373501654018	63.2828751026918	-9.536880632972782	2.404847166899144	49.10195902635682	-0.007272608056418951	-11.10377392479164	-0.03054169780189098	1.416433605577041	1.372310088122088	-0.9474459495402656	-0.757699139526866
16.50158988999991	4.879142391502962	8.202823993450899	-0.1687780046300295	2.546139662537938	25.16605420106206	-11.00037857652879	-61.07862484102656	-10.85086383092727	6.422711008063893	59.85989031702108	-4.462649419760155	-0.6646955561621135	25.43386665845649	-0.01449657446421797	-9.067680834128533	-0.04599187148257723	-0.7637831693494475	2.339662483964859	-0.1562735596741809	-1.156058503535007
16.52038986999991	-2.763138126597213	-3.27748651243446	1.132634689322878	-4.90302713881968	9.669960962964536	4.115269916167408	-60.87012843443327	-47.10981553280328	12.68888428824834	55.42483966105797	8.612218390977317	-4.183455354905514	-16.08411446590732	-0.02065793147810636	-6.206487447592556	-0.06389336067214973	-13.97741269715245	3.190970074573626	4.882424013765834	-1.297385678656848
16.5391898499999	-7.035278039518762	-12.24552944285666	0.8190123284636356	-7.094342339625187	-6.748220624213177	16.88744020676711	-58.37724608299416	-81.8309322877885	18.63496837313925	51.10505529829493	21.59885631273243	-6.671925903341807	-72.90230195410838	-0.02083258463216848	-4.278134098488064	-0.07692568126032347	-39.74467936287986	3.654600391314397	15.830469132765	-1.250892573430991
16.5579898299999	-2.832438094804479	-8.452688611637624	-0.1095815188960478	-1.10349205555044	-6.043701458818634	12.62421302760937	-49.09988573727997	-99.70381278320107	21.95963592332015	46.81124432433668	28.22316411686582	-7.793145363542309	-135.6458890518535	-0.01614180986633543	-4.302850872264966	-0.08018781833056138	-72.76191475052713	3.675344297222483	32.08593992514689	-1.094959638929892
16.5767898099999	4.51456624015797	3.853778382520955	-0.2176429792632347	6.256709225701121	2.623761942778098	-4.275996003395606	-36.26541110242411	-103.5906386001959	23.66591542576143	41.29362625811072	26.53549799199316	-8.193946623117963	-191.0024094026703	-0.01469380579472129	-5.708435098258779	-0.07273052190680367	-104.7507543828345	3.342784110212719	51.19652046736958	-0.8423933885538192
16.5955897899999	6.91959553404708	11.4216406330755	0.3837070932961628	7.332117824080655	4.05375236923902	-15.86849351952818	-24.41485800679659	-109.652469153478	26.83159098565261	33.15163615739797	16.87277697989145	-7.83250486784015	-227.1046222769952	-0.02463516069432856	-6.652637308078238	-0.05599628812092766	-130.1331341268859	2.81969006938011	70.14201380518028	-0.5396881590279774
16.61438976999989	2.77345329207864	7.453016355809059	0.6108240178778188	2.005269734600313	-0.8128535035289783	-11.54057118662957	-13.2910071642827	-128.2567182850786	32.35295015453186	21.90191438193257	0.3462952655503635	-5.248044474118631	-237.4340890456186	-0.04635941651355059	-5.354650028523359	-0.03217389140776526	-148.3075128056339	2.254367428916489	86.06076510702054	-0.331036210996317
16.63318974999989	-3.13979290117656	-2.586994764945096	0.04739246262435992	-4.095350854292291	-3.760211668008218	2.278360848048953	-0.1676443403515231	-153.9736086745179	36.99386887796133	8.514730601662777	-19.99571479963623	0.7836217333203206	-221.9482978152247	-0.07232218861676076	-1.498324436771808	-0.004362460247244511	-161.2493249484516	1.732608994857042	96.38351211335093	-0.3636223172488425
16.65198972999989	-5.657965643298809	-8.785969314002134	-0.7542422308886625	-6.329720579123895	-4.106313057685761	11.7352303428564	15.38810468866722	-171.8272121796023	36.03500930346297	-4.881353163241632	-38.34752337765347	9.090879759072612	-186.332858582167	-0.09382967773620748	3.509416929744481	0.02278905521228329	-169.4531722906987	1.298192688155981	99.20741785099325	-0.6413626795617363
16.67078970999988	-3.631470976124584	-6.506089207304049	-1.169588779672582	-4.247697457865494	-3.714311802524324	9.625724182595535	30.79018272565266	-169.4603297837905	27.60446261551595	-16.0928010522192	-48.43172190511273	16.24635767460585	-139.849433448958	-0.1068289194967407	7.685026877934919	0.04408984354497218	-170.2523268660222	0.9900537501196239	93.97706687899024	-1.001587896789234
16.68958968999988	0.04902759726537348	1.135875564159154	-1.007188285475983	-0.3103576367967523	2.494548066251081	-0.2792432685886543	42.62331537366273	-144.5986621749603	14.49590146824903	-24.10095715410698	-47.23758929869511	19.11226850174188	-92.19485114889636	-0.1118813204867033	9.893037046776257	0.05644372799821426	-159.8796834983958	0.8395197226714796	81.73109096520231	-1.242315576585514
16.70838966999988	1.799069808398774	7.084070758296319	-0.3084688867408992	2.588681821695943	16.92963266774274	-8.451959425831703	48.55594959747489	-105.1315742736324	2.161503984635037	-29.43855216903154	-36.48845898513051	17.22159750854036	-50.77922473012939	-0.1106082948451819	10.29964240697572	0.06077811807860782	-137.0804699042795	0.8367071897597399	64.64943042969891	-1.270809820396744
16.72718964999988	1.248427372449126	5.879586831773381	0.6363935587788582	3.142376997630159	22.9911845969305	-7.387622598583527	48.31226826581098	-63.80371947664079	-5.032549133679619	-33.25125219377197	-20.8199618202946	12.8448599225777	-19.73399917362661	-0.1031325095679962	9.809798009002751	0.06094810940263445	-104.9824076857216	0.9185754185883801	45.48758573702921	-1.145193702083079
16.74598962999987	1.720178338127524	-2.086435929722948	0.9997305158185171	2.6357171825063	-3.194659365760028	2.682999192587181	43.9859987693666	-30.97891019244606	-6.231293980372746	-35.86321604890274	-5.246165917630399	9.090857593425563	-0.4899129165533828	-0.08873465506412101	9.336546753884933	0.0599964680570063	-69.84358999411543	1.010808236890795	27.27639863867332	-1.003535492522409
16.76478960999987	5.440924939847419	-9.930384382245686	0.04931196070112814	3.365474591539438	-52.50203970427386	12.8767898505999	38.92255274978822	-9.832780969828207	-3.772018165646635	-36.45953301494222	5.664864843318226	7.967638857396374	7.556562336142577	-0.06875877384162848	9.443391576164856	0.05718988765090466	-38.1406944517994	1.096484094846642	12.84685160769975	-0.9672517225789149
16.78358958999987	7.87897875039704	-9.001027001305825	-1.228204388602715	4.468595757887501	-66.94399517934106	11.65799900619298	34.89852886978042	2.973258636179019	-0.9678140000407705	-34.58192595917289	7.989477621220223	9.662910684935108	7.383616186660581	-0.04837102739013947	10.26157666738066	0.04919045257400014	-14.47222168778653	1.23417776452316	3.865304110934216	-1.082496168338473
16.80238956999986	-0.6859057435494229	3.684433227313735	0.1413526501935158	0.3239207799204884	13.89009934648585	-5.399013871586066	30.43591255532822	12.48801982722969	0.06459983214552234	-31.78948299223146	0.2724386954881819	12.89478106227264	4.302719057697702	-0.03428244051346175	11.55024364234716	0.03438268528734488	-0.9348948664889757	1.482620562220676	0.09577488700889647	-1.302258348479626
16.82118954999986	-25.95053768431703	23.40923755024998	6.571576993078303	-14.22273071402001	195.2537494838899	-32.53574711929143	23.06638108928843	21.5032339551954	-0.9199414604644571	-30.77204387929521	-14.95480715808549	15.97501666582156	3.298529973735072	-0.02989117727543826	12.94929043531066	0.0149670449868525	3.171638528159284	1.823416099058905	-0.1824953615203904	-1.52577173430071
16.83998952999986	-63.30023117870326	44.47939902027285	17.09849202045761	-37.3241621894312	432.1907210746072	-62.14593043246309	12.83995480186173	30.53725299321304	-3.037681819807992	-32.20097189513952	-33.39941004944572	18.25110514160945	5.394105743626077	-0.03254016531467234	14.28424882013749	-0.005872724998272389	1.527975955120192	2.196932643851157	1.066812601140366	-1.702028614931544
