PennationAngle
version=1
nRows=51
nColumns=5
inDegrees=no

This analysis gathers basic information about muscles during a simulation (e.g., forces, tendon lengths, moment arms, etc).
Units are S.I. units (second, meters, Newtons, ...)
If the header above contains a line with 'inDegrees', this indicates whether rotational values are in degrees (yes) or radians (no).

endheader
time	recfem_r	vaslat_r	vasint_r	vasmed_r
     15.85332544	      0.17595573	      0.23226593	      0.05710773	      0.38027635
     15.86905876	      0.17876297	      0.23916717	      0.05876344	      0.39085332
     15.88479208	      0.18244634	      0.24657309	      0.06051615	      0.40207547
     15.90052539	      0.18628646	      0.25357346	      0.06215152	      0.41256176
     15.91625871	      0.18866993	      0.25848282	      0.06328811	      0.41985732
     15.93199203	      0.18793265	      0.25960500	      0.06354707	      0.42152030
     15.94772535	      0.18339023	      0.25621689	      0.06276434	      0.41649465
     15.96345866	      0.17563700	      0.24887489	      0.06105609	      0.40553625
     15.97919198	      0.16603603	      0.23897973	      0.05871876	      0.39056756
     15.99492530	      0.15610479	      0.22820632	      0.05612281	      0.37399866
     16.01065862	      0.14679088	      0.21761810	      0.05351234	      0.35738147
     16.02639193	      0.13864999	      0.20784501	      0.05104324	      0.34168282
     16.04212525	      0.13246332	      0.19989366	      0.04897347	      0.32861578
     16.05785857	      0.12834497	      0.19384357	      0.04734047	      0.31840477
     16.07359189	      0.12617711	      0.18936055	      0.04610072	      0.31075512
     16.08932520	      0.12587100	      0.18583052	      0.04522084	      0.30539471
     16.10505852	      0.12705737	      0.18294601	      0.04455100	      0.30113569
     16.12079184	      0.12931996	      0.18064817	      0.04401073	      0.29767419
     16.13652516	      0.13274021	      0.17919843	      0.04366569	      0.29545182
     16.15225847	      0.13748296	      0.17892607	      0.04360048	      0.29503107
     16.16799179	      0.14351064	      0.17990723	      0.04383481	      0.29654204
     16.18372511	      0.15048902	      0.18189315	      0.04430439	      0.29955879
     16.19945843	      0.15802494	      0.18454163	      0.04492231	      0.30350026
     16.21519174	      0.16656313	      0.18775682	      0.04568573	      0.30823474
     16.23092506	      0.17710185	      0.19173679	      0.04675427	      0.31477114
     16.24665838	      0.19040592	      0.19704177	      0.04821155	      0.32383835
     16.26239170	      0.20723787	      0.20436032	      0.05014458	      0.33599521
     16.27812502	      0.22855081	      0.21433834	      0.05269089	      0.35215228
     16.29385833	      0.25367805	      0.22682531	      0.05578578	      0.37185250
     16.30959165	      0.28138272	      0.24160831	      0.05934383	      0.39456709
     16.32532497	      0.30924430	      0.25780591	      0.06313177	      0.41885348
     16.34105829	      0.33167183	      0.27239997	      0.06649304	      0.44044340
     16.35679160	      0.34288670	      0.28157727	      0.06862124	      0.45407993
     16.37252492	      0.33867012	      0.28229396	      0.06878881	      0.45515059
     16.38825824	      0.31992134	      0.27423561	      0.06691671	      0.44316243
     16.40399156	      0.29273639	      0.26031378	      0.06371050	      0.42256998
     16.41972487	      0.26430936	      0.24508403	      0.06016566	      0.39982980
     16.43545819	      0.23978077	      0.23226846	      0.05710834	      0.38028024
     16.45119151	      0.22093058	      0.22346691	      0.05496192	      0.36660853
     16.46692483	      0.20687868	      0.21848571	      0.05372857	      0.35875817
     16.48265814	      0.19662377	      0.21690244	      0.05333364	      0.35624380
     16.49839146	      0.18914738	      0.21816849	      0.05364956	      0.35825514
     16.51412478	      0.18368696	      0.22176834	      0.05454288	      0.36394179
     16.52985810	      0.17989917	      0.22732083	      0.05590683	      0.37262322
     16.54559141	      0.17788271	      0.23466928	      0.05768691	      0.38397278
     16.56132473	      0.17771678	      0.24356556	      0.05980726	      0.39753424
     16.57705805	      0.17880980	      0.25300970	      0.06202053	      0.41172135
     16.59279137	      0.17994459	      0.26127017	      0.06393091	      0.42398568
     16.60852468	      0.17974719	      0.26648334	      0.06513074	      0.43169378
     16.62425800	      0.17756604	      0.26786671	      0.06544901	      0.43373844
     16.63999132	      0.17411722	      0.26662106	      0.06516242	      0.43189734
