FiberActivePower
version=1
nRows=51
nColumns=5
inDegrees=no

This analysis gathers basic information about muscles during a simulation (e.g., forces, tendon lengths, moment arms, etc).
Units are S.I. units (second, meters, Newtons, ...)
If the header above contains a line with 'inDegrees', this indicates whether rotational values are in degrees (yes) or radians (no).

endheader
time	recfem_r	vaslat_r	vasint_r	vasmed_r
     15.85332544	      6.61416319	    170.44716873	     43.58907385	     64.95822106
     15.86905876	     37.72033361	    155.88860909	     39.22481475	     58.94746948
     15.88479208	     30.47168572	     96.19352826	     23.83482298	     35.98617707
     15.90052539	     11.94085128	     36.15031347	      8.98240046	     13.52273442
     15.91625871	      1.25068292	      6.16677530	      1.73637544	      2.56044503
     15.93199203	     -1.24076967	     -0.99962587	     -0.40116351	     -0.56853015
     15.94772535	     -5.72835775	     -8.15837651	     -3.06088343	     -4.33027084
     15.96345866	    -14.48243106	    -22.21377022	     -7.47627296	    -10.61138847
     15.97919198	    -20.03068887	    -34.37772650	    -11.19745762	    -15.86124498
     15.99492530	    -18.11648227	    -37.63285547	    -12.40137227	    -17.46665610
     16.01065862	    -13.72573862	    -36.54287907	    -12.45720397	    -17.53559830
     16.02639193	    -10.01087992	    -30.88233615	    -10.95367653	    -15.39340246
     16.04212525	     -7.76038450	    -23.47627344	     -8.65758447	    -12.12238652
     16.05785857	     -5.51115854	    -17.13708420	     -6.55855205	     -9.14976925
     16.07359189	     -2.23906011	    -12.69282598	     -4.59964552	     -6.34947398
     16.08932520	      0.83689712	     -9.95057543	     -3.04557321	     -4.43488155
     16.10505852	      2.10080537	     -7.94111459	     -2.44614704	     -3.61658694
     16.12079184	      1.95441081	     -5.62921915	     -1.75092755	     -2.63362731
     16.13652516	      1.19289014	     -2.44744450	     -0.76390479	     -1.16703960
     16.15225847	      1.71591636	      0.92271706	      0.28681354	      0.44391714
     16.16799179	      6.27519139	      3.56517081	      1.09918420	      1.71248450
     16.18372511	     15.24742520	      5.26311066	      1.60838413	      2.49504315
     16.19945843	     24.37899663	      6.44326531	      1.96024597	      3.00290050
     16.21519174	     29.32203353	      7.67191558	      2.50927481	      3.67594851
     16.23092506	     26.26373723	      9.06136593	      3.28545872	      4.87087664
     16.24665838	     16.64034657	     10.91383974	      4.03201864	      5.95025829
     16.26239170	      7.31731362	     12.79935963	      4.81858491	      7.09136830
     16.27812502	      3.09190312	     15.71558573	      5.60815454	      8.36853095
     16.29385833	      3.49187827	     20.48771695	      6.34146171	      9.71632135
     16.30959165	      4.92885445	     25.46090035	      7.01521070	     10.98765975
     16.32532497	      5.52487305	     23.51977498	      6.96063320	     10.48141602
     16.34105829	      4.32707489	     10.94835144	      5.34082058	      7.05470883
     16.35679160	      1.02125547	     -0.64697317	      2.01254971	      2.12772483
     16.37252492	     -3.06457632	      1.06291936	     -1.24499554	     -1.46877452
     16.38825824	     -5.01250212	    -51.15625182	     -5.98842231	    -14.22110182
     16.40399156	     -8.41665252	   -319.21389754	    -25.82634539	    -66.48301641
     16.41972487	    -31.79577914	   -803.29968003	    -71.31249157	   -166.15621654
     16.43545819	    -89.06251323	  -1134.23786937	   -114.09484835	   -244.51619404
     16.45119151	   -163.95812836	  -1053.78628154	   -116.56492892	   -238.53574058
     16.46692483	   -218.25731954	   -607.40426672	    -71.00696861	   -143.39002391
     16.48265814	   -224.90450160	    -10.87895855	     -1.29761871	     -2.63909685
     16.49839146	   -192.62741625	    478.67822370	     56.86999490	    117.75852005
     16.51412478	   -139.38583490	    726.89969623	     85.26584453	    180.08252749
     16.52985810	    -77.75490433	    719.76977710	     83.98031266	    180.43239597
     16.54559141	    -22.65053537	    529.59031990	     63.23837040	    137.39507318
     16.56132473	      5.19238194	    269.01337801	     35.37234540	     76.27638693
     16.57705805	      7.75640278	     71.54066355	     13.48164846	     27.09331528
     16.59279137	      2.31955349	     -7.55625965	      3.16744787	      4.08033655
     16.60852468	     -0.15134520	     -9.92013222	      0.78655193	     -0.16252974
     16.62425800	     -1.23843463	      0.09973845	     -0.06171307	     -0.05042557
     16.63999132	     -8.13402825	    -10.30098747	     -3.37271935	     -4.84443872
