Moment_knee_angle_r
version=1
nRows=51
nColumns=5
inDegrees=no

This analysis gathers basic information about muscles during a simulation (e.g., forces, tendon lengths, moment arms, etc).
Units are S.I. units (second, meters, Newtons, ...)
If the header above contains a line with 'inDegrees', this indicates whether rotational values are in degrees (yes) or radians (no).

endheader
time	recfem_r	vaslat_r	vasint_r	vasmed_r
     13.63999530	    -51.23688559	    -60.46175592	    -15.15621487	    -20.67703893
     13.65492862	    -36.88605630	    -41.20536728	    -10.27452008	    -14.22116316
     13.66986194	    -24.85552111	    -25.56983516	     -6.45664244	     -9.04321519
     13.68479526	    -15.35148278	    -14.18768067	     -3.76280246	     -5.32198020
     13.69972857	     -7.85498693	     -6.80790480	     -2.09026261	     -3.03701419
     13.71466189	     -3.63323275	     -3.55830495	     -1.45720957	     -2.22862075
     13.72959521	     -3.92554654	     -3.91726283	     -1.69586025	     -2.59767881
     13.74452853	     -7.24689613	     -5.88442792	     -2.24714335	     -3.34772506
     13.75946185	    -11.16897110	     -7.46271145	     -2.68553223	     -3.89801271
     13.77439517	    -14.39003230	     -7.95225719	     -2.90879294	     -4.13104745
     13.78932848	    -16.88475644	     -7.67964123	     -2.96635669	     -4.11687378
     13.80426180	    -20.64716023	     -7.85315748	     -3.25071677	     -4.42566492
     13.81919512	    -22.21766560	     -7.16943984	     -3.22980289	     -4.27362862
     13.83412844	    -21.74808798	     -6.35315574	     -3.12187124	     -4.02715287
     13.84906176	    -19.50162759	     -7.81992657	     -3.09354668	     -4.11068013
     13.86399508	    -22.33140134	     -9.38080596	     -3.81880077	     -5.08339462
     13.87892839	    -27.16027724	    -11.79238388	     -4.95119467	     -6.57294801
     13.89386171	    -33.13255238	    -14.66049336	     -6.33138125	     -8.32817131
     13.90879503	    -37.31161635	    -17.09005976	     -7.53132063	     -9.80983457
     13.92372835	    -36.42119034	    -18.47561261	     -8.23370639	    -10.65819834
     13.93866167	    -29.35829391	    -18.62430817	     -8.32164868	    -10.75824052
     13.95359499	    -19.17802149	    -17.62545124	     -7.83506394	    -10.16348902
     13.96852830	    -10.69744859	    -15.71979626	     -6.90488895	     -9.01858643
     13.98346162	     -6.22510996	    -13.27193516	     -5.72714063	     -7.54174468
     13.99839494	     -5.14818963	    -10.78750496	     -4.55756848	     -6.03631355
     14.01332826	     -5.84416180	     -8.78185921	     -3.63940396	     -4.81979415
     14.02826158	     -7.23644781	     -7.38027864	     -3.01379111	     -3.97811938
     14.04319490	     -8.05505019	     -6.01252923	     -2.98349637	     -3.82123184
     14.05812822	     -6.85615607	     -6.40642844	     -2.98549171	     -3.92450637
     14.07306153	     -4.44413563	     -6.85807122	     -2.87479211	     -3.92214582
     14.08799485	     -2.15255481	     -6.61214218	     -2.48144798	     -3.51476238
     14.10292817	     -1.01649389	     -6.60622670	     -2.28988993	     -3.38719627
     14.11786149	     -0.81116889	     -5.61614379	     -2.04666451	     -3.09309877
     14.13279481	     -1.06616752	     -3.10985486	     -1.76140971	     -2.58335098
     14.14772813	     -1.32111178	      0.34939919	     -1.36549626	     -1.76273758
     14.16266144	     -1.37785756	     -0.36099324	     -1.25312382	     -1.48792772
     14.17759476	     -1.43809364	    -15.61495301	     -2.62462232	     -4.06098195
     14.19252808	     -2.27732710	    -50.97979757	     -6.43323610	    -11.21734078
     14.20746140	     -4.95296212	    -97.15231693	    -12.14079344	    -21.83704441
     14.22239472	     -9.63823629	   -133.58660588	    -17.26825421	    -31.42248447
     14.23732804	    -14.83009678	   -148.97213326	    -19.81461916	    -36.38981309
     14.25226135	    -18.93567454	   -147.21539266	    -19.89166365	    -36.94512570
     14.26719467	    -21.20051190	   -129.15311400	    -17.68065911	    -33.09294816
     14.28212799	    -21.78082061	    -99.88199287	    -14.12527805	    -26.35441787
     14.29706131	    -21.25641405	    -66.99137966	    -10.31516619	    -18.82838608
     14.31199463	    -19.59257931	    -36.60061830	     -6.80977437	    -11.80368053
     14.32692795	    -16.20193667	    -14.56247646	     -4.05193831	     -6.39985115
     14.34186126	    -11.65697440	     -3.09492550	     -2.33267415	     -3.22753471
     14.35679458	     -7.99741472	      0.04617390	     -1.59006345	     -2.01426845
     14.37172790	     -6.89936378	     -1.74454003	     -1.61992378	     -2.19890948
     14.38666122	     -7.92388299	     -5.91171214	     -2.14560813	     -3.19547723
