ActiveFiberForceAlongTendon
version=1
nRows=51
nColumns=5
inDegrees=no

This analysis gathers basic information about muscles during a simulation (e.g., forces, tendon lengths, moment arms, etc).
Units are S.I. units (second, meters, Newtons, ...)
If the header above contains a line with 'inDegrees', this indicates whether rotational values are in degrees (yes) or radians (no).

endheader
time	recfem_r	vaslat_r	vasint_r	vasmed_r
    143.13200000	    550.14345639	     48.43747463	     17.32350191	     25.16178431
    143.14896000	    351.33338825	     48.30555841	     17.17340352	     25.01071673
    143.16592000	    191.95044866	     48.61923629	     17.15048331	     25.04463039
    143.18288000	     81.45432278	     49.73652117	     17.37116614	     25.42872658
    143.19984000	     22.58823369	     51.76995056	     17.88888615	     26.23873531
    143.21680000	      7.50297776	     54.49106379	     18.65300891	     27.40688793
    143.23376000	     15.58040810	     57.37045752	     19.51278002	     28.72737076
    143.25072000	     24.90539214	     59.62737016	     20.20844508	     29.85284212
    143.26768000	     25.72630131	     60.26213833	     20.35557989	     30.26004015
    143.28464000	     20.81220543	     59.07209284	     19.84211526	     29.82072866
    143.30160000	     15.28221653	     55.52334268	     18.47131151	     28.21042241
    143.31856000	     11.48474122	     50.08773026	     16.45449693	     25.60299148
    143.33552000	      9.34117557	     44.77113240	     14.49979908	     22.99336193
    143.35248000	      8.17046381	     40.41314213	     12.89632276	     20.80667361
    143.36944000	      7.69908652	     37.55558064	     11.74918606	     19.23358831
    143.38640000	      7.70320751	     35.57494472	     11.02402116	     18.24904179
    143.40336000	      7.89849787	     34.14705507	     10.57324052	     17.63803649
    143.42032000	      8.16494709	     33.14345318	     10.30190384	     17.21565674
    143.43728000	      8.46765120	     32.55326877	     10.14243407	     16.95493305
    143.45424000	      8.79304774	     32.34067829	     10.02545098	     16.77604672
    143.47120000	      9.14427913	     32.27180783	      9.88566435	     16.52731151
    143.48816000	      9.56893179	     31.73283296	      9.75576103	     16.22765418
    143.50512000	     10.05006193	     30.86812426	      9.81119734	     16.08791510
    143.52208000	     10.26804311	     30.15872879	     10.05853870	     16.10455316
    143.53904000	     10.60496415	     30.91761524	     10.56482572	     16.50834668
    143.55600000	     12.60862191	     34.91880919	     11.47133060	     17.78210395
    143.57296000	     16.53519846	     39.80594845	     12.06923814	     18.98086281
    143.58992000	     21.05060680	     42.74627665	     12.83974564	     20.44803994
    143.60688000	     18.84132196	     37.57924212	     14.39635792	     21.85041835
    143.62384000	      0.20424570	     27.10860078	     18.03230539	     23.93461856
    143.64080000	    -21.15894558	     45.12433976	     24.69117972	     30.28902715
    143.65776000	     11.92138561	    156.45847100	     33.58060366	     47.74079142
    143.67472000	    156.85362945	    405.27007840	     44.09025043	     83.80062053
    143.69168000	    377.72906245	    745.77198675	     59.73710859	    140.69404159
    143.70864000	    540.59513435	   1050.13785516	     84.76298172	    208.64262549
    143.72560000	    554.99716328	   1212.12066463	    114.55680198	    267.11456818
    143.74256000	    451.64425990	   1228.15140735	    136.74488718	    298.86335167
    143.75952000	    319.21812114	   1174.85833004	    143.54338436	    304.19882076
    143.77648000	    220.41679042	   1138.18647335	    139.53630939	    300.91244913
    143.79344000	    155.04138803	   1154.08279882	    136.64419746	    306.56620098
    143.81040000	     99.32886012	   1170.32964291	    137.97225713	    312.76277337
    143.82736000	     64.28762499	   1084.62337164	    131.51734139	    288.65534303
    143.84432000	     82.54059424	    853.17413863	    107.03223435	    220.77185394
    143.86128000	    148.85877777	    540.27482989	     70.69142760	    132.87609440
    143.87824000	    210.65362285	    257.20967260	     38.12743231	     61.39028125
    143.89520000	    217.94261349	     79.02487359	     20.02212117	     25.23167097
    143.91216000	    162.96317396	     14.36516334	     16.38333311	     19.63776710
    143.92912000	     79.85320532	     23.26630906	     20.03442540	     27.78550180
    143.94608000	     17.57812098	     52.01656649	     23.35356087	     34.70874105
    143.96304000	      3.22133233	     64.85892212	     22.93879871	     34.47582745
    143.98000000	     24.37940411	     57.34317072	     19.54094869	     28.74730062
