MomentArm_knee_angle_r
version=1
nRows=51
nColumns=5
inDegrees=no

This analysis gathers basic information about muscles during a simulation (e.g., forces, tendon lengths, moment arms, etc).
Units are S.I. units (second, meters, Newtons, ...)
If the header above contains a line with 'inDegrees', this indicates whether rotational values are in degrees (yes) or radians (no).

endheader
time	recfem_r	vaslat_r	vasint_r	vasmed_r
    143.13200000	     -0.05275769	     -0.05077999	     -0.04781998	     -0.04699328
    143.14896000	     -0.05270561	     -0.05082994	     -0.04785344	     -0.04708992
    143.16592000	     -0.05267567	     -0.05086612	     -0.04789564	     -0.04717607
    143.18288000	     -0.05267172	     -0.05087402	     -0.04790699	     -0.04719660
    143.19984000	     -0.05271082	     -0.05083435	     -0.04785774	     -0.04709971
    143.21680000	     -0.05285688	     -0.05072127	     -0.04780896	     -0.04690973
    143.23376000	     -0.05313064	     -0.05041759	     -0.04788234	     -0.04671327
    143.25072000	     -0.05308005	     -0.04946121	     -0.04776614	     -0.04622263
    143.26768000	     -0.05155499	     -0.04687574	     -0.04626286	     -0.04425448
    143.28464000	     -0.05069481	     -0.04496595	     -0.04555994	     -0.04313007
    143.30160000	     -0.04856866	     -0.04189692	     -0.04376861	     -0.04094570
    143.31856000	     -0.04284242	     -0.03549109	     -0.03853939	     -0.03538541
    143.33552000	     -0.03691284	     -0.02925391	     -0.03321487	     -0.02988569
    143.35248000	     -0.03110713	     -0.02343301	     -0.02801497	     -0.02459727
    143.36944000	     -0.02600027	     -0.02078773	     -0.02342186	     -0.01998447
    143.38640000	     -0.02304384	     -0.01981566	     -0.02084240	     -0.01742185
    143.40336000	     -0.02168775	     -0.01959938	     -0.01969396	     -0.01715989
    143.42032000	     -0.02145603	     -0.01959297	     -0.01947403	     -0.01716115
    143.43728000	     -0.02224183	     -0.01964346	     -0.02006043	     -0.01719394
    143.45424000	     -0.02444111	     -0.02013912	     -0.02185491	     -0.01842450
    143.47120000	     -0.02864244	     -0.02182113	     -0.02548441	     -0.02204950
    143.48816000	     -0.03443619	     -0.02630427	     -0.03061310	     -0.02722913
    143.50512000	     -0.04009065	     -0.03202594	     -0.03560494	     -0.03234322
    143.52208000	     -0.04590471	     -0.03834830	     -0.04091104	     -0.03787817
    143.53904000	     -0.05056013	     -0.04393072	     -0.04523818	     -0.04259563
    143.55600000	     -0.05102032	     -0.04558854	     -0.04554869	     -0.04331984
    143.57296000	     -0.05287750	     -0.04883870	     -0.04748328	     -0.04579344
    143.58992000	     -0.05308798	     -0.05034339	     -0.04789730	     -0.04668366
    143.60688000	     -0.05271806	     -0.05072335	     -0.04780897	     -0.04691222
    143.62384000	     -0.05261011	     -0.05079956	     -0.04782995	     -0.04702810
    143.64080000	     -0.05272218	     -0.05072098	     -0.04780896	     -0.04690938
    143.65776000	     -0.05303912	     -0.05042826	     -0.04787986	     -0.04671770
    143.67472000	     -0.05315772	     -0.04965946	     -0.04783290	     -0.04634623
    143.69168000	     -0.05264950	     -0.04837212	     -0.04722249	     -0.04544401
    143.70864000	     -0.05190938	     -0.04716200	     -0.04644568	     -0.04448046
    143.72560000	     -0.05169509	     -0.04683506	     -0.04623729	     -0.04422268
    143.74256000	     -0.05191836	     -0.04722511	     -0.04648660	     -0.04453076
    143.75952000	     -0.05240357	     -0.04801300	     -0.04700244	     -0.04516390
    143.77648000	     -0.05277499	     -0.04868036	     -0.04739849	     -0.04567699
    143.79344000	     -0.05297248	     -0.04910226	     -0.04761414	     -0.04598142
    143.81040000	     -0.05307821	     -0.04938766	     -0.04773794	     -0.04617485
    143.82736000	     -0.05315059	     -0.04966869	     -0.04783564	     -0.04635178
    143.84432000	     -0.05318531	     -0.05000185	     -0.04790643	     -0.04653669
    143.86128000	     -0.05312726	     -0.05034579	     -0.04789688	     -0.04668459
    143.87824000	     -0.05295081	     -0.05060874	     -0.04782954	     -0.04680980
    143.89520000	     -0.05275493	     -0.05077124	     -0.04781668	     -0.04697891
    143.91216000	     -0.05265148	     -0.05086761	     -0.04789772	     -0.04717990
    143.92912000	     -0.05263575	     -0.05089990	     -0.04794950	     -0.04726792
    143.94608000	     -0.05268349	     -0.05085051	     -0.04787547	     -0.04713727
    143.96304000	     -0.05286544	     -0.05071479	     -0.04780907	     -0.04690217
    143.98000000	     -0.05313508	     -0.05042296	     -0.04788110	     -0.04671549
