ModelForces
version=1
nRows=51
nColumns=77
inDegrees=no

This file contains the forces exerted on a model during a simulation.

A force is a generalized force, meaning that it can be either a force (N) or a torque (Nm).

Units are S.I. units (second, meters, Newtons, ...)
If the header above contains a line with 'inDegrees', this indicates whether rotational values are in degrees (yes) or radians (no).

endheader
time	addbrev_r	addlong_r	addmagDist_r	addmagIsch_r	addmagMid_r	addmagProx_r	bflh_r	bfsh_r	edl_r	ehl_r	fdl_r	fhl_r	gaslat_r	gasmed_r	glmax1_r	glmax2_r	glmax3_r	glmed1_r	glmed2_r	glmed3_r	glmin1_r	glmin2_r	glmin3_r	grac_r	iliacus_r	perbrev_r	perlong_r	piri_r	psoas_r	recfem_r	sart_r	semimem_r	semiten_r	soleus_r	tfl_r	tibant_r	tibpost_r	vasint_r	vaslat_r	vasmed_r	pelvis_tx_residual	pelvis_ty_residual	pelvis_tz_residual	pelvis_tilt_residual	pelvis_list_residual	pelvis_rotation_residual	hip_flexion_r_reserve	hip_adduction_r_reserve	hip_rotation_r_reserve	knee_angle_r_reserve	ankle_angle_r_reserve	subtalar_angle_r_reserve	hip_flexion_l_torque	hip_adduction_l_torque	hip_rotation_l_torque	knee_angle_l_torque	ankle_angle_l_torque	subtalar_angle_l_torque	calcn_r_RightGRF_Fx	calcn_r_RightGRF_Fy	calcn_r_RightGRF_Fz	calcn_r_RightGRF_px	calcn_r_RightGRF_py	calcn_r_RightGRF_pz	calcn_r_RightGRF_Tx	calcn_r_RightGRF_Ty	calcn_r_RightGRF_Tz	calcn_l_LeftGRF_Fx	calcn_l_LeftGRF_Fy	calcn_l_LeftGRF_Fz	calcn_l_LeftGRF_px	calcn_l_LeftGRF_py	calcn_l_LeftGRF_pz	calcn_l_LeftGRF_Tx	calcn_l_LeftGRF_Ty	calcn_l_LeftGRF_Tz
    143.13200000	    121.70602476	    176.85705041	      4.93060844	     41.46692403	      5.30094174	      6.88629737	      9.85741252	      6.75498662	      6.38507779	      3.94727101	     21.14734698	     81.40940441	    109.83679169	    275.99977442	      9.46663696	     12.86510718	      8.49967083	    637.41112860	      7.71336353	      7.84853541	    226.66817095	      4.58745830	      3.93995623	      2.74225046	    828.60394297	      4.20076802	      9.47751783	      6.25921444	    173.84525181	     24.94055865	      2.60212739	     54.15643364	      6.77589234	   1543.46773762	    102.35068315	     33.05291987	    346.50918369	     37.99373356	    313.46810388	     86.68564625	    -28.01469729	   -130.94789287	     24.14945042	     -9.61120589	    -16.36620560	     17.19833576	      0.00295652	     -0.00720303	      0.05986201	     -0.00232388	     -0.00235051	      0.00474348	    -42.30649903	      6.25033083	      4.06014325	      8.47920279	      0.54872335	     -0.43255172	    151.99173105	    539.94274814	     12.94079085	      0.20967259	      0.00987373	      0.00349618	      0.00000632	     -7.49224202	      0.00001952	     -0.00000000	      0.00000000	     -0.00000000	     -0.26391860	     -0.60407442	      0.50312795	      0.00000000	     -0.00000000	      0.00000000
    143.14896000	     48.31937296	    210.75979845	      4.96083723	      4.88683801	      5.20165697	     29.84954566	     10.53936300	     28.26345514	      7.04751532	      4.10998582	     11.73462860	     40.74833724	    192.69637071	    597.89268915	     10.29765403	     14.04568561	      9.22675968	    130.94678136	     77.74904612	    101.04268419	     35.11676459	     48.59975495	     41.81478845	      9.78801155	    377.53540891	      4.84093111	     10.59329345	    111.84314511	    531.79194724	    621.36675448	     25.55490850	     17.11872686	      5.61313763	    210.49202307	     61.69843564	     70.06866479	    182.15457495	     16.22461713	     49.00985703	     26.42996350	      2.89486202	     -6.26171079	      9.31195101	      4.75045759	     -6.85428089	     -1.95591613	      0.07398892	     -0.01889330	     -0.00721969	      0.03194677	      0.00069788	      0.00324707	    -35.45633681	      4.45823585	      4.16856685	      9.32126697	      0.82684011	     -0.47194531	    101.18736908	    305.44945043	      3.46093531	      0.21521806	     -0.00378250	     -0.00147563	      0.00000314	      9.66925637	      0.00001208	     -0.00000000	      0.00000000	     -0.00000000	     -0.39264828	     -0.57986332	      0.48721732	      0.00000000	     -0.00000000	      0.00000000
    143.16592000	    117.50213300	    302.82548472	      5.03354379	      4.98331024	     23.42195725	    115.37954418	     10.99542392	     21.35385150	      7.29099571	      4.41456660	     14.49304533	     50.50841786	    118.08372665	    307.83742257	     11.11960094	     15.13618617	      9.80900608	     12.40319898	      9.08597269	    120.12149518	      4.43639619	     10.53667852	     36.75423021	     20.35038803	    202.37023506	      5.28410038	     11.39084512	    239.61977338	    464.48553906	    354.00331578	     18.39315757	     17.86539851	      5.72738414	     51.42513450	      9.38117841	    129.36051739	    224.60226125	     16.42991391	     49.61229177	     26.74085617	     15.45419161	     28.25480237	    -14.87608721	      6.93308741	     15.15050778	    -10.72753765	      0.06312237	      0.00177289	     -0.01187027	      0.02477036	      0.00224966	      0.00488089	    -26.50892842	     -0.60796552	      5.30723491	      9.45951371	      1.06879244	     -0.55566304	     52.76678307	    138.46774927	      7.98553782	      0.22634360	     -0.01419438	      0.00319188	      0.00000170	     13.34697569	      0.00000337	      0.00000000	     -0.00000000	      0.00000000	     -0.51781890	     -0.53775462	      0.47643043	     -0.00000000	      0.00000000	     -0.00000000
    143.18288000	     47.26715635	    147.12424355	      5.03567762	      5.03765257	      5.21370695	     27.95230349	     11.21434870	     40.96685586	     58.11876097	      8.55232001	      4.25562361	      8.78839225	     26.91662705	     78.69945973	     11.82875523	     16.04388267	     10.20273434	     40.12288050	      9.90547752	     10.79435584	     23.67679640	     23.61933094	     20.20701833	     14.93786886	    246.70762699	     13.05143786	     47.43906608	     28.25657395	    335.44966276	     21.56754867	     19.27395098	     18.50463850	      6.22937852	     46.74581074	     26.84470267	    140.04129783	     16.04731450	     16.87302787	     51.01695710	     27.41262083	     11.80497381	     51.01588568	    -16.74521000	     -4.48728929	     10.24557520	      2.72824445	      0.05018424	     -0.00985277	     -0.00129780	      0.04917189	      0.00945139	     -0.00249378	    -21.02011766	    -10.06994249	      7.26434097	     10.83570086	      1.01502747	     -0.64734706	     -0.84136860	     -1.51090237	      0.09152316	     -0.10292405	     -0.43526212	      0.21731006	     -0.00000003	      0.61854139	     -0.00000004	     -0.00000000	      0.00000000	     -0.00000000	     -0.63157094	     -0.47798412	      0.47608253	      0.00000000	     -0.00000000	      0.00000000
    143.19984000	     22.09658281	     81.09380830	      5.00829490	      5.05154934	      5.02123216	      9.38421073	     11.19120967	     43.86029796	     59.74599812	      8.37811567	      4.29701304	      8.96316558	     25.12771112	     64.76050389	     12.39576873	     16.73807235	     10.45494269	    104.05697372	     12.16604472	     11.80856933	     26.53397898	     26.91066547	     24.31339346	     13.65299783	    181.34280117	     14.27480672	     54.05955744	     24.29622323	    233.43401865	     22.39141264	     17.40059564	    188.32523857	     23.90138843	     50.16411033	     21.22868567	    137.91515271	     16.51108646	     17.60290332	     53.32033580	     28.50249910	    -33.52108642	      5.90419467	     -7.28435855	    -20.41355839	      4.22286487	      3.29715536	      0.03690877	     -0.00975041	     -0.00045663	      0.05424842	      0.01078489	     -0.00288812	    -23.22061803	    -13.46968573	      6.53469684	     15.18511798	      0.50479664	     -0.47905201	      0.00000000	      0.00000000	     -0.00000000	     -0.02852823	     -0.42834054	      0.19906434	      0.00000000	     -0.00000000	      0.00000000	      0.00000000	     -0.00000000	      0.00000000	     -0.72486462	     -0.40934482	      0.49076128	     -0.00000000	      0.00000000	     -0.00000000
    143.21680000	     32.47082561	    116.46399959	      4.98160751	      5.05559607	      4.91153925	     13.91811176	     10.74981112	     55.94632660	     77.21005990	     10.99754880	      4.49526459	      9.35781767	     15.47590827	    112.19199169	     12.78049613	     17.21453920	     10.62706466	    177.17157176	     22.53617578	     12.66828854	     41.11159111	     43.36748205	     42.26578606	     17.60235726	    260.07924559	     18.69071762	     71.35371971	     52.67991320	    339.56717624	     23.35987548	     24.33363332	    142.45269624	     19.92868216	     54.70526053	     35.87497668	    183.24902304	     17.50567953	     18.50537987	     56.20795349	     29.84528257	    -16.36133012	     -0.76163441	     16.61639646	     -4.24446881	    -14.78093273	      0.01265348	      0.05459389	     -0.01380055	     -0.00076476	      0.07083477	      0.01603039	     -0.00413092	    -21.28559908	      0.67507591	      2.06582259	     18.98639687	     -0.31193956	      0.12677451	     -0.00000000	     -0.00000000	      0.00000000	      0.03696491	     -0.42512876	      0.19034648	     -0.00000000	      0.00000000	     -0.00000000	     -0.00000000	      0.00000000	     -0.00000000	     -0.79064653	     -0.34813616	      0.52149977	      0.00000000	     -0.00000000	      0.00000000
    143.23376000	     80.63816782	    231.99317686	      4.97427401	      5.06624266	      4.89725408	     52.50651748	     10.18383917	     63.15902821	     75.42305024	     11.09045001	      4.69408151	      9.74630994	     28.39240523	     90.04297158	     12.97286752	     17.47413144	     10.75320327	     57.25874631	     11.23995511	     12.95447626	     37.45264262	     42.83160074	     46.97706390	     24.95857848	    362.99101711	     18.08927682	     69.72667217	    120.54432575	    527.25518166	     23.90469323	     31.88988007	     15.45905685	      6.06704970	     58.35832585	     45.41216814	    188.06171585	     18.45446613	     19.40282723	     59.10079255	     31.17390368	     38.98074500	    -12.60221180	     24.88998128	     29.22864647	    -19.24463157	     -9.64264435	      0.08212066	     -0.01113140	     -0.00275918	      0.08100414	      0.01748473	     -0.00434926	    -18.85189755	     23.65175574	     -2.41699221	     23.96377093	     -1.59621622	      0.94500263	      0.00000000	      0.00000000	     -0.00000000	      0.10593541	     -0.41539103	      0.18453928	      0.00000000	     -0.00000000	      0.00000000	      0.00000000	     -0.00000000	      0.00000000	     -0.82637532	     -0.31411658	      0.56320776	     -0.00000000	      0.00000000	     -0.00000000
    143.25072000	    205.30235511	    454.78102913	      8.56997604	      5.09085692	     76.95644160	    180.10205250	      9.51485354	     31.48240131	     44.64473906	      7.08047983	      4.84119956	      9.99716742	     12.71393320	     24.28978654	     12.99810301	     17.54213909	     10.84541624	     14.49961793	     11.14019044	     12.99315974	      4.59781096	      5.31102695	      6.47166538	     32.99071525	    241.74384032	     11.18957419	     40.16614338	    208.37347891	    572.13948541	     31.38071226	     21.04274812	     12.87436944	      5.09913148	     59.92278120	      4.24058547	    116.35296469	     19.02084439	     20.06951483	     61.23840074	     32.15369615	     36.70733305	    -39.24420738	    -10.79872931	     20.90997748	     11.32372248	     -7.97149968	      0.07644433	      0.02670707	     -0.00936827	      0.04053910	      0.01083471	     -0.00262494	    -46.08852645	     25.93061533	     -4.24907193	     40.86484037	     -3.67458458	      1.43518871	     -0.00000000	     -0.00000000	      0.00000000	      0.17793015	     -0.40069363	      0.17923490	     -0.00000000	      0.00000000	     -0.00000000	     -0.00000000	      0.00000000	     -0.00000000	     -0.83206079	     -0.32542444	      0.60406097	      0.00000000	     -0.00000000	      0.00000000
    143.26768000	    302.40092421	    622.31077654	     59.52697589	      5.13885587	    142.58147689	    276.66932213	      8.89583333	     20.05781521	     43.85731325	      6.59035915	      4.85719194	     10.02916727	     10.34418451	     18.01431054	     12.91651757	     17.49530905	     33.45332682	     14.25953081	     10.94262749	     12.79642079	      4.51809680	      5.15390941	      6.09769276	     41.27876611	    125.98410637	     10.59865778	     41.66374449	    203.03364617	    571.62411861	     72.35146319	     15.03017025	     10.92642385	      5.08891820	     58.80948664	      4.15105990	    111.61660015	     19.14380318	     20.18177060	     61.68233692	     32.31822138	    -36.10091989	    -50.88225778	    -52.99136353	    -30.03526971	     43.74734608	     15.78684174	      0.06529959	      0.05677812	     -0.01443880	      0.02596176	      0.01017136	     -0.00264792	   -103.97768234	     10.21593316	     -5.92823758	     66.84661916	     -5.44339593	      1.61641298	      0.00000000	      0.00000000	     -0.00000000	      0.25230222	     -0.38179491	      0.17362444	      0.00000000	     -0.00000000	      0.00000000	      0.00000000	     -0.00000000	      0.00000000	     -0.80550007	     -0.38989143	      0.62719626	     -0.00000000	      0.00000000	     -0.00000000
    143.28464000	    256.58414911	    597.16990943	      5.03569326	      5.14112578	     62.23067804	    200.75222167	      8.15785006	     46.10911123	     74.02279972	     10.30374539	      4.82660837	      9.92629435	     11.40776179	     51.05729111	     12.80568445	     17.45042395	     11.02065985	     14.06733623	     10.73459033	     12.52201640	      4.47544371	      5.06462628	      5.94801523	     37.65562099	    462.76677125	     19.92823377	     82.96020509	     86.20669149	    867.56910363	    303.69972604	     36.34113987	      8.83976470	      4.60337962	     55.43388411	     25.33129541	    165.72984393	     19.04218265	     19.65358128	     60.28233786	     31.60329372	    -62.15766365	     -2.27184992	     -2.05506473	    -39.72908936	      6.95936174	     24.46037479	      0.11811444	      0.02081952	     -0.00956813	      0.06067833	      0.01510654	     -0.00485276	   -132.00608645	     33.46666029	    -11.44582575	     72.93890181	     -4.21416878	      2.22091149	     -0.00000000	     -0.00000000	      0.00000000	      0.32873389	     -0.35848857	      0.16641147	     -0.00000000	      0.00000000	     -0.00000000	     -0.00000000	      0.00000000	     -0.00000000	     -0.74595333	     -0.49017221	      0.61465908	      0.00000000	     -0.00000000	      0.00000000
    143.30160000	    213.41870570	    553.72507733	      5.06099757	      5.22351360	      5.68767552	    138.53462827	      7.84872366	     55.02490900	     96.63967928	     12.41573070	      4.81034054	      9.83668242	     10.23272909	     50.42464832	     12.82306928	     17.60249493	     11.28381023	     25.25180585	     10.68905585	     12.36685279	     56.81650563	     52.99863024	     39.05317049	     31.88355234	    705.72362763	     25.94028183	    112.07012681	     28.02632650	   1088.42922516	    549.92527581	     50.62301411	      6.53858717	      4.47910864	     51.70868281	     97.97385746	    196.15571446	     18.99500616	     18.32765044	     56.55360356	     29.73741822	      8.43490762	    145.35667735	     83.41201483	     21.73868378	    -58.67781175	     -3.19620503	      0.16015268	     -0.00589773	     -0.00571311	      0.07385317	      0.01791949	     -0.00661501	    -84.58770973	     84.96203851	    -20.98544000	     41.90140456	      0.63157112	      2.19161991	      0.00000000	      0.00000000	     -0.00000000	      0.40508275	     -0.33213106	      0.15286505	      0.00000000	     -0.00000000	      0.00000000	      0.00197613	     -0.00182633	      0.00018907	     -0.67258213	     -0.58044949	      0.55672658	     -0.00000000	      0.00036281	     -0.00000000
    143.31856000	    180.93511651	    448.20682459	      5.13525703	      5.36555845	     20.02476164	    138.65248684	      7.94818742	     18.33867335	     78.98446432	     10.12047570	      4.83501389	      9.85790669	      6.14816477	      5.17549259	     12.94932221	     17.89809998	     11.68351791	     14.22306075	     10.73252582	     12.39458006	      4.82536071	     13.87022123	     27.10901106	     20.73042424	    457.23264002	     19.59001925	     85.43943190	    289.81833944	    850.08003873	    556.53625423	     34.60561796	      4.45368703	      4.53405368	     50.02907387	     55.75600311	    160.12407286	     19.09512679	     16.37549947	     50.96586589	     26.90129274	    109.77565383	     20.37182285	     14.26858191	     67.64080946	    -28.56001488	    -42.70918881	      0.12814345	      0.00796660	     -0.01296515	      0.02471638	      0.01466435	     -0.00539571	    -28.03274673	     49.31502995	      7.78355702	    -34.31220050	    -28.52528638	     15.27755896	     -0.00000000	     -0.00000000	      0.00000000	      0.47686289	     -0.30704092	      0.12861548	     -0.00000000	      0.00000000	     -0.00000000	    -99.24772736	    364.75952764	     20.38488311	      0.18542105	      0.03454837	     -0.03381439	      0.00000592	     20.01939825	      0.00001542
    143.33552000	     65.00145211	    189.40050443	      5.23318703	      5.53045300	      4.83557599	     51.69731181	      8.36316784	      4.22680133	     59.58055113	      8.21991347	      4.87346631	      9.99621246	      4.64832985	      1.61650823	     12.99871314	     18.01279132	     12.02329147	     14.22159515	     23.10189709	    158.70803467	      4.59427454	     22.95820865	     39.46568466	      4.60046228	    230.80091714	     11.86095826	     49.39207334	    345.33850355	    468.78000103	    311.20522863	     19.69945607	      3.23900277	      4.72959138	     51.54994253	     38.83202763	    139.76536449	     19.22492901	     21.32231880	    133.30170147	     42.59874476	   -119.02714461	    -71.30892710	   -109.62567141	   -105.77585055	     89.89424490	     29.76407639	      0.07770545	     -0.00366905	     -0.01190739	     -0.00197756	      0.01283997	     -0.00360688	   -129.87693948	   -149.42529917	     49.01013147	    -78.96431373	    -31.43535953	      9.89776688	      0.00000000	      0.00000000	     -0.00000000	      0.53836784	     -0.28940434	      0.09587007	      0.00000000	     -0.00000000	      0.00000000	    -14.02251587	    721.80701720	     78.33463266	      0.15146983	      0.00202167	     -0.00391564	      0.00000707	     -7.17770906	      0.00003108
    143.35248000	      5.38684057	      7.29881706	      5.32657933	      5.65875474	      4.87933950	      5.03451693	      8.84819312	      4.47715378	     47.39113510	      6.91240088	      4.87626289	     10.17663255	      3.25973355	      1.08034763	     12.84487485	     17.62321407	     12.06685659	    501.98111359	    251.00412431	    254.19487747	     49.81075256	     58.66047601	     49.83727559	      2.33577722	    124.00435907	      9.38109429	     34.04815687	    165.13099613	    149.15867360	    123.96935465	      9.23985377	      2.77517649	      4.95041098	     55.71002994	     42.47373152	    116.92306961	     19.16751750	     23.84095605	    176.82738282	     53.33482327	    -17.06485027	    -14.87554126	     -8.48073536	      2.81183220	     15.69509948	     31.06229657	      0.03258500	     -0.02351716	     -0.00148945	     -0.00404642	      0.01162676	     -0.00264538	     -3.47465271	   -140.98477146	     27.94571684	   -168.78788267	    -68.31058716	     45.67974621	     -0.00000000	     -0.00000000	      0.00000000	      0.58432680	     -0.28595129	      0.06038237	     -0.00000000	      0.00000000	     -0.00000000	   -213.38895921	    909.25631420	     18.76187959	      0.18597513	      0.01527583	     -0.01992781	      0.00001499	    -25.25162754	      0.00004619
    143.36944000	      5.73492834	      7.67607979	      5.40261336	      6.17549310	      5.01193120	      5.29869112	      9.33428710	      4.48996611	     40.66483316	      5.94040951	      4.81413660	     10.30766565	      2.62389263	      1.10182490	     80.89854274	     30.30178921	     11.79194289	    739.96054446	    329.62265875	    270.39933287	     69.09912242	     65.84985484	     43.13371713	      2.43006016	     10.77786272	      8.47377418	     27.65592860	     62.22230127	     16.12327660	      7.76430981	      2.41602605	      3.12169561	      5.26634049	     60.90235581	     30.60480707	     99.28241276	     18.77871252	     21.10882322	    175.75973946	     47.87413425	    -51.21447809	    -18.76355274	    186.63766625	    -52.17226136	   -177.78836135	     -7.96599194	     -0.01429542	     -0.02976448	      0.00652532	     -0.00527262	      0.01091850	     -0.00211021	    -69.47281497	     15.13455468	    -27.34342150	   -118.96169796	   -132.54627867	    100.94339853	      0.00000000	      0.00000000	     -0.00000000	      0.61118668	     -0.30156446	      0.02676289	      0.00000000	     -0.00000000	      0.00000000	   -158.67956897	   1128.33726570	   -161.00735685	      0.19813402	      0.01638357	     -0.03519801	      0.00001774	    -26.20079487	      0.00004599
    143.38640000	      6.24172289	      8.29714446	      5.47190025	     11.75652166	      5.15381140	      5.67167678	     12.94365639	      4.62606930	     38.82101901	      5.52698502	      4.68986452	     10.32126349	      2.68588527	      1.15358638	     75.36783907	     97.67746983	     11.52181048	    420.10675526	    180.38086618	    142.99272436	     41.09137773	     36.68253253	     21.20076521	      2.53955448	     11.22843734	      7.60385377	     22.38595870	     22.95024365	     16.73609422	      7.64732947	      2.47213080	      3.48423699	      6.49441744	     65.91246032	     15.58389241	     93.09740162	     18.08735983	     16.88235319	    161.03037683	     39.64294641	     21.82084181	     19.81526204	    -90.00385761	     26.88014057	     89.81833794	    -20.87156523	     -0.01593699	     -0.01703264	      0.00484854	     -0.00565716	      0.01112231	     -0.00176563	     43.32309619	   -157.82457732	     81.88356916	   -162.19316615	   -132.59390086	     83.99482550	     -0.00000000	     -0.00000000	      0.00000000	      0.61624722	     -0.33862729	      0.00136458	     -0.00000000	      0.00000000	     -0.00000000	   -173.82608584	   1246.51642748	     77.42351982	      0.17088739	      0.01873346	     -0.02523790	      0.00001857	     42.55319127	      0.00006019
    143.40336000	      6.65587921	      8.81170769	      5.57608185	      5.82143839	      5.34762283	      6.02546610	      9.73595590	      4.85589628	     43.53273998	      6.11474856	      4.54395659	     10.22269413	      3.42094353	      1.25830946	     19.22728420	     18.66281818	     11.03447168	     22.71747215	     19.35142042	     28.01480410	      4.94316557	      6.20241101	      5.75715922	      2.67355760	     16.47415918	      9.19386339	     24.03382111	     16.32951075	     27.31779477	     31.42528259	      2.72977377	      3.06664334	      5.33383199	     70.32425467	      6.49409652	     99.92942240	     17.29858749	     24.75324028	    268.78384933	     65.31700966	     36.59326577	     14.34480707	    -46.83703129	     22.94779492	     48.40394926	    -42.82759569	      0.00445593	     -0.00309919	     -0.00105676	     -0.01038997	      0.01256012	     -0.00185065	     29.04325443	    -84.33336225	     65.22501903	   -118.93591223	   -156.58299282	     84.94073396	      0.00000000	      0.00000000	     -0.00000000	      0.59565762	     -0.39792397	     -0.00802582	      0.00000000	     -0.00000000	      0.00000000	   -121.72190486	   1320.85409938	     38.83102621	      0.17248681	      0.03651711	     -0.02368530	      0.00001893	     47.08290094	      0.00005854
    143.42032000	     87.01320654	    181.97373438	      6.44113911	      5.71703796	     33.47505265	    105.33502775	     10.15695949	      4.97434121	     48.65248843	      6.94478674	      4.39226484	     10.07784648	      5.10992577	      1.49956361	     73.44505564	    165.25777534	     36.59938201	     12.21421867	      8.66253554	      9.37489298	      4.02808540	      4.25470797	      3.94719044	      5.19865650	     12.08840834	     11.72155637	     28.90474606	     69.25209035	    241.84999891	     94.39405642	      7.24714231	      3.59144370	      5.45006265	     73.89147813	      3.73313350	    109.17081182	     16.73569356	     37.19434977	    414.81951164	    101.35720102	     -4.61523574	    -11.18264414	     65.56077686	    -13.74879729	    -67.91526062	     32.77852105	      0.02779368	      0.01362211	     -0.01572667	     -0.01706915	      0.01383537	     -0.00203779	    -15.14987204	     10.50998825	    -39.82828794	    -72.38683157	   -145.90063984	     53.44016066	     -0.00000000	     -0.00000000	      0.00000000	      0.54267164	     -0.47652658	      0.00268105	     -0.00000000	      0.00000000	     -0.00000000	    -10.78000012	   1337.74550006	    -42.86359304	      0.17154913	      0.04728796	     -0.02173269	      0.00001954	    -42.28199633	      0.00005748
    143.43728000	    102.23575343	    223.12188907	      5.81879914	      5.74029881	     38.84531344	    138.48382104	     10.80574582	      5.19331831	     51.25575863	      7.40971652	      4.43396033	     10.02410570	      8.02794222	      2.14033373	     96.56986589	    216.18906327	     33.37092808	     12.35267987	      8.84309346	      9.62692757	      4.05426990	      4.30747649	      4.13106090	      6.35263037	     11.78440567	     13.53296850	     38.26526452	    142.30884211	    338.06140487	    139.57661845	     12.70808187	      4.87221197	      5.65220992	     76.10297411	      3.74282950	    115.94596385	     16.63332579	     44.37390163	    485.43503837	    119.15841323	      6.97239041	      0.82368498	    -32.76553789	      9.17703492	     30.51727370	     27.08053546	      0.03923002	      0.01534557	     -0.02337425	     -0.02078452	      0.01416358	     -0.00226232	     13.58435105	    -65.60105910	    -25.77010844	    -56.12805759	   -132.79039568	     27.09638197	     -0.00000000	      0.00000000	     -0.00000000	      0.44918621	     -0.56421033	      0.03162226	      0.00000000	      0.00000000	      0.00000000	     44.06315341	   1255.22726228	     62.40805411	      0.16804876	      0.04568716	     -0.01067089	      0.00002164	    -35.99182318	      0.00005535
    143.45424000	     90.90034806	    196.30155808	      5.70912392	      5.77690921	     36.73736994	    130.93417841	     11.59148328	      5.44461642	     52.45067965	      7.90214160	      4.42820774	     10.04568280	     11.69286593	      4.88838090	     57.07869964	    154.61715712	     32.92949273	     12.38491952	      8.95683369	      9.81810419	      4.05116454	      4.31410581	      4.21345935	      6.99148828	     11.64611526	     16.36137641	     53.99581886	    152.00128235	    316.09124107	    133.84569742	     13.00432465	      7.46802698	      5.90644411	     76.38173380	      3.71256863	    122.29323542	     17.03041353	     39.06520614	    403.61264132	    103.46045050	     12.69238752	     -4.82188117	     -2.84683390	     11.70284898	      2.59856584	    -10.95500586	      0.03522274	      0.01350769	     -0.02212587	     -0.01724420	      0.01380623	     -0.00259042	     10.95954745	    -30.87074828	      9.99794174	     -9.35488764	   -143.57839117	     37.06229595	      0.00000000	     -0.00000000	      0.00000000	      0.31173502	     -0.64370931	      0.07032467	     -0.00000000	     -0.00000000	     -0.00000000	     86.42742696	   1133.35682960	     26.47870087	      0.17935347	      0.03537990	     -0.00370928	      0.00001782	      9.93013286	      0.00003726
    143.47120000	     81.17032852	    155.24590126	     10.80182225	      5.82525213	     39.51993985	    102.45276697	     12.49866604	      5.82286835	     53.32127236	      8.42085672	      4.56705254	     10.16655312	     14.88633819	     14.56975347	     11.22029025	     26.57753029	     54.09645187	     12.51771821	      9.17682935	     10.14869478	      4.06495730	      4.36809779	      4.39002163	      9.77176659	     11.61684401	     19.17335127	     69.16542159	     60.59943075	    207.64731825	     68.60809449	      6.81374468	     11.92692688	      6.21019447	     74.77765702	      3.67636704	    129.67937659	     17.72626760	     21.79645820	    205.21278886	     57.40805701	      3.01427540	     -3.27720392	     46.34401053	      6.51717542	    -41.42129821	     -7.92164675	      0.01928565	      0.01310159	     -0.01301217	     -0.00816068	      0.01313670	     -0.00298029	      6.73113076	     13.91221719	     17.20714506	     20.48812357	   -135.38761631	     41.70806261	     -0.00000000	      0.00000000	     -0.00000000	      0.13708359	     -0.69710843	      0.10595292	      0.00000000	      0.00000000	      0.00000000	    115.57552765	    952.17038316	    -36.08146741	      0.18870779	      0.01751982	      0.00273101	      0.00000993	     21.29876337	      0.00004435
    143.48816000	     91.75496230	    150.18183222	     31.11673340	     38.44087650	     43.41599154	     57.88745609	     17.02875684	      6.25491075	     53.04311690	      8.79492661	      4.71263746	     10.31214388	     17.01510623	     27.49096493	     11.15474397	     15.02163353	     13.45078738	     14.40634694	      9.71314716	     10.84602929	     11.92430905	      4.61862439	      4.93514321	     10.06423680	     78.21454135	     19.64390055	     74.72019781	     12.30933657	    106.35472493	      8.86167827	      2.73330499	     75.98251526	     19.11755731	     72.23508768	      3.71102471	    135.51319354	     18.39317477	     13.05906972	     91.56478401	     28.43962911	    -19.95701581	     -0.08330541	      7.80957133	     -7.74829576	     -1.89115116	     -7.25164544	      0.00111242	      0.01522174	      0.00552436	     -0.00306087	      0.01226463	     -0.00322395	      1.52313176	    -19.43012045	     13.47310517	     31.82839847	   -107.26504904	     30.67276780	      0.00000000	     -0.00000000	      0.00000000	     -0.05919808	     -0.71302658	      0.12917562	     -0.00000000	     -0.00000000	     -0.00000000	    145.23531931	    728.56552832	    -21.83335579	      0.19109234	     -0.00142498	      0.01269813	      0.00000865	     16.07052116	      0.00002474
    143.50512000	     65.74196662	    110.51724394	     22.28643585	     29.24909283	     31.33616336	     39.92797246	     24.84473237	      7.65351928	     51.87633259	      9.00229181	      4.79328769	     10.40086133	     18.61322601	     34.99214907	     11.36325173	     15.15805295	     10.85890530	     52.10133847	     10.32925633	     11.60626829	     16.17735214	      5.00132305	      5.67687300	      9.76973166	     73.41581595	     18.55186437	     72.29235238	     15.17858028	     93.44420250	      9.49658377	      2.76342400	    154.34225809	     23.39794370	     70.02804759	      3.82384210	    139.00287630	     18.72442538	     10.53003820	     33.28112789	     18.09890017	     -4.72755729	     -3.85762165	      1.83223486	     -6.80720557	     -3.70218739	     13.45853510	      0.00182747	      0.01193783	      0.00502865	      0.00133988	      0.01155364	     -0.00323266	      5.83308933	    -11.88531720	    -10.82000007	     27.37113049	    -75.92741480	     19.74388151	     -0.00000000	      0.00000000	     -0.00000000	     -0.26056127	     -0.68737664	      0.14157018	      0.00000000	      0.00000000	      0.00000000	    143.14844708	    493.08137680	    -28.23195361	      0.20584419	     -0.01375680	      0.01708823	      0.00000852	    -12.30500933	      0.00001407
    143.52208000	     17.91956711	     34.03200595	      5.88736128	      6.44397245	      6.49632966	      8.71244541	     35.52672772	     22.09143183	     50.25975866	      9.01517969	      4.76779176	     10.36786630	     20.21175304	     39.15134079	     11.39401131	     15.07396428	      9.89657095	     87.86448659	     11.62157320	     11.95320521	     13.43160606	      7.61557949	      6.28844442	      6.69654297	     48.20859860	     17.49326152	     67.45793682	     16.25251542	     59.88064278	     10.22167924	      4.37117034	    230.47463950	     23.43954662	     68.75712298	      5.87502276	    139.03213380	     18.55027510	      9.78161464	     31.50958608	     16.81984473	     33.46725422	     -6.01849895	    -19.56533340	     15.80727013	     19.24334695	      4.62516779	      0.00413133	      0.00249712	      0.00223584	      0.01021621	      0.01116730	     -0.00301967	     30.07326124	    -33.68044855	    -14.21434259	     11.73132697	    -43.04119429	      9.65939525	      0.00000000	     -0.00000000	      0.00000000	     -0.45435398	     -0.61908527	      0.15433491	     -0.00000000	     -0.00000000	     -0.00000000	     99.46512882	    272.39043027	      5.51573726	      0.22264627	     -0.01886428	      0.02251150	      0.00000256	    -14.94493024	      0.00000838
    143.53904000	      5.91323156	      7.91563585	      5.56228497	      6.10642678	      5.17365233	      5.48447907	     99.14199659	     13.92779505	     46.95766030	      8.44681078	      4.63362316	     10.19488324	     21.48326486	     42.70541285	     40.94935047	     55.65030805	     10.42079858	    136.82448427	     71.31486829	     66.90452456	     12.10677885	     14.89971312	     16.29534680	      3.21774994	     11.26136885	     16.59440186	     61.59690262	     54.34949993	     16.97691391	     10.95155490	      2.90917276	    366.46450793	     27.04989007	     67.90760507	      4.20568809	    127.98329852	     17.89871800	     10.13575860	     31.88637167	     17.21312459	     22.09701146	    -12.04649812	     11.26985158	     16.11422467	    -13.28118651	      1.56921124	     -0.00417775	     -0.00366589	      0.00103948	      0.00671581	      0.01052739	     -0.00261130	     49.60145661	     -4.16023552	     -7.24483232	     -3.07526122	    -19.26010654	      9.60022566	     -0.00000000	      0.00000000	     -0.00000000	     -0.62872253	     -0.50905284	      0.17798313	      0.00000000	      0.00000000	      0.00000000	     45.46803796	    120.76169476	    -11.40048896	      0.24268227	     -0.02121015	      0.00458677	      0.00000232	     -7.55693394	      0.00000310
    143.55600000	      6.17941323	      8.23526285	      5.95364498	     13.93695851	      5.23267514	      5.66449455	    162.41377499	      7.81741755	     41.04453586	      7.21400653	      4.44348469	      9.90930566	     21.63393798	     44.04026985	     91.45287571	    145.45830209	     45.53868230	    193.60347340	    108.36177532	    109.91396060	     15.85922120	     20.33561409	     22.47887756	      3.10525023	     11.35797978	     14.93707381	     52.88723824	     81.66143054	     17.21154044	     11.94275961	      2.78624792	    557.73961447	     34.78754725	     66.38880846	      3.75628168	    104.67526265	     16.99252897	     11.01880654	     33.84089637	     18.49858510	    -12.31794904	     32.66802169	      1.72920685	    -11.76232600	     -1.19751830	     -7.80374230	     -0.01172571	     -0.00601086	      0.00145012	      0.00324731	      0.00902521	     -0.00207832	     47.43343168	    -10.79354395	     -2.60858232	     -6.65765336	      0.90945700	     -0.52987022	      0.00000000	     -0.00000000	      0.00000000	     -0.76994023	     -0.36612270	      0.20984754	     -0.00000000	     -0.00000000	     -0.00000000	     -0.00000000	     -0.00000000	      0.00000000	     -0.04925864	     -0.27058490	      0.47707631	     -0.00000000	     -0.00000000	     -0.00000000
    143.57296000	      6.55916354	      8.67992586	      6.33718285	     16.33273778	      5.34919856	      5.95483225	    204.73403422	      9.91812800	     29.93791829	      5.21426784	      4.27318189	      9.58086835	     20.34394492	     41.65266233	     94.64794213	    158.08831761	     56.72948319	    161.06272493	     93.04882964	     97.54739427	     12.84175737	     16.58875799	     17.10795283	      3.06423563	     11.59848987	     10.35317718	     34.44477462	     60.79954935	     17.56164416	     12.74700393	      2.75421590	    720.32995066	     43.45368196	     63.30700805	      3.54536113	     72.18710825	     16.18644889	     11.79485112	     35.77763342	     19.66578158	    -35.50861074	      5.78975551	     -0.91052930	    -20.49147340	     -1.70023386	     -3.39874210	     -0.01311390	     -0.00589726	      0.00118912	      0.00638059	      0.00620586	     -0.00133130	     48.11929765	     -1.94633145	     -2.92223149	     -6.55773226	      1.54821400	     -0.58918669	      0.00000000	     -0.00000000	      0.00000000	     -0.86908587	     -0.21410512	      0.23196388	     -0.00000000	     -0.00000000	     -0.00000000	      0.00000000	      0.00000000	     -0.00000000	      0.07958687	     -0.28644974	      0.47414693	      0.00000000	      0.00000000	      0.00000000
    143.58992000	      6.93048253	      9.09711436	     13.96874779	     23.10493727	      6.50152310	      6.26711998	    229.43030847	     15.01147799	     11.26680035	      3.64436544	      4.24736965	      9.40842052	     22.92758190	     47.22620325	     41.79715822	     84.98017782	     59.96998030	     75.18835591	     35.00159683	     30.04840952	      7.37275461	      5.78489504	      4.96964630	      5.68065416	     11.83428838	      6.42209166	     13.55411957	     10.01613155	     17.87329393	     14.37677290	      2.71719759	    807.97247706	     53.60572382	     58.10619987	      3.48600104	     51.59668852	     16.29609956	     13.12349069	     39.53356302	     21.72070657	     -8.14129404	     -6.63021547	     -3.00785026	     -0.53741290	      0.62293704	      4.16967210	     -0.01077404	     -0.00008139	      0.00149267	      0.01234573	      0.00309418	      0.00031811	     62.42052057	      8.33880941	     -2.33493363	    -11.58200457	      2.39739013	     -0.57120042	     -0.00000000	      0.00000000	     -0.00000000	     -0.92980274	     -0.09075694	      0.22583376	      0.00000000	      0.00000000	      0.00000000	     -0.00000000	     -0.00000000	      0.00000000	      0.19272127	     -0.29186990	      0.45210373	     -0.00000000	     -0.00000000	     -0.00000000
    143.60688000	     23.32285614	     27.11591878	     21.89423255	     29.50451741	     19.67118900	     15.58382884	    242.28804501	     19.96645510	     11.94667066	      4.77260456	      4.55806793	      9.75882381	     52.58960800	     85.06714406	     10.65250550	     19.52414689	     59.31681574	     23.99831185	      9.18873716	      9.66881599	      5.61110123	      4.51714310	      4.39828347	     10.81464265	     12.04580666	      6.05778600	     12.85186048	      9.66964575	     18.09750691	     17.16320067	      2.69162571	    816.09873711	     62.01731221	     50.25270537	      3.57626604	     78.47231403	     21.31994592	     14.93335316	     45.01103806	     24.47717484	     19.74476093	    -17.44765716	     -2.40763049	     17.55261072	      3.06008811	      7.54430181	     -0.00852803	      0.00507467	      0.00200308	      0.02003530	      0.00344789	      0.00082147	     73.24800209	     12.37190427	     -1.58043443	    -15.65734066	      2.78937771	     -0.59721027	      0.00000000	     -0.00000000	      0.00000000	     -0.96379261	     -0.03611186	      0.18895547	     -0.00000000	     -0.00000000	     -0.00000000	      0.00000000	      0.00000000	     -0.00000000	      0.28563282	     -0.28986731	      0.42132916	      0.00000000	      0.00000000	      0.00000000
    143.62384000	      7.96253227	      9.63026520	     11.79359081	     16.42233686	      8.81566520	      7.13162074	    250.35194412	     29.04474129	     27.13595597	      6.91381909	      4.40441851	      8.64924156	     52.43320926	    140.72089744	     23.56412904	     50.77109469	     41.34823252	     32.89657882	     16.18223403	     15.76348513	      5.76677696	      5.54842732	      5.29879289	     10.90763912	     12.11391823	      6.28840907	     12.55607575	     10.69045356	     18.08812154	     20.44095744	      4.06936773	    780.18170256	     66.59926980	     41.51292973	      3.77146671	    108.67300980	     15.33114702	     16.84175730	     50.95459593	     27.34783217	     21.22717497	    -26.58258314	      2.76482707	     13.12160665	      0.97132496	      0.95862556	     -0.00682207	      0.00094452	      0.00088011	      0.03360072	      0.00478839	     -0.00013342	     69.85599616	      9.18133293	     -0.72166231	    -14.63620711	      2.43746969	     -0.62012116	     -0.00000000	      0.00000000	     -0.00000000	     -0.97533616	     -0.07602504	      0.13652443	      0.00000000	      0.00000000	      0.00000000	     -0.00000000	     -0.00000000	      0.00000000	      0.36050273	     -0.28428854	      0.38965257	     -0.00000000	     -0.00000000	     -0.00000000
    143.64080000	      6.91131809	      9.15851296	      7.03686599	      8.64784226	      5.72438353	      6.29041420	    245.87125619	     33.39169531	     43.91149125	      8.31252964	      4.04500879	      7.77947321	     37.72017104	    148.79306102	     64.01734832	    114.82511273	     32.53564462	     52.33352343	     47.24536260	     65.03280785	      5.94607858	      8.74578687	     10.73891741	      9.42703952	     11.98673771	      8.09968058	     20.01925984	     61.71783369	     17.90993098	     23.16717213	      6.76639805	    693.41093838	     66.55571256	     35.11159571	      4.00230156	    121.77265540	     14.07109655	     18.38415463	     55.81275541	     29.65717842	     -0.25101128	    -22.78120537	      4.75319912	     -8.29046904	     -2.76738788	    -10.01839787	     -0.00670729	     -0.00399221	     -0.00035182	      0.04178920	      0.00619360	     -0.00127310	     54.72092494	      4.75428016	     -0.18079254	     -9.43316145	      1.71146073	     -0.58132052	      0.00000000	     -0.00000000	      0.00000000	     -0.95065159	     -0.20627642	      0.09287204	     -0.00000000	     -0.00000000	     -0.00000000	      0.00000000	      0.00000000	     -0.00000000	      0.42306894	     -0.27493746	      0.36221127	      0.00000000	      0.00000000	      0.00000000
    143.65776000	      6.77039484	      8.95742207	     12.19838868	     18.25564086	      6.83974583	      6.21081167	    211.92396507	     22.20296047	     33.20098780	      5.82001320	      3.80412763	      7.41916531	     17.44330356	     52.19079150	     65.04566521	    134.48991476	     68.16129165	     26.48408948	     32.26658810	     49.73568112	      4.96449894	      5.93195767	      7.11310300	      7.82074040	     11.84756714	      7.01153247	     20.20548751	     37.63849086	     17.68357208	     25.05519947	      3.22091260	    533.72604318	     56.63252773	     32.19531447	      4.08037573	     69.60021836	     13.80738682	     19.28379522	     58.69093587	     30.98401908	    -26.37271491	     13.78032689	     -4.52014699	    -24.74056733	     -0.52915007	    -13.27718926	     -0.01072682	     -0.00100523	     -0.00000025	      0.02806517	      0.00480839	     -0.00141995	     37.73247562	      6.47277282	     -1.00612346	     -4.23430189	      1.20670236	     -0.48548698	     -0.00000000	      0.00000000	     -0.00000000	     -0.87165041	     -0.38323525	      0.07980542	      0.00000000	      0.00000000	      0.00000000	     -0.00000000	     -0.00000000	      0.00000000	      0.47828465	     -0.25721216	      0.34376957	     -0.00000000	     -0.00000000	     -0.00000000
    143.67472000	     30.71854297	     36.44830959	     38.10368449	     33.80565914	     37.25568735	     43.90279031	    152.31217691	      5.44068465	     49.56736031	      6.46307337	      3.91122315	      7.66646521	      7.76034939	     13.56942949	     22.48156177	    126.95890336	    147.71797050	     13.53160146	     10.15281304	     11.33735702	      4.33727063	      4.87428479	      5.43204729	      7.76573450	     11.64622301	     10.32431972	     41.63416064	     14.37592925	     17.45943374	     25.92128254	      2.51434812	    255.07958659	     31.11667720	     33.38652965	      4.08676947	     74.73511488	     14.69564306	     22.19515083	     62.60844507	     34.84245436	    -46.44705396	    110.03370566	     -5.63012163	    -28.49967859	     -2.58075052	     -5.96130709	     -0.01171929	      0.00917791	     -0.00399146	      0.00078499	      0.00868977	     -0.00310789	     24.94577585	     18.50700600	     -4.29356408	     -2.10280383	      1.21657370	     -0.33623530	      0.00002398	     -0.00012030	      0.00003916	     -0.74779493	     -0.54228355	      0.09903527	     -0.00000000	     -0.00002030	     -0.00000000	      0.00000000	      0.00000000	     -0.00000000	      0.52748304	     -0.22660658	      0.33864485	      0.00000000	      0.00000000	      0.00000000
    143.69168000	    252.79946711	    456.75419049	     67.88576136	     92.14305410	    104.10160073	    136.85441183	     11.58731538	      5.09426222	      6.21090024	      3.31696102	     29.37265115	    100.59355349	      9.75425988	     15.67773936	     11.05582954	     14.58998728	      9.38316283	    440.22186026	     10.20021562	     11.48158028	     87.90582945	      5.19182744	      5.58165454	     20.44842377	    350.39699786	      4.41773563	      9.82147702	     15.47910507	    414.12923304	     25.54612753	      2.53597958	     75.31303713	     20.51969395	    321.58367562	      9.70272465	    164.55479774	    444.12283827	    111.58769601	   1066.47880085	    277.34593707	     40.70572710	     22.81958885	     11.90169217	     51.57114406	     -0.79429996	     49.96116947	      0.01332747	      0.04187326	      0.01977443	     -0.00608256	     -0.00281804	      0.00753933	     13.61705537	     30.83652945	     -7.58943690	     -1.96183237	      1.52282852	     -0.24771253	   -114.70174009	    268.07493777	      9.19087315	      0.16644422	      0.04130172	      0.06841822	      0.00000307	    -25.81516730	      0.00000933	     -0.00000000	     -0.00000000	      0.00000000	      0.56850462	     -0.18373100	      0.34749897	     -0.00000000	     -0.00000000	     -0.00000000
    143.70864000	      6.18621019	      8.29791073	      5.38645408	      5.59614133	      5.16224475	      5.76945426	    181.46131860	      5.46590743	      5.43937193	      2.97760760	     56.13781364	    198.86739256	     90.96098616	    152.27856359	    608.84033242	    975.02773963	    124.29663960	    735.70080989	    605.31261937	    816.82668004	     43.32279797	    101.73874772	    156.14133056	      2.56664030	     11.36732873	      4.27934073	      9.61362334	   1295.53945943	     17.29280822	     24.29225721	      2.61864123	    380.74437313	     18.44091890	   1773.02545235	     33.27607018	    130.93019739	    897.43706596	     58.81282050	    555.51744784	    146.02099061	   -102.54201905	   -154.20346381	    171.44747870	   -149.84690795	   -153.15558141	    -82.62227581	     -0.04308057	     -0.04717335	     -0.00157703	     -0.00367636	     -0.00741721	      0.01065006	      5.91270019	     23.57753676	     -4.62497380	     -3.07356750	      1.87512496	     -0.44695997	     -9.11958825	    693.71653989	   -141.78167571	      0.22146897	      0.10983816	      0.02875248	      0.00000795	     27.47663328	      0.00004292	      0.00000000	      0.00000000	     -0.00000000	      0.59847197	     -0.13651981	      0.36634242	      0.00000000	      0.00000000	      0.00000000
    143.72560000	    353.90594694	    686.46509657	    105.70011430	      5.37195577	    268.89819849	    692.52449150	    253.70539047	      5.68483392	      4.88352299	      3.49506510	     84.87707875	    286.13957850	     71.42768162	     25.30694900	     10.90572292	    906.45078785	    781.79030815	     12.38295505	      9.83850536	     11.32203750	      3.81528641	      4.70870757	      5.74138881	     77.46551821	     11.52729571	      4.19063334	      9.49104239	   1673.14681466	   1167.13775367	   2704.04008205	     74.10864371	     20.04810061	      5.52373554	   1086.05510806	      4.01599362	    219.98235041	   1417.13444298	     28.52040886	    261.53915273	     69.89632740	     66.52970238	    -14.12155227	    -91.24350609	     71.22733466	     88.99177568	     -6.88639914	      0.10409471	      0.08520636	     -0.13653466	     -0.00198724	     -0.00063321	      0.01525616	      6.31265276	     -2.72637448	      3.83908721	     -5.58606122	      2.11403825	     -0.75889347	   -208.98059828	    809.49301860	     76.01473010	      0.17879550	      0.08503144	      0.03028585	      0.00000975	     37.86110669	      0.00004358	     -0.00000000	     -0.00000000	      0.00000000	      0.61576817	     -0.09914285	      0.39130842	     -0.00000000	     -0.00000000	     -0.00000000
    143.74256000	    154.46348268	    289.70652678	     59.31917476	      5.32507165	    101.46886068	    214.14319731	    135.08896469	      5.78298288	      4.51121441	      3.53429085	     91.78614561	    316.45231883	     59.52463076	     30.82500922	     10.68671338	    234.05697564	    275.83670287	     12.72124669	      9.86221590	     11.08918622	      3.99385031	      4.88664762	      5.88718981	     26.71511847	     11.98875996	      4.28110887	      9.75438370	     67.56737566	    264.42239910	    541.86818321	      7.11507173	     20.29576534	      5.80568629	   1848.00303322	      4.23133604	    168.36141570	   1587.22887237	    127.38224088	   1213.91489868	    324.07396897	      1.21649320	     94.35680823	   -114.29745661	      7.08101234	     98.60255804	     17.70349926	      0.01817282	      0.03542631	     -0.03040477	     -0.01011387	      0.00227658	      0.01618254	      9.69616162	    -21.99420583	      7.59055954	     -8.06377950	      2.02746884	     -0.67367937	   -166.63486201	    906.48369033	     69.41803638	      0.17627963	      0.09536282	      0.03566195	      0.00000714	     -7.07509460	      0.00004274	      0.00000000	      0.00000000	     -0.00000000	      0.61927257	     -0.08732573	      0.42206205	      0.00000000	      0.00000000	      0.00000000
    143.75952000	      6.56021440	      8.99026863	     19.81393782	     88.79067285	      4.96259603	      5.85444703	    187.27790795	      5.77518590	      4.26921214	      2.46661826	     67.60633927	    249.29073604	     73.89977099	     36.53652875	    100.52491007	     78.48196734	     47.26128725	   1737.53202778	    653.08516165	    364.94816780	    190.18284426	    156.82968179	    101.42189462	      2.69911732	     12.64412248	      4.56779243	     10.47257109	     13.75943161	     18.47181842	     22.76872682	      2.69935709	    821.45670794	     64.05067011	   2942.41994667	     51.42725718	     84.85988232	   1187.45311736	    160.81037471	   1536.91050734	    411.29595356	    -44.43678109	      6.72082679	     88.59942993	    -46.97744432	    -98.40934750	      9.02749690	     -0.05533277	     -0.01859345	      0.02469023	     -0.01292525	      0.00289170	      0.01275122	     14.75881223	    -19.92746299	      2.72105505	    -10.57962211	      1.82513145	     -0.24824371	   -106.24911683	   1124.48758404	   -112.30003410	      0.17617589	      0.09463412	      0.02767537	      0.00001504	    -57.92795911	      0.00005194	     -0.00000000	     -0.00000000	      0.00000000	      0.60680337	     -0.11260812	      0.45711093	     -0.00000000	     -0.00000000	     -0.00000000
    143.77648000	      6.86204364	      9.37731377	     14.46310895	     36.88364466	      5.14424827	      5.99365957	     56.32007695	      5.73011872	      4.14308232	      3.43634162	     93.33086236	    357.15225695	     89.06287495	     41.34754509	     16.27639051	     25.30217372	     42.47478001	    522.39197200	    161.58010840	     62.39547787	     61.20692988	     40.23525284	     16.74785608	      2.71620239	     13.12081275	      4.89967834	     11.30518640	     11.47697999	     18.79261416	     23.40505230	      2.70102621	    204.83160963	     17.54167839	   2799.03011501	      9.99454206	    142.61814401	   1629.53442134	    147.05493793	   1408.69703879	    376.13769518	      5.61403253	     -5.82724244	    -15.34937069	      7.89967657	     15.60649013	     18.13498279	     -0.02102924	     -0.00327072	      0.00806769	     -0.01134572	      0.01263312	      0.02140805	     23.58434506	     -8.09870967	     -3.75440427	    -12.76589131	      1.80841035	      0.01114418	    -89.02404484	   1204.00716587	     -3.09791626	      0.16839355	      0.07731354	      0.02476823	      0.00001275	    -18.19474993	      0.00004847	      0.00000000	      0.00000000	     -0.00000000	      0.57425092	     -0.17917931	      0.48875905	      0.00000000	      0.00000000	      0.00000000
    143.79344000	     25.76281708	    113.31175224	      5.06135287	      5.03334514	     23.39164510	    121.18490896	     11.07066881	      5.73401146	      4.18872467	      3.79173567	     79.95547230	    323.06109607	    231.25407222	     45.10420273	    323.11940255	    639.29752970	    161.67589555	     14.25271629	      9.78044614	     55.78033745	      4.83757592	      5.33502219	      5.75118475	     11.66244645	     13.16332155	      5.13700414	     11.87225919	    628.59251470	    207.74812035	   1282.41535229	     24.50711802	     17.95024120	      5.40075868	   3009.57392907	      4.80313183	    154.40148409	   1363.61248703	     42.58106715	    404.22656143	    107.84767501	     37.26857438	    -19.69213936	    -23.18277756	     33.08526392	     33.38839926	    -21.60580395	      0.03345334	      0.00810326	     -0.03793425	     -0.00312007	      0.01608929	      0.02262810	     30.62628250	     -0.41302722	     -5.53906495	    -12.32841034	      1.86589920	     -0.11137704	    -51.71022401	   1241.85068395	    -16.81431628	      0.17836649	      0.06681468	      0.01812621	      0.00001386	     38.03191952	      0.00004581	     -0.00000000	     -0.00000000	      0.00000000	      0.51516281	     -0.28059866	      0.50650347	     -0.00000000	     -0.00000000	     -0.00000000
    143.81040000	      6.96669889	      9.63337987	      4.96863458	      5.04547240	      4.91307154	      6.09435785	     11.64749477	      5.81904710	      4.45347692	      3.00326881	     41.09945702	    176.73147593	    215.29912949	    345.40536731	    194.37556246	    296.75513442	     13.05516207	    361.99343205	    227.66487863	    264.83579504	     28.39294619	     51.16823954	     64.03435111	      2.68943774	     13.21863759	      5.26092192	     12.10357924	    291.88325069	     18.78199807	    203.82100037	      3.05233470	     17.72002569	      5.49337816	   3580.82872400	     28.93373920	     92.87333875	    680.81840472	     92.49568144	    888.48523253	    236.25773265	      7.29957503	     -5.42830415	      9.53306799	      1.29434691	     -6.73300808	    -12.13215207	     -0.01161984	     -0.01868540	     -0.00157147	     -0.00669672	      0.00778611	      0.01396614	     31.13589282	      0.12376800	     -2.20996434	     -8.66673228	      1.82458759	     -0.51322957	     29.69234684	   1209.18407016	    -58.09342295	      0.19684019	      0.05563681	      0.00677405	      0.00001457	     21.47254979	      0.00005155	      0.00000000	     -0.00000000	      0.00000000	      0.42256410	     -0.39749275	      0.50563221	     -0.00000000	     -0.00000000	      0.00000000
    143.82736000	      6.97286278	      9.70307318	      8.66834931	     56.19356632	      4.87782840	      6.12361818	    112.78326149	      5.73274575	      4.92911934	      2.80352124	     29.92116681	    134.24811316	    233.29924869	    623.56654647	     10.68077144	     14.22665749	     26.88976209	   1079.68213099	    287.46707160	     33.05398121	    139.48642613	     83.91672878	     19.06162773	      2.70005343	     13.39733464	      5.39832406	     12.26695002	     14.43563439	     18.69462263	     23.79214520	      2.67912216	    484.67146828	     46.88926315	   3722.84658674	     43.67793708	     71.85249027	    481.99861615	    125.26739571	   1206.01884262	    321.49842907	    -18.21173283	      9.23840531	     21.78993631	    -14.80617381	    -27.11247654	     13.31041497	     -0.04242575	     -0.01446839	      0.01955178	     -0.00928525	      0.00339794	      0.01182049	     26.95954286	     -0.39401760	      1.66652922	     -3.68974273	      1.70004859	     -0.87667950	    104.67608984	   1119.21552953	    -58.30583781	      0.20589945	      0.03733007	     -0.00435813	      0.00001396	    -13.35040293	      0.00004343	     -0.00000000	      0.00000000	     -0.00000000	      0.29415909	     -0.50336282	      0.49200593	      0.00000000	      0.00000000	     -0.00000000
    143.84432000	     61.50076510	     92.10995024	     23.37895024	     28.82780564	     27.50158907	     33.90584565	     29.31711381	      5.73218988	      5.51174072	      3.39928470	     43.51655045	    188.32320124	    280.15912332	    699.78631251	     10.60168767	     14.01678499	     36.49236132	     13.99082841	      9.85665590	     10.79532347	      7.75463510	      5.42560078	      6.07802613	      3.73725931	     38.97404384	      5.69220239	     12.68033089	     14.36468338	     22.56832033	     23.15719028	      2.68911375	    100.10558021	     14.50430852	   3423.87691319	      4.88615095	    192.95854904	    677.89644051	     99.78697248	    961.85030081	    257.91541640	     -3.64404709	     15.19050378	    -53.43957502	      5.20525663	     55.21526161	      2.60798803	     -0.00747775	      0.01076830	      0.00662965	     -0.00775052	      0.00842363	      0.01948913	     20.07488268	      3.31289867	      1.79656631	      0.49909466	      1.55263175	     -0.90485293	    130.98375271	    974.05274142	     39.57222214	      0.20924659	      0.01613541	     -0.00894383	      0.00001160	     -2.36772948	      0.00003412	      0.00000000	     -0.00000000	      0.00000000	      0.13598043	     -0.57690000	      0.47598937	     -0.00000000	     -0.00000000	      0.00000000
    143.86128000	      7.23196113	     10.04137381	      5.94055663	     32.60955507	      4.92275032	      6.31270051	     28.85166797	      5.85094776	      6.08656274	      3.04509787	     32.02564285	    144.22399851	    279.23489368	    845.26914417	     10.45872467	     13.89213223	      8.86929362	    592.74193234	     42.17948217	     10.43524409	     93.04036109	     28.01622969	      5.82143402	      2.75827265	     70.83625705	      6.12113545	     13.33559550	     12.60447071	     18.58711139	     22.12753309	      2.66728160	    266.84251934	     24.42317288	   3068.72811718	     26.63030327	    120.38181185	    484.92625951	     65.86019408	    634.82487463	    171.42795902	     -7.43210367	     -5.68619059	      4.78373006	     -8.22310286	     -5.84897806	      5.02649394	     -0.02260424	     -0.00696368	      0.01621233	     -0.00534672	      0.00160021	      0.01553892	     10.24449986	      6.14253400	      0.60570858	      3.16546147	      1.42712345	     -0.72267703	    156.06844545	    801.73969472	      0.03916362	      0.22840967	      0.00246320	     -0.01155567	      0.00000943	    -11.13833035	      0.00002572	     -0.00000000	      0.00000000	     -0.00000000	     -0.04042506	     -0.60945585	      0.46164092	      0.00000000	      0.00000000	     -0.00000000
    143.87824000	      7.32691445	     10.13384340	      4.87324695	      4.90513364	      4.95567275	      6.42294155	     10.96876341	      7.02155587	      6.62567447	      3.24749287	     12.26367699	     60.51780873	    195.00041448	    691.82726930	     11.77840709	     14.10352438	      8.93747269	    606.19122724	    196.64597356	    113.98762435	     81.12674663	     63.02397950	     38.50963278	      2.76397626	     66.00513516	      6.48833819	     13.86804123	     14.76679480	     18.44563632	    171.52315307	      3.94541838	     18.30755679	      5.72403645	   2052.56992758	     54.62695250	     12.22113984	    178.01135422	     25.22566411	    145.96486548	     48.35075288	      0.21749857	    -17.45137839	     26.55938109	      1.86625480	    -29.63951677	      0.55619952	     -0.00193336	     -0.02128012	      0.00487643	     -0.00124137	     -0.00561913	      0.00587260	     -0.51367969	      1.09403965	      2.86513810	      4.64392104	      1.38364041	     -0.65634017	    148.21781898	    590.31146363	    -20.40892609	      0.22730416	     -0.01608687	     -0.01101938	      0.00000677	     -1.65806748	      0.00001930	      0.00000000	     -0.00000000	      0.00000000	     -0.22346712	     -0.60241648	      0.44480143	     -0.00000000	     -0.00000000	      0.00000000
    143.89520000	     68.33081584	    236.04482860	      4.90816320	      4.86103454	      5.31824038	     71.76169829	     11.01746804	     23.23282468	      7.12021839	      3.52087306	      9.64366514	     42.16842987	    180.08337840	    636.39526676	    118.70301723	     14.18676724	      9.13259332	     13.43812433	     78.80380647	    244.20780767	      4.88321757	     24.86922180	     58.06127406	     15.34419757	    150.31985347	      6.59852002	     13.92287217	    348.37351561	    393.94780924	    468.55263197	     22.75481190	     18.37358533	      5.69436239	    718.56173681	     22.30620929	     35.59109666	    137.29352788	     15.31588749	     46.19297606	     25.05894615	     19.24997205	     -2.97859773	    -13.45854097	     14.72404088	     16.17965125	    -16.66001394	      0.05535759	     -0.00262061	     -0.01570084	      0.02430386	     -0.00072769	      0.00465777	     -9.59304758	     -7.50584274	      6.91818208	      6.22976097	      1.38861791	     -0.68833673	    105.04514987	    359.42602170	     10.52814130	      0.22073057	     -0.03512058	     -0.00312141	      0.00000457	     20.09890269	      0.00000992	     -0.00000000	      0.00000000	     -0.00000000	     -0.40312642	     -0.56020503	      0.42126495	      0.00000000	      0.00000000	     -0.00000000
    143.91216000	     48.06947926	    182.86084178	      4.93876361	      4.90971026	      5.09628477	     31.75716008	     10.95001957	     28.76038560	      7.48801874	      4.47454233	      9.86081064	     38.42907141	    150.32199788	    421.35156183	     10.55946805	     14.33812382	      9.34899063	     76.39137258	     69.55840650	    107.64845978	     21.01181785	     38.16850336	     39.88957502	     10.91573636	    263.46546035	      6.43235507	     13.51167434	    146.81305793	    392.62199394	    243.55843870	     21.52985246	     18.08605724	      5.67288798	    246.60111797	     43.54359613	     82.69436272	    135.59125937	     15.89502237	     47.96193139	     25.94492970	     12.82942055	      6.90103297	     -6.63870768	      9.74385879	      9.85971661	     -3.44824896	      0.05512937	     -0.01044609	     -0.00660038	      0.03247123	      0.00113721	      0.00448950	    -18.31759961	     -8.16317076	      6.76855682	     10.16979711	      1.28399858	     -0.52231680	     62.36104755	    181.20503694	      6.56265318	      0.21898324	     -0.05043652	      0.00491953	      0.00000193	      4.85859640	      0.00000670	      0.00000000	     -0.00000000	      0.00000000	     -0.56864298	     -0.48700214	      0.39497285	     -0.00000000	     -0.00000000	      0.00000000
    143.92912000	    252.83018835	    295.27385752	     35.56839820	    164.83894178	     40.07800836	      6.54557804	     10.67828489	      5.99014481	      7.62124243	      4.08901459	      8.06830072	     29.90001804	     24.53823728	    205.20756360	     10.64160611	     14.54195600	      9.48163083	    681.77741655	      8.72874837	      9.22430478	    317.35570897	      4.74063265	      4.52036397	      2.64662072	   1109.43907644	      6.14829591	     12.95031099	      8.25308177	     51.01953545	     22.98365117	      2.52568882	    973.72148343	    105.68376708	    398.67260220	     72.57812506	     30.79527922	    102.30052775	     46.66261571	    436.08110193	    117.51481979	    -22.44274992	     14.29158051	     20.66802261	    -19.32023868	    -21.07606205	     19.12076843	     -0.04377079	      0.01443900	      0.11692631	     -0.00300898	     -0.00092838	      0.00298567	    -26.89562313	      0.76853530	      2.11647889	     16.34530635	      1.00000739	     -0.11281659	     39.70654449	     71.72147084	     -6.89935497	      0.29068727	     -0.01924515	      0.00912473	      0.00000095	    -22.94429660	      0.00000137	     -0.00000000	      0.00000000	     -0.00000000	     -0.70738784	     -0.39018799	      0.37883504	      0.00000000	      0.00000000	     -0.00000000
    143.94608000	     48.23774599	    155.91699577	      4.96823718	      4.95147886	      5.14613045	     35.70859712	     10.24932654	     43.49005723	     76.32166943	     12.51073809	      3.98534412	      8.56095744	     29.50888747	    166.65071104	     10.75574173	     14.68861351	      9.52874869	     17.13311124	     29.51360423	     56.72500556	     12.05214455	     24.19179880	     25.66857881	     17.37036374	    208.07788938	     15.07712929	     50.83206005	     81.45045183	    318.45947284	     24.08451329	     20.25699957	     55.08587176	     10.66488163	     48.20334408	     20.08319566	    191.14523360	     15.01442524	     17.69847201	     53.60563620	     28.65011279	    -16.42785397	     31.64469252	     16.51940142	     -8.25829509	    -10.90566528	     -6.61495392	      0.04497558	     -0.00707900	     -0.00487917	      0.05453263	      0.01160563	     -0.00255578	    -28.74521894	      8.53216512	     -1.88997265	     21.13716885	      0.60240813	      0.24485662	      0.00000006	      0.00000010	     -0.00000001	     -0.17710277	     -0.37733072	      0.15325923	      0.00000000	     -0.00000004	      0.00000000	      0.00000000	     -0.00000000	      0.00000000	     -0.80917824	     -0.28398018	      0.38772351	     -0.00000000	     -0.00000000	      0.00000000
    143.96304000	     69.76567367	    182.04831575	      4.98509974	      4.93925688	     11.45587861	     59.76579283	     13.22570940	     38.36646698	     58.85665098	      9.87319001	      4.07630944	      8.81507480	     37.40148661	     80.18558771	     10.89104395	     14.81494734	      9.52119160	     13.10762890	      9.32161082	     26.68562847	      4.81938152	      8.08063503	     16.23221087	     19.28190198	    153.02488937	     10.90317492	     30.06001851	     79.31200000	    285.79905342	     24.67937088	     16.80103971	    100.93852315	     20.25150811	     55.48162201	      5.34141752	    152.16924525	     15.52025449	     18.60745590	     56.52078662	     29.99720664	     -3.77509009	     -9.08542502	     -3.18811369	      0.57237683	      3.29913717	     -4.81570585	      0.03839984	      0.00012668	     -0.00519243	      0.04884320	      0.01046707	     -0.00195275	    -20.89156809	      4.41080466	     -1.68998988	     20.78590238	      0.13815681	      0.30017850	     -0.00000000	     -0.00000000	      0.00000000	     -0.09707071	     -0.38257502	      0.19898917	     -0.00000000	      0.00000000	     -0.00000000	     -0.00000000	      0.00000000	     -0.00000000	     -0.87274353	     -0.18345968	      0.42951509	      0.00000000	      0.00000000	     -0.00000000
    143.98000000	     77.06266807	    197.34061812	      4.96235023	      4.90794184	     13.26980978	     63.07070595	     12.38269497	     40.80099195	     59.66649636	      9.99830289	      4.16735528	      9.13922048	     26.85820474	     67.13030868	     11.04860969	     14.94554599	      9.49207751	     13.10019117	      9.17748598	     10.47564366	      4.93045921	      7.18674315	     12.29831863	     20.43561616	    183.46066931	     10.47509101	     25.41961771	     65.42504783	    315.01806175	     24.55846675	     17.88307869	     97.91667535	     22.06381624	     65.17168225	      6.16567860	    151.92289458	     16.13351941	     19.38923572	     59.04514570	     31.15074594	     44.27243197	    -46.44892268	    -25.95095835	     23.27896973	     20.63869106	      0.06012875	      0.04206677	     -0.00019200	     -0.00389017	      0.05224358	      0.01303853	     -0.00211116	     -5.46371887	     -8.79434328	      0.36650229	     16.43430748	     -0.32097859	      0.07576903	     -0.00000000	     -0.00000000	      0.00000000	     -0.01857403	     -0.36988169	      0.25503245	     -0.00000000	      0.00000000	     -0.00000000	      0.00000000	     -0.00000000	      0.00000000	     -0.90601168	     -0.09298533	      0.50147240	     -0.00000000	     -0.00000000	      0.00000000
