DataType=double
version=3
OpenSimVersion=4.5.2-2025-05-03-6a4c6ec41
endheader
time	/jointset/patellofemoral_r|reaction_on_child_1	/jointset/patellofemoral_r|reaction_on_child_2	/jointset/patellofemoral_r|reaction_on_child_3	/jointset/patellofemoral_r|reaction_on_child_4	/jointset/patellofemoral_r|reaction_on_child_5	/jointset/patellofemoral_r|reaction_on_child_6
14.03332692999706	-4.341158358732269	8.221963975462906	-71.7797955406424	2307.18651541823	-862.0521981842201	163.9329505150987
14.05066024599705	-4.011744821713834	6.104545170467682	-52.78008371820138	1704.164750844956	-759.5136119362202	93.62091195099686
14.06799356199704	-2.368534540539345	2.653170427168503	-24.08328308312201	798.3178468622677	-403.5500641702977	35.26041504733481
14.08532687799704	-1.521380478920405	1.190738900160218	-10.21870803290777	353.9679176958804	-196.421788432054	7.553078035917505
14.10266019399703	-1.535011028837156	1.272337746051465	-8.778925202601913	306.0607555973466	-184.4685153861388	-0.5660514347869174
14.11999350999702	-1.581616785022207	1.362536008785143	-9.528667616007475	316.5424572189186	-207.6831651726254	-0.3345385388319859
14.13732682599701	-1.739254521484781	1.534519486276632	-11.97065040147061	366.2035836408169	-260.3622436033938	3.025144335974062
14.154660141997	-2.031861038716438	1.790520770686974	-15.89992028044332	443.6135022812757	-339.9976795943329	7.492109434804901
14.171993457997	-2.554410672383057	2.187598151993274	-21.5847705282274	552.8704408671852	-454.6370209178061	10.77889012958738
14.18932677399699	-3.423239561629723	2.839930751592505	-29.36569428993193	700.1642329363696	-613.656108024668	9.414507429227287
14.20666008999698	-4.62348540194475	3.805586830775025	-40.03290143961444	902.4779633345647	-837.6404642729379	5.789282878638933
14.22399340599697	-5.783420071630797	4.956407077153768	-53.68194357006039	1162.785588063304	-1129.807199533934	10.03472218962868
14.24132672199696	-6.440314575407457	6.137944452737086	-68.80053135881819	1458.61900346796	-1461.959688457494	28.79991700797343
14.25866003799696	-6.473589567630166	7.281822683883042	-82.85749364203798	1753.217186365496	-1786.549327442612	57.2430122467941
14.27599335399695	-6.078493573980979	8.380437915948592	-93.96871036689936	2018.203775705367	-2057.922130674895	85.07612962500379
14.29332666999694	-5.338500148184428	8.803182633029964	-100.7082614290033	2198.710022120872	-2229.423073072147	109.2421674297214
14.31065998599693	-4.138513391201042	9.03572691201993	-102.8177556120144	2315.186818900113	-2264.637873616361	136.3946798634453
14.32799330199692	-2.018473993300804	8.759695291427001	-101.2191304766266	2362.290404910413	-2170.194170933365	191.7635063502298
14.34532661799692	1.113622361376417	7.728787699517799	-96.62054831037003	2348.019440453631	-1960.804884819381	279.1030775440713
14.36265993399691	4.683970091669844	6.156864435842505	-89.74420965613963	2274.505863231774	-1670.056465558921	383.7688462782111
14.3799932499969	7.866122664202278	4.631954426393055	-81.36268336617549	2139.270903740753	-1345.110416044549	478.5707119224416
14.39732656599689	9.943882501862593	3.721318354642259	-71.54932002272599	1937.114627061861	-1015.853407999871	535.1586599523322
14.41465988199688	10.70593093698215	2.988431517820485	-60.07613899215441	1655.513330464122	-711.263145303737	536.6816833936191
14.43199319799688	10.07837900276742	2.296545457855661	-47.40773587180927	1322.397272569553	-456.9840481902472	484.9410915073786
14.44932651399687	8.326116191449723	1.791782744025023	-35.13803113745796	998.2174608665714	-264.0244247660281	400.177204458088
14.46665982999686	6.106825479034061	1.402240676405176	-24.70007944909169	721.4081687723381	-134.7004376712221	305.6352064365749
14.48399314599685	4.112088089284611	1.09191106993202	-17.13162546554025	520.8973383542573	-60.16006531222187	225.0922390310855
14.50132646199684	2.540932212024831	0.8254726284737008	-11.94595206129537	383.9698713629737	-20.88583614150242	162.9608460312194
14.51865977799684	1.364754921144015	0.6077075436565322	-8.485610463420173	292.8641320925202	-1.410227829838842	116.4309767395832
14.53599309399683	0.5457103321272602	0.4539726035355505	-6.329610222175587	238.1053452593842	7.039592033181215	84.09553898525699
14.55332640999682	0.0318436773299968	0.3820540548380152	-5.181321585229085	210.8029359403174	10.46537476980118	63.51196273953187
14.57065972599681	-0.2698683141052669	0.3884327385336989	-4.792215408082429	204.494712144447	11.59256166807875	52.12405636460813
14.5879930419968	-0.415505087495932	0.4674770453774386	-5.017334295447824	216.8621953774527	11.23679027950525	48.90283244752482
14.6053263579968	-0.5331121219901795	0.5854548033958865	-6.204177542708788	262.3424193470748	9.436916290783502	55.51033807821803
14.62265967399679	-0.6623800340755092	0.7532418994433714	-8.339501437873139	335.3334098764723	4.507048100907618	67.1249833003196
14.63999298999678	-0.08007271809061053	7.728511499607292	-30.77623418286553	1149.215208694043	6.732562337178908	206.82257421946
14.65732630599677	-0.3202813664618215	22.83528438572892	-77.81792775732032	2774.981579498953	-37.84455075608145	399.6345054780911
14.67465962199676	-4.902930710562057	35.87132965334105	-118.3904959453753	4108.9078018275	-147.0966979933135	379.1078285023227
14.69199293799675	-13.30749023292473	46.38303682372718	-148.1270267418201	5083.878449606715	-308.5124749329654	171.9907770315659
14.70932625399675	-22.87321350736124	53.53718502657998	-165.5079632343137	5680.464970029309	-525.7854544662965	-129.0689270967668
14.72665956999674	-31.63356136398609	57.20139380898504	-170.1237943676032	5893.324222284663	-789.8315237290378	-463.0127056065355
14.74399288599673	-33.91397851328001	53.17658695987252	-148.610735711483	5233.200673110549	-970.6945455738446	-705.6231587309929
14.76132620199672	-28.64774192556053	41.62028755055735	-108.0410856191093	3895.608661043523	-955.9506811109142	-753.859981258929
14.77865951799672	-20.27100946513591	27.40946272361013	-66.46646324824994	2491.97163501902	-779.0343560445082	-639.603379246572
14.79599283399671	-10.29975995111694	12.3204680374365	-29.96153885387041	1194.7736770925	-465.4503559877336	-368.4596148699275
14.8133261499967	-4.256555981148492	3.808949754077398	-10.81236732025309	469.7379283581758	-222.1127625173701	-155.661717253811
14.83065946599669	-2.405239400614116	1.759265265507087	-4.49663920935621	209.0656670265952	-110.4302614741936	-83.00679367554037
14.84799278199668	-1.643819518584972	1.268542222824634	-2.633967998863952	111.8345150920322	-63.54410403220164	-53.40423857234678
14.86532609799668	-1.535970820328136	1.303024455072995	-2.932167495707497	103.689012320005	-64.45100000918717	-48.38064543480705
14.88265941399667	-1.434984425482314	1.246765860637986	-3.279705508934224	110.3081825992109	-74.48657420480484	-41.72072372765895
14.89999272999666	-1.33779025079328	1.103057537843864	-3.61206651894036	129.9344331140661	-94.81578712407503	-30.31627539358783
