DataType=double
version=3
OpenSimVersion=4.5.2-2025-05-03-6a4c6ec41
endheader
time	/jointset/patellofemoral_r|reaction_on_child_1	/jointset/patellofemoral_r|reaction_on_child_2	/jointset/patellofemoral_r|reaction_on_child_3	/jointset/patellofemoral_r|reaction_on_child_4	/jointset/patellofemoral_r|reaction_on_child_5	/jointset/patellofemoral_r|reaction_on_child_6
14.91999354999704	-10.96116659126674	8.91753826462474	-21.44502944968351	1131.183759414608	-173.3996421395416	-303.7703844730343
14.93532686799703	-6.914433308924666	6.747403787076996	-20.34541555360536	1043.350087635545	-311.8559821668285	-115.4010784261113
14.95066018599702	-4.201131428599106	4.528740021485516	-15.5289938185362	757.8015281499157	-311.7312982841852	-12.27381331578172
14.96599350399702	-2.732681471743949	3.036408739657522	-13.11731021657033	617.4449450756892	-328.4104540240958	38.44541316499119
14.98132682199701	-1.242045164008208	1.242165247861016	-14.13365238761613	636.4496055515398	-432.3201242257256	119.326546190521
14.996660139997	-0.6022292031510977	0.3148652473590919	-16.06080169011868	656.635359272175	-531.0920503801615	155.3633262600046
15.011993457997	-0.9501322491122023	0.8238769707771033	-18.71049118239457	675.4044754866272	-615.2479841630735	128.7518381217139
15.02732677599699	-1.570525585142513	1.879018147589225	-24.19433079218614	755.0409953966754	-753.5567797835857	93.96345947163718
15.04266009399698	-2.515126249181627	3.807994964623518	-33.64729386871272	906.8157843970025	-964.9847619318663	54.47016607653824
15.05799341199698	-3.268165509926013	6.294210577581107	-40.02973522670063	969.7244627395376	-1068.75037818293	2.665901351201962
15.07332672999697	-3.575392105128557	8.656680159723139	-41.49750373302412	948.6778553914578	-1051.456127898781	-48.52084260187896
15.08866004799696	-3.958428815305837	11.31711405470932	-43.69811508783615	982.7239114974819	-1069.673437293607	-99.38549130762713
15.10399336599696	-4.42035799621078	14.125165104552	-46.72220048972687	1071.445266624174	-1115.002902386913	-148.523455809125
15.11932668399695	-4.634101226670196	16.56196835232424	-50.27782918176081	1206.684737459183	-1162.559478089953	-176.170121597035
15.13466000199694	-3.91884139927632	17.71928773510884	-53.03730120096069	1349.49390920222	-1172.115829446756	-151.0072207356373
15.14999331999693	-1.703074261766415	16.47513195297674	-53.92242255781893	1426.902145944383	-1127.350915160829	-52.08203653951
15.16532663799693	1.438985003745264	14.09468514750786	-53.45567767462528	1464.602122947911	-1036.868432535491	94.99754201742036
15.18065995599692	4.549899805359286	11.09428788838668	-50.9147003614756	1430.477516107326	-897.3666176737357	245.579833876843
15.19599327399691	6.63353347233299	8.153724645544475	-47.36898033422685	1360.662426698775	-734.2531336213769	355.1311007521583
15.21132659199691	7.709044324887986	5.786660298032253	-46.48706296687609	1357.724482269823	-610.1997380145585	431.653142803544
15.2266599099969	8.063627524783952	3.940175346358441	-48.40161714571313	1424.873924397099	-522.3198855898482	487.1872703272775
15.24199322799689	7.920860654523263	2.326812499197001	-52.14794678372607	1538.434581977057	-451.3195623338207	522.3255317018115
15.25732654599689	7.312714118395106	0.3603045383757224	-56.58760978081892	1661.608719171955	-404.6515463422688	531.7232673793159
15.27265986399688	4.146522475553176	-0.7851706428920217	-51.48368318860218	1539.719042423572	-306.3276931511524	417.2330511437038
15.28799318199687	0.395280271501326	-1.044148453920018	-39.1270655810584	1224.009743078193	-191.8331298007357	246.6916999125688
15.30332649999686	-1.919843527114417	-1.000642642139821	-27.35877831104238	924.0507064267364	-108.0241306827476	116.8510706318034
15.31865981799686	-2.641207024151984	-0.7950789657368655	-17.57678765482206	668.0896260471783	-53.09646136013257	40.39607952320785
15.33399313599685	-2.402359005153402	-0.5227139803599863	-10.4145039522009	467.7219356485494	-19.09633908220358	7.330203916466037
15.34932645399684	-1.954514332451426	-0.2794513085927195	-6.090830843648612	324.0261298170536	0.7113276948286404	-0.8689786462139397
15.36465977199684	-1.533429802372032	-0.08867357971429618	-4.230021755280289	241.2890660351244	11.20588683006619	5.307847828894234
15.37999308999683	-1.215438779326595	0.1029658052709583	-3.358692231888194	184.3915928387931	15.2055647952692	10.74382286846911
15.39532640799682	-1.121292011436291	0.2780338410269146	-3.744856452290811	198.242240482515	17.11476868105371	23.17195945432299
15.41065972599682	-1.120067221243956	0.49422094157744	-5.356600022943412	283.6595324191358	14.89205366599916	49.81100182462215
15.42599304399681	-1.779542517367844	0.4805169306391088	-13.12886971591266	644.7330189763301	-1.532313870629441	134.3675718917518
15.4413263619968	-3.192358772023763	0.965866035483155	-31.02114785543971	1351.551920405096	-64.67272897737259	261.9633929812005
15.4566596799968	-4.90160738243145	12.83038246124691	-63.21523766185689	2513.028187237664	-160.2973309651277	336.0588560030229
15.47199299799679	-8.755072326549357	35.18746936961917	-101.2477977536083	3877.5433347552	-318.8492293056671	236.5405381474999
15.48732631599678	-18.19261561040433	49.36337023748317	-128.3088278113609	4859.088877248974	-554.0480693870688	-51.63207630314322
15.50265963399677	-31.26761734571581	55.96007791905253	-145.9538729518775	5528.650352833444	-846.0399141353575	-431.6641232982952
15.51799295199677	-37.43980988925593	57.86263363384271	-141.5541313703232	5396.22425896429	-1052.507752357931	-734.9501494665489
15.53332626999676	-34.49089919565877	54.43130991671197	-118.9679595635971	4579.639197242048	-1104.421375716391	-848.768515740095
15.54865958799675	-27.88588327289494	45.94768994375903	-91.49313555388906	3560.02283996611	-1047.044289789987	-809.7565833212275
15.56399290599675	-20.36440700697536	33.0376815998848	-62.93041036473279	2476.756255112883	-879.9270914965439	-659.456447825446
15.57932622399674	-14.06241258547691	21.08614258788914	-41.98654500814358	1652.904050171084	-710.0989441719437	-479.0241626910192
15.59465954199673	-8.824899472762688	11.53429114191971	-28.19812181744205	1089.165371754465	-568.4531307812944	-297.6403624528285
15.60999285999672	-5.361958262890764	5.748364852863496	-18.25349514489898	710.5909120226697	-433.2437624974916	-170.6249055900973
15.62532617799672	-3.851350388567974	3.600679830846369	-11.83822847143866	485.9323432657405	-322.6376196678393	-117.0096121013531
15.64065949599671	-2.920675192048143	2.511419189696345	-8.141166027878331	347.3302111020503	-244.1575881867838	-81.22961215311351
15.6559928139967	-2.45102973149901	2.034767901483275	-6.925363986944057	294.6535722784035	-216.6266680065446	-56.7120997881628
15.6713261319967	-2.074706420750792	1.659747538528109	-6.865911380149348	280.7481853662172	-212.343635282315	-29.50042173715557
15.68665944999669	-1.748943402986646	1.255417192959418	-7.693706957390418	294.7513024439941	-226.7983376754754	1.792760794701505
