Static Optimization
version=1
nRows=51
nColumns=59
inDegrees=no
This file contains static optimization results.

endheader
time	addbrev_r	addlong_r	addmagDist_r	addmagIsch_r	addmagMid_r	addmagProx_r	bflh_r	bfsh_r	edl_r	ehl_r	fdl_r	fhl_r	gaslat_r	gasmed_r	glmax1_r	glmax2_r	glmax3_r	glmed1_r	glmed2_r	glmed3_r	glmin1_r	glmin2_r	glmin3_r	grac_r	iliacus_r	perbrev_r	perlong_r	piri_r	psoas_r	recfem_r	sart_r	semimem_r	semiten_r	soleus_r	tfl_r	tibant_r	tibpost_r	vasint_r	vaslat_r	vasmed_r	pelvis_tx_residual	pelvis_ty_residual	pelvis_tz_residual	pelvis_tilt_residual	pelvis_list_residual	pelvis_rotation_residual	hip_flexion_r_reserve	hip_adduction_r_reserve	hip_rotation_r_reserve	knee_angle_r_reserve	ankle_angle_r_reserve	subtalar_angle_r_reserve	hip_flexion_l_torque	hip_adduction_l_torque	hip_rotation_l_torque	knee_angle_l_torque	ankle_angle_l_torque	subtalar_angle_l_torque
     14.05332739	      0.01005306	      0.01004529	      0.01003256	      0.01003267	      0.01003631	      0.01007303	      0.01002085	      0.01883200	      0.01006319	      0.01167424	      0.03292515	      0.05998215	      0.06903258	      0.16581448	      0.01004667	      0.01002169	      0.01001405	      0.17593052	      0.08444653	      0.05257983	      0.08804886	      0.07909964	      0.04694720	      0.01014330	      0.11708083	      0.01005060	      0.01002968	      0.03800230	      0.06330074	      0.24319269	      0.05023743	      0.01001725	      0.01003616	      0.11533343	      0.12854654	      0.04473774	      0.12272758	      0.01007308	      0.01003609	      0.01005848	      0.58093386	    -21.74339338	      3.57452897	      8.58609135	     -5.33516049	     -2.83847877	      0.00540965	     -0.00560263	     -0.00016292	      0.00159588	     -0.00031400	      0.00396997	     -0.01100672	     -0.07370408	      0.25495344	     -0.03779623	      0.01275528	     -0.02423583
     14.06946071	      0.01015101	      0.02768301	      0.01003119	      0.01002526	      0.01004708	      0.01018398	      0.01002341	      0.06906289	      0.01014492	      0.01182039	      0.01808284	      0.02900060	      0.09747759	      0.16625334	      0.01002578	      0.01001213	      0.01001084	      0.07051016	      0.04733645	      0.04685812	      0.05863453	      0.07251834	      0.05438274	      0.01629755	      0.17199673	      0.01009176	      0.01005276	      0.07154071	      0.15267902	      0.12676689	      0.08873832	      0.01002449	      0.01005225	      0.01928846	      0.11478922	      0.05439290	      0.06479212	      0.01001954	      0.01000657	      0.01001263	     -0.58863454	     -1.75182457	      0.11204581	     -0.52481829	     -0.34885123	     -0.41664983	      0.01023289	     -0.00493543	     -0.00187737	      0.00828798	      0.00052621	      0.00200869	     -0.07102465	     -0.09338996	      0.24491603	      0.00517909	      0.01081414	     -0.02238284
     14.08559402	      0.01811595	      0.09879760	      0.01003236	      0.01002322	      0.01006570	      0.01811215	      0.01002603	      0.09131514	      0.02706937	      0.01887868	      0.01150132	      0.01085147	      0.07956054	      0.13540235	      0.01002046	      0.01000958	      0.01000988	      0.01031506	      0.02642263	      0.05089925	      0.03775357	      0.06915754	      0.06203149	      0.04772999	      0.19390708	      0.01021083	      0.01007396	      0.09641314	      0.19787851	      0.05524926	      0.10305346	      0.01003178	      0.01007015	      0.01002935	      0.10230452	      0.08556016	      0.01179541	      0.01001344	      0.01000446	      0.01000864	     -1.97059998	      5.47860456	     -1.37273158	     -4.89277151	      2.59051508	      0.24126033	      0.01284448	     -0.00432907	     -0.00293013	      0.01155731	      0.00177562	      0.00039167	     -0.11628427	     -0.07155823	      0.20483511	      0.04859592	      0.00926490	     -0.01856560
     14.10172734	      0.06997911	      0.21938154	      0.01002755	      0.01001757	      0.01007744	      0.05917248	      0.01001994	      0.12665444	      0.10311242	      0.03258248	      0.01017397	      0.01005340	      0.04300947	      0.04653856	      0.01001217	      0.01000591	      0.01000710	      0.01003771	      0.01082357	      0.03532295	      0.02481498	      0.07521217	      0.07910497	      0.09091748	      0.28372705	      0.04010971	      0.06939118	      0.13288943	      0.30933703	      0.05417657	      0.14055917	      0.01002434	      0.01005882	      0.01000893	      0.11887916	      0.11587629	      0.01003038	      0.01000892	      0.01000294	      0.01000573	      2.32262056	     11.47030362	     -1.16372888	      0.46045334	      1.62208383	      1.44317812	      0.01974324	     -0.00447824	     -0.00434781	      0.01669613	      0.00364238	     -0.00256269	     -0.14982376	     -0.00599923	      0.13893491	      0.09325646	      0.00655881	     -0.01196088
     14.11786066	      0.11574382	      0.29015894	      0.01003737	      0.01001979	      0.01296421	      0.10093781	      0.01002329	      0.11624020	      0.09934693	      0.03133450	      0.01010065	      0.01004977	      0.02688624	      0.04408633	      0.01001168	      0.01000572	      0.01000803	      0.01001692	      0.01005369	      0.01943898	      0.01011653	      0.04378453	      0.07204290	      0.11279306	      0.26562695	      0.03515774	      0.06161848	      0.15429328	      0.32499315	      0.05074625	      0.12893116	      0.01002695	      0.01007122	      0.01000750	      0.07811375	      0.11723723	      0.01002886	      0.01000914	      0.01000301	      0.01000589	     -0.22649389	      1.91116719	     -0.82928313	     -0.73756356	      1.66840349	     -0.76010983	      0.02028379	     -0.00220298	     -0.00514128	      0.01569499	      0.00388997	     -0.00243135	     -0.19092345	      0.06874517	      0.08112496	      0.13515007	      0.00189846	     -0.00504325
     14.13399398	      0.13534621	      0.33497187	      0.01003418	      0.01001780	      0.01702335	      0.11151959	      0.01002109	      0.12605675	      0.11331688	      0.03594118	      0.01015409	      0.01004430	      0.01573162	      0.04691755	      0.01000992	      0.01000485	      0.01000688	      0.01001521	      0.01005467	      0.01116125	      0.01046531	      0.04479214	      0.07236424	      0.12393412	      0.31422023	      0.03989645	      0.07158885	      0.15812086	      0.37171513	      0.09239067	      0.14268307	      0.01002584	      0.01008464	      0.01000554	      0.09437226	      0.13417820	      0.01002353	      0.01000817	      0.01000270	      0.01000530	     -0.88851337	     -6.46488309	     -0.25464856	     -0.37887783	      0.08890551	     -1.32865493	      0.02316899	     -0.00240098	     -0.00503776	      0.01712726	      0.00478221	     -0.00293914	     -0.24699967	      0.10805193	      0.05498537	      0.17045990	     -0.00347596	     -0.00122699
     14.15012729	      0.12958426	      0.34686106	      0.01002527	      0.01001505	      0.01018358	      0.09611608	      0.01001719	      0.14699685	      0.13077239	      0.04057112	      0.01006556	      0.01003033	      0.01060734	      0.04850484	      0.01000756	      0.01000390	      0.01000526	      0.01002151	      0.01003836	      0.01008418	      0.03129823	      0.07546033	      0.08313201	      0.12545389	      0.39313464	      0.04644792	      0.08787329	      0.14757618	      0.42480407	      0.15769491	      0.16892434	      0.01002477	      0.01005326	      0.01000377	      0.14912193	      0.15463821	      0.01001690	      0.01000724	      0.01000240	      0.01000472	     -0.87043095	    -11.10789380	      1.47307674	      0.41975660	     -2.84235713	     -0.21276692	      0.02673026	     -0.00437131	     -0.00437122	      0.01978273	      0.00581385	     -0.00369396	     -0.30053186	      0.11034455	      0.05189585	      0.19109461	     -0.00680539	     -0.00078307
     14.16626061	      0.11766746	      0.34379276	      0.01002104	      0.01001359	      0.01007731	      0.07854475	      0.01001625	      0.16218229	      0.13217865	      0.04087574	      0.01005871	      0.01002739	      0.01070017	      0.03954789	      0.01000688	      0.01000354	      0.01000453	      0.01004256	      0.01004953	      0.01007135	      0.08013230	      0.10885637	      0.09865453	      0.12500985	      0.44745068	      0.04808569	      0.09569460	      0.14363128	      0.45706280	      0.22175398	      0.18660208	      0.01002858	      0.01005069	      0.01000318	      0.19406464	      0.15599549	      0.01001520	      0.01000703	      0.01000235	      0.01000463	     -0.44379639	     -5.21223825	      3.25362309	      1.10236820	     -4.70902494	      1.43925311	      0.02897679	     -0.00608527	     -0.00390472	      0.02137407	      0.00598645	     -0.00404835	     -0.32056658	      0.08731030	      0.06202963	      0.18653845	     -0.00601738	     -0.00242299
     14.18239393	      0.11805210	      0.34479342	      0.01002097	      0.01001361	      0.01016732	      0.07780591	      0.01001906	      0.15380849	      0.12442180	      0.03937199	      0.01013921	      0.01003673	      0.01194637	      0.03201228	      0.01000828	      0.01000391	      0.01000463	      0.01018755	      0.01027696	      0.01075344	      0.09056795	      0.11646634	      0.10471251	      0.12500135	      0.43977946	      0.04483264	      0.09310541	      0.15338992	      0.44863828	      0.26788669	      0.17867366	      0.01004828	      0.01007806	      0.01000323	      0.19506275	      0.14921573	      0.01001947	      0.01000768	      0.01000259	      0.01000508	     -0.82413793	     18.26515935	      3.02436927	      0.22753519	     -2.51730600	      2.18201129	      0.02844038	     -0.00590610	     -0.00387486	      0.01974939	      0.00567080	     -0.00391596	     -0.29221916	      0.04293828	      0.08324083	      0.15439639	     -0.00187441	     -0.00487062
     14.19852724	      0.13575447	      0.36071525	      0.01002729	      0.01001638	      0.01020188	      0.09730610	      0.01002084	      0.12693159	      0.10421496	      0.03282390	      0.01007645	      0.01003485	      0.01016109	      0.02116283	      0.01000860	      0.01000418	      0.01000540	      0.01003955	      0.01007223	      0.01055926	      0.06166720	      0.09805016	      0.10087213	      0.12540074	      0.38341283	      0.03502462	      0.07791050	      0.18257487	      0.41299020	      0.26729082	      0.15252074	      0.01005594	      0.01005436	      0.01000346	      0.15948001	      0.12732857	      0.01002051	      0.01001077	      0.01000371	      0.01000720	      4.01811252	      8.40359449	     -2.31401574	      3.16910642	      3.80403276	     -1.29201692	      0.02623246	     -0.00392263	     -0.00442749	      0.01587085	      0.00471002	     -0.00321707	     -0.24018338	     -0.09671917	      0.22052749	      0.00492388	      0.00104188	      0.09117006
     14.21466056	      0.15716598	      0.37463116	      0.01003962	      0.01002014	      0.02966291	      0.12052316	      0.01002500	      0.09195390	      0.08651909	      0.02779568	      0.01010014	      0.01004441	      0.01014649	      0.01039400	      0.01001058	      0.01000494	      0.01000680	      0.01002219	      0.01005599	      0.01448915	      0.01935360	      0.06549444	      0.08568770	      0.12073339	      0.31273003	      0.02711766	      0.06325202	      0.20170773	      0.36619480	      0.25114127	      0.12053906	      0.01008417	      0.01005198	      0.01000414	      0.11376411	      0.10718234	      0.01002755	      0.01001612	      0.01000568	      0.01001084	     -2.17086440	     -5.87677281	     -4.40621644	     -6.40582321	      4.44907771	     -2.22074294	      0.02335628	     -0.00131410	     -0.00492044	      0.01122508	      0.00389748	     -0.00252115	     -0.27864106	     -0.22126381	      0.30808942	     -0.15373577	     -0.00431868	      0.20678966
     14.23079388	      0.16216011	      0.36028168	      0.01004706	      0.01002334	      0.05015801	      0.12642514	      0.01002456	      0.04480570	      0.08454071	      0.02875174	      0.01030090	      0.01005133	      0.01004838	      0.01003617	      0.01001187	      0.01000546	      0.01000791	      0.01001788	      0.01006886	      0.01163314	      0.01190331	      0.03878004	      0.06390620	      0.09540325	      0.26406364	      0.02685033	      0.06093233	      0.18342746	      0.32548253	      0.27509359	      0.08797632	      0.01014142	      0.01003647	      0.01000419	      0.08944111	      0.10514942	      0.01003294	      0.01003876	      0.01001370	      0.01002665	     -4.51696202	     -7.29405384	     -3.64316448	     -4.68525722	      3.42784212	     -2.29122307	      0.02094114	      0.00034023	     -0.00475831	      0.00533202	      0.00380101	     -0.00232442	     -0.21930121	     -0.30803617	      0.37431248	     -0.34791978	     -0.05751095	      0.39386176
     14.24692720	      0.13193951	      0.29896428	      0.01004024	      0.01002131	      0.02020537	      0.09548722	      0.01001867	      0.01043787	      0.08623540	      0.02767797	      0.01011377	      0.01005002	      0.01002324	      0.01001544	      0.01001001	      0.01000492	      0.01000669	      0.01002810	      0.01004025	      0.01006378	      0.03168957	      0.05016447	      0.05258781	      0.04627429	      0.27303090	      0.02616864	      0.06304139	      0.11000897	      0.30917513	      0.32842925	      0.06912755	      0.01007170	      0.01002107	      0.01000422	      0.11587873	      0.10701181	      0.01003388	      0.01219755	      0.01376502	      0.01269779	     -1.26193901	     -2.13860508	      0.18739678	      1.51863204	     -0.36708575	     -0.27060998	      0.02043216	     -0.00087299	     -0.00348032	     -0.00026883	      0.00388614	     -0.00226993	     -0.13192789	     -0.37561704	      0.42820662	     -0.52342705	     -0.17315046	      0.60882562
     14.26306051	      0.08568743	      0.22068646	      0.01002681	      0.01001756	      0.01009997	      0.05006249	      0.01001565	      0.01040837	      0.08636282	      0.02839441	      0.01012692	      0.01005192	      0.01002180	      0.01001481	      0.01000858	      0.01000434	      0.01000526	      0.04889715	      0.01007874	      0.01004855	      0.09930482	      0.08761100	      0.05856517	      0.01563400	      0.29709649	      0.02802861	      0.06279142	      0.04055449	      0.29849277	      0.33347419	      0.07653356	      0.01006519	      0.01001682	      0.01000423	      0.15506605	      0.10904315	      0.01003630	      0.01792939	      0.04204665	      0.02404448	      3.59133636	      2.97612612	      4.91410869	      4.74901012	     -5.13717217	      2.43862128	      0.02058420	     -0.00348495	     -0.00206462	     -0.00103260	      0.00398480	     -0.00214725	     -0.06888140	     -0.44080496	      0.47278091	     -0.65209194	     -0.31939630	      0.81739598
     14.27919383	      0.05324821	      0.15959400	      0.01002472	      0.01001737	      0.01006246	      0.02603207	      0.01001449	      0.01031649	      0.08295082	      0.02835531	      0.01016549	      0.01005489	      0.01002065	      0.01001421	      0.01001020	      0.01000504	      0.01000549	      0.12771307	      0.01230456	      0.01013380	      0.10884235	      0.09414091	      0.06059799	      0.01069272	      0.26376508	      0.02864370	      0.05708637	      0.04290863	      0.25795658	      0.30074618	      0.07292659	      0.01006593	      0.01001601	      0.01000439	      0.15105790	      0.10859722	      0.01003943	      0.02382809	      0.06883411	      0.03434997	      3.97756387	      3.73381048	      5.72795325	      2.36154531	     -5.93450910	      3.09190647	      0.01819476	     -0.00421216	     -0.00186929	     -0.00170418	      0.00397208	     -0.00191935	     -0.04078078	     -0.51395769	      0.50530764	     -0.72839928	     -0.44980788	      0.99529864
     14.29532715	      0.02290497	      0.09932359	      0.01002564	      0.01001859	      0.01005491	      0.01515360	      0.01001401	      0.01053199	      0.07803360	      0.02868960	      0.01045888	      0.01005485	      0.01001901	      0.01001300	      0.01001676	      0.01000737	      0.01000678	      0.13157515	      0.05072034	      0.02960248	      0.08713117	      0.08558157	      0.06210711	      0.01048056	      0.20458756	      0.02848176	      0.04873150	      0.09080005	      0.20481723	      0.26282390	      0.06460258	      0.01008475	      0.01001669	      0.01000450	      0.13052892	      0.10673986	      0.01003473	      0.02831053	      0.08998131	      0.04089906	     -0.50600131	      0.17166131	      0.75336528	     -1.86557929	     -0.71250015	      0.96904403	      0.01467218	     -0.00439165	     -0.00253963	     -0.00222949	      0.00388084	     -0.00167409	     -0.03057150	     -0.57917242	      0.51097705	     -0.74481580	     -0.53915805	      1.11943304
     14.31146047	      0.01060591	      0.05337364	      0.01002571	      0.01001893	      0.01004347	      0.01075440	      0.01001303	      0.01014480	      0.07754500	      0.02826117	      0.01017235	      0.01006090	      0.01001813	      0.01001165	      0.01002959	      0.01001096	      0.01000819	      0.10299783	      0.07646896	      0.08661688	      0.06183573	      0.07596462	      0.06241545	      0.01010955	      0.16505730	      0.02797010	      0.04574163	      0.12868021	      0.17597276	      0.25822736	      0.06336033	      0.01006351	      0.01001689	      0.01000473	      0.11955818	      0.10859360	      0.01004515	      0.02958932	      0.10065200	      0.04572690	     -3.90790451	     -3.72232188	     -4.65224445	     -2.99838686	      4.93315111	     -1.70067882	      0.01266177	     -0.00481773	     -0.00358745	     -0.00256285	      0.00392359	     -0.00161197	     -0.02129436	     -0.59472911	      0.46664881	     -0.68602138	     -0.59031676	      1.17644692
     14.32759378	      0.01014887	      0.01207592	      0.01002565	      0.01001899	      0.01004014	      0.01030350	      0.01001190	      0.01027233	      0.08341045	      0.03009202	      0.01038853	      0.01008400	      0.01001758	      0.01001042	      0.01004210	      0.01001347	      0.01000902	      0.11283259	      0.08991060	      0.10130367	      0.05925017	      0.07606389	      0.06038278	      0.01011896	      0.15155519	      0.03195073	      0.05227014	      0.11631327	      0.16041330	      0.27410364	      0.06748951	      0.01005864	      0.01001680	      0.01000495	      0.12549728	      0.11523663	      0.01005329	      0.02771000	      0.09098452	      0.04148219	     -2.21733689	     -3.86729718	     -4.48897929	     -0.67267088	      4.64306974	     -2.41179896	      0.01154851	     -0.00583632	     -0.00373525	     -0.00241634	      0.00416946	     -0.00181189	     -0.00548835	     -0.54180673	      0.37331618	     -0.55304615	     -0.61110652	      1.16585307
     14.34372710	      0.01005101	      0.01006202	      0.01002637	      0.01002266	      0.01003260	      0.01007033	      0.01001287	      0.01065464	      0.09135509	      0.03267645	      0.01026688	      0.01005117	      0.01001491	      0.01000847	      0.01003792	      0.01001506	      0.01001022	      0.19078455	      0.08480510	      0.05121061	      0.09249727	      0.07946380	      0.04608000	      0.01006998	      0.13907054	      0.03854535	      0.06410344	      0.04648434	      0.11012087	      0.23537731	      0.05560074	      0.01004037	      0.01001994	      0.01000418	      0.12881014	      0.12176248	      0.01003496	      0.02057205	      0.05479028	      0.02797468	      1.63923068	     -0.23439449	     -0.19421539	      1.74669587	     -0.00404044	     -1.03325717	      0.00841345	     -0.00607075	     -0.00114549	     -0.00153538	      0.00444360	     -0.00213904	      0.01978128	     -0.45505811	      0.26913785	     -0.38071544	     -0.59520919	      1.08627136
     14.35986042	      0.01196627	      0.02875859	      0.01006225	      0.01012437	      0.01009195	      0.01009650	      0.01002351	      0.01189066	      0.09482706	      0.03332888	      0.01018215	      0.01004961	      0.01001412	      0.01000798	      0.01001906	      0.01001414	      0.01001608	      0.28544436	      0.01070340	      0.01003086	      0.15679093	      0.05846236	      0.01097756	      0.01015052	      0.14562844	      0.04305485	      0.07235915	      0.01003655	      0.03123083	      0.08960182	      0.01595027	      0.01005544	      0.01004860	      0.01000417	      0.10410206	      0.12250914	      0.01003284	      0.01306044	      0.01432811	      0.01338809	      2.66102060	      3.33433484	      2.64697689	      1.68146786	     -2.99038004	      0.51411884	      0.00317293	     -0.00210811	      0.00552259	     -0.00033455	      0.00450752	     -0.00234401	      0.05188811	     -0.37496337	      0.18357662	     -0.21794577	     -0.53549353	      0.93809179
     14.37599373	      0.03497145	      0.08618146	      0.01209770	      0.07328819	      0.01094169	      0.01007542	      0.01014401	      0.01070528	      0.09164026	      0.03181349	      0.01011621	      0.01005178	      0.01001531	      0.01000871	      0.01002068	      0.01002190	      0.01004412	      0.33439070	      0.01009308	      0.01002058	      0.18293605	      0.04462692	      0.01009544	      0.01020841	      0.11726162	      0.04284868	      0.07150704	      0.01002311	      0.01008778	      0.01010941	      0.01011993	      0.06980637	      0.04301368	      0.01000455	      0.07636614	      0.11683585	      0.01003442	      0.01096166	      0.01079498	      0.01092248	      0.39160499	      3.82872757	      2.56350791	     -0.29296833	     -2.91520949	      1.25257418	     -0.00073532	      0.00079670	      0.00871685	      0.00017747	      0.00430572	     -0.00228943	      0.08287673	     -0.29448627	      0.11038776	     -0.09468444	     -0.44384660	      0.74406331
     14.39212705	      0.04573205	      0.10442225	      0.02921471	      0.09743088	      0.01910105	      0.01009291	      0.01564098	      0.01023054	      0.08415223	      0.02952653	      0.01012684	      0.01005789	      0.01001518	      0.01000835	      0.01002994	      0.01004512	      0.01016331	      0.29774218	      0.01008567	      0.01002119	      0.15927847	      0.03438801	      0.01008361	      0.01032387	      0.08704678	      0.03839393	      0.06232598	      0.01002303	      0.01006582	      0.01007843	      0.01009008	      0.12777702	      0.05828566	      0.01000522	      0.05775957	      0.10821223	      0.01003890	      0.01342014	      0.03386907	      0.01835791	     -1.58401379	      1.57985932	      1.55103798	     -1.89813874	     -1.92153617	      1.56601652	     -0.00158016	      0.00184042	      0.00808429	     -0.00074309	      0.00396113	     -0.00201525	      0.10486348	     -0.19407625	      0.04426305	     -0.01302249	     -0.34603374	      0.54774970
     14.40826037	      0.04989806	      0.10810268	      0.03650264	      0.08921968	      0.02926416	      0.01015012	      0.03050869	      0.01021988	      0.07569153	      0.02711213	      0.01014483	      0.01006731	      0.01001662	      0.01000897	      0.01004930	      0.01012436	      0.02166067	      0.21113676	      0.01008714	      0.01002551	      0.11237817	      0.02075400	      0.01008683	      0.01096478	      0.05985979	      0.03155412	      0.04878523	      0.01002605	      0.01007985	      0.01008389	      0.01009822	      0.13844898	      0.05522939	      0.01000614	      0.03628977	      0.09995850	      0.01004640	      0.01551977	      0.04403415	      0.02325621	     -0.98121900	     -1.85462992	     -0.08948973	     -1.43505650	      0.26170625	      0.74452149	     -0.00133766	      0.00222209	      0.00610757	     -0.00085448	      0.00360885	     -0.00164368	      0.11581745	     -0.09861556	     -0.00010976	      0.03727412	     -0.26145793	      0.38270856
     14.42439369	      0.05412898	      0.10677060	      0.04150955	      0.07500705	      0.03853006	      0.01076107	      0.04592402	      0.01027364	      0.06886824	      0.02522657	      0.01016479	      0.01007779	      0.01001888	      0.01001011	      0.01009106	      0.01125895	      0.04726537	      0.10969077	      0.01008602	      0.01003411	      0.06149664	      0.01109001	      0.01009593	      0.01758774	      0.03540205	      0.02477008	      0.03570988	      0.01003273	      0.01012032	      0.01008252	      0.01011704	      0.13124479	      0.05055260	      0.01000710	      0.01424754	      0.09367833	      0.01005527	      0.01436793	      0.03654899	      0.01948893	      0.35200846	     -4.91339898	     -2.38003213	      0.37442380	      3.45595250	     -1.51068795	     -0.00102145	      0.00242360	      0.00391674	     -0.00067862	      0.00332927	     -0.00131673	      0.12060580	     -0.03338596	     -0.01574667	      0.06355341	     -0.19391034	      0.25627449
     14.44052700	      0.05761685	      0.10373349	      0.04635200	      0.06470801	      0.04639046	      0.01972776	      0.06554456	      0.01038161	      0.06475036	      0.02421505	      0.01023999	      0.01006734	      0.01001801	      0.01001003	      0.01043216	      0.01984501	      0.06568794	      0.03077114	      0.01007999	      0.01004056	      0.02372590	      0.01038361	      0.01009561	      0.02491745	      0.01713645	      0.02061703	      0.02696092	      0.01003804	      0.01067712	      0.01007026	      0.01010372	      0.13603913	      0.05041888	      0.01000710	      0.01038974	      0.08901814	      0.01004581	      0.01322752	      0.02121429	      0.01471423	     -0.90947592	     -5.52107255	     -2.72902942	     -0.13533250	      3.23486939	     -2.33770046	     -0.00084401	      0.00256406	      0.00229047	     -0.00035830	      0.00319192	     -0.00109728	      0.12508837	      0.03673043	     -0.01157500	      0.06776809	     -0.13809381	      0.16288001
     14.45666032	      0.05635989	      0.08767143	      0.04914212	      0.04809978	      0.05230563	      0.03790266	      0.10017634	      0.01286844	      0.06178624	      0.02343657	      0.01017699	      0.01004016	      0.01002491	      0.01001368	      0.01544097	      0.02674248	      0.08289107	      0.01011247	      0.01011102	      0.01007015	      0.01042345	      0.01020312	      0.01016216	      0.03301416	      0.01046913	      0.01972673	      0.02341138	      0.01009786	      0.01366110	      0.01005439	      0.01016877	      0.16239749	      0.05602955	      0.01000611	      0.01013174	      0.08367962	      0.01007109	      0.01091882	      0.01033151	      0.01062927	      2.33943755	      7.88248653	     -0.45237998	      4.68503749	      0.35841731	     -1.17593080	     -0.00077627	      0.00246938	      0.00012889	      0.00061471	      0.00307975	     -0.00103386	      0.21627619	      0.12060106	     -0.01996532	     -0.02051380	      0.02683318	      0.01385241
     14.47279364	      0.04296059	      0.06446660	      0.04271542	      0.04249865	      0.04315554	      0.03040609	      0.12716910	      0.01681655	      0.05842464	      0.02071874	      0.01017653	      0.01008743	      0.01003572	      0.01011073	      0.01847333	      0.03542003	      0.07794142	      0.01007372	      0.01010777	      0.01015369	      0.01015704	      0.01013261	      0.01016005	      0.03378431	      0.01017233	      0.01751201	      0.02412492	      0.01016630	      0.01057438	      0.01003267	      0.01029220	      0.22494547	      0.07060344	      0.01000906	      0.01008999	      0.07529049	      0.01006159	      0.01008055	      0.01002963	      0.01005386	     -2.48568521	      3.89137819	      3.36451159	     -4.99547887	     -5.05075285	      2.63245663	     -0.00094122	      0.00198698	     -0.00000816	      0.00189150	      0.00291295	     -0.00107939	      0.20194663	      0.19724085	     -0.01322307	     -0.01527020	      0.00303437	      0.00423296
     14.48892695	      0.02733265	      0.04278753	      0.03290250	      0.04283469	      0.02890315	      0.01641097	      0.14595820	      0.02722007	      0.06060704	      0.02355405	      0.01038053	      0.01005354	      0.01004499	      0.01694704	      0.02164422	      0.04424052	      0.06172719	      0.01643781	      0.01119172	      0.01000099	      0.01498815	      0.01173286	      0.01070657	      0.03321764	      0.01136562	      0.02014691	      0.02466689	      0.01000911	      0.01012757	      0.01002199	      0.01134584	      0.29013006	      0.08747120	      0.01000940	      0.01040316	      0.07896225	      0.01004059	      0.01005959	      0.01001909	      0.01003594	     -2.33413672	     -2.38080957	      3.30655980	     -5.42594256	     -4.44705908	      2.54581357	     -0.00113263	      0.00140868	      0.00090124	      0.00341803	      0.00314090	     -0.00117430	      0.23842600	      0.17622151	     -0.00283774	     -0.05103550	      0.01374934	     -0.00453773
     14.50506027	      0.01666941	      0.02906507	      0.02149867	      0.03196042	      0.01746652	      0.01055316	      0.16478658	      0.03979151	      0.04613719	      0.01629342	      0.01017098	      0.01008964	      0.01092268	      0.01074790	      0.01393334	      0.03264343	      0.03940017	      0.02860699	      0.01035892	      0.01015276	      0.01472375	      0.01051877	      0.01023679	      0.03674517	      0.01041344	      0.01599935	      0.02479247	      0.01011426	      0.01016960	      0.01001412	      0.01080030	      0.33513131	      0.10338636	      0.01001194	      0.01013149	      0.05584038	      0.01006000	      0.01002423	      0.01000819	      0.01001545	      0.57164367	     -8.78668283	      0.28271467	     -0.16874472	      0.44317288	     -0.63226903	     -0.00084498	      0.00092211	      0.00098032	      0.00573786	      0.00232302	     -0.00112321	      0.27419656	      0.08153164	      0.02258752	     -0.08535818	      0.02052774	     -0.01411027
     14.52119359	      0.02058639	      0.03799259	      0.01903839	      0.02776535	      0.01790258	      0.01223396	      0.16456192	      0.04691163	      0.04672041	      0.01840877	      0.01032887	      0.01008558	      0.01990933	      0.01002875	      0.01233313	      0.01704660	      0.02196434	      0.04031560	      0.01099162	      0.01012252	      0.02196867	      0.01239077	      0.01049535	      0.04100207	      0.01445753	      0.01892823	      0.02761833	      0.01008926	      0.01060997	      0.01001108	      0.01433226	      0.33347554	      0.10966084	      0.01001270	      0.01019298	      0.05753642	      0.01004268	      0.01002209	      0.01000712	      0.01001397	      2.79458731	     -5.67190878	     -2.15375113	      4.78092806	      3.53518961	     -2.37030447	     -0.00043923	      0.00088574	      0.00126647	      0.00713612	      0.00235404	     -0.00123499	      0.27615764	      0.01363036	      0.03752364	     -0.09731310	      0.02021492	     -0.01716391
     14.53732691	      0.03148762	      0.06715373	      0.01558190	      0.02519888	      0.01829503	      0.01111614	      0.14443843	      0.04977647	      0.04678348	      0.01661661	      0.01014649	      0.01007790	      0.01349555	      0.01009585	      0.01011597	      0.01012858	      0.01039272	      0.04938120	      0.01013478	      0.01006281	      0.02922735	      0.01061476	      0.01015471	      0.04486473	      0.02893744	      0.01857914	      0.03222870	      0.01005833	      0.01288669	      0.01001027	      0.01493300	      0.29738587	      0.10591202	      0.01001274	      0.01017435	      0.05376786	      0.01004905	      0.01001638	      0.01000547	      0.01001052	      1.98783481	     16.67040283	     -3.12127830	      4.73211013	      3.64003862	     -1.36962244	      0.00027765	      0.00114648	      0.00179310	      0.00768374	      0.00223597	     -0.00144872	      0.24082308	      0.00857067	      0.01906616	     -0.08354239	      0.01575279	     -0.01367641
     14.55346022	      0.01612753	      0.02732542	      0.03623855	      0.07747836	      0.02012437	      0.01031440	      0.07470410	      0.01222321	      0.10389829	      0.03777099	      0.01011918	      0.01003869	      0.01002096	      0.01001983	      0.03926838	      0.09988446	      0.07350146	      0.17930104	      0.03092566	      0.01003329	      0.07315959	      0.02848954	      0.01053693	      0.01508374	      0.01408346	      0.03636237	      0.06490288	      0.01003670	      0.01006229	      0.01002743	      0.01017091	      0.14394573	      0.05530741	      0.01000541	      0.02231971	      0.13558537	      0.01002270	      0.01729026	      0.03885983	      0.02131778	     -1.71605005	      7.86842552	     -1.94195054	     -2.89546140	      2.04525032	     -0.49534420	     -0.00251399	      0.00127737	      0.00373341	     -0.00034708	      0.00513159	     -0.00314079	      0.19157907	      0.04350564	     -0.02226068	     -0.05758565	      0.01154735	     -0.00836181
     14.56959354	      0.01006903	      0.01004702	      0.01080329	      0.04082162	      0.01010311	      0.01005899	      0.02193812	      0.01042726	      0.03235259	      0.02817435	      0.01411957	      0.01183741	      0.01003335	      0.01001962	      0.06670681	      0.12635045	      0.02647808	      0.26041532	      0.10693935	      0.02537786	      0.09214233	      0.06364367	      0.02207062	      0.01014289	      0.01108892	      0.01007727	      0.01007271	      0.01006004	      0.01004529	      0.01012607	      0.01014555	      0.06113955	      0.01988668	      0.01000968	      0.06124749	      0.14565575	      0.02116489	      0.05048721	      0.15385143	      0.07801856	     -2.21084527	     -6.95375499	     -0.70217286	     -3.87514556	      0.52567714	      0.22334553	     -0.00288844	     -0.00135968	      0.00340405	     -0.00149984	      0.00344612	      0.00142996	      0.15391068	      0.09995839	     -0.06607727	     -0.03580584	      0.00977202	     -0.00451377
     14.58572686	      0.01004655	      0.01003056	      0.01011126	      0.01865224	      0.01005954	      0.01004482	      0.01010459	      0.01017479	      0.01013939	      0.01360209	      0.04163277	      0.07312405	      0.01012767	      0.01004214	      0.07116635	      0.12097856	      0.01019644	      0.32339246	      0.15816564	      0.06553890	      0.10754671	      0.08832598	      0.04425110	      0.01007705	      0.01097707	      0.01007114	      0.01003536	      0.01008001	      0.01004166	      0.08200150	      0.01015416	      0.01020576	      0.01021807	      0.02955793	      0.08959169	      0.08244208	      0.16501684	      0.09195736	      0.27831693	      0.14104450	     -1.81639217	     -7.04757181	      1.73905717	     -1.99117200	     -2.86246465	      0.97888399	     -0.00285666	     -0.00295981	      0.00349052	     -0.00292301	      0.00104644	      0.00388569	      0.13470276	      0.17245284	     -0.10564653	     -0.02509707	      0.00995189	     -0.00234078
     14.60186017	      0.01004097	      0.01002687	      0.01008446	      0.01360811	      0.01005043	      0.01004067	      0.01004251	      0.01009466	      0.01009700	      0.01809373	      0.07605595	      0.13491368	      0.01009421	      0.01002313	      0.06979244	      0.10727432	      0.01008988	      0.36022515	      0.18919898	      0.09188606	      0.11477974	      0.10083188	      0.05819515	      0.01005704	      0.01135306	      0.01003929	      0.01001823	      0.01013340	      0.01004079	      0.17773109	      0.01013260	      0.01003577	      0.01006666	      0.11194820	      0.10166989	      0.14588078	      0.30809891	      0.14331618	      0.43028272	      0.21830717	     -0.01614182	     -0.88860256	      4.82312340	      0.84896155	     -6.00285650	      1.54814102	     -0.00290585	     -0.00375576	      0.00355869	     -0.00501797	      0.00243719	      0.00746467	      0.12719681	      0.24047602	     -0.14036539	     -0.02311886	      0.01068290	     -0.00095967
     14.61799349	      0.01004050	      0.01002572	      0.01027177	      0.02394451	      0.01005801	      0.01004013	      0.01003438	      0.01006487	      0.01008861	      0.02740092	      0.12046896	      0.21600522	      0.01044048	      0.01001756	      0.07521213	      0.11312133	      0.01058482	      0.38915250	      0.20471259	      0.10226174	      0.12115607	      0.10373484	      0.05983424	      0.01004840	      0.01101845	      0.01002263	      0.01001008	      0.01022499	      0.01003652	      0.21191870	      0.01009742	      0.01002338	      0.01005154	      0.24077861	      0.09773438	      0.24375425	      0.49052991	      0.19855884	      0.59222703	      0.30141252	      2.13114853	      3.40533743	      5.02619170	      1.97524362	     -4.94986919	      1.17130634	     -0.00372260	     -0.00377865	      0.00396592	     -0.00759768	      0.00500996	      0.01306101	      0.12708705	      0.26284541	     -0.16471076	     -0.02578132	      0.01124394	     -0.00004401
     14.63412681	      0.01003850	      0.01002327	      0.01069626	      0.05038392	      0.01006183	      0.01003853	      0.01003279	      0.01004553	      0.01006502	      0.03900397	      0.16903364	      0.30819440	      0.04812060	      0.01002377	      0.08723720	      0.13673321	      0.01807421	      0.42540748	      0.21582101	      0.10646289	      0.13207882	      0.10429078	      0.05599667	      0.01004107	      0.01011423	      0.01001398	      0.01000627	      0.01008563	      0.01002955	      0.19218099	      0.01005766	      0.01002012	      0.01004311	      0.44716708	      0.08610870	      0.38702659	      0.68566506	      0.24359228	      0.72407577	      0.36996510	      2.94330568	      2.42385170	     -0.34598368	      2.11562655	      1.78627026	     -0.03365749	     -0.00539249	     -0.00357490	      0.00462887	     -0.00996049	      0.00808274	      0.02077742	      0.13395927	      0.20187136	     -0.16732854	     -0.02991370	      0.01177167	     -0.00002201
     14.65026013	      0.01003137	      0.01001792	      0.01104482	      0.07183199	      0.01005679	      0.01003316	      0.01003543	      0.01003735	      0.01009292	      0.05058806	      0.20923633	      0.38934138	      0.19211394	      0.05698482	      0.10379687	      0.16438615	      0.04149677	      0.50412017	      0.24529994	      0.12260794	      0.15910166	      0.11714718	      0.06008368	      0.01003481	      0.01006910	      0.01000989	      0.01000469	      0.01008185	      0.01002291	      0.16412722	      0.01004580	      0.01002033	      0.01004144	      0.69996673	      0.08569257	      0.56042448	      0.84368670	      0.27313291	      0.81196599	      0.41605065	      1.28226605	     -1.03797627	     -7.48171689	      1.81595574	      9.13518113	     -1.15567151	     -0.00734221	     -0.00411319	      0.00547415	     -0.01172844	      0.00975998	      0.02919357	      0.14021828	      0.05548275	     -0.13338409	     -0.03049580	      0.01246638	     -0.00171085
     14.66639344	      0.01002166	      0.01001200	      0.01033684	      0.07499279	      0.01004130	      0.01002491	      0.01003912	      0.01003338	      0.06278078	      0.06104919	      0.23042664	      0.43458734	      0.32208964	      0.31078633	      0.12821911	      0.19618406	      0.03948839	      0.65417473	      0.30782018	      0.15976649	      0.21186559	      0.15192076	      0.07842152	      0.01002818	      0.01004819	      0.01000856	      0.01000431	      0.01012610	      0.01001750	      0.14450593	      0.01004026	      0.01002221	      0.01004069	      0.86212704	      0.10977927	      0.72400673	      0.92404921	      0.28786291	      0.85833730	      0.44027476	     -1.77788362	     -2.20111624	     -7.89464039	     -0.51929780	      8.49031424	     -1.51197033	     -0.00940390	     -0.00598203	      0.00650616	     -0.01279372	      0.00934410	      0.03579132	      0.13080548	     -0.12687981	     -0.06089883	     -0.02271803	      0.01312134	     -0.00544576
     14.68252676	      0.01001489	      0.01000821	      0.01008008	      0.05089583	      0.01002744	      0.01001836	      0.01004151	      0.01003532	      0.16892379	      0.05749358	      0.23009521	      0.44094213	      0.43368859	      0.55751644	      0.14054800	      0.20180937	      0.01098194	      0.84154857	      0.38163533	      0.20001026	      0.28295463	      0.20197776	      0.10497262	      0.01002343	      0.01004298	      0.01000914	      0.01000466	      0.01084801	      0.01001469	      0.13162790	      0.01004282	      0.01002677	      0.01004132	      0.96611720	      0.16251506	      0.77740888	      0.92002394	      0.26358854	      0.78991033	      0.40510235	     -3.24550003	     -0.37146839	      0.22976278	     -3.76781928	     -1.24669921	     -0.82700617	     -0.01049470	     -0.00902724	      0.00735611	     -0.01189810	      0.00619617	      0.03871880	      0.09943025	     -0.28036055	      0.03720318	     -0.00836150	      0.01356571	     -0.01099290
     14.69866008	      0.01001183	      0.01000657	      0.01004085	      0.01239577	      0.01002021	      0.01001507	      0.01003538	      0.01004519	      0.18313352	      0.03950619	      0.21617805	      0.41985581	      0.49157802	      0.70538057	      0.10871722	      0.14180918	      0.01003956	      0.96817017	      0.41407706	      0.20451184	      0.34414577	      0.23968434	      0.11985685	      0.01002128	      0.01005971	      0.01001052	      0.01000533	      0.01045355	      0.01001485	      0.14740914	      0.01005843	      0.01002969	      0.01004015	      0.99088110	      0.22352389	      0.71972917	      0.86070470	      0.20564852	      0.62006130	      0.31793528	     -1.63004432	      1.56833247	      8.01059871	     -3.80797147	    -10.00326827	      0.61259483	     -0.00944977	     -0.01193344	      0.00769078	     -0.00919296	      0.00268987	      0.03801036	      0.05721684	     -0.37240170	      0.14779568	      0.00483779	      0.01402300	     -0.01791354
     14.71479340	      0.01001123	      0.01000636	      0.01002874	      0.01007818	      0.01001733	      0.01001454	      0.01002726	      0.01007027	      0.09251461	      0.01561342	      0.19305801	      0.37730079	      0.47877141	      0.71555810	      0.04837622	      0.03725295	      0.01002004	      0.93635218	      0.38232563	      0.17831471	      0.35303356	      0.24101317	      0.11667893	      0.01002188	      0.01044995	      0.01001116	      0.01000592	      0.01079957	      0.01001890	      0.20104853	      0.01012783	      0.01002595	      0.01003612	      0.93162258	      0.25658854	      0.58239711	      0.76169674	      0.13314340	      0.40397040	      0.20732674	      1.10346323	      1.49840379	      7.31427566	     -0.05075097	     -8.62811464	      1.29232001	     -0.00600868	     -0.01344942	      0.00665662	     -0.00573751	      0.00049487	      0.03399370	      0.01933959	     -0.40710631	      0.25937515	      0.01091484	      0.01467998	     -0.02527162
     14.73092671	      0.01001338	      0.01000796	      0.01002425	      0.01004118	      0.01001763	      0.01001709	      0.01001964	      0.01013696	      0.01006393	      0.01032955	      0.16082995	      0.31332962	      0.39756946	      0.59897541	      0.01009395	      0.01003457	      0.01001298	      0.76618119	      0.29293485	      0.11972030	      0.31303385	      0.20829864	      0.09639463	      0.01002625	      0.09855953	      0.01001102	      0.01000643	      0.01040899	      0.01004128	      0.28523458	      0.01556774	      0.01001812	      0.01002972	      0.79073238	      0.25405048	      0.41032997	      0.62579133	      0.06487197	      0.19776078	      0.10167814	      2.14381663	      0.31606331	      0.42362047	      3.24393876	      0.05594326	      0.24274183	     -0.00039192	     -0.01287528	      0.00480030	     -0.00265810	     -0.00009163	      0.02731440	     -0.01336935	     -0.39873779	      0.35138747	      0.01157212	      0.01513452	     -0.03118902
     14.74706003	      0.01001941	      0.01001293	      0.01002333	      0.01003019	      0.01002057	      0.01002409	      0.01001550	      0.01200529	      0.01002514	      0.01061522	      0.12215013	      0.23629626	      0.28908786	      0.37574973	      0.01003952	      0.01001643	      0.01001011	      0.55289549	      0.20246493	      0.07671808	      0.24810675	      0.16665959	      0.07797125	      0.01003708	      0.18333641	      0.01001207	      0.01000733	      0.01304055	      0.03651662	      0.35626719	      0.04125460	      0.01001336	      0.01002526	      0.61701897	      0.22654454	      0.24752885	      0.46828388	      0.01814737	      0.03973019	      0.02270893	      1.09148867	     -0.39909953	     -4.90267581	      2.91368032	      6.59719998	     -1.19937105	      0.00540683	     -0.01108401	      0.00239042	     -0.00050316	     -0.00004813	      0.01961668	     -0.05318736	     -0.35450628	      0.39870767	      0.01523226	      0.01464508	     -0.03362872
     14.76319335	      0.01004473	      0.01012249	      0.01002088	      0.01002032	      0.01002548	      0.01005268	      0.01001410	      0.06729090	      0.01002964	      0.01219574	      0.07499512	      0.14145949	      0.21797157	      0.27857801	      0.01002006	      0.01000888	      0.01000713	      0.37232499	      0.14881285	      0.08147844	      0.20011292	      0.15325799	      0.08532232	      0.01078468	      0.30957346	      0.01001829	      0.01001034	      0.05563401	      0.22269767	      0.26198625	      0.09889255	      0.01001378	      0.01002811	      0.35806556	      0.20869044	      0.15323211	      0.28337914	      0.01001919	      0.01000642	      0.01001231	     -0.32785443	     -0.41535622	     -4.66766416	      0.21557902	      6.05630007	     -1.20678428	      0.01478130	     -0.00984650	     -0.00124953	      0.00837989	      0.00086096	      0.01137996	     -0.10564194	     -0.27497284	      0.38587317	      0.03039556	      0.01294299	     -0.03158453
     14.77932666	      0.01021950	      0.08149377	      0.01002105	      0.01001803	      0.01003185	      0.01019748	      0.01001398	      0.09447227	      0.01006005	      0.01442023	      0.03580301	      0.06419466	      0.15075189	      0.28032048	      0.01001625	      0.01000696	      0.01000618	      0.26530959	      0.11761356	      0.08514160	      0.16794006	      0.14148172	      0.08625585	      0.03392204	      0.36067817	      0.01003778	      0.01001940	      0.07845037	      0.31427330	      0.19135107	      0.11725244	      0.01001441	      0.01003100	      0.13033676	      0.18666489	      0.10107532	      0.13306331	      0.01001237	      0.01000408	      0.01000787	     -0.68704312	     -0.13128726	     -0.73319196	     -1.75477993	      0.83159457	      0.13257913	      0.01940067	     -0.00897572	     -0.00312001	      0.01247826	      0.00121885	      0.00521403	     -0.15725780	     -0.16690903	      0.31858000	      0.05820035	      0.01049767	     -0.02555548
     14.79545998	      0.01870572	      0.15289676	      0.01002350	      0.01001818	      0.01004404	      0.01539566	      0.01001497	      0.09735546	      0.01022966	      0.01518853	      0.01667951	      0.02179316	      0.11378751	      0.24087706	      0.01001502	      0.01000632	      0.01000614	      0.16144136	      0.08609817	      0.08268104	      0.12946381	      0.12275261	      0.08111698	      0.05888774	      0.35853568	      0.01007968	      0.01005005	      0.08470296	      0.34847508	      0.15101234	      0.11607561	      0.01001532	      0.01003466	      0.01209108	      0.15828106	      0.06403579	      0.04604686	      0.01001093	      0.01000360	      0.01000695	     -0.30779777	      0.14833170	      2.49657400	     -1.66933190	     -3.30053606	      1.26806886	      0.02087548	     -0.00775777	     -0.00417884	      0.01348067	      0.00105699	      0.00184287	     -0.18725620	     -0.05785870	      0.22577765	      0.09152013	      0.00788453	     -0.01749072
     14.81159330	      0.04328321	      0.18565471	      0.01002716	      0.01001925	      0.01006216	      0.03715706	      0.01001768	      0.09686224	      0.03922454	      0.01640780	      0.01053138	      0.01015414	      0.07645604	      0.12263361	      0.01001441	      0.01000607	      0.01000648	      0.05847442	      0.05486915	      0.07652593	      0.08843743	      0.10123655	      0.07377509	      0.07415686	      0.33275274	      0.01602611	      0.02108614	      0.08487737	      0.35388964	      0.09775850	      0.11073535	      0.01001873	      0.01004291	      0.01002898	      0.12678469	      0.05201351	      0.01008694	      0.01001014	      0.01000334	      0.01000646	     -0.55574142	     -0.51633165	      2.31791871	     -0.50511690	     -2.87316549	      1.19208772	      0.02065870	     -0.00646282	     -0.00478979	      0.01382930	      0.00142786	     -0.00068481	     -0.18949547	      0.01627728	      0.14332160	      0.12014723	      0.00508991	     -0.01002845
     14.82772662	      0.05666230	      0.19378825	      0.01003128	      0.01002069	      0.01010837	      0.05329795	      0.01002153	      0.09407595	      0.06797377	      0.02368032	      0.01080575	      0.01019471	      0.04155643	      0.01949393	      0.01001416	      0.01000601	      0.01000700	      0.01029870	      0.03195338	      0.07281312	      0.05349248	      0.08271601	      0.06787559	      0.08108584	      0.30390292	      0.02222025	      0.03247567	      0.08236222	      0.34965863	      0.06225883	      0.10493478	      0.01002404	      0.01005336	      0.01001793	      0.10027519	      0.08527599	      0.01008595	      0.01001003	      0.01000331	      0.01000642	      1.50151467	      4.12295389	      0.54593091	      1.53290494	     -1.21094573	      1.21210562	      0.01978384	     -0.00551105	     -0.00516468	      0.01357967	      0.00273358	     -0.00122145	     -0.17223227	      0.03874637	      0.08833453	      0.13955416	      0.00205602	     -0.00506153
     14.84385993	      0.07141951	      0.18404590	      0.01005500	      0.01003063	      0.01202473	      0.06971362	      0.01003806	      0.06888742	      0.06614652	      0.02203899	      0.01027230	      0.01009114	      0.01260877	      0.01719430	      0.01002004	      0.01000820	      0.01001098	      0.01003638	      0.01376619	      0.06675908	      0.01054300	      0.04131264	      0.04879209	      0.07580798	      0.19711298	      0.01905675	      0.02673847	      0.06039210	      0.26552947	      0.01802746	      0.07433674	      0.01004379	      0.01009399	      0.01001300	      0.04291757	      0.08148333	      0.01005750	      0.01001360	      0.01000451	      0.01000879	     -0.20819375	     -0.68926463	     -0.89101594	      0.21489419	      1.08282301	     -0.59231924	      0.01428578	     -0.00259631	     -0.00473951	      0.00987132	      0.00307831	     -0.00122330	     -0.14692439	      0.06030038	      0.04583306	      0.14924698	     -0.00075329	     -0.00124649
     14.85999325	      0.08661443	      0.17913846	      0.01018053	      0.01005481	      0.04035963	      0.08556985	      0.01487119	      0.07194096	      0.07394707	      0.02337275	      0.01013049	      0.01006283	      0.01030110	      0.01093212	      0.01003613	      0.01001281	      0.01002329	      0.01002548	      0.01069650	      0.07067981	      0.01008044	      0.01239464	      0.03417521	      0.08820558	      0.09677953	      0.01889352	      0.02792484	      0.03137330	      0.18233549	      0.01002543	      0.05723174	      0.04569109	      0.03692069	      0.01000818	      0.01017539	      0.08718458	      0.01004203	      0.01001334	      0.01000444	      0.01000867	      1.52160781	     -0.91510285	     -0.43199050	      0.35823553	      0.76871854	     -3.45249325	      0.00914029	      0.00016626	     -0.00435616	      0.01014512	      0.00398898	     -0.00153668	     -0.11371627	      0.10310396	      0.00391240	      0.15354599	     -0.00187340	      0.00231106
