Static Optimization
version=1
nRows=51
nColumns=59
inDegrees=no
This file contains static optimization results.

endheader
time	addbrev_r	addlong_r	addmagDist_r	addmagIsch_r	addmagMid_r	addmagProx_r	bflh_r	bfsh_r	edl_r	ehl_r	fdl_r	fhl_r	gaslat_r	gasmed_r	glmax1_r	glmax2_r	glmax3_r	glmed1_r	glmed2_r	glmed3_r	glmin1_r	glmin2_r	glmin3_r	grac_r	iliacus_r	perbrev_r	perlong_r	piri_r	psoas_r	recfem_r	sart_r	semimem_r	semiten_r	soleus_r	tfl_r	tibant_r	tibpost_r	vasint_r	vaslat_r	vasmed_r	pelvis_tx_residual	pelvis_ty_residual	pelvis_tz_residual	pelvis_tilt_residual	pelvis_list_residual	pelvis_rotation_residual	hip_flexion_r_reserve	hip_adduction_r_reserve	hip_rotation_r_reserve	knee_angle_r_reserve	ankle_angle_r_reserve	subtalar_angle_r_reserve	hip_flexion_l_torque	hip_adduction_l_torque	hip_rotation_l_torque	knee_angle_l_torque	ankle_angle_l_torque	subtalar_angle_l_torque
     12.79332933	      0.07669159	      0.21616411	      0.01003606	      0.01002498	      0.01012290	      0.03666212	      0.01000941	      0.01027995	      0.01001438	      0.01002678	      0.01737643	      0.08379507	      0.31814541	      0.20133156	      0.01001075	      0.01000527	      0.01000663	      0.14028749	      0.01535962	      0.01012940	      0.13528130	      0.09880559	      0.05799735	      0.01620847	      0.34742704	      0.01024259	      0.02064892	      0.02376015	      0.29846307	      0.55695988	      0.05226588	      0.01000706	      0.01001784	      1.00891766	      0.16766662	      0.01000694	      0.09005942	      0.02722562	      0.08447400	      0.04287228	      1.99272056	    -19.79063449	    -45.66908161	     12.11980565	     46.04003072	     -5.60004423	      0.02572221	     -0.00550987	     -0.00087942	     -0.00107313	     -0.02107757	      0.00219178	     -0.12554308	     -0.25462296	      0.16825963	     -0.03029896	      0.00553550	     -0.01216397
     12.80812932	      0.01016921	      0.03190711	      0.01002863	      0.01002654	      0.01004107	      0.01005904	      0.01001021	      0.01051986	      0.01001858	      0.01003765	      0.02529182	      0.07811899	      0.21449717	      0.36963288	      0.01000795	      0.01000474	      0.01000578	      0.20863018	      0.01005292	      0.01002053	      0.15277381	      0.04455735	      0.01017437	      0.01007448	      0.33576138	      0.01014523	      0.01016688	      0.01002804	      0.20796734	      0.38461693	      0.04679559	      0.01000835	      0.01001958	      0.65608350	      0.14565656	      0.01000993	      0.10755690	      0.01237074	      0.02274706	      0.01419624	     -2.77143707	     -5.10381275	     -4.04996180	      1.63309633	      4.00353703	     -0.50028274	      0.01673712	     -0.00902611	      0.00696677	     -0.00029532	     -0.01338489	      0.00276552	     -0.05882740	     -0.00628914	      0.00330256	     -0.05637654	      0.00858408	     -0.00537299
     12.82292930	      0.01005170	      0.01005637	      0.01002334	      0.01002592	      0.01002694	      0.01002837	      0.01001299	      0.04922406	      0.01002880	      0.01006770	      0.02633636	      0.06217003	      0.17845890	      0.32756241	      0.01000599	      0.01000393	      0.01000469	      0.26824230	      0.01002826	      0.01001214	      0.18707949	      0.01200883	      0.01006249	      0.01005914	      0.38236488	      0.01010922	      0.01007771	      0.01001716	      0.16562264	      0.04875157	      0.06452590	      0.01001667	      0.01003159	      0.36828512	      0.12899290	      0.01001972	      0.10195104	      0.01001966	      0.01000647	      0.01001244	     -0.84961051	      8.96059344	     19.10719700	     -4.81616538	    -20.06937744	      0.45327100	      0.01260872	     -0.01196790	      0.01475416	      0.00918164	     -0.00698319	      0.00305778	     -0.04607827	      0.13827237	     -0.12000467	     -0.06953148	      0.00962720	      0.00075549
     12.83772929	      0.01319214	      0.05500954	      0.01004242	      0.01005858	      0.01005488	      0.01003188	      0.01004476	      0.09784858	      0.01006642	      0.01074028	      0.02584871	      0.04563866	      0.30133299	      0.17032319	      0.01000444	      0.01000336	      0.01000503	      0.07744157	      0.01001048	      0.01000637	      0.12829217	      0.01003706	      0.01002419	      0.01023478	      0.38533146	      0.01007746	      0.01004394	      0.01001001	      0.12593226	      0.01000940	      0.05537135	      0.20696580	      0.04887181	      0.08572034	      0.01985622	      0.02581239	      0.09468531	      0.01000926	      0.01000300	      0.01000581	     -1.29770146	     10.99804260	     15.18880747	    -10.24455613	    -15.57491379	     -2.29199147	      0.00790425	     -0.00643566	      0.02355657	      0.01903535	     -0.00086460	      0.00377740	     -0.08032795	      0.13985503	     -0.10988320	     -0.06066538	      0.00893907	      0.00217958
     12.85252927	      0.14291620	      0.37940104	      0.01002407	      0.01001402	      0.01078787	      0.12074445	      0.01001206	      0.13473983	      0.10960325	      0.03521969	      0.01024437	      0.01005413	      0.14696481	      0.01001009	      0.01000798	      0.01000363	      0.01000470	      0.01004643	      0.01287720	      0.07249861	      0.08186660	      0.12059614	      0.09953674	      0.14274590	      0.47595102	      0.03093259	      0.05080944	      0.15459716	      0.50248976	      0.02674773	      0.15131641	      0.01001306	      0.01003857	      0.01001136	      0.16345974	      0.12537701	      0.01003713	      0.01000603	      0.01000194	      0.01000379	      7.06009658	      2.90911300	      3.59068283	      9.63440702	     -6.16381306	     -0.10223429	      0.04300600	     -0.00750922	     -0.00852298	      0.02726348	      0.00560579	     -0.00311587	     -0.12455193	      0.06205417	     -0.00848201	     -0.02996608	      0.00804062	     -0.00063940
     12.86732926	      0.20114565	      0.42820557	      0.01005814	      0.01002061	      0.08552124	      0.18506562	      0.01011815	      0.14533333	      0.17258024	      0.05909300	      0.01007277	      0.01003141	      0.01196382	      0.14030523	      0.01001029	      0.01000460	      0.01000790	      0.01001306	      0.01011148	      0.03024671	      0.01014340	      0.04365404	      0.07404759	      0.18736196	      0.31918814	      0.03372910	      0.04969105	      0.17701229	      0.41221126	      0.01001134	      0.12699696	      0.03908319	      0.04981540	      0.01000443	      0.03791844	      0.22802980	      0.01001941	      0.01000487	      0.01000156	      0.01000309	      0.77585041	     -8.21878845	    -11.24416719	      3.63113613	     12.88819635	      0.85622441	      0.03465594	     -0.00022096	     -0.00912289	      0.03007491	      0.01134733	     -0.00440898	     -0.15736157	     -0.03502232	      0.10546121	      0.01631879	      0.00813239	     -0.00567367
     12.88212924	      0.19488160	      0.42825202	      0.01004051	      0.01001750	      0.05911069	      0.16865715	      0.01006118	      0.18381500	      0.14262790	      0.04734568	      0.01006542	      0.01002956	      0.08725373	      0.01006165	      0.01000669	      0.01000349	      0.01000583	      0.01001196	      0.01002552	      0.01008159	      0.01018896	      0.04341153	      0.07138125	      0.19730054	      0.38409144	      0.03271039	      0.05165126	      0.16249199	      0.45264092	      0.01000820	      0.16516375	      0.09992433	      0.07304008	      0.01000357	      0.06265508	      0.17658024	      0.01001876	      0.01000395	      0.01000126	      0.01000254	     -0.53111597	     -5.26193024	    -12.78143518	      0.41884013	     15.99298511	      4.51314526	      0.03865522	     -0.00195902	     -0.00737512	      0.03787642	      0.01083135	     -0.00439766	     -0.17879831	     -0.04639756	      0.10162755	      0.07097924	      0.00871250	     -0.00713861
     12.89692923	      0.17410209	      0.41416833	      0.01002544	      0.01001384	      0.01337213	      0.13178586	      0.01003008	      0.19900096	      0.17930588	      0.06086749	      0.01004571	      0.01001966	      0.01540570	      0.05221628	      0.01000523	      0.01000285	      0.01000428	      0.01001561	      0.01002074	      0.01002527	      0.03605547	      0.06553801	      0.06879976	      0.18113972	      0.47290175	      0.04389445	      0.06945380	      0.10778800	      0.49473443	      0.01001288	      0.19989988	      0.03027958	      0.03609497	      0.01000213	      0.14086603	      0.22750386	      0.01001237	      0.01000382	      0.01000124	      0.01000249	     -0.99122623	      3.22138877	     -2.27715270	     -0.41714651	      3.47041348	      3.93049017	      0.04302830	     -0.00501607	     -0.00480804	      0.03976911	      0.01539502	     -0.00609831	     -0.19577444	      0.10256391	     -0.04152467	      0.12112456	      0.00895752	     -0.00041490
     12.91172921	      0.17099635	      0.43055605	      0.01001994	      0.01001191	      0.01042326	      0.11394821	      0.01001832	      0.18866519	      0.17618585	      0.06037392	      0.01004198	      0.01001791	      0.01085373	      0.04102507	      0.01000455	      0.01000251	      0.01000358	      0.01002162	      0.01001952	      0.01001865	      0.08371399	      0.09190523	      0.07374747	      0.16172332	      0.55099939	      0.05361598	      0.08977474	      0.06731703	      0.54022253	      0.07846429	      0.21807721	      0.01005533	      0.01029099	      0.01000193	      0.22302743	      0.22370307	      0.01001097	      0.01000466	      0.01000154	      0.01000309	     -2.26362959	      7.76736259	     10.50582603	     -1.11910494	    -13.01467292	     -2.78927922	      0.04726668	     -0.00692805	     -0.00331944	      0.03596693	      0.01558428	     -0.00681926	     -0.22274901	      0.34277929	     -0.18097889	      0.15387882	      0.00820796	      0.01191777
     12.92652920	      0.18876551	      0.46717973	      0.01001997	      0.01001189	      0.01034564	      0.12347001	      0.01001743	      0.17810124	      0.17286115	      0.06011221	      0.01003986	      0.01001749	      0.01016826	      0.04259707	      0.01000449	      0.01000248	      0.01000355	      0.01002293	      0.01001884	      0.01001716	      0.09171978	      0.09574905	      0.07366329	      0.16194185	      0.56539839	      0.06110239	      0.10822219	      0.05501017	      0.55271010	      0.22402692	      0.21881764	      0.01004921	      0.01007408	      0.01000189	      0.24408249	      0.22340913	      0.01001043	      0.01000559	      0.01000190	      0.01000373	     -2.57142019	      2.54886425	     12.45286884	     -1.94229119	    -16.57720387	     -7.31568330	      0.04806211	     -0.00609739	     -0.00310166	      0.03234486	      0.01479064	     -0.00731601	     -0.26461080	      0.43341414	     -0.17335779	      0.17134842	      0.00550489	      0.01842353
     12.94132918	      0.21611475	      0.50955359	      0.01002205	      0.01001242	      0.01344380	      0.14953065	      0.01001505	      0.13171099	      0.13987133	      0.04851524	      0.01004717	      0.01002133	      0.01015291	      0.01980848	      0.01000474	      0.01000259	      0.01000376	      0.01001903	      0.01001861	      0.01001839	      0.07289571	      0.08862192	      0.07697196	      0.14685591	      0.53759928	      0.05701129	      0.10682609	      0.08771330	      0.54796009	      0.39892658	      0.19292635	      0.01004819	      0.01003691	      0.01000238	      0.23881813	      0.17861218	      0.01001233	      0.01000902	      0.01000316	      0.01000606	      0.13098275	     -9.42985248	     -0.12641044	     -0.69209426	     -1.32414279	     -2.90364061	      0.04743847	     -0.00388398	     -0.00420783	      0.02312546	      0.01101722	     -0.00652126	     -0.29440304	      0.23048558	     -0.08058050	      0.18477985	      0.00010937	      0.01095745
     12.95612917	      0.22645010	      0.51272692	      0.01002460	      0.01001307	      0.02844031	      0.16606616	      0.01001115	      0.02861822	      0.11792346	      0.04266005	      0.01005680	      0.01002588	      0.01002203	      0.01001711	      0.01000539	      0.01000287	      0.01000415	      0.01001678	      0.01002001	      0.01002283	      0.04862649	      0.08077116	      0.08320241	      0.08538300	      0.47477516	      0.04955841	      0.09473409	      0.14547410	      0.51427378	      0.58571385	      0.12945227	      0.01004527	      0.01001714	      0.01000278	      0.22707410	      0.15733172	      0.01001496	      0.01004757	      0.01001854	      0.01003212	      4.70555964	    -15.94155365	    -12.81223015	      1.16598172	     15.47588544	      4.09077661	      0.04479076	     -0.00170675	     -0.00577394	      0.00456582	      0.00874039	     -0.00559861	     -0.29479379	     -0.05993030	     -0.03617050	      0.19675278	     -0.00705411	     -0.00194973
     12.97092915	      0.18358494	      0.44039264	      0.01001910	      0.01001135	      0.01025715	      0.12790095	      0.01000980	      0.01117680	      0.10075973	      0.03882698	      0.01008200	      0.01003290	      0.01001855	      0.01001400	      0.01000581	      0.01000297	      0.01000377	      0.01003722	      0.01003404	      0.01003586	      0.08853516	      0.12076344	      0.11383018	      0.03909899	      0.46249819	      0.04041482	      0.07604642	      0.18652437	      0.49085292	      0.58553778	      0.12280932	      0.01004644	      0.01001281	      0.01000314	      0.26185286	      0.14752546	      0.01001977	      0.02150756	      0.04747849	      0.02733198	      5.16381313	     -0.76921465	     -8.71628913	     -2.25050703	     13.11086566	      4.48211570	      0.04422077	     -0.00373339	     -0.00587461	     -0.00130918	      0.00739717	     -0.00445959	     -0.28280854	     -0.14620577	     -0.02754783	      0.19522212	     -0.01279059	     -0.00531108
     12.98572914	      0.11756502	      0.32547939	      0.01001596	      0.01001058	      0.01004613	      0.06877969	      0.01000997	      0.01061267	      0.08256969	      0.03413713	      0.01011751	      0.01004405	      0.01002000	      0.01001630	      0.01000688	      0.01000337	      0.01000371	      0.07782197	      0.01104292	      0.01017711	      0.12712410	      0.15149474	      0.13147859	      0.01223445	      0.42701157	      0.03101813	      0.05478108	      0.19106776	      0.43147597	      0.51055028	      0.12320677	      0.01004662	      0.01001173	      0.01000384	      0.27904283	      0.13164674	      0.01002941	      0.02844802	      0.09401277	      0.04274432	     -1.74374056	     32.66680474	      6.25979066	      7.96511098	     -7.03540143	     -1.32661284	      0.04001051	     -0.00610520	     -0.00479058	     -0.00273449	      0.00618782	     -0.00319902	     -0.11395996	     -0.02899486	      0.07335587	      0.01498736	      0.22609425	      0.03429002
     13.00052912	      0.07670137	      0.24164240	      0.01001760	      0.01001214	      0.01004194	      0.04009875	      0.01001209	      0.01038327	      0.06520767	      0.02902185	      0.01025895	      0.01005212	      0.01002253	      0.01002012	      0.01000990	      0.01000467	      0.01000467	      0.11048187	      0.03077088	      0.01458838	      0.11305455	      0.13626117	      0.11805086	      0.01030866	      0.34798052	      0.02289647	      0.03430492	      0.18281351	      0.34854561	      0.42965743	      0.10453160	      0.01005237	      0.01001292	      0.01000516	      0.24950180	      0.11108461	      0.01004895	      0.03922119	      0.13265559	      0.06189312	     -7.55461238	     -1.89585296	     11.92980899	    -12.07909062	    -11.91567593	     -0.40934890	      0.03198829	     -0.00558533	     -0.00443324	     -0.00389545	      0.00504118	     -0.00208038	     -0.30755738	     -0.22134588	      0.04526072	      0.03739245	      0.33458375	      0.03039874
     13.01532911	      0.06917854	      0.21857931	      0.01002210	      0.01001505	      0.01005379	      0.04451712	      0.01001616	      0.01022886	      0.05101819	      0.02444713	      0.01030523	      0.01003382	      0.01002647	      0.01002543	      0.01001554	      0.01000704	      0.01000665	      0.02293025	      0.01674520	      0.02997210	      0.07145226	      0.10460846	      0.09863030	      0.01021641	      0.28127720	      0.01636787	      0.01782476	      0.18957559	      0.29884926	      0.36937965	      0.08632236	      0.01005913	      0.01001531	      0.01000738	      0.21671811	      0.09269905	      0.01006771	      0.05162459	      0.17242196	      0.08309505	    -10.64765117	    -15.98712035	      2.98533327	     -6.59171006	     -4.14323694	      2.49506805	      0.02595395	     -0.00370270	     -0.00560016	     -0.00471752	      0.00409202	     -0.00122896	     -0.28448188	     -0.43596758	      0.10107896	     -0.10711952	      0.51095080	      0.14769037
     13.03012909	      0.14514765	      0.34770844	      0.01003792	      0.01001937	      0.01417998	      0.13561719	      0.01002442	      0.01016496	      0.04258730	      0.02105513	      0.01025571	      0.01013454	      0.01003031	      0.01003056	      0.01003815	      0.01001408	      0.01001354	      0.01001062	      0.01003204	      0.03898632	      0.01004975	      0.01787245	      0.06842118	      0.03389905	      0.20324907	      0.01127166	      0.01074595	      0.29517832	      0.32148929	      0.31690749	      0.07736058	      0.01006329	      0.01001890	      0.01000944	      0.13957293	      0.08309704	      0.01014182	      0.05843623	      0.19233682	      0.09477630	      1.81593333	    -11.68032294	     -3.16922202	      2.27596016	      2.89534511	      0.57736305	      0.02473525	      0.00202948	     -0.01260447	     -0.00493855	      0.00354723	     -0.00067060	     -0.20525459	     -0.50968327	      0.18378283	     -0.24551849	      0.52549309	      0.31643389
     13.04492908	      0.23114221	      0.50126876	      0.01006745	      0.01002136	      0.08528773	      0.22616802	      0.01003264	      0.01019090	      0.04421349	      0.02119966	      0.01024816	      0.01013461	      0.01003195	      0.01003278	      0.01027345	      0.01002743	      0.01002909	      0.01000530	      0.01001662	      0.04960902	      0.01001904	      0.01006417	      0.04729068	      0.08552460	      0.16878024	      0.01195897	      0.01149413	      0.39940244	      0.38343595	      0.28526092	      0.08382617	      0.01005847	      0.01002010	      0.01001045	      0.07653381	      0.08167119	      0.01013834	      0.05538931	      0.18096009	      0.09021984	     17.91008974	      1.38790845	     -2.59920371	      5.87663441	      2.22787597	     -4.94670793	      0.02730173	      0.00705896	     -0.01933897	     -0.00459086	      0.00341566	     -0.00078500	     -0.13550265	     -0.42890951	      0.25837646	     -0.34608061	      0.44678485	      0.46933104
     13.05972906	      0.26918221	      0.55551417	      0.01006232	      0.01001898	      0.10361411	      0.25167767	      0.01003032	      0.01048444	      0.05338451	      0.02426383	      0.01045403	      0.01008709	      0.01003133	      0.01003200	      0.01005085	      0.01001424	      0.01001826	      0.01000475	      0.01001349	      0.01148662	      0.01001783	      0.01004975	      0.02764115	      0.10158266	      0.22729011	      0.01827567	      0.02282934	      0.37185561	      0.45144866	      0.26945067	      0.10158015	      0.01005065	      0.01001717	      0.01001018	      0.07769768	      0.08799452	      0.01009893	      0.04331917	      0.14113946	      0.07075222	     13.42191902	      6.57524251	     -7.00646536	      3.64866564	      6.72162565	     -4.80240603	      0.03171335	      0.00868818	     -0.01976115	     -0.00367630	      0.00365884	     -0.00127956	     -0.11311336	     -0.43584435	      0.31645966	     -0.39681440	      0.35008183	      0.55726410
     13.07452905	      0.20378496	      0.42013559	      0.01002587	      0.01001385	      0.01961351	      0.15851954	      0.01001793	      0.01050294	      0.06612451	      0.02692371	      0.01021994	      0.01009127	      0.01002925	      0.01003052	      0.01000936	      0.01000475	      0.01000580	      0.01001130	      0.01001759	      0.01002462	      0.01015252	      0.01610331	      0.02096837	      0.04764653	      0.37874737	      0.02751628	      0.04430528	      0.09182817	      0.47568678	      0.26482709	      0.12811841	      0.01004822	      0.01001237	      0.01000894	      0.18343597	      0.09631127	      0.01006674	      0.02199259	      0.06900209	      0.03475958	     -8.10903632	     -0.60064447	    -10.31506022	     -0.36873856	     11.40982891	     -0.10085454	      0.03594593	      0.00324857	     -0.00937274	     -0.00187430	      0.00403286	     -0.00198483	     -0.10546620	     -0.53961693	      0.34102822	     -0.40232168	      0.26476169	      0.56202021
     13.08932903	      0.20652344	      0.34478341	      0.01005727	      0.01003452	      0.03737516	      0.10168243	      0.01002151	      0.06128465	      0.10046116	      0.03976570	      0.01082512	      0.01007833	      0.01009801	      0.06031223	      0.01000408	      0.01000264	      0.01000437	      0.23934461	      0.01001556	      0.01000688	      0.19992657	      0.05181601	      0.01004879	      0.08540411	      0.42142771	      0.04609012	      0.07697290	      0.01000841	      0.39561820	      0.06040122	      0.14400311	      0.01075852	      0.01006516	      0.01000617	      0.14944781	      0.13779057	      0.01004145	      0.01002197	      0.01000662	      0.01001312	    -17.08445434	     -4.45364052	      0.84388714	     -2.38179472	      0.00772218	      3.88405355	      0.02662308	      0.00511572	      0.01239855	      0.01844747	      0.00576474	     -0.00328154	     -0.05934319	     -0.54728153	      0.29183669	     -0.36356981	      0.18004963	      0.50511858
     13.10412902	      0.07374198	      0.14005980	      0.01002342	      0.01001978	      0.01005727	      0.01548969	      0.01003285	      0.15705587	      0.19491885	      0.07658659	      0.01008413	      0.01003451	      0.01006660	      0.22116977	      0.01000706	      0.01000419	      0.01000496	      0.46074138	      0.03353555	      0.01001934	      0.19380825	      0.12399406	      0.02776923	      0.12277620	      0.27778010	      0.08062070	      0.13495495	      0.01002338	      0.26728127	      0.01007604	      0.22124060	      0.01272621	      0.03864027	      0.01000335	      0.13725430	      0.27771123	      0.01002284	      0.01001112	      0.01000342	      0.01000682	     -3.67558673	      1.89706788	     17.38362920	     -1.49255741	    -18.26807224	      3.89937941	      0.02030105	     -0.00124046	      0.00821674	      0.03988893	      0.01127775	     -0.00608194	      0.01222828	     -0.43945351	      0.17208415	     -0.26589591	      0.08418275	      0.41903736
     13.11892900	      0.01004150	      0.01004713	      0.01001852	      0.01001651	      0.01002164	      0.01003782	      0.01013417	      0.16472437	      0.19272049	      0.07430318	      0.01007751	      0.01003319	      0.01006023	      0.19519718	      0.01006955	      0.01001859	      0.01000793	      0.40532203	      0.21518692	      0.14041189	      0.12012458	      0.12761234	      0.08825811	      0.05774478	      0.10889200	      0.08154468	      0.14037050	      0.07616796	      0.08728833	      0.01011017	      0.19998798	      0.02635294	      0.05936928	      0.01000347	      0.11396697	      0.26802114	      0.01002111	      0.01001394	      0.01000427	      0.01000859	     10.03162048	      4.91418876	     17.34618831	      0.20475671	    -19.38719553	      0.42147411	      0.01108903	     -0.01065355	      0.00005759	      0.03432653	      0.01072087	     -0.00638981	      0.04925989	     -0.33800689	      0.02568951	     -0.11989776	     -0.01560709	      0.32152260
     13.13372899	      0.01002935	      0.01002862	      0.01002818	      0.01002554	      0.01002607	      0.01003429	      0.01269065	      0.09278190	      0.10839022	      0.04012819	      0.01011293	      0.01005221	      0.01007182	      0.06804539	      0.12636686	      0.09028091	      0.01001953	      0.20283239	      0.14420349	      0.13998822	      0.04991206	      0.07015009	      0.05854811	      0.01153511	      0.01483721	      0.04922712	      0.08805368	      0.07209639	      0.01017921	      0.01159758	      0.10270586	      0.04133461	      0.02201127	      0.01000628	      0.06357070	      0.14110148	      0.01003225	      0.01003229	      0.01001019	      0.01002042	      5.63246637	     -0.08663098	     -2.05257213	     -2.00124792	      0.82985774	     -0.83221595	      0.00245168	     -0.01026779	     -0.00178335	      0.01561836	      0.00562003	     -0.00399906	      0.01363118	     -0.28280693	     -0.10743692	      0.02785807	     -0.09012119	      0.21176953
     13.14852897	      0.01006337	      0.01005338	      0.01259927	      0.01360746	      0.01023411	      0.01008570	      0.05522975	      0.01027378	      0.05265150	      0.02095277	      0.01032251	      0.01010672	      0.01003092	      0.01001817	      0.13143288	      0.17390452	      0.06608040	      0.01099597	      0.02866422	      0.05766850	      0.01073215	      0.01188729	      0.01564628	      0.01020720	      0.01006650	      0.02441520	      0.04264105	      0.02752412	      0.01004266	      0.01014707	      0.01015304	      0.03101799	      0.01372578	      0.01001433	      0.01049482	      0.06806664	      0.01007157	      0.01862882	      0.05405755	      0.02643272	     -9.79490860	     -4.65989148	    -16.59231720	    -13.11796943	     17.59845638	      2.70065724	     -0.00538369	     -0.00413686	     -0.00116183	     -0.00207459	      0.00265476	     -0.00199157	     -0.07970663	     -0.17708151	     -0.19569556	      0.13503415	     -0.10866186	      0.09848794
     13.16332896	      0.01017346	      0.01009023	      0.02532797	      0.01068529	      0.02227456	      0.02781402	      0.10995779	      0.01022286	      0.04881144	      0.02187648	      0.01073819	      0.01006389	      0.01002648	      0.01001456	      0.14970085	      0.23636817	      0.19323278	      0.01000625	      0.01001703	      0.01003821	      0.01001725	      0.01002120	      0.01004520	      0.01216319	      0.01002521	      0.02226637	      0.03469773	      0.01771874	      0.01003528	      0.01469808	      0.01185865	      0.01371348	      0.01498193	      0.01001353	      0.01004146	      0.06827084	      0.01000032	      0.02581363	      0.08122640	      0.03856634	      3.78128691	      6.75308453	    -11.62850859	     11.27103582	     17.20400398	     -2.32828400	     -0.00346608	     -0.00160180	     -0.01062191	     -0.00317452	      0.00255666	     -0.00168437	      0.14820747	     -0.13454063	     -0.02763837	      0.02421643	     -0.00192141	     -0.00131867
     13.17812895	      0.01002229	      0.01001916	      0.02225535	      0.03676020	      0.01013377	      0.01003550	      0.12553421	      0.01008030	      0.05217510	      0.02260278	      0.01076620	      0.01008405	      0.01001828	      0.01000963	      0.22777504	      0.29705632	      0.11236680	      0.04113666	      0.08683642	      0.11217017	      0.01063103	      0.02031722	      0.03491621	      0.01009591	      0.01001978	      0.02377136	      0.03793042	      0.04371307	      0.01001367	      0.01003916	      0.01006384	      0.09829094	      0.02190282	      0.01001030	      0.01011081	      0.07208917	      0.01001409	      0.04182234	      0.12390557	      0.06438610	     -5.15252966	     -3.57973960	      3.40865907	     -2.50367843	     -3.57199850	      0.77039447	     -0.01360035	     -0.00885822	     -0.00033989	     -0.00474099	      0.00271421	     -0.00177692	      0.12683454	      0.09779290	     -0.00995246	      0.03540282	      0.00147349	      0.00042425
     13.19292893	      0.01001364	      0.01001148	      0.01314438	      0.02326142	      0.01005037	      0.01002198	      0.16862783	      0.01007284	      0.05548736	      0.02301240	      0.01052053	      0.01005193	      0.01001758	      0.01000917	      0.30403563	      0.39046460	      0.11884014	      0.09502875	      0.13609062	      0.16305775	      0.01076774	      0.03864262	      0.05438034	      0.01005520	      0.01001414	      0.02428007	      0.03870745	      0.06456883	      0.01000971	      0.01003623	      0.01006277	      0.15677247	      0.02745618	      0.01001089	      0.01009345	      0.07742426	      0.01004703	      0.04355087	      0.12669286	      0.06788646	     -3.56438768	     -2.34128600	     11.46177860	     -6.57199466	    -15.57844448	      2.93566778	     -0.01759729	     -0.01350592	     -0.00067111	     -0.00426895	      0.00298815	     -0.00175922	      0.18995613	      0.22926314	     -0.00599031	      0.00446457	      0.01194783	     -0.00223557
     13.20772892	      0.01001104	      0.01000878	      0.01055964	      0.01933457	      0.01003492	      0.01001816	      0.21502082	      0.01008722	      0.05823188	      0.02250224	      0.01020597	      0.01009704	      0.01001694	      0.01000883	      0.33679893	      0.43627673	      0.13772633	      0.09409925	      0.15054077	      0.18596779	      0.01014726	      0.04055855	      0.05908157	      0.01004506	      0.01001192	      0.02225118	      0.03579080	      0.07833514	      0.01000838	      0.01003483	      0.01006673	      0.23635221	      0.04214774	      0.01000942	      0.01008935	      0.08289728	      0.01007015	      0.04603923	      0.13830685	      0.07269391	      1.93658573	     -0.51517756	      8.17859203	     -0.52788387	    -11.38582910	      1.31072869	     -0.01908451	     -0.01514836	     -0.00136603	     -0.00388814	      0.00334641	     -0.00163889	      0.31244518	      0.18030828	     -0.01344095	     -0.05046145	      0.02381962	     -0.01046729
     13.22252890	      0.01001193	      0.01000874	      0.01305897	      0.03816133	      0.01004211	      0.01002007	      0.26006603	      0.01009859	      0.06006250	      0.02292771	      0.01019897	      0.01009663	      0.01001628	      0.01000843	      0.31567549	      0.41983581	      0.16586992	      0.05994432	      0.13307563	      0.17493658	      0.01010675	      0.02782605	      0.05044906	      0.01005177	      0.01001168	      0.02056780	      0.03158539	      0.07945589	      0.01000854	      0.01003023	      0.01006205	      0.33439880	      0.06981596	      0.01000866	      0.01007070	      0.08596772	      0.01007310	      0.04790172	      0.14626865	      0.07625278	      3.29233625	      0.41326785	     -0.25892493	      4.06720167	      0.22298028	     -2.12784249	     -0.01825346	     -0.01299623	     -0.00174733	     -0.00361223	      0.00367355	     -0.00152381	      0.41197424	      0.05389655	     -0.00284170	     -0.09347192	      0.03088552	     -0.02024391
     13.23732889	      0.01001875	      0.01001231	      0.05441260	      0.08150708	      0.01014848	      0.01003287	      0.29922160	      0.01014604	      0.05679824	      0.02313815	      0.01049127	      0.01008094	      0.01001769	      0.01000923	      0.23619065	      0.33317922	      0.19420603	      0.01337261	      0.08395105	      0.12317369	      0.01025731	      0.01296834	      0.02835651	      0.01011233	      0.01001367	      0.01950712	      0.02576562	      0.05817869	      0.01001055	      0.01002273	      0.01005466	      0.43974682	      0.11034812	      0.01000865	      0.01005247	      0.08197713	      0.01006209	      0.04291902	      0.13211887	      0.06867766	     -0.13125153	      1.55312544	     -6.60208375	      1.82133473	      8.27015115	     -2.01660614	     -0.01561496	     -0.00705299	     -0.00112914	     -0.00299834	      0.00362323	     -0.00134681	      0.44556180	     -0.00901552	      0.01580406	     -0.10793001	      0.03139045	     -0.02566002
     13.25212887	      0.01005186	      0.01002650	      0.09732933	      0.11533656	      0.04637173	      0.01013927	      0.32960089	      0.01025454	      0.04666279	      0.01890651	      0.01022750	      0.01011402	      0.01002584	      0.01001278	      0.15306581	      0.24624170	      0.22545244	      0.01003905	      0.01078821	      0.04951431	      0.01005848	      0.01008869	      0.01034353	      0.02025126	      0.01001668	      0.01571540	      0.02128484	      0.02506473	      0.01001503	      0.01001803	      0.01005445	      0.50793703	      0.14726210	      0.01001103	      0.01003382	      0.06762833	      0.01008855	      0.02389254	      0.07340226	      0.03844259	     -2.61579278	      0.24918303	     -7.83855326	     -2.13895360	      9.73857263	      1.24213175	     -0.01265406	     -0.00085865	     -0.00142915	     -0.00147063	      0.00299135	     -0.00113546	      0.42613548	     -0.00022823	      0.01830289	     -0.10149137	      0.02818963	     -0.02596802
     13.26692886	      0.01005709	      0.01002790	      0.09028787	      0.12039353	      0.03772684	      0.01009994	      0.31797123	      0.01341147	      0.04441668	      0.01874589	      0.01034524	      0.01011695	      0.01004517	      0.01740462	      0.12920304	      0.20808576	      0.19394258	      0.02748937	      0.05084741	      0.06171402	      0.01032477	      0.01057006	      0.01255071	      0.02314689	      0.01002074	      0.01771999	      0.02546629	      0.01883484	      0.01001670	      0.01001293	      0.01005871	      0.52650948	      0.15978308	      0.01001397	      0.01003922	      0.06200744	      0.01007232	      0.01022160	      0.01007003	      0.01013175	     -1.25641158	     -5.79535689	     -3.71702513	     -2.55806395	      5.06164560	      1.92170759	     -0.01213608	     -0.00066019	      0.00137418	      0.00123749	      0.00269616	     -0.00126675	      0.38413303	      0.00852231	      0.01818250	     -0.08706777	      0.02458222	     -0.02435249
     13.28172884	      0.01002019	      0.01001372	      0.01005505	      0.01005735	      0.01003736	      0.01003403	      0.27758495	      0.11392674	      0.11682103	      0.04130050	      0.01009456	      0.01004442	      0.14662387	      0.01001396	      0.16969658	      0.20651234	      0.01100448	      0.05604473	      0.10577896	      0.14569247	      0.01056804	      0.03965294	      0.05667355	      0.01930476	      0.01003584	      0.04704597	      0.08330678	      0.11546871	      0.01002913	      0.01000706	      0.06618752	      0.56417589	      0.16810445	      0.01000529	      0.01038630	      0.14892542	      0.01002716	      0.01000909	      0.01000298	      0.01000558	      1.36991742	    -10.37214244	      3.23927592	      0.28750169	     -3.75922331	     -1.35149463	     -0.00248007	     -0.00797081	     -0.00381308	      0.02247363	      0.00646646	     -0.00408322	      0.34334731	     -0.00984120	      0.03081225	     -0.07451949	      0.02206658	     -0.02270903
     13.29652883	      0.01001517	      0.01001159	      0.01002011	      0.01001764	      0.01001925	      0.01002526	      0.20287025	      0.18236729	      0.26629013	      0.09225703	      0.01004289	      0.01001943	      0.41536300	      0.01000279	      0.18730040	      0.16708788	      0.01002078	      0.08265233	      0.15606313	      0.22549496	      0.01679663	      0.09015118	      0.11130318	      0.02159263	      0.01154186	      0.10662879	      0.19608094	      0.22365691	      0.01106853	      0.01000478	      0.16943161	      0.51003127	      0.15196576	      0.01000239	      0.08256473	      0.33053888	      0.01001114	      0.01000423	      0.01000140	      0.01000262	      0.65390309	      2.21379467	      8.11073527	      2.16135767	    -11.24074333	     -3.64459728	      0.00761334	     -0.01324530	     -0.00852944	      0.04037560	      0.01403558	     -0.01004673	      0.30884128	     -0.02552515	      0.03182374	     -0.07014628	      0.02051827	     -0.02008189
     13.31132881	      0.01002014	      0.01001656	      0.01002054	      0.01001711	      0.01002173	      0.01003347	      0.13926333	      0.16107311	      0.17014426	      0.05882247	      0.01006162	      0.01002867	      0.21660283	      0.01000272	      0.13412649	      0.09165668	      0.01001769	      0.04321144	      0.12009161	      0.18929993	      0.01239812	      0.07857808	      0.09815061	      0.02650776	      0.03790694	      0.06911868	      0.12907205	      0.20678662	      0.05277662	      0.01000493	      0.16379130	      0.37705639	      0.11845287	      0.01000350	      0.08812604	      0.21188909	      0.01001644	      0.01000396	      0.01000131	      0.01000248	      1.97225173	     25.75012603	      5.07493720	      8.53563431	     -7.41264782	     -0.26782945	      0.00990599	     -0.01104251	     -0.00828697	      0.03767021	      0.00888032	     -0.00664761	      0.26654752	     -0.02275035	      0.00200040	     -0.07637794	      0.01904278	     -0.01533979
     13.32612880	      0.01001891	      0.01001124	      0.02760093	      0.08571961	      0.01005715	      0.01002848	      0.23256590	      0.01089777	      0.23186880	      0.09953812	      0.01006307	      0.01002489	      0.01000789	      0.28278638	      0.28154965	      0.40848857	      0.21011245	      0.27900355	      0.23413463	      0.23287867	      0.04351554	      0.06542533	      0.07162104	      0.01008755	      0.01001825	      0.05148539	      0.07815357	      0.11256428	      0.01001331	      0.01000990	      0.01007337	      0.30031001	      0.10217372	      0.01000202	      0.01008428	      0.40632261	      0.01001654	      0.01835242	      0.05381498	      0.02779705	     -3.23103418	     -5.65991171	     -1.44735418	    -11.95423366	      3.98663439	      1.03985648	     -0.01486709	     -0.00733900	      0.00125681	     -0.00054690	      0.01576204	     -0.00564845	      0.20497442	     -0.01781156	     -0.02749301	     -0.09108181	      0.01710144	     -0.00957630
     13.34092878	      0.01001524	      0.01000920	      0.01217368	      0.06448820	      0.01003950	      0.01002270	      0.18260271	      0.01068767	      0.01014729	      0.02279355	      0.04682918	      0.07565129	      0.01011107	      0.15758777	      0.30147871	      0.42498956	      0.17704110	      0.37279189	      0.28502923	      0.27024114	      0.07399369	      0.09629238	      0.09282970	      0.01006242	      0.01001769	      0.01004012	      0.01001936	      0.13268387	      0.01001230	      0.01001128	      0.01007647	      0.22645933	      0.07616098	      0.01003067	      0.01051145	      0.13918769	      0.18947672	      0.05450217	      0.17041678	      0.08535113	     -6.28093928	    -11.32652611	     -8.65931296	    -12.52374646	     11.93487706	      1.47789950	     -0.01510114	     -0.00949432	      0.00153982	     -0.00175349	      0.00413626	      0.00678051	      0.13783560	     -0.01618063	     -0.02236256	     -0.10701721	      0.01531037	     -0.00563064
     13.35572877	      0.01001409	      0.01000869	      0.01007478	      0.01114761	      0.01002955	      0.01002034	      0.05364980	      0.01016868	      0.01005570	      0.02195829	      0.09156173	      0.16574665	      0.02146502	      0.01001997	      0.24012907	      0.31399638	      0.05001375	      0.45749824	      0.29963806	      0.25661538	      0.11954337	      0.13034020	      0.10567111	      0.01004657	      0.01002431	      0.01001925	      0.01000931	      0.12504337	      0.01001467	      0.01003903	      0.01011314	      0.06460207	      0.01201736	      0.17499857	      0.06723450	      0.17204034	      0.37082647	      0.09731341	      0.30237930	      0.15069855	     -1.38113097	     -5.22431254	    -10.32691795	     -1.06180143	     11.97018782	      1.65452577	     -0.01085536	     -0.01086705	      0.00201284	     -0.00330614	      0.00503070	      0.01358196	      0.09421240	     -0.00537828	      0.00641103	     -0.11145103	      0.01467131	     -0.00562525
     13.37052875	      0.01001297	      0.01000805	      0.01004169	      0.01028385	      0.01002285	      0.01001708	      0.01007088	      0.01029590	      0.01003859	      0.03033964	      0.13894443	      0.26077529	      0.05291493	      0.01003862	      0.15573155	      0.16559739	      0.01004224	      0.67770485	      0.35166617	      0.23909117	      0.22280080	      0.19288272	      0.12497802	      0.01003382	      0.01005448	      0.01001146	      0.01000561	      0.09005758	      0.01001759	      0.14414102	      0.01056045	      0.01007164	      0.01008160	      0.33428042	      0.16796274	      0.23879062	      0.55813630	      0.13461377	      0.41405092	      0.20711668	      7.48416756	     -0.52367254	      0.66703231	     11.36294000	     -1.42223316	      1.38895808	     -0.00762439	     -0.01270250	      0.00538833	     -0.00502646	      0.00722191	      0.02164686	      0.08601679	      0.01318499	      0.03371276	     -0.09295913	      0.01507151	     -0.00898020
     13.38532874	      0.01001086	      0.01000657	      0.01003001	      0.01007647	      0.01001770	      0.01001336	      0.01003124	      0.01009095	      0.01003238	      0.02598355	      0.15854408	      0.30570461	      0.09884624	      0.01005532	      0.09912677	      0.07033226	      0.01002018	      0.99199805	      0.44220256	      0.24138263	      0.35645546	      0.26761738	      0.14941023	      0.01002423	      0.01077057	      0.01000965	      0.01000481	      0.04474430	      0.01001657	      0.23054371	      0.01021407	      0.01003193	      0.01004069	      0.52151740	      0.25697415	      0.24402406	      0.63330859	      0.15822407	      0.48430771	      0.24345989	      9.37728481	     -0.73936698	     18.01985822	     14.17985670	    -20.28663384	      0.94217545	     -0.00796946	     -0.01597276	      0.01022243	     -0.00657917	      0.00652648	      0.02554278	      0.09210854	      0.00700637	      0.06168578	     -0.05070294	      0.01507407	     -0.01314636
     13.40012872	      0.01001045	      0.01000605	      0.01003045	      0.01013236	      0.01001702	      0.01001255	      0.01003106	      0.01007157	      0.01003187	      0.01301085	      0.12874820	      0.25541410	      0.14183651	      0.06297325	      0.06647175	      0.04749811	      0.01001907	      1.13195601	      0.45922244	      0.20680452	      0.41003668	      0.27633314	      0.13692504	      0.01002108	      0.01040184	      0.01001233	      0.01000629	      0.01034813	      0.01001481	      0.16017962	      0.01010150	      0.01003390	      0.01004027	      0.68033557	      0.25684371	      0.14774239	      0.51468988	      0.17130773	      0.52512726	      0.26548864	      1.44344825	     -0.78608118	     18.25158986	      3.82299197	    -19.86212128	      0.02965969	     -0.01073558	     -0.01673000	      0.01302781	     -0.00779532	      0.00181572	      0.02102483	      0.08106996	     -0.06461101	      0.11065035	      0.00377390	      0.01335366	     -0.01627332
     13.41492871	      0.01001276	      0.01000711	      0.01004587	      0.01855973	      0.01002168	      0.01001521	      0.01008790	      0.01007428	      0.01003499	      0.01031870	      0.06807452	      0.14634824	      0.15854821	      0.21350977	      0.05508518	      0.08677030	      0.01003419	      0.96140169	      0.35781580	      0.12585710	      0.33981308	      0.20393174	      0.08394867	      0.01002385	      0.01008094	      0.01002574	      0.01001371	      0.01005775	      0.01001523	      0.04129237	      0.01007540	      0.01038702	      0.01008771	      0.71442692	      0.17330514	      0.01042400	      0.27715411	      0.16463452	      0.50767218	      0.25832770	     -7.24753157	      3.02297851	     -5.96730931	    -11.39507726	      5.30117793	     -1.65670313	     -0.01289969	     -0.01316982	      0.01218214	     -0.00796562	     -0.00416927	      0.01109075	      0.04681886	     -0.18965324	      0.19037963	      0.04875206	      0.01023576	     -0.01898510
     13.42972869	      0.01001776	      0.01001015	      0.01005377	      0.01184498	      0.01002814	      0.01002162	      0.01008570	      0.01017782	      0.01003481	      0.01005944	      0.01407473	      0.03771859	      0.22461154	      0.10329079	      0.04330695	      0.07484883	      0.01004105	      0.66228515	      0.24389197	      0.08695539	      0.23579648	      0.14355438	      0.05999554	      0.01003285	      0.01022395	      0.01491071	      0.03345637	      0.01013037	      0.01002302	      0.06733384	      0.01028059	      0.01017666	      0.01011378	      0.78966078	      0.13285559	      0.01001533	      0.02676600	      0.10398872	      0.32294691	      0.16548774	     -8.08365067	      3.85088255	    -26.54170269	    -15.43817907	     26.04602487	     -1.05795156	     -0.00810057	     -0.00987243	      0.00738711	     -0.00521870	     -0.01128941	      0.00044450	      0.01311719	     -0.26986314	      0.26216507	      0.05760487	      0.00795976	     -0.02163734
     13.44452868	      0.01002407	      0.01001618	      0.01003182	      0.01003929	      0.01002775	      0.01003067	      0.01001811	      0.01030296	      0.01003928	      0.01006214	      0.01182236	      0.02828166	      0.18260014	      0.16540860	      0.01013301	      0.01003760	      0.01001539	      0.45958421	      0.18293218	      0.09043528	      0.18890461	      0.14021521	      0.07632411	      0.01004377	      0.09714922	      0.01320544	      0.02930328	      0.02541802	      0.01023114	      0.27443227	      0.02764100	      0.01001298	      0.01002955	      0.55879775	      0.17747612	      0.01001661	      0.01801292	      0.04485611	      0.13985267	      0.07224892	     -2.48188561	     -1.30420752	    -17.18850056	     -2.61772063	     18.30445084	      1.17701841	      0.00357705	     -0.01009925	      0.00179109	     -0.00227392	     -0.00903823	      0.00022203	      0.00014647	     -0.20617694	      0.23063664	      0.02148979	      0.00850446	     -0.01999079
     13.45932866	      0.01002835	      0.01002515	      0.01002132	      0.01002094	      0.01002351	      0.01003694	      0.01001295	      0.04542967	      0.01004481	      0.01009980	      0.02124539	      0.04839703	      0.22392900	      0.01002863	      0.01002380	      0.01001113	      0.01000826	      0.36793975	      0.13832273	      0.07105690	      0.19171855	      0.15373485	      0.08555044	      0.01007563	      0.25723140	      0.01010120	      0.01006847	      0.04512838	      0.15538459	      0.24814503	      0.09077836	      0.01001044	      0.01002516	      0.35201480	      0.22092656	      0.01003175	      0.08053985	      0.01002642	      0.01000880	      0.01001654	      1.96777476	     -4.91660211	      8.23633258	      9.41236642	     -4.72341441	      0.38596260	      0.01524889	     -0.01264423	     -0.00139319	      0.00800153	     -0.00483050	      0.00291693	     -0.00133263	     -0.04047380	      0.07266172	     -0.03386853	      0.01046331	     -0.01126845
     13.47412865	      0.01004529	      0.01003428	      0.01004595	      0.01005519	      0.01004358	      0.01004538	      0.01009128	      0.02958966	      0.01165309	      0.01651027	      0.01530494	      0.01762239	      0.69283594	      0.01000340	      0.01004768	      0.01002822	      0.01001816	      0.21900628	      0.01376357	      0.01016956	      0.12044437	      0.04970384	      0.01190880	      0.01017797	      0.11878954	      0.01011765	      0.01006492	      0.01017613	      0.01331264	      0.01002839	      0.02484001	      0.02191282	      0.01091680	      0.01002116	      0.08546388	      0.07718598	      0.04157358	      0.01003280	      0.01001319	      0.01002284	      1.55496575	      0.34620727	     19.36246918	      2.03376738	    -16.01186358	     -2.54559040	      0.00290026	     -0.00568472	      0.00453131	      0.00585266	      0.00180420	      0.00183733	     -0.00914145	      0.08751334	     -0.09395214	     -0.06767053	      0.01096020	     -0.00109077
     13.48892863	      0.05301539	      0.18615341	      0.01389750	      0.11163861	      0.01068712	      0.01002284	      0.01008037	      0.01053906	      0.34324073	      0.11032724	      0.01005221	      0.01002467	      0.56031122	      0.01000120	      0.01000646	      0.01000895	      0.01001376	      0.21495609	      0.01000890	      0.01000555	      0.24150736	      0.01003218	      0.01001764	      0.01007197	      0.37111449	      0.16481155	      0.28836567	      0.01000968	      0.01003613	      0.01003684	      0.01008188	      0.17847363	      0.05759749	      0.01000449	      0.07557213	      0.37020079	      0.01001448	      0.01722100	      0.04696005	      0.02559172	      7.14906488	     12.00223335	     11.89080984	      3.50216165	    -18.58905045	     -0.96868408	     -0.00331540	      0.00090706	      0.03519919	     -0.00063152	      0.01299732	     -0.01148063	     -0.02484805	      0.09856470	     -0.13244752	     -0.06181777	      0.01037501	      0.00214442
     13.50372862	      0.11463208	      0.20676854	      0.02358408	      0.01014256	      0.06833065	      0.10339708	      0.13837566	      0.08360714	      0.12073104	      0.04536773	      0.01017728	      0.01007545	      0.17170665	      0.12850920	      0.01007101	      0.01002478	      0.01010708	      0.01002409	      0.01012632	      0.02712145	      0.01005756	      0.01015604	      0.01347460	      0.10481130	      0.04353274	      0.02960194	      0.04413680	      0.03108701	      0.12912106	      0.01000602	      0.04406429	      0.27061866	      0.12906118	      0.01001079	      0.01005133	      0.17928793	      0.01005409	      0.01000830	      0.01000280	      0.01000518	      1.17885356	      2.31447173	     -0.89808435	     -3.33785757	     -0.67041022	     -2.70752591	      0.00697298	      0.00288389	     -0.00447777	      0.01934643	      0.00592959	     -0.00239573	     -0.05263605	      0.02485356	     -0.03645933	     -0.02701647	      0.01075397	     -0.00265894
     13.51852860	      0.18957969	      0.31609802	      0.08264683	      0.02005476	      0.13973817	      0.16780550	      0.05619793	      0.02365477	      0.43399539	      0.15821034	      0.01005633	      0.01002236	      0.01000523	      0.68768545	      0.01015206	      0.01002767	      0.10158502	      0.01001492	      0.01007825	      0.04407826	      0.01003346	      0.01006908	      0.01062193	      0.09456886	      0.01019733	      0.07552089	      0.09985047	      0.02404961	      0.12357223	      0.01001716	      0.01259544	      0.04852707	      0.04451573	      0.01000243	      0.01003887	      0.63598549	      0.01001616	      0.01002552	      0.01000875	      0.01001630	     -3.90538132	     -5.10802545	     -8.18681851	     -3.31131668	      9.74261469	      0.11995835	      0.00569974	      0.00733591	     -0.00566281	      0.00550287	      0.02405706	     -0.00774777	     -0.11511833	     -0.05980739	      0.09463035	      0.01860647	      0.01171023	     -0.00969262
     13.53332859	      0.28951889	      0.50556089	      0.06088253	      0.01005313	      0.18668321	      0.29741145	      0.02085829	      0.08261810	      0.37646928	      0.13435968	      0.01005681	      0.01002183	      0.01000612	      0.41938997	      0.01001943	      0.01000602	      0.01003029	      0.01000880	      0.01110909	      0.21481162	      0.01002387	      0.01026292	      0.09029095	      0.18774272	      0.14520953	      0.03730407	      0.02962614	      0.03907431	      0.42247607	      0.01000898	      0.06929114	      0.02642323	      0.04947141	      0.01000197	      0.01003732	      0.52873659	      0.01001641	      0.01000710	      0.01000231	      0.01000449	     -5.51367175	    -13.98961597	     -5.86138848	     -0.83586109	     12.43062739	      1.25037557	      0.02428420	      0.00601388	     -0.01569817	      0.01953576	      0.02486974	     -0.00648301	     -0.22240324	     -0.09850923	      0.17402483	      0.07129942	      0.01235389	     -0.01392891
