TendonPower
version=1
nRows=51
nColumns=5
inDegrees=no

This analysis gathers basic information about muscles during a simulation (e.g., forces, tendon lengths, moment arms, etc).
Units are S.I. units (second, meters, Newtons, ...)
If the header above contains a line with 'inDegrees', this indicates whether rotational values are in degrees (yes) or radians (no).

endheader
time	recfem_r	vaslat_r	vasint_r	vasmed_r
     12.79332933	     -0.00000000	     -0.00000000	     -0.00000000	     -0.00000000
     12.80812932	     -0.00000000	     -0.00000000	     -0.00000000	     -0.00000000
     12.82292930	     -0.00000000	     -0.00000000	     -0.00000000	     -0.00000000
     12.83772929	     -0.00000000	     -0.00000000	     -0.00000000	     -0.00000000
     12.85252927	     -0.00000000	     -0.00000000	     -0.00000000	     -0.00000000
     12.86732926	     -0.00000000	     -0.00000000	     -0.00000000	     -0.00000000
     12.88212924	     -0.00000000	     -0.00000000	     -0.00000000	     -0.00000000
     12.89692923	     -0.00000000	     -0.00000000	     -0.00000000	     -0.00000000
     12.91172921	     -0.00000000	     -0.00000000	     -0.00000000	     -0.00000000
     12.92652920	     -0.00000000	     -0.00000000	     -0.00000000	     -0.00000000
     12.94132918	     -0.00000000	     -0.00000000	     -0.00000000	     -0.00000000
     12.95612917	     -0.00000000	     -0.00000000	     -0.00000000	     -0.00000000
     12.97092915	     -0.00000000	     -0.00000000	     -0.00000000	     -0.00000000
     12.98572914	     -0.00000000	     -0.00000000	     -0.00000000	     -0.00000000
     13.00052912	     -0.00000000	     -0.00000000	     -0.00000000	     -0.00000000
     13.01532911	     -0.00000000	     -0.00000000	     -0.00000000	     -0.00000000
     13.03012909	     -0.00000000	     -0.00000000	     -0.00000000	     -0.00000000
     13.04492908	     -0.00000000	     -0.00000000	     -0.00000000	     -0.00000000
     13.05972906	     -0.00000000	     -0.00000000	     -0.00000000	     -0.00000000
     13.07452905	     -0.00000000	     -0.00000000	     -0.00000000	     -0.00000000
     13.08932903	     -0.00000000	     -0.00000000	     -0.00000000	     -0.00000000
     13.10412902	     -0.00000000	     -0.00000000	     -0.00000000	     -0.00000000
     13.11892900	     -0.00000000	     -0.00000000	     -0.00000000	     -0.00000000
     13.13372899	     -0.00000000	     -0.00000000	     -0.00000000	     -0.00000000
     13.14852897	     -0.00000000	     -0.00000000	     -0.00000000	     -0.00000000
     13.16332896	     -0.00000000	     -0.00000000	     -0.00000000	     -0.00000000
     13.17812895	     -0.00000000	     -0.00000000	     -0.00000000	     -0.00000000
     13.19292893	     -0.00000000	     -0.00000000	     -0.00000000	     -0.00000000
     13.20772892	     -0.00000000	     -0.00000000	     -0.00000000	     -0.00000000
     13.22252890	     -0.00000000	     -0.00000000	     -0.00000000	     -0.00000000
     13.23732889	     -0.00000000	     -0.00000000	     -0.00000000	     -0.00000000
     13.25212887	     -0.00000000	     -0.00000000	     -0.00000000	     -0.00000000
     13.26692886	     -0.00000000	     -0.00000000	     -0.00000000	     -0.00000000
     13.28172884	     -0.00000000	     -0.00000000	     -0.00000000	     -0.00000000
     13.29652883	     -0.00000000	     -0.00000000	     -0.00000000	     -0.00000000
     13.31132881	     -0.00000000	     -0.00000000	     -0.00000000	     -0.00000000
     13.32612880	     -0.00000000	     -0.00000000	     -0.00000000	     -0.00000000
     13.34092878	     -0.00000000	     -0.00000000	     -0.00000000	     -0.00000000
     13.35572877	     -0.00000000	     -0.00000000	     -0.00000000	     -0.00000000
     13.37052875	     -0.00000000	     -0.00000000	     -0.00000000	     -0.00000000
     13.38532874	     -0.00000000	     -0.00000000	     -0.00000000	     -0.00000000
     13.40012872	     -0.00000000	     -0.00000000	     -0.00000000	     -0.00000000
     13.41492871	     -0.00000000	     -0.00000000	     -0.00000000	     -0.00000000
     13.42972869	     -0.00000000	     -0.00000000	     -0.00000000	     -0.00000000
     13.44452868	     -0.00000000	     -0.00000000	     -0.00000000	     -0.00000000
     13.45932866	     -0.00000000	     -0.00000000	     -0.00000000	     -0.00000000
     13.47412865	     -0.00000000	     -0.00000000	     -0.00000000	     -0.00000000
     13.48892863	     -0.00000000	     -0.00000000	     -0.00000000	     -0.00000000
     13.50372862	     -0.00000000	     -0.00000000	     -0.00000000	     -0.00000000
     13.51852860	     -0.00000000	     -0.00000000	     -0.00000000	     -0.00000000
     13.53332859	     -0.00000000	     -0.00000000	     -0.00000000	     -0.00000000
