ActiveFiberForce
version=1
nRows=51
nColumns=5
inDegrees=no

This analysis gathers basic information about muscles during a simulation (e.g., forces, tendon lengths, moment arms, etc).
Units are S.I. units (second, meters, Newtons, ...)
If the header above contains a line with 'inDegrees', this indicates whether rotational values are in degrees (yes) or radians (no).

endheader
time	recfem_r	vaslat_r	vasint_r	vasmed_r
     12.79332933	    209.51253867	    689.98482669	    173.59147782	    273.92451765
     12.80812932	    137.88342136	    443.46200881	    111.94806573	    177.27343678
     12.82292930	     83.14911323	    252.52329944	     64.68365892	    102.42477796
     12.83772929	     46.67012693	    124.95810160	     34.03354113	     53.53819206
     12.85252927	     23.59722795	     55.73475388	     18.51595599	     28.82696481
     12.86732926	      9.23062884	     35.85200714	     15.18975837	     23.62317873
     12.88212924	      4.77593627	     47.26463716	     18.85522747	     29.48052954
     12.89692923	     19.92805806	     65.81265374	     23.39922105	     36.68871361
     12.91172921	     61.83732689	     75.00985292	     25.16056664	     39.49259375
     12.92652920	    119.18779358	     73.80396032	     24.53035084	     38.44683526
     12.94132918	    162.00352175	     66.89283257	     22.85308530	     35.52819043
     12.95612917	    171.25922299	     59.83608911	     21.43086917	     32.82910083
     12.97092915	    150.65849740	     55.46439150	     20.62724667	     31.18733959
     12.98572914	    112.65956019	     53.54913646	     19.79268074	     30.01695527
     13.00052912	     75.73224802	     51.56241498	     18.93334054	     29.02930990
     13.01532911	     41.51504153	     48.86644036	     17.36262391	     27.25920061
     13.03012909	     16.62743976	     45.27837596	     15.31990485	     24.79720054
     13.04492908	      5.11561585	     41.65094794	     13.42387672	     22.36730276
     13.05972906	      2.26868628	     38.91299992	     12.14727536	     20.64443323
     13.07452905	      2.31688264	     37.23907504	     11.52564040	     19.76186608
     13.08932903	      3.68275524	     36.13633577	     11.29136242	     19.40256129
     13.10412902	      8.30454179	     35.23590046	     11.20634926	     19.22570520
     13.11892900	     20.60405156	     35.26890977	     11.44768361	     19.39335617
     13.13372899	     45.66072173	     38.35380516	     12.81651962	     20.86288057
     13.14852897	     80.41972579	     46.98403295	     16.50544431	     25.12370922
     13.16332896	    104.93182549	     62.28182435	     23.41037169	     33.46464701
     13.17812895	    100.11604721	     83.57031018	     32.44161223	     45.38931452
     13.19292893	     79.42410992	    106.43169489	     42.63076905	     60.13256317
     13.20772892	     57.80415743	    126.59448401	     51.04601725	     74.86036132
     13.22252890	     43.14581816	    143.69702042	     56.04031155	     86.84237920
     13.23732889	     33.35154810	    151.32803283	     55.85357815	     91.62968459
     13.25212887	     24.60261284	    133.61897667	     47.65519683	     81.68118761
     13.26692886	     20.17941123	     89.64529416	     35.17013700	     60.52411903
     13.28172884	     23.90995669	     16.24792068	     20.63078292	     30.76878717
     13.29652883	     40.98675813	    -55.87170191	     10.64826513	      5.21822485
     13.31132881	     70.09737439	     -4.57945166	     20.61870882	     18.49942944
     13.32612880	     99.64641512	    353.42809465	     69.90905178	    117.73093399
     13.34092878	    115.66452982	   1091.40675343	    161.84870411	    317.06550032
     13.35572877	    120.64372584	   2028.05988282	    272.33725691	    566.10427187
     13.37052875	    143.76486413	   2796.06765248	    358.67584312	    767.40834553
     13.38532874	    216.86625431	   3101.55469105	    387.95392950	    841.51452796
     13.40012872	    327.58888862	   2883.10333208	    354.74641046	    771.29534551
     13.41492871	    418.10848840	   2279.44256369	    277.72606261	    597.23053962
     13.42972869	    442.85943358	   1529.65940851	    187.17666350	    389.73326719
     13.44452868	    408.44867327	    853.83403897	    109.48868620	    211.87558437
     13.45932866	    331.72130427	    371.65939158	     57.45094966	     94.57858513
     13.47412865	    225.59473296	    100.76238025	     31.38716134	     38.22499992
     13.48892863	    112.76385754	     -5.65944618	     23.55666460	     24.17125177
     13.50372862	     29.62437587	    -11.37938798	     24.02497763	     29.48778044
     13.51852860	      6.48835418	     24.19838979	     24.81698124	     35.77872214
     13.53332859	     30.23627990	     65.85723977	     22.76062796	     35.90403680
