TendonPower
version=1
nRows=51
nColumns=5
inDegrees=no

This analysis gathers basic information about muscles during a simulation (e.g., forces, tendon lengths, moment arms, etc).
Units are S.I. units (second, meters, Newtons, ...)
If the header above contains a line with 'inDegrees', this indicates whether rotational values are in degrees (yes) or radians (no).

endheader
time	recfem_r	vaslat_r	vasint_r	vasmed_r
     24.49000000	     -0.00000000	     -0.00000000	     -0.00000000	     -0.00000000
     24.52080000	     -0.00000000	     -0.00000000	     -0.00000000	     -0.00000000
     24.55160000	     -0.00000000	     -0.00000000	     -0.00000000	     -0.00000000
     24.58240000	     -0.00000000	     -0.00000000	     -0.00000000	     -0.00000000
     24.61320000	     -0.00000000	     -0.00000000	     -0.00000000	     -0.00000000
     24.64400000	     -0.00000000	     -0.00000000	     -0.00000000	     -0.00000000
     24.67480000	     -0.00000000	     -0.00000000	     -0.00000000	     -0.00000000
     24.70560000	     -0.00000000	     -0.00000000	     -0.00000000	     -0.00000000
     24.73640000	     -0.00000000	     -0.00000000	     -0.00000000	     -0.00000000
     24.76720000	     -0.00000000	     -0.00000000	     -0.00000000	     -0.00000000
     24.79800000	     -0.00000000	     -0.00000000	     -0.00000000	     -0.00000000
     24.82880000	     -0.00000000	     -0.00000000	     -0.00000000	     -0.00000000
     24.85960000	     -0.00000000	     -0.00000000	     -0.00000000	     -0.00000000
     24.89040000	     -0.00000000	     -0.00000000	     -0.00000000	     -0.00000000
     24.92120000	     -0.00000000	     -0.00000000	     -0.00000000	     -0.00000000
     24.95200000	     -0.00000000	     -0.00000000	     -0.00000000	     -0.00000000
     24.98280000	     -0.00000000	     -0.00000000	     -0.00000000	     -0.00000000
     25.01360000	     -0.00000000	     -0.00000000	     -0.00000000	     -0.00000000
     25.04440000	     -0.00000000	     -0.00000000	     -0.00000000	     -0.00000000
     25.07520000	     -0.00000000	     -0.00000000	     -0.00000000	     -0.00000000
     25.10600000	     -0.00000000	     -0.00000000	     -0.00000000	     -0.00000000
     25.13680000	     -0.00000000	     -0.00000000	     -0.00000000	     -0.00000000
     25.16760000	     -0.00000000	     -0.00000000	     -0.00000000	     -0.00000000
     25.19840000	     -0.00000000	     -0.00000000	     -0.00000000	     -0.00000000
     25.22920000	     -0.00000000	     -0.00000000	     -0.00000000	     -0.00000000
     25.26000000	     -0.00000000	     -0.00000000	     -0.00000000	     -0.00000000
     25.29080000	     -0.00000000	     -0.00000000	     -0.00000000	     -0.00000000
     25.32160000	     -0.00000000	     -0.00000000	     -0.00000000	     -0.00000000
     25.35240000	     -0.00000000	     -0.00000000	     -0.00000000	     -0.00000000
     25.38320000	     -0.00000000	     -0.00000000	     -0.00000000	     -0.00000000
     25.41400000	     -0.00000000	     -0.00000000	     -0.00000000	     -0.00000000
     25.44480000	     -0.00000000	     -0.00000000	     -0.00000000	     -0.00000000
     25.47560000	     -0.00000000	     -0.00000000	     -0.00000000	     -0.00000000
     25.50640000	     -0.00000000	     -0.00000000	     -0.00000000	     -0.00000000
     25.53720000	     -0.00000000	     -0.00000000	     -0.00000000	     -0.00000000
     25.56800000	     -0.00000000	     -0.00000000	     -0.00000000	     -0.00000000
     25.59880000	     -0.00000000	     -0.00000000	     -0.00000000	     -0.00000000
     25.62960000	     -0.00000000	     -0.00000000	     -0.00000000	     -0.00000000
     25.66040000	     -0.00000000	     -0.00000000	     -0.00000000	     -0.00000000
     25.69120000	     -0.00000000	     -0.00000000	     -0.00000000	     -0.00000000
     25.72200000	     -0.00000000	     -0.00000000	     -0.00000000	     -0.00000000
     25.75280000	     -0.00000000	     -0.00000000	     -0.00000000	     -0.00000000
     25.78360000	     -0.00000000	     -0.00000000	     -0.00000000	     -0.00000000
     25.81440000	     -0.00000000	     -0.00000000	     -0.00000000	     -0.00000000
     25.84520000	     -0.00000000	     -0.00000000	     -0.00000000	     -0.00000000
     25.87600000	     -0.00000000	     -0.00000000	     -0.00000000	     -0.00000000
     25.90680000	     -0.00000000	     -0.00000000	     -0.00000000	     -0.00000000
     25.93760000	     -0.00000000	     -0.00000000	     -0.00000000	     -0.00000000
     25.96840000	     -0.00000000	     -0.00000000	     -0.00000000	     -0.00000000
     25.99920000	     -0.00000000	     -0.00000000	     -0.00000000	     -0.00000000
     26.03000000	     -0.00000000	     -0.00000000	     -0.00000000	     -0.00000000
