inDegrees=no
DataType=double
version=3
OpenSimVersion=4.5.2-2025-05-03-6a4c6ec41
endheader
time	/jointset/ground_pelvis/pelvis_tilt/value	/jointset/ground_pelvis/pelvis_list/value	/jointset/ground_pelvis/pelvis_rotation/value	/jointset/ground_pelvis/pelvis_tx/value	/jointset/ground_pelvis/pelvis_ty/value	/jointset/ground_pelvis/pelvis_tz/value	/jointset/hip_r/hip_flexion_r/value	/jointset/hip_r/hip_adduction_r/value	/jointset/hip_r/hip_rotation_r/value	/jointset/hip_l/hip_flexion_l/value	/jointset/hip_l/hip_adduction_l/value	/jointset/hip_l/hip_rotation_l/value	/jointset/back/lumbar_extension/value	/jointset/back/lumbar_bending/value	/jointset/back/lumbar_rotation/value	/jointset/walker_knee_r/knee_angle_r/value	/jointset/patellofemoral_r/knee_angle_r_beta/value	/jointset/walker_knee_l/knee_angle_l/value	/jointset/patellofemoral_l/knee_angle_l_beta/value	/jointset/ankle_r/ankle_angle_r/value	/jointset/ankle_l/ankle_angle_l/value	/jointset/ground_pelvis/pelvis_tilt/speed	/jointset/ground_pelvis/pelvis_list/speed	/jointset/ground_pelvis/pelvis_rotation/speed	/jointset/ground_pelvis/pelvis_tx/speed	/jointset/ground_pelvis/pelvis_ty/speed	/jointset/ground_pelvis/pelvis_tz/speed	/jointset/hip_r/hip_flexion_r/speed	/jointset/hip_r/hip_adduction_r/speed	/jointset/hip_r/hip_rotation_r/speed	/jointset/hip_l/hip_flexion_l/speed	/jointset/hip_l/hip_adduction_l/speed	/jointset/hip_l/hip_rotation_l/speed	/jointset/back/lumbar_extension/speed	/jointset/back/lumbar_bending/speed	/jointset/back/lumbar_rotation/speed	/jointset/walker_knee_r/knee_angle_r/speed	/jointset/patellofemoral_r/knee_angle_r_beta/speed	/jointset/walker_knee_l/knee_angle_l/speed	/jointset/patellofemoral_l/knee_angle_l_beta/speed	/jointset/ankle_r/ankle_angle_r/speed	/jointset/ankle_l/ankle_angle_l/speed	/forceset/addbrev_r/activation	/forceset/addlong_r/activation	/forceset/addmagDist_r/activation	/forceset/addmagIsch_r/activation	/forceset/addmagMid_r/activation	/forceset/addmagProx_r/activation	/forceset/bflh_r/activation	/forceset/bfsh_r/activation	/forceset/edl_r/activation	/forceset/ehl_r/activation	/forceset/fdl_r/activation	/forceset/fhl_r/activation	/forceset/gaslat_r/activation	/forceset/gasmed_r/activation	/forceset/glmax1_r/activation	/forceset/glmax2_r/activation	/forceset/glmax3_r/activation	/forceset/glmed1_r/activation	/forceset/glmed2_r/activation	/forceset/glmed3_r/activation	/forceset/glmin1_r/activation	/forceset/glmin2_r/activation	/forceset/glmin3_r/activation	/forceset/grac_r/activation	/forceset/iliacus_r/activation	/forceset/perbrev_r/activation	/forceset/perlong_r/activation	/forceset/piri_r/activation	/forceset/psoas_r/activation	/forceset/recfem_r/activation	/forceset/sart_r/activation	/forceset/semimem_r/activation	/forceset/semiten_r/activation	/forceset/soleus_r/activation	/forceset/tfl_r/activation	/forceset/tibant_r/activation	/forceset/tibpost_r/activation	/forceset/vasint_r/activation	/forceset/vaslat_r/activation	/forceset/vasmed_r/activation
24.49	-0.4372659993500083	0.03958488048483271	-0.02886406898432611	-2.2471303908011	1.046216842851479	2.483596134144372	0.6441081014145179	-0.1647513195079148	0.03802163919084621	0.5206555167527462	-0.2088338501525388	-0.005308057176303341	-0.1165883145042075	-0.08106828747269731	-0.004582172391901587	0.4244908174387906	0.4244908174387906	0.09253711162510039	0.09253711162510039	0.1074853926587705	-0.01170789880845902	-1.261493708491213	0.09220989458383111	0.1643585745153172	-0.676894703884805	-0.2158493080987975	-0.1633689199663747	3.089420617392884	-0.4947543506699453	-0.05443360194554626	2.977969851115235	0.8056897047434604	-0.1830807724484496	-0.9160570822391795	0.4943587529808911	0.2486761467265681	0.8427882639761699	0.8427882639761699	2.311480918441184	2.311480918441184	0.2598570992990898	0.5642061731012187	0.01054768053240054	0.01046741779549458	0.01026794646237109	0.01025130411557975	0.01031793356482136	0.01061816473853312	0.01345346749530469	0.05759324114185895	0.07737956021335989	0.178324425204275	0.01407615300986411	0.01147100942944397	0.2594894855386368	0.09264535391727273	0.01054230053030585	0.01024829441706045	0.01015790838338948	0.03302467369333779	0.04366903167381165	0.01794309724230952	0.02972274841903913	0.04042396869797699	0.04892411610278418	0.01089958803443482	0.0947186263729078	0.01332188135860844	0.01143962861633715	0.3222027847433609	0.1515909454403017	0.01013260631894811	0.2158967323912468	0.03070985540502161	0.01167141707680175	0.02281052653386549	0.1748946629072226	0.4868949176748509	0.01127150774684904	0.01042301084296609	0.01011400069386588	0.2934264723440345
24.5208	-0.4762513170722818	0.04269302362701322	-0.02383320598716164	-2.267231128530217	1.039009637475754	2.480872507943081	0.7347352238262213	-0.1770506376205118	0.03496339193480556	0.6127717329315199	-0.1918718844323352	-0.01112479415151343	-0.1425778977342207	-0.07500333636485632	-0.0008535903113713948	0.4520817536728892	0.4520817536728892	0.1630664823918948	0.1630664823918948	0.1053495057173448	0.006007345231977657	-1.250393378249808	0.07917090695434385	0.1614847239065386	-0.6256775363838178	-0.245547841727214	-0.07495289683828713	2.851061769830401	-0.3682813514201269	-0.0679253662841649	2.91972963983455	0.4909685320109153	-0.1558300511345786	-0.7568335757022391	0.1839869997579296	0.05195712758737762	0.9327781389419029	0.9327781389419029	2.256523618614189	2.256523618614189	0.02613531190689467	0.5883186179405731	0.01056293520992343	0.01048595553079254	0.01032226582044254	0.01027020761962036	0.01037335862454173	0.01087850813934264	0.01212105623140458	0.04156660567261242	0.198440228983494	0.1048001641581465	0.01369225849418002	0.01144497182482457	0.1744416367247292	0.05750493452338971	0.02283582042368806	0.02081306758604842	0.01053780421439358	0.02332122832054559	0.0396240319812547	0.07902917413919848	0.02162803348361378	0.0292769973585107	0.05219113985928417	0.01095558928544478	0.1152034909930248	0.0130287741501115	0.01143576923371668	0.2456882732286719	0.08877598768211431	0.1616734227657527	0.123031240593663	0.02195402748111508	0.01113297194552358	0.01636502498668211	0.1041980243452503	0.2954869705013968	0.0114276496115494	0.009793750982931993	0.009055034093757526	0.1764453592975239
24.5516	-0.5144210328414724	0.04450889727010887	-0.01861048649707516	-2.286021583611711	1.031126357686613	2.479341767937609	0.8199592718373384	-0.1871606973578569	0.03226919619360163	0.7022046032736715	-0.1797920794398579	-0.01514604060986769	-0.1648032801137687	-0.07158634246344055	-0.001547800205037949	0.4818334639825706	0.4818334639825706	0.2315900051872743	0.2315900051872743	0.104138847395397	0.0239786669627694	-1.21849040172047	0.02811939981554631	0.1683695590470144	-0.5711399649214484	-0.2766754982981433	-0.006547727603936454	2.605192288706782	-0.2533366137622221	-0.07224374729012789	2.830563976528532	0.2242926519574717	-0.09035872016683717	-0.6076934894761853	-0.004425335247139287	-0.1547946225751412	1.038667836979219	1.038667836979219	2.170082579153628	2.170082579153628	-0.05073045256520814	0.5980896507933178	0.01050893397394942	0.01044021253954162	0.01032947197271552	0.01026077937804209	0.01037283050369978	0.01093714164007821	0.01101003984780322	0.02757806674631148	0.2507663460693046	0.04859324055966195	0.01360979808823857	0.01198187875674751	0.1082711790645234	0.02994598662825189	0.02936487737377702	0.02862973318837429	0.01072452547896147	0.01553935630568469	0.03324417297146989	0.1299922498797604	0.0150839842540727	0.01982646900107869	0.0488176246843639	0.01088957103079377	0.1148277835114637	0.01313025860939136	0.01199718588132642	0.201707127317592	0.0702192726839052	0.2908207231312141	0.08687873366123665	0.01494340024484646	0.01067214468815933	0.01223420245850238	0.06012831804904053	0.1664968087112715	0.01204936618985384	0.0127113584364363	0.01358888752117493	0.08386835700859506
24.5824	-0.5510382840435341	0.04378670014393308	-0.01306961319254638	-2.302902091441023	1.022194551023374	2.479453997805503	0.8970693103946471	-0.1938656603279577	0.03002545312144865	0.7876574300194045	-0.1748932038767257	-0.01617247410768787	-0.1821227831567762	-0.07091274284722658	-0.009037252727056203	0.5152766985045472	0.5152766985045472	0.2966891366889891	0.2966891366889891	0.1052964370227987	0.04230798055068979	-1.159746159690222	-0.06886258585239072	0.1796177908670311	-0.5179144812699346	-0.3085639827745229	0.03602262570324261	2.367261369925747	-0.1494726521109066	-0.06657947685633353	2.716352177039528	0.01881644014684733	0.009775660838510407	-0.4958850941089178	-0.03932603125295638	-0.3595217753160504	1.163459483996211	1.163459483996211	2.051672661451088	2.051672661451088	0.04442681002061206	0.5992168010413439	0.0103731023432016	0.01031818554867531	0.01027542402016756	0.01021430744357249	0.01030179719588602	0.01074719518229465	0.01030757635942481	0.01763070603150073	0.2117562989048772	0.02070353192374861	0.01379368354719331	0.0129465770693162	0.07038419738222645	0.01461281228161243	0.0278014054588675	0.03040314176106806	0.0105311094346237	0.01097486444707413	0.02458695571789789	0.1588231841012593	0.01115819113058662	0.01348484636053622	0.03739501941783533	0.01067607982843551	0.08783676499407118	0.01357216516165792	0.01298987514102782	0.2049264712637668	0.09925597570220038	0.3929688972484806	0.1274104571082077	0.01084796083610209	0.01035340266707364	0.01120273134667643	0.05066273088280363	0.1254488953444043	0.01296984150245685	0.01920440835230333	0.02404120548310279	0.03067092797370956
24.6132	-0.585577651162436	0.03977808513727229	-0.007485167337413814	-2.318060489713806	1.012185117165107	2.480902344712858	0.9665699773851012	-0.1969645438662961	0.02823880056711808	0.8692723357944602	-0.1767118679092834	-0.01412634892410527	-0.1960736600971766	-0.07092583006440262	-0.02303400097877306	0.5529966996696862	0.5529966996696862	0.3580835862898641	0.3580835862898641	0.1100908824125386	0.06122586364851803	-1.083863888811514	-0.1811264246966982	0.1717102640225331	-0.4728417144371974	-0.3395649807278864	0.0605066613125503	2.166565869533597	-0.04740216602123044	-0.0478574071296775	2.597160120849101	-0.1430912426044529	0.1024953542707187	-0.4367905819574441	0.01662733050713283	-0.5294860656833056	1.29291339223978	1.29291339223978	1.938292606035726	1.938292606035726	0.2079893326484857	0.6167280170448771	0.01021029239789517	0.01017038857295484	0.01018893063657084	0.01014788661009989	0.01019775528892221	0.01045274891185351	0.01006597215140827	0.01273704209470535	0.1235731787154709	0.01866175923314896	0.01387025380529806	0.01352048147138568	0.05364420665823831	0.01008772390709619	0.02082515104289394	0.02607685851385415	0.009983763901144683	0.00950455908712851	0.0162314164867595	0.1575788872242412	0.00978538500611874	0.01053711617542353	0.02294454460981367	0.01040671180970194	0.04824440253242458	0.01384658622953416	0.01359546760003081	0.2400006797560288	0.1332549978241107	0.4900328286231893	0.2138286197761327	0.009547221997067696	0.01019042158655356	0.01195606254032665	0.05830854750402387	0.1391626796913056	0.01342521148523656	0.02516521728288417	0.03420596135752552	0.01340333694365841
24.644	-0.6178145319279406	0.0328563494743682	-0.002841197414969374	-2.331953804817732	1.001216823229669	2.483139367768094	1.030633832457938	-0.1966969385557285	0.02733337312943714	0.9473307166790225	-0.183642514455308	-0.01005695250900271	-0.2086145283225426	-0.06985075301511746	-0.04146286198175087	0.5947140212837835	0.5947140212837835	0.416869573779548	0.416869573779548	0.1186875718477394	0.08133948133338371	-1.005281577916439	-0.2587279184899914	0.1193470731205898	-0.4354117489698828	-0.3693161673332177	0.0765990723604506	2.02077937558703	0.05627252279524831	-0.003075791965393853	2.467278852958593	-0.2788988329850025	0.1495252205284367	-0.4041798250475134	0.07377084914758165	-0.6338288752421407	1.407802888346609	1.407802888346609	1.879490101552105	1.879490101552105	0.3412898323397652	0.6684999089961665	0.0100921091963825	0.01006333299379789	0.01011516420719386	0.01008966278696355	0.01011490905566121	0.01025252004814736	0.010147993310333	0.01239500017634315	0.05508664130685203	0.02861858319133202	0.01354220999519753	0.01305454379914527	0.04214109379311705	0.01024449008681358	0.01372594583461877	0.02337959255686865	0.009592477743659199	0.009719560758557465	0.01093122280763235	0.1298623314353609	0.009847716665927693	0.009901374878003234	0.01236055988617746	0.01020523662497047	0.01734981447212279	0.01353097358368092	0.01316116515631997	0.2727187686605492	0.1281774565274962	0.6110223971818407	0.2949550909139705	0.009760563615463062	0.01013613003035747	0.01239428789685736	0.05727319943296444	0.1472458293631844	0.0128580654384599	0.02590663556977208	0.03634681399268548	0.01699971072721225
24.6748	-0.6477767905229856	0.02464102906700319	-0.0005901454851279927	-2.344811842829851	0.9893679287337335	2.485767935751425	1.091344697235954	-0.1934030528336168	0.02830785778147427	1.021149090742213	-0.1942282241748254	-0.005410610548611613	-0.2202144004403641	-0.06776117461395076	-0.06175239697911009	0.6397065923405458	0.6397065923405458	0.4750705584738671	0.4750705584738671	0.1302560085512118	0.1033154477795363	-0.933514600847001	-0.2665417565904677	0.01942106375478794	-0.3999818068494474	-0.398549051970293	0.08775861365585545	1.928604580721951	0.151415651538915	0.07737265251008679	2.307338225116299	-0.3871879785162591	0.1501549600730438	-0.3565181817935855	0.07840341410775505	-0.6616053320977406	1.502069740600867	1.502069740600867	1.897714939390816	1.897714939390816	0.4177378050283942	0.7443039615202	0.01004492539982756	0.01002203698609577	0.0100770761819859	0.01005634158807363	0.01007672567013812	0.0102265048820262	0.0102817116128024	0.01509850951828702	0.03763082166728481	0.03702999480004253	0.01298479226698643	0.01187740195632957	0.02851389757307976	0.01032452306114909	0.009956934530236935	0.03440362581057102	0.01017331146166085	0.01016304804135002	0.009246348304454574	0.09000342664772266	0.01016074718236356	0.01009304794613571	0.008460311234240047	0.01012027435627372	0.005296342580481788	0.01281164543974137	0.01199863767549926	0.2800638126853082	0.08599133824968694	0.7580573407956536	0.3487020103901545	0.01017146396713389	0.01012552239071407	0.0116607048001695	0.03953605383342477	0.1252136372106583	0.01166223433181419	0.02104886443459551	0.0290521585544132	0.03169323945413225
24.7056	-0.6756529749267556	0.01722657746928965	-0.001831484519432228	-2.356625494039136	0.9766499156217048	2.488562414305551	1.1500979958862	-0.1876021782475524	0.03223343940914652	1.089642297851246	-0.2072942805387976	-0.001058163853285336	-0.230147047766777	-0.06604977107440485	-0.0816168026508536	0.6873357919250468	0.6873357919250468	0.5344900764943864	0.5344900764943864	0.1437380697833766	0.1273602028208544	-0.8733798602373463	-0.2111783919096579	-0.09967666289834348	-0.3657270521193625	-0.4271674250097598	0.09214232759252043	1.882101982061837	0.2221697458631589	0.1820877394821193	2.133069066696747	-0.4541235554824153	0.1373467895778677	-0.2868532534418091	0.03385476500684824	-0.619489763079674	1.58426867565412	1.58426867565412	1.964093000317964	1.964093000317964	0.4575398971574314	0.8167493797956642	0.01004251102711074	0.0100226497697205	0.0100658200616573	0.01004538433103157	0.01006778391807961	0.01030419059839742	0.01018502363616264	0.01877379175549175	0.04813562519959302	0.03818503094936089	0.0127049571552188	0.01105172379837128	0.01776420187935876	0.01065049457477888	0.009366157466000396	0.06406087509425902	0.01178806274003299	0.01024805293640484	0.009608314724771911	0.05406342094732361	0.01022429415759067	0.01023229046012976	0.008973379201138892	0.01011002665914733	0.006543148094172173	0.01233200279042719	0.01113796011800114	0.2664267295426992	0.04436970867220526	0.901424074277749	0.3943993920371449	0.01025317448953945	0.01011868365163308	0.01052013916772864	0.01835975050488626	0.1001378679231673	0.01093087909134476	0.01565267115773079	0.02025099538377169	0.054309571696041
24.7364	-0.7018229311325636	0.01188181745522863	-0.006490434940436555	-2.367467396882731	0.9630835593189703	2.491322815261088	1.207947434103882	-0.1801271375498096	0.03942099729719029	1.153102645819569	-0.2215620979648481	0.003246590076755175	-0.2380615571898451	-0.06573124675247302	-0.09922099871167959	0.7373038516087249	0.7373038516087249	0.5955571753512643	0.5955571753512643	0.1583026879227394	0.1531138066355988	-0.8306391192178599	-0.1400148824167838	-0.1930326608026634	-0.3393262977053887	-0.4538086773828869	0.08718739047935019	1.875652505231946	0.2578930806428055	0.2766760020492568	2.008103230054656	-0.4684857571410926	0.1508149152578855	-0.227208011356989	-0.01339327216093259	-0.5211044532003692	1.662926096805716	1.662926096805716	2.01512984560057	2.01512984560057	0.4801520835445776	0.865861782551404	0.01004742701575749	0.01003034321875487	0.01006199823987423	0.01004477172996187	0.01006342847937516	0.01033859247850824	0.009797784425688372	0.02124730706979285	0.05184825057635026	0.03289349139362168	0.01300965694521725	0.01132113793959869	0.01510060178255485	0.01391724924853154	0.010025708488477	0.1051141643735971	0.01248342691579838	0.01010206249158504	0.01021492061851247	0.03082656792810249	0.01011517367528468	0.01017221193762321	0.01029586180458562	0.01011205269329559	0.01054302702723263	0.01253156068988393	0.01130087313572144	0.2490222123214203	0.02742468530835844	1.010924102999281	0.4594085111792121	0.01012275594554587	0.01010610507308303	0.009996543648541422	0.008485199580833373	0.104035287337606	0.01140934595284057	0.01581065887235301	0.0210447753891776	0.07703791408872269
24.7672	-0.7269448708360836	0.008244740223968035	-0.01320829950188702	-2.377673259838796	0.9487427468973115	2.493796071379093	1.265932585147483	-0.1720828198873517	0.04888155455827645	1.214122062754254	-0.2355220435782245	0.008694677967957693	-0.2447022960030713	-0.06624736103149256	-0.1131768315724032	0.7895010866430174	0.7895010866430174	0.6571446724580209	0.6571446724580209	0.1733192562101208	0.1799719602075037	-0.8110153543664861	-0.1052888429614337	-0.2298481195545143	-0.32657553976933	-0.4773110192520747	0.07280779612946794	1.900318411574741	0.2561982838464453	0.320472398035667	1.989502808133379	-0.4319777643032434	0.2110788008968189	-0.2046756294080599	-0.01347868447876106	-0.3845190097511967	1.734770513847196	1.734770513847196	2.002735674179206	2.002735674179206	0.4891394907443847	0.8901012385477375	0.01004359490093239	0.01002959066028603	0.01005585208469775	0.0100450824719063	0.01005410042851085	0.0101759901868023	0.009556897911384005	0.02155728905480324	0.04370820630702147	0.02558890578757963	0.01369170181919154	0.01241106278121604	0.01777001448358471	0.01995838874914335	0.01051410067780271	0.1491886654817878	0.009218102429006359	0.009981448157896637	0.01034178157790563	0.01976859538523453	0.01002467666118852	0.01006894127365403	0.01069966532102792	0.01009995095012024	0.01187016244711923	0.01322896454388312	0.01224704535680348	0.2321289229594415	0.02653568499469463	1.083701923890072	0.5454815163883114	0.0100124863331727	0.01009275660016827	0.01025041828435259	0.0109658116490287	0.1319472571749223	0.01275371568284318	0.02248470380022366	0.03514823918340758	0.08898628845522404
24.798	-0.7517831134337287	0.004883434407857379	-0.020193735751963	-2.387650941444261	0.933724780408834	2.495738022763391	1.324823464746025	-0.1646319757413584	0.05855789566331741	1.276137991773768	-0.2478180096558329	0.01661932719138413	-0.2510934532402286	-0.06592319721359052	-0.1227191095408821	0.8435926476655279	0.8435926476655279	0.7175783314957941	0.7175783314957941	0.1883011792579427	0.2074316898822675	-0.8096821356905702	-0.1178697988947153	-0.217129413750641	-0.3232558912758216	-0.4978174548214688	0.05258449793561622	1.933442756443174	0.221570374715471	0.2923016370085624	2.057095668674528	-0.3632273402575285	0.3048833322175005	-0.2066160688229618	0.0399849132160588	-0.2359694780023956	1.783046739070559	1.783046739070559	1.93204336450876	1.93204336450876	0.4855551798079872	0.898943652532818	0.01003451251486174	0.01002305360101496	0.01004874884648355	0.01004332459181087	0.01004393822402358	0.009793541702424248	0.01022941865928182	0.02073744436396489	0.04323968315284413	0.02216338302506136	0.01421043355691971	0.01332698141515729	0.01947863786836477	0.02446926093853156	0.01052370217385123	0.1973858963985371	0.002841747978861699	0.009966189669603309	0.0101608415365063	0.01556501795216643	0.01001188442548523	0.01002689955957591	0.01038386819152499	0.01008108519741773	0.01096324649183355	0.01381568816498258	0.01307589892519026	0.2012939562818987	0.02437808324983876	1.139710943024108	0.6301393416011154	0.009997325234438513	0.01008483067176146	0.01072187109646173	0.01676507113546116	0.1514111541782791	0.0138141306824055	0.03006220837731887	0.05558478521400018	0.08859171848270479
24.8288	-0.776702923202081	0.0008653524699118975	-0.02641172642284386	-2.397525774780006	0.9181076254695469	2.497039839779801	1.384530936368172	-0.158711319652023	0.06629285603975531	1.34058211055939	-0.2578274462682894	0.02745429984584306	-0.257351634510102	-0.06368570921914014	-0.1279711408214519	0.8986269843220629	0.8986269843220629	0.7759659166710149	0.7759659166710149	0.2030578625032522	0.2351431483137581	-0.8067155206249814	-0.1376660327261114	-0.1911289095112178	-0.3165267124987602	-0.5160491341195498	0.0324182094496234	1.941243548701233	0.1633006157323496	0.2058349292932926	2.113188003742059	-0.2911237719155531	0.3893866212069069	-0.1932698199183007	0.09978436829175893	-0.1077206924077637	1.78583830024489	1.78583830024489	1.853199662781342	1.853199662781342	0.4794369939863422	0.8979649978585311	0.01002711929592628	0.01001708092115839	0.01004444001814299	0.0100401966651115	0.01003824538485144	0.009538806627673993	0.01182380167913946	0.02031901990376628	0.06071557445963656	0.02576991758480043	0.01414107706744606	0.01326886876173601	0.01745113985038391	0.02342350202937793	0.0103072456450266	0.2514883094139235	0.003612413421933721	0.009999843574435736	0.01000064258054189	0.01351518742803069	0.01003203953684581	0.01003264558097091	0.01003253240314277	0.01006802195004751	0.009913320326452098	0.01379059252751087	0.01306197279471878	0.1451657688623484	0.01703998382148821	1.196724284412747	0.6948636112152777	0.01002974767889917	0.01008399636094101	0.01086314008744902	0.01843201824925278	0.1416489529720262	0.01366835145957681	0.03215937324719241	0.07387861223876592	0.08389060124592998
24.8596	-0.8012964542082422	-0.003218831171351208	-0.03199934495420239	-2.407014208190845	0.9019622602924565	2.497776888010033	1.443862425861595	-0.1548444947505838	0.07090061285740742	1.405502321602234	-0.2658439674715539	0.04014232223871213	-0.2625265112460643	-0.06023769370692139	-0.1299568165072241	0.9530204847214792	0.9530204847214792	0.8327182683927653	0.8327182683927653	0.2178001568521136	0.2627173731014026	-0.7800533134300721	-0.1168452880350465	-0.1808861319790308	-0.2961888440370673	-0.5313755424753803	0.01692777200362119	1.896508642488476	0.09302443269573962	0.101435113539888	2.067136903642679	-0.2383568278159967	0.4178575244576606	-0.1405459628732052	0.1111119242860822	-0.02522239723172523	1.731735137902311	1.731735137902311	1.813606191814503	1.813606191814503	0.4830183446681469	0.8837217069446894	0.01002326637826446	0.01001379682217031	0.01004325359820349	0.01003674793977091	0.01003704099584104	0.01007541383690562	0.01235423675909664	0.02025127533044765	0.08302429184994418	0.03410220150244793	0.01352084463150001	0.01228814968277476	0.01347144587087191	0.01767257996700235	0.01011542624319369	0.2996808272662745	0.02855305931127881	0.01002090279930207	0.009968011732857305	0.01177375572506296	0.01003936057729461	0.01003959521984454	0.009930728128627237	0.01006275486946975	0.00964481293187616	0.01315413647053339	0.01221874409358065	0.07683830519404802	0.01042637010616769	1.254533121905043	0.7456881828823083	0.01005417511061033	0.01008676502375717	0.01054661635303705	0.01579713200643819	0.1129922064152245	0.01244111728555857	0.02872446670568814	0.09025459454586349	0.08075214359676842
24.8904	-0.8246109967640556	-0.005884314590081161	-0.03756545969488867	-2.415670972908253	0.8854219557831506	2.498128145255278	1.500965262641911	-0.1531041639690557	0.07261754311177267	1.467206404194087	-0.2726794441334546	0.05251538786457961	-0.2656157855119733	-0.05738088489993188	-0.1301582740508876	1.00503276716974	1.00503276716974	0.8887305884433425	0.8887305884433425	0.2328980602377975	0.2896251850665038	-0.7238207427885019	-0.0514917439048993	-0.1845659075445434	-0.2637029945593791	-0.5407308811525601	0.007201097405138721	1.793959201638691	0.02498114333760305	0.02197780098034599	1.914518770514379	-0.2120043586406931	0.3709822083934313	-0.06552623998568641	0.06703441143018997	0.007729737863775362	1.629075288280333	1.629075288280333	1.805577736213198	1.805577736213198	0.4965138704073645	0.8525729578293026	0.01002114624061955	0.01001203597837246	0.01004287668290966	0.01003344537779269	0.01003707816553002	0.01151651372483542	0.008953511111131379	0.0192393759742417	0.09654792983830097	0.04301279853582743	0.01284038131477716	0.01114856199967419	0.01043665750701817	0.01178096944377354	0.01002800183137846	0.3231299693486521	0.08900099545281498	0.01001735252529224	0.01000008379974963	0.0104486820513896	0.01002829547523632	0.01003101101336248	0.009984252299121185	0.01005997957842187	0.009870268747072412	0.01237888900074116	0.01117208865802018	0.02447602776401776	0.008279770069815218	1.303021526722722	0.8032914375675912	0.01005612436254598	0.01008808353307224	0.009988497547435287	0.01267769383117703	0.08743824589240205	0.01115033863999612	0.02642689855357173	0.1110367060346914	0.07894513529168308
24.9212	-0.8458565425585779	-0.006353901121263966	-0.04327390310173133	-2.423262464285881	0.8687437797348121	2.498262474046866	1.5541631690575	-0.1531368758350361	0.07268475259490552	1.523294103841026	-0.2791400779391881	0.06244122803241346	-0.2665984258160921	-0.05623714429973446	-0.1298364275815437	1.053364087359008	1.053364087359008	0.9438665651668712	0.9438665651668712	0.2484318469032078	0.3153253308207423	-0.6537501171820014	0.01426186138216267	-0.1821768807349008	-0.2298710336087505	-0.5397632722076899	0.002020075254059197	1.651134498123245	-0.02520724948521297	-0.01148690471840939	1.730661384501265	-0.2086557853987535	0.269289844521491	-0.006794989956921644	0.0128874141561177	0.009376267398492873	1.498670065398421	1.498670065398421	1.76577619715462	1.76577619715462	0.5059919728230454	0.8067654187426939	0.01001911524682342	0.01001052378563748	0.01004156418184373	0.01003062668011742	0.0100359881324829	0.01224710894669645	0.002929206260634806	0.01680154543184477	0.1075437436513562	0.05072684052148724	0.01266569930789455	0.01067815963371366	0.009475276707856932	0.009054911069059729	0.01001437531161183	0.3154078073419735	0.1824331999801298	0.01000591048163202	0.01002384451540641	0.009875842628792351	0.01001439523630959	0.01001708006234582	0.01003861073696017	0.01005566739357481	0.01008372191047253	0.012038931374964	0.01064671122325063	0.003095681368087761	0.009158123215736958	1.340638817117693	0.8780383612283373	0.01004769886402719	0.01008581784637656	0.009590586520359561	0.01093608767134387	0.07230295731968987	0.01081585867969151	0.03258743795820138	0.1385056863167813	0.07869330434681315
24.952	-0.8649761074960594	-0.005417574533584666	-0.04866038683289818	-2.429916121772904	0.8523107919964867	2.498291873920392	1.602593560671044	-0.1542989546129089	0.07240175206155298	1.574176606767815	-0.2857671555002831	0.06890481433757831	-0.266399182199632	-0.05626304173820703	-0.1296199933280222	1.097375493386352	1.097375493386352	0.9963611957423062	0.9963611957423062	0.2639711245575631	0.3393624735054993	-0.5934226555973318	0.03451048919113489	-0.1612728012796289	-0.2045061873988689	-0.5247112587037792	-0.0001095209691030353	1.49473250144906	-0.05026555795277517	-0.009045412956175303	1.593415860825548	-0.2198642837537508	0.1569394192082076	0.0151399298474024	-0.002396019735020391	0.002484000333956616	1.35692249030057	1.35692249030057	1.64068044270125	1.64068044270125	0.4958242746788726	0.7475881017373002	0.01001695076428841	0.0100090252207892	0.01003933493201894	0.01002850388172359	0.01003365029510469	0.009575230840553959	0.004602903995924747	0.0139359420855802	0.1239632059923566	0.05530830825834451	0.01315762162808064	0.01125142781308165	0.009835950093626179	0.009191449874880169	0.01002275064415315	0.2851081322022161	0.3001111109273336	0.01000003509659648	0.01002186774592085	0.009874417901780437	0.01000795731940079	0.01000901099871764	0.0100421801619346	0.01004989332204294	0.01011190626919239	0.0124050313536496	0.01107492127281054	0.004153322790666386	0.01029257576909842	1.379358532996277	0.9626138781185631	0.01004136783057787	0.01008132933729882	0.009885084966888792	0.009103174453869253	0.06324026803598153	0.01169851728369031	0.04964519740671307	0.168454986320447	0.08305899570485918
24.9828	-0.8825064332441981	-0.004672100945947104	-0.05313173314677606	-2.435939337307254	0.8365993220839167	2.498282162170885	1.646166656178707	-0.1559791816976809	0.07238735701622888	1.621773489954002	-0.2927514616230366	0.07225777110030171	-0.2660215934353051	-0.05600426188062667	-0.1296069229423016	1.136794628352397	1.136794628352397	1.043854854024917	1.043854854024917	0.2787827482975663	0.3612425903038819	-0.5505888848007127	0.008046586680629858	-0.1268652989730671	-0.1881507445413053	-0.4928751636942693	-0.0004494248605442119	1.339284566176357	-0.05821919316390484	0.003322340803399819	1.507310930959731	-0.2320018230541988	0.07085369990164976	0.01057333244925714	0.02493951493484145	-0.001749556646476208	1.204746957858678	1.204746957858678	1.438693923550489	1.438693923550489	0.4615665568124049	0.6691143683914088	0.01001499387363913	0.01000775281240779	0.01003695906388586	0.0100267963370772	0.01003100095418366	0.003989265747890879	0.02876587138306743	0.01185828079934951	0.1325052942719643	0.05210444964195174	0.01392699558896364	0.01263381479910073	0.01035155353966293	0.01013173625584139	0.01002530587479159	0.2409696094984656	0.4376168322159397	0.01000052476477976	0.01001032229635789	0.0100247197961854	0.01000785836234698	0.01000772902459995	0.01002077718006198	0.01004430605492956	0.0100453692368336	0.01327635260035098	0.01240242085855601	0.01053981577722854	0.01053156434886687	1.431843372343591	1.04601028263967	0.01004008489340294	0.0100766059889673	0.0112312444001563	0.006649532103834331	0.06148433891953893	0.01321037629003338	0.07461661651238895	0.1963856258224997	0.09269162970991572
25.0136	-0.8988177449068262	-0.004999728826342005	-0.05647839898837394	-2.441509130415564	0.8221505843410787	2.498269279531202	1.684912120046304	-0.1578786241422782	0.07258566355376372	1.666766547896307	-0.299886192524545	0.07360160409973518	-0.2659069128636461	-0.05467701703320872	-0.1296971546317506	1.17124995629744	1.17124995629744	1.084763973863261	1.084763973863261	0.2922461689475651	0.380311512420003	-0.5083876469577812	-0.02452096022398955	-0.09303048941843009	-0.17304760502145	-0.4426531197976619	-0.000124052679470752	1.177617810224818	-0.06324101764914471	0.008598855074478251	1.401394632762336	-0.2299814748214002	0.02224381738738286	0.0006407539961609172	0.05547840779976655	-0.002959577973170056	1.032852679754199	1.032852679754199	1.206247016135285	1.206247016135285	0.4114311673250805	0.5657500845532106	0.01001340464168328	0.0100067815230508	0.01003495021882011	0.01002501597518384	0.01002876902288198	0.004104323551122509	0.07958228685904177	0.01089072828658167	0.1190920199102519	0.04022563615949391	0.01441256450770058	0.014080109190789	0.01048533182841271	0.01054070553269745	0.01001987273115991	0.1853645845321968	0.5895693379706675	0.01000258093986197	0.0100036312161328	0.01008455631701103	0.01000894301143021	0.0100086174374658	0.01000572568351466	0.01003978079432149	0.009996595457788334	0.01413062653678818	0.01398496641680017	0.01291160057150698	0.01021838703638476	1.498222093760822	1.124248597531257	0.01004104926809232	0.0100723237211685	0.01318546092445204	0.008448475528409594	0.06975481045998898	0.01440100975277629	0.1022014255335113	0.2212767543161004	0.1031889404794651
25.0444	-0.9135612607479519	-0.00594266565496293	-0.05891834446546757	-2.446533058766794	0.8095243324135851	2.498266617896329	1.718420771973148	-0.1599755388398429	0.0727592898731733	1.707305452220065	-0.3066286598235196	0.07398939679275691	-0.265993243583148	-0.05282743867282833	-0.1297949507722554	1.200103592449564	1.200103592449564	1.118564213175567	1.118564213175567	0.3040988913599207	0.3959075638084382	-0.4446463751458302	-0.02790333616032089	-0.06801895295048942	-0.1516440562776935	-0.3748141804768795	0.0001029526121764964	0.9949238243944002	-0.0714872794840742	0.00623354957107316	1.208219096231173	-0.2050386319960953	0.002505012131416152	-0.003223750317165877	0.05489292088842192	-0.002968412753839746	0.8362633563660753	0.8362633563660753	0.9751080753005554	0.9751080753005554	0.3570198028967005	0.4429911254625216	0.01001220982027339	0.01000606577204357	0.01003346958794275	0.01002313614224819	0.01002720652953929	0.02439221543936931	0.1412849809623651	0.01061631650437534	0.1004345649859683	0.02874427102846118	0.01437306850133967	0.01468544910945412	0.01032898195418687	0.01036949048376754	0.01001344796629443	0.1229679710461374	0.7375005833853699	0.01000321567405401	0.01000339270341336	0.01005235490555639	0.01000859354408251	0.01000850012067839	0.01000393522472195	0.01003639525988515	0.009993148480996914	0.01445686194408614	0.01480583163488916	0.01156872133899307	0.00994863133036061	1.566772980888386	1.196389873758245	0.01004145458721816	0.01006835811806762	0.01442144992502953	0.02273937906532367	0.07763590062790252	0.01457593380085231	0.1277302120365457	0.2435931976962788	0.1090311859176103
25.0752	-0.9259255151873674	-0.006533555108597875	-0.0607206364224156	-2.450779771057056	0.7992073801490056	2.498272112379612	1.745925162905097	-0.162270083153537	0.0728205161145585	1.740470349551042	-0.3123036634310227	0.07405498963987893	-0.2660920700662368	-0.05147004314873357	-0.129848853452372	1.222666511612091	1.222666511612091	1.145174652370286	1.145174652370286	0.3143442446114854	0.4076548099050231	-0.3552329705616346	-0.006545336731465966	-0.04745024207711419	-0.1231488173376067	-0.2934817765495016	2.023731826522298e-05	0.7871524964388349	-0.07818789360914231	0.002014031947404413	0.933186028424124	-0.1584077795980442	-0.001787714113461451	-0.001632510399914153	0.02952805304847516	-0.00240357043474382	0.6209491067984922	0.6209491067984922	0.7454028156047493	0.7454028156047493	0.3036108105275102	0.3153752714469645	0.01001144773983817	0.0100055845107935	0.01003247408347444	0.01002157341257407	0.01002625620653447	0.07296337367026495	0.1897511544806516	0.01055524882713759	0.104230531763858	0.02845433877903918	0.0139661742567204	0.01399399066743081	0.01014233665889547	0.01008300864350731	0.01001020356874005	0.0661318625285031	0.8544608833705729	0.01000258385813216	0.01000511862133803	0.01000872574916229	0.01000731244561156	0.01000734646944597	0.01000749631441269	0.01003405846835108	0.0100084036152723	0.0140597736892545	0.01421096135749972	0.009851391254325118	0.009913318245663291	1.625243147139551	1.258901619863197	0.01004057255651501	0.01006476474441748	0.01386460908684165	0.05252603857761041	0.0712455465900461	0.01366845736455848	0.1480306551349178	0.2633788340523217	0.1081490289792614
25.106	-0.9352885423011162	-0.006430840677663096	-0.06187469990399493	-2.454090175249662	0.7915259330682622	2.498278555037387	1.766733766017552	-0.1645815899269432	0.07281274034115462	1.764566194446925	-0.3163609139564173	0.07405778200883514	-0.2661203622064016	-0.05091942304886488	-0.1298531003012519	1.238496216640204	1.238496216640204	1.164400185022897	1.164400185022897	0.3229798993365893	0.415572036712385	-0.253395527828769	0.01092542983267862	-0.0224803919368143	-0.09193562932381577	-0.2045833602304487	-0.0001580028750558918	0.5620514862491025	-0.07428654765984923	-0.0004634180948197227	0.6349010149159851	-0.09948159459211132	-0.0009706739270879442	0.0007002918128891474	0.009750764656300164	-0.001680592717630981	0.3994825600392743	0.3994825600392743	0.5040441895128072	0.5040441895128072	0.2482663036316414	0.1952764255243823	0.01001107121984754	0.0100053113791051	0.01003176083766072	0.01002058562870696	0.01002569495196462	0.1408941266457061	0.2131681339713047	0.01049551644864594	0.1238012523917709	0.03797683616380081	0.013487608273723	0.01247680090680038	0.01005482805520909	0.009962123039794234	0.01000966889614547	0.02743134990167355	0.9245079548429196	0.01000186688993003	0.01000575121200331	0.009994877798472327	0.0100063087179669	0.01000627531801817	0.01000946431975028	0.01003258930332427	0.0100174886517041	0.01320332571979356	0.01261700272860627	0.009370136118122855	0.00999247505987955	1.669561628198044	1.308554657384577	0.01003902094818098	0.01006182826412135	0.01195555757653123	0.08993908207695039	0.05631445398428093	0.01226815923982171	0.1615799589215375	0.2804852615821797	0.1032139710763004
25.1368	-0.9415116420790691	-0.006079440334171532	-0.06216166505619525	-2.456452018972704	0.7866342842444904	2.498281935453531	1.780470485191517	-0.1665216386708681	0.07279530117346625	1.779727392979841	-0.3185720760073188	0.07405004824383238	-0.2661030987731329	-0.05066378157675962	-0.1298397277934464	1.247548004645231	1.247548004645231	1.175916081700368	1.175916081700368	0.3298018690848224	0.4199212867540021	-0.153149131740156	0.008601308673491218	0.008243105452798372	-0.06205303799154418	-0.1129283586662528	-0.000186779147426404	0.3298414337325409	-0.05376766240194256	-0.0006823823017501829	0.3583568235485786	-0.04071525037026087	-0.0004239766831817223	0.001232381187299543	0.01133102563791051	-0.001229912131207505	0.1851528441101606	0.1851528441101606	0.2494399730077792	0.2494399730077792	0.1841739964892848	0.08612370408386373	0.01001092376129456	0.01000517783662335	0.01003116345790376	0.0100200608602877	0.01002532789660527	0.2065234134019431	0.217452024753553	0.01041892692801162	0.1231714332219242	0.04471146586917314	0.01318715992877843	0.01130983870156357	0.01005276176816823	0.009989603265131234	0.010009819374904	0.01016531076588339	0.952240996906914	0.01000162062533804	0.01000523889596936	0.01000215475737469	0.01000596117201473	0.01000581592324943	0.01000883019839695	0.01003170309302125	0.01001648571706013	0.01250008906783774	0.01132356402804676	0.009728285300536453	0.01004808632843179	1.701962101369241	1.347190919197202	0.01003756173835023	0.01005968639003948	0.0103701433049591	0.1215062815348734	0.05489102385677844	0.01132034568747961	0.1692065136109642	0.2938940415808595	0.1003719214206412
25.1676	-0.9447694544467661	-0.006017416344272291	-0.06147516293906018	-2.457935468668212	0.7845727565723658	2.498281923871962	1.787052142520357	-0.167610593231276	0.07279564485533974	1.786822783624568	-0.3190706388192013	0.0740239586491485	-0.2660855132364192	-0.05013141846052464	-0.1298422025889619	1.250173626966234	1.250173626966234	1.179655873728989	1.179655873728989	0.3344009318360296	0.420993777248427	-0.06038503689957808	-0.004727692168718632	0.03709064029188908	-0.03478181231285467	-0.02115448204938393	-9.538235906933397e-05	0.09883444707901745	-0.01708928292927554	0.0001577355601107986	0.1069322498501489	0.008158659516813792	-0.0005126541499465109	0.0004872065322411133	0.02360440472516298	-0.0007827888942746866	-0.01184486708303318	-0.01184486708303318	-0.0006252575928774873	-0.0006252575928774873	0.1065688771826031	-0.01445135305847967	0.01001088578697097	0.01000512827003974	0.01003075399949569	0.01001982463860709	0.01002514501333966	0.2504588861678363	0.2141368705307733	0.01035568192006214	0.08693358379918487	0.03984853389559709	0.013219849569434	0.01143337218086419	0.01007901377829359	0.01004682424982285	0.01000956196469675	0.007793940861201771	0.9527883728849349	0.01000169462062182	0.0100046427842675	0.01001072976557243	0.01000598265946766	0.01000579880860919	0.01000749124447035	0.01003122244470757	0.0100123851699768	0.01249379396409494	0.0114027903387325	0.01009735976383847	0.01004923436573183	1.723886558546372	1.379278384233998	0.01003656614840617	0.01005827695790027	0.01038653427401884	0.1379789712628803	0.07788772289769677	0.0115090355561128	0.173433510877887	0.3007260008336853	0.1052354758168331
25.1984	-0.9453111222956074	-0.006317663285745135	-0.06001500752645808	-2.458618002557055	0.7853112828238085	2.498278729755029	1.786621704838529	-0.1674360201133723	0.07281036318428988	1.786396161247247	-0.318243270116494	0.07400528133206295	-0.2660813565638618	-0.04929233723737696	-0.1298544746549136	1.24698318053471	1.24698318053471	1.176115671838593	1.176115671838593	0.3363459738754107	0.4190523084299022	0.02424738222769219	-0.01245312091118675	0.0548519417483051	-0.009822546599859669	0.06838088870634965	-1.92233687900798e-05	-0.1243513667661668	0.0303038859130094	0.0006034730936759121	-0.1342965916426225	0.04222544529718884	0.0008413509399367483	-0.0002439540039214562	0.02770679716687069	0.0005044350335133284	-0.188472795265121	-0.188472795265121	-0.2238024159846274	-0.2238024159846274	0.0181306564908211	-0.1063531735422789	0.0100109393794639	0.0100051516044957	0.01003067425529886	0.01001982442502977	0.01002521687493025	0.265481464474934	0.2088026774217345	0.01034682100976342	0.04048857775857624	0.027801839317782	0.0135470407450382	0.01265480397388018	0.01009484112438199	0.01006654665830856	0.01000903635691425	0.01068019625785448	0.9375335830693509	0.01000180425077501	0.01000446674708831	0.01001374950385654	0.01000607222747183	0.01000591781666992	0.01000679875403832	0.01003115960289446	0.01001047398050847	0.01315253976484336	0.01266899472528496	0.0101657062440232	0.01003092508466756	1.73391795400099	1.404415766484935	0.01003611729904666	0.01005761465139911	0.01170536632044565	0.1371205732070472	0.1124422348589884	0.01262660505419263	0.1750298214331538	0.2984395697438915	0.1168681029224359
25.2292	-0.9433779267046684	-0.006665948171130538	-0.05822040061145858	-2.458562892267194	0.7887179846741419	2.498274948290184	1.779507462966908	-0.1657531643577336	0.07282391526106927	1.77863445666111	-0.3166033174325882	0.07405245373901632	-0.2660833455787499	-0.04857093355886822	-0.1298362811640119	1.238584091665975	1.238584091665975	1.16623825484272	1.16623825484272	0.3354754872592658	0.4144432171950278	0.1008748005340776	-0.008592583347232069	0.05722182417699472	0.01318747432438621	0.1511801258056912	0.0001242028752413595	-0.3345003123853542	0.08164042543041636	0.0002025632399414443	-0.367832953771532	0.05907846113946246	0.003706443151593385	-0.0006676513222069853	0.01626776344294626	0.002480044257834641	-0.350029028623199	-0.350029028623199	-0.4107827326025013	-0.4107827326025013	-0.06920315870422811	-0.1841916808838264	0.01001110509111249	0.01000525421872334	0.0100308804940015	0.01002004792269409	0.0100255342414568	0.2550876144618175	0.2005857504693632	0.01043929588316403	0.01852054408939229	0.02031542438686283	0.01388933537966812	0.01374892182524684	0.01008980782387896	0.01005110564143685	0.0100089112024592	0.01224891444279676	0.9102415523426814	0.01000185726769383	0.01000446948836668	0.01001430123971651	0.01000616031226688	0.01000602165815083	0.01000685915899044	0.01003160278878828	0.01001106299608766	0.01381601607864887	0.01381125610105111	0.0100651799967389	0.01002300112231231	1.7312396482824	1.414963954054113	0.01003627624867617	0.01005801824032175	0.01287394955145136	0.1202438731541708	0.1374862452006551	0.01362017965660223	0.1707040436026925	0.2883023677646899	0.1262699594575447
25.26	-0.9392133448787626	-0.006783021151198559	-0.05656603637544703	-2.457827698038477	0.7944877028761959	2.498278691070277	1.766212490065642	-0.1625127557491449	0.07282824822582594	1.763984240499136	-0.3147296233483451	0.07414922182456574	-0.2660890806425891	-0.04837274426496123	-0.1297812270775213	1.225389974992518	1.225389974992518	1.151057470694483	1.151057470694483	0.332109953001279	0.4076653420417615	0.1693459004651951	-0.0002239187160764865	0.04637372043168009	0.03432007100799508	0.2208135410604873	0.0004863867697016694	-0.5253335149406677	0.1305925243131764	-0.0006027184102961022	-0.5762966721079014	0.05706861482633148	0.003074152041472946	-0.001118184365812932	-0.003048697271744216	0.002757045238719511	-0.5020973408344421	-0.5020973408344421	-0.5657713089468049	-0.5657713089468049	-0.1398260562549218	-0.2439294983066511	0.01001141725258032	0.01000545045211683	0.01003129055683948	0.01002051280202246	0.01002610267434734	0.2272647388883936	0.1876346991848948	0.01061323291715483	0.0297636816110715	0.02391371109453855	0.0139521319848744	0.01366216944760438	0.01008250177002208	0.01003619267809732	0.01000979115644813	0.01054778769278673	0.8722947472282828	0.01000190650323809	0.01000439779995994	0.01001353760188748	0.01000630569215571	0.01000610581247327	0.01000747493741137	0.01003266528267183	0.01001232845791739	0.01384211593729023	0.01371169264945044	0.009979547158517127	0.01002527776129889	1.717112815809324	1.403785112421064	0.01003712537735161	0.01005995701927811	0.01276914279998594	0.09120000943598727	0.1444040494829522	0.01356789088453592	0.1566007712931567	0.2745321208566447	0.124380813954847
25.2908	-0.9330571296858448	-0.006696218545772508	-0.05536958832575372	-2.45646801411423	0.8021256805643918	2.498294389137868	1.747475637475248	-0.1578760768505177	0.07282265557206916	1.743576266406053	-0.3132024073232486	0.07405530721741843	-0.2661008807913176	-0.04873312806307835	-0.1297774780723318	1.20774663075972	1.20774663075972	1.131486524691208	1.131486524691208	0.3269633845160764	0.3992603128643896	0.2307527300180672	0.00265974156443151	0.02921698682985104	0.05383297666454827	0.2720195472843804	0.000667214069414241	-0.6876141948597002	0.1703704204609243	-0.001426378407486354	-0.7386476628076528	0.03773999268251024	-0.01025039374546855	-0.001475310065242791	-0.01695394768653338	-0.001216784216961684	-0.6399260005552584	-0.6399260005552584	-0.694628684044402	-0.694628684044402	-0.1856380068778649	-0.2879897796567399	0.01001192705518551	0.01000576386573656	0.0100320180269846	0.01002129894854712	0.0100270488365795	0.1912592551006711	0.1702797777117703	0.01073064340016587	0.05564962688152075	0.03420047632503217	0.01373175285591631	0.01257399237114582	0.01011380816388644	0.01005924632644292	0.01001161438920039	0.007448395029254051	0.8278118589191764	0.01000198581159663	0.01000461188103613	0.01000773779050639	0.01000655702005883	0.0100062767878707	0.0100086355799957	0.0100344250017766	0.01001305773478121	0.01328728776955618	0.01256639323629389	0.009963437187660795	0.01002347923822252	1.692638040626754	1.373339042089505	0.01003854598231025	0.01006348313542591	0.01158699570537202	0.05804198152127336	0.1412522403552326	0.01261171889016014	0.1342006549412298	0.2596410927987665	0.1118803609415605
25.3216	-0.9250626380098551	-0.006645199962767454	-0.05469717992966461	-2.454517799353797	0.8110352230774804	2.49829779853741	1.724277717738171	-0.1522487968993977	0.07280246458565011	1.71895186236931	-0.3124416601942359	0.07325039836801897	-0.2661078757186072	-0.04933465671349067	-0.1299339048849789	1.186249092671884	1.186249092671884	1.108389036739301	1.108389036739301	0.3207568864559426	0.3896911394680695	0.2903187154429854	-0.00183852826922022	0.01371994385753286	0.07305797675174122	0.3037308537810792	-0.000685909946643051	-0.8158127704952822	0.1930040348009244	-0.002049049936004035	-0.8534928890350453	0.009669536583367628	-0.04402049351019297	-0.001120184163475568	-0.01834137001330598	-0.006573602775601838	-0.7510871288464981	-0.7510871288464981	-0.7952544683387728	-0.7952544683387728	-0.2122198478585054	-0.3197343691530992	0.01001263438189583	0.01000618999211707	0.01003317185685793	0.01002239354313923	0.01002842286986128	0.1579634251330865	0.150003388461368	0.0106977674062787	0.07339677866958033	0.04181971475901937	0.01349613010594191	0.01155283885340041	0.01019879550675866	0.01012287621981381	0.01001302495847486	0.008130594331103816	0.7830768113861916	0.01000204572659957	0.01000579531583226	0.009997924336293361	0.01000690588338177	0.01000672802342946	0.01000989806162885	0.01003674057559686	0.01001316471231488	0.01276837090206288	0.01150033648209203	0.009991567466289684	0.01001500604055449	1.657980586472744	1.333580767951768	0.01004006894457545	0.01006780977716614	0.01037438221743438	0.03072001303999183	0.140981669113157	0.01169481981100113	0.1104967724469181	0.2424833114145273	0.09837206335190787
25.3524	-0.9151448859017874	-0.006751026336382584	-0.05441346764102577	-2.451948601112959	0.8206600584713264	2.498213171362289	1.697577301172861	-0.1462760908342529	0.07276587118931116	1.691246697087422	-0.3124956185563956	0.07108753138086762	-0.266085337753916	-0.04982293492376824	-0.1301291427667773	1.161815150036672	1.161815150036672	1.082783046857571	1.082783046857571	0.3138747493039818	0.3793843091519859	0.3578337075165965	-0.004742137458679096	0.004357483381326244	0.09457676935693338	0.3193941161837905	-0.00537871906242676	-0.9176278420068645	0.1918112239632806	-0.001933279883253966	-0.9465875860322921	-0.01229345563986014	-0.09769341589395877	6.184219913668142e-05	-0.01194605630338053	-0.001141255081754177	-0.8294062678943023	-0.8294062678943023	-0.8588359160804997	-0.8588359160804997	-0.2318330939338102	-0.3375298809310256	0.01001347045608672	0.01000668505061941	0.01003463217020981	0.01002359356311057	0.01003008591918594	0.1381108510816998	0.1277595428342144	0.01080393948753856	0.07538156923495372	0.04246255164418764	0.01345712302003581	0.01130639650774747	0.01025826278271959	0.01015751715197069	0.01001209910512429	0.01914176213430965	0.7419125432984499	0.01000205767426951	0.01000767519788259	0.009999823041731052	0.01000734664487077	0.01000759274315066	0.01000992556548368	0.01003934538059051	0.01001322366004855	0.01270513995132986	0.01124417555863341	0.01003975562300951	0.01002009352517337	1.614093771636343	1.290633069388328	0.01004123156391345	0.01007189759113326	0.009847608698937462	0.0150103804808981	0.1481733075644669	0.01146833603768616	0.09147221399965869	0.2215841590823958	0.09213761719330635
25.3832	-0.9029186238937255	-0.006773696193304238	-0.05433885120118092	-2.448654053183605	0.8305965141607371	2.497918412303074	1.667925779616194	-0.1407241061199119	0.07272843608217441	1.66059528824936	-0.3129504301041746	0.06709151377526328	-0.2660307370348852	-0.05013338742101326	-0.1297691064511342	1.135393425342889	1.135393425342889	1.055874912622099	1.055874912622099	0.3063794023101201	0.3687987001800011	0.440789562219349	0.005763783657809577	0.0001910499415079831	0.1202924553396778	0.3250064161242411	-0.0144408508344167	-1.009805356014325	0.1657469587405069	-0.0008280730927690758	-1.049806808170456	-0.0140071461455692	-0.1613339285251863	0.000738644585794188	-0.009418032014036213	0.03127908876411412	-0.8811716887933825	-0.8811716887933825	-0.8819840923343716	-0.8819840923343716	-0.2514229955937701	-0.3395161496248386	0.01001444271161332	0.01000724050977888	0.01003638316823991	0.01002476999192698	0.01003207617395705	0.1355310743592514	0.1045452576109678	0.01179258907656347	0.06992122537874917	0.04003119816174284	0.01354273493841847	0.0115777102326519	0.0101558681847205	0.01006212705287851	0.01000947778266947	0.04335821843034961	0.7022229381218685	0.01000217284523185	0.01000804258103868	0.01003256991322783	0.01000794705959179	0.01000861861941168	0.01000792469787634	0.01004237770231883	0.01001413863324588	0.01290094347276215	0.01151689476513689	0.01008331070871932	0.01006145518628773	1.562558143185355	1.2407492760476	0.01004225367528752	0.01007579711919922	0.009908327000031487	0.009731434732519443	0.156894332988299	0.01172303735789482	0.07670162134896491	0.1991350418125382	0.09306465067320659
25.414	-0.8879217318742016	-0.006219808352494595	-0.05437555661279718	-2.444513830653747	0.8406353858920295	2.497284902075998	1.635426678318741	-0.1362706897275436	0.07270950987167911	1.626459596977441	-0.3130777157093786	0.06116839236536077	-0.2660086159235444	-0.05052184307418282	-0.1278692250854581	1.107647841177616	1.107647841177616	1.028755109936356	1.028755109936356	0.2982735034916968	0.3583435650514024	0.5349058969380927	0.03245952855481227	-0.002448883354303638	0.1488548324621035	0.3268123197551998	-0.0271911280738204	-1.101646309938474	0.1212651095432584	0.0004635952726864965	-1.170080593822214	0.009810085513742366	-0.2217393161016645	-0.00111189847443053	-0.01766091805500764	0.09737022918242326	-0.9179506381092117	-0.9179506381092117	-0.8762396623176391	-0.8762396623176391	-0.2698313186739669	-0.3299629221610786	0.01001570637992121	0.01000792753998693	0.01003883791988797	0.01002610447290348	0.01003485766060405	0.1430989737026991	0.08250636428458273	0.01420739069498133	0.06925209463748973	0.04096242119096248	0.01351201249505303	0.01169741326377929	0.009935335539353276	0.009883064977853519	0.01001103501337803	0.0761816619405056	0.6570629455280245	0.01000265115010071	0.01000445440762095	0.01007956724151628	0.01000872677704067	0.01000899126519418	0.01000648840183574	0.01004650043483492	0.01001644652974865	0.01288597684265124	0.01163159842150395	0.01006014030381827	0.01011610422196968	1.503141287236917	1.176376237683014	0.01004404451281647	0.01008084791688408	0.01009744658921489	0.009795386765066482	0.1593937927200902	0.01183833753709008	0.06177717791439091	0.1801870360191438	0.09519481194323896
25.4448	-0.8700144351844684	-0.004706479667246665	-0.05452909728397039	-2.439497283351308	0.8507397676910606	2.496229935295287	1.600122535154693	-0.1333090817287998	0.07271427466223447	1.588576620148657	-0.3121659759707458	0.05359194325613095	-0.2661135543602904	-0.05128665684012465	-0.1235179683556629	1.078903186554646	1.078903186554646	1.002020379456748	1.002020379456748	0.2896514735967139	0.3482573436507517	0.625014158693094	0.06657332510061255	-0.007166913326248021	0.1763405094967457	0.3295344107188244	-0.0414059903701945	-1.188144717520576	0.07018489777222921	0.001424096111344457	-1.286888287438963	0.05235467553096011	-0.2686889199274323	-0.004388539116007502	-0.03306035319908439	0.1862313302430213	-0.9480741450508304	-0.9480741450508304	-0.8610911868221884	-0.8610911868221884	-0.2848002548614479	-0.3161215889976004	0.01001741507583971	0.01000883966980181	0.01004245720485304	0.01002788354553809	0.01003888327747707	0.1491061766551733	0.06373685216393322	0.01743581880256286	0.07771301206450325	0.04657861387427308	0.01325989425223968	0.01144231712808536	0.01004373492385154	0.009970670741070794	0.01002354741097419	0.1082017217947078	0.5995616803841941	0.01000341899098803	0.009999279484377576	0.01006399533516583	0.01000944311292851	0.0100081065407137	0.01001165324556908	0.01005220937607288	0.01001895975208562	0.01254397636893715	0.01139801859339393	0.009917002375541769	0.01009438756165136	1.433752255474494	1.095936704317191	0.01004718706684281	0.01008796666299732	0.01015671661428847	0.01079049243666748	0.1556203764630267	0.01155097367385548	0.04600395308161752	0.1672291855157901	0.09410645807597212
25.4756	-0.8495560120801056	-0.002182053383796622	-0.05490866212387716	-2.433685703198426	0.8609755006464443	2.494749221391736	1.56231883599709	-0.1318527376155805	0.07275218361520842	1.547385727707826	-0.3098467191545086	0.04486093823794118	-0.2662801167251324	-0.05252195743303676	-0.1163381912982013	1.049285443400056	1.049285443400056	0.9757219585189444	0.9757219585189444	0.2805975192279359	0.33860996800014	0.6973568616674282	0.09763620227085394	-0.01768578610177221	0.2002280101732522	0.3351614937912125	-0.05443202759726402	-1.26088885833812	0.02495337970248023	0.002710266915387286	-1.382739116583096	0.09899711533299738	-0.2970095187579229	-0.0007495935908390788	-0.04792842187782111	0.2771067776103704	-0.9750381956888625	-0.9750381956888625	-0.8505094827088303	-0.8505094827088303	-0.2994078592068951	-0.3025878956721124	0.01001971656178629	0.01001010727342107	0.01004738037274864	0.01003032720840377	0.01004425390542279	0.1470940685376718	0.04830116876631625	0.01985503785755217	0.08730225023603817	0.05092433263996535	0.01296752807792833	0.01123226344402032	0.01106091064685993	0.01076726038787269	0.01004158822834566	0.1314541449003064	0.5280819610639904	0.01000371368429469	0.01000272428752186	0.009918455893048227	0.01000986319282889	0.01000745802772856	0.01002558462207997	0.0100596492801901	0.01001877079820474	0.01228054940973783	0.01128614675342967	0.009761672772181143	0.009932332279281759	1.353864861821131	1.005886150792378	0.01005129147758773	0.01009660971333063	0.01013273007249011	0.01098694106090529	0.1546074941775348	0.01119982548502464	0.03524068128485157	0.1565457857735789	0.09135725603303479
25.5064	-0.8272080162721729	0.001185816922911364	-0.05572293050132003	-2.427187114644838	0.8714216227680596	2.492910396083525	1.522503980778808	-0.1316038422072218	0.07282775643755501	1.503542005720979	-0.306195823989419	0.03553011521675563	-0.266069118309508	-0.05414576200452901	-0.1065563986978873	1.018854065094924	1.018854065094924	0.9495688312486104	0.9495688312486104	0.2710096545805478	0.3293566984946338	0.7474598508421904	0.1216690230898434	-0.03559157006878866	0.2212287427414127	0.3429092220040759	-0.06447130773816345	-1.318784136372717	-0.007602132331275494	0.003035741575193021	-1.461214597932157	0.1373398123202884	-0.3079918283326505	0.02244167332108744	-0.05859901693083373	0.3535629353137518	-1.000560014161575	-1.000560014161575	-0.8527953547499028	-0.8527953547499028	-0.3205806805900574	-0.2924178425880406	0.01002297078625598	0.01001197662944556	0.01005374951853626	0.01003378419521598	0.01005111709931618	0.1367455678272956	0.03494538511240553	0.02051681379692699	0.08362587981503448	0.04643298875282598	0.0129204044905274	0.01154000584973709	0.01292410725431261	0.01222840440895107	0.0100396824815935	0.1424714523540759	0.4475995101416359	0.01000271545478539	0.01002366376093472	0.009752124565551643	0.01001062990192131	0.0100112205061814	0.01003561597090835	0.01006945626991115	0.01001510468091327	0.01252658908918998	0.0117518520470946	0.009917869517412956	0.009781515142135152	1.266854416262041	0.9136306486942323	0.01005576760568166	0.01010625130149431	0.01015690983026937	0.01060537740882664	0.1658345419500975	0.01127424818492108	0.03458315456282273	0.1419882522814109	0.09201970607032549
25.5372	-0.8036734126081049	0.005188906285104456	-0.05712776902035396	-2.420068293309757	0.8821097041965452	2.490814270491069	1.481110154741846	-0.132194813464447	0.07284394259234681	1.457461557831547	-0.3015220838399855	0.02600845620374237	-0.26471181156794	-0.05603935393622357	-0.0947616566023733	0.9876219733364138	0.9876219733364138	0.9230134122880489	0.9230134122880489	0.2606102841773675	0.320321382697309	0.7756582326578347	0.1382429318831667	-0.05479105468161069	0.2406597225631967	0.3508431210495128	-0.07117201912229844	-1.365652473318735	-0.03010298907746326	-0.00252721368196601	-1.528991154045757	0.1655132607940374	-0.3102979658540975	0.07203152923064995	-0.06497862523410435	0.4078656847278785	-1.027587438499079	-1.027587438499079	-0.8778888050555229	-0.8778888050555229	-0.351168887409285	-0.2906611584683162	0.01002742077053811	0.01001454125311101	0.01006158324780556	0.0100384259920784	0.01005961257753375	0.1183025670262795	0.02353787455720341	0.02028397962202477	0.06280710193916625	0.03287733531616824	0.01319951488398826	0.01227294039178683	0.01459077812619559	0.01356683763176269	0.009995325509650859	0.1416785873429384	0.3660144826381499	0.0100013112745427	0.01004773616616643	0.009907967242532085	0.01001342574043593	0.01002163761401958	0.01001742242894167	0.01008231667159739	0.01001468653361257	0.01319220124416514	0.0125976323598604	0.01057798066712632	0.01004383984527438	1.178210850161232	0.82117543887232	0.01006047971250297	0.01011722244697508	0.01025434521181484	0.01031219716169475	0.1869445890205578	0.01183596687278647	0.04015364975282869	0.1229087748945655	0.09736386604754241
25.568	-0.7796325194334669	0.009599082856869967	-0.05899575865277718	-2.412376611082002	0.8930244394735745	2.488557570196316	1.438441036874107	-0.1334258243660656	0.07257905465209276	1.409528360762375	-0.2960559665518349	0.01639953254105832	-0.2614088348395282	-0.05809663018878324	-0.0817138564378587	0.9554949959962792	0.9554949959962792	0.8952474002806534	0.8952474002806534	0.2491926915026039	0.3111503701160817	0.7817548260486042	0.1469120305007495	-0.06479258630340244	0.2584827591114615	0.3578494638115358	-0.07488017806257931	-1.404169577314804	-0.04936415184472738	-0.01539839401264615	-1.581555463537197	0.1889777156537675	-0.3146962669833648	0.1458088481026046	-0.0683830280835013	0.435043182990916	-1.060597628549414	-1.060597628549414	-0.9325818123626561	-0.9325818123626561	-0.3846945038710938	-0.3035716955588576	0.01003236581016177	0.01001728749299611	0.01006971434059448	0.0100433216207648	0.01006879387731623	0.09209480501863224	0.01539446076456317	0.02050090450180847	0.04649972533865171	0.0208780835768441	0.01358828908659178	0.01285528648901937	0.01488530763155291	0.01384626136228063	0.009944447623930215	0.1328832009738621	0.2885026899012035	0.01000303558961528	0.01002998046742949	0.01059787031505857	0.01001905168582191	0.01003086397049337	0.009969554508360259	0.01009671082917973	0.0100296631033669	0.0137502240568328	0.01315476243896131	0.01115585673055355	0.01093173219394398	1.091982154595495	0.7278437242405281	0.01006485522064873	0.01012843496305423	0.01033606323289404	0.01039241626419884	0.1998595110810341	0.0124505045827602	0.04222086587938732	0.1067204542620492	0.1001116201212007
25.5988	-0.755739295152502	0.01420564245268382	-0.06099669155574119	-2.404159150587494	0.9041409130474968	2.486236901729022	1.394711751123314	-0.1352132046478176	0.07193049314986646	1.360227292883465	-0.2899142014970211	0.006565471520915726	-0.2554875737396727	-0.06029858589894421	-0.06833501719010111	0.9222246921198949	0.9222246921198949	0.8654192914797343	0.8654192914797343	0.2368629680181187	0.3013347785203939	0.7677294568031493	0.1512566488150203	-0.06514650463951339	0.2751802987313883	0.3641622318988358	-0.07502870342874902	-1.436428262722266	-0.06463820565342882	-0.0254908134215449	-1.620803494189744	0.2079665119027954	-0.3245890780083215	0.2410385628561222	-0.07507397496508117	0.4285795775811316	-1.103780374661017	-1.103780374661017	-1.011004967213894	-1.011004967213894	-0.4098729360880868	-0.3348450264138782	0.01003676185721539	0.01001965099035582	0.01007637674504026	0.01004708222205216	0.01007699954524898	0.06274762619326808	0.01126908806418324	0.02099113875627589	0.06887815830707172	0.02421659528635531	0.01376249999755589	0.0128066746069135	0.01366012226928502	0.01280777449029057	0.01000218785061922	0.1223591872559965	0.2155624073725519	0.01001086342263369	0.009943457852318184	0.01121521730312533	0.01002468700123624	0.01002194938051458	0.009956468096249175	0.010109741408657	0.01006093939801356	0.01376573187933755	0.0129648610458242	0.01030270691904593	0.01178597116864562	1.00961106995614	0.6360547765959393	0.01006751365307027	0.01013678422560113	0.01029638249524866	0.01067555442959074	0.1839791342608943	0.01260750088764167	0.03604409242136498	0.1016014209366686	0.08987723691497364
25.6296	-0.7324960810549558	0.01897519949330627	-0.06303662012962351	-2.395421750406752	0.9154545852440522	2.483991663495803	1.350029463962325	-0.1372608359376069	0.07120764742695847	1.309684129644962	-0.2833824760778395	-0.00357873248342658	-0.2463313319946916	-0.06289977269002572	-0.05573820891180373	0.8874368203013696	0.8874368203013696	0.8329362132647792	0.8329362132647792	0.2240323958127767	0.2903155501471816	0.7413289918708605	0.1587447671239129	-0.06952727303276351	0.2925282072996834	0.3707773680059948	-0.06961456217019374	-1.466691388872701	-0.06427108573894059	-0.01852505998400607	-1.665363433411013	0.2126289672798265	-0.3324278882863086	0.3549101739562966	-0.09638032205171337	0.3824284901418468	-1.159069697626575	-1.159069697626575	-1.102067312433427	-1.102067312433427	-0.4195329419390775	-0.3834748563962497	0.01004167636275094	0.01002264511107712	0.01008249652196468	0.0100507246991624	0.0100848375871036	0.03816334386055192	0.01018503561317498	0.02041697001880668	0.1342358400508137	0.04555798875271002	0.01355417904087109	0.01211757687966509	0.01184038355096142	0.01102161066433117	0.01024313500640972	0.1150008929333463	0.1471387426021988	0.01001981191171623	0.009870201179913685	0.0103147862474582	0.01002455715822996	0.009991728511237296	0.01007806160508959	0.01012295183777658	0.01007831456779312	0.01321231671269543	0.01212364981365567	0.007775124961254137	0.01136145723588222	0.9319924535140335	0.5494320964242905	0.01006838625552019	0.01014214991475025	0.0101073959850977	0.01073697902514116	0.1391989930746616	0.01214256076997982	0.02640877772523462	0.106044184467778	0.06631774946094415
25.6604	-0.7101113409638325	0.02403003957441133	-0.06544099685380407	-2.386136551072663	0.9269945901686854	2.482024200920677	1.304355152034376	-0.138888000406831	0.07099415925700983	1.257507395026582	-0.277066551918053	-0.01377904139172719	-0.233593176661083	-0.06645568869914932	-0.04519138400319768	0.8507516796715261	0.8507516796715261	0.7974255246997011	0.7974255246997011	0.2112063234464247	0.2775975181433751	0.7130679657665412	0.169465736659175	-0.08723830241632645	0.3101969274869667	0.378913970853191	-0.05706854757709217	-1.499956225576039	-0.03814703164676121	0.005711913074625173	-1.723550886500784	0.1951212661142034	-0.3250363699413676	0.469110380414189	-0.1378086421859638	0.2932985537747694	-1.22399659167307	-1.22399659167307	-1.204452689460379	-1.204452689460379	-0.4140425202658517	-0.4461961103111244	0.01005074405955066	0.01002894303605688	0.01009259181454312	0.01005837815166762	0.0100961243825677	0.02301009025026503	0.01035471623292408	0.01833111844530432	0.1962532461739573	0.07050025221504724	0.01307971308284217	0.01120954452949887	0.01046104093291532	0.00954462839204181	0.01047018082460316	0.1105834141235254	0.08748318606406158	0.0100144897471994	0.01000361168309789	0.007483354282118121	0.01001762693323792	0.009981224811109565	0.01030865428099757	0.01014405200172631	0.01003496835719324	0.01241250665916823	0.01113877038785728	0.007620489494366172	0.01009982005038728	0.8609983200935306	0.4676193334400116	0.01007021004320797	0.01015056787699124	0.009895789487617501	0.01026487707115694	0.09377406435448311	0.01134894066347638	0.02145600157852739	0.10779912996227	0.04383993613440772
25.6912	-0.688502492921005	0.0293006082210404	-0.06849248409687946	-2.376346520410927	0.9388193030138621	2.48054144516438	1.257539974972434	-0.1393381398568631	0.0715751084019621	1.203538549951015	-0.2715723417493059	-0.02337771698235917	-0.2177808291334107	-0.07147366730392869	-0.03804929901863786	0.8119738087179329	0.8119738087179329	0.7584843858328333	0.7584843858328333	0.198761394675939	0.2627654395038115	0.6912965003532479	0.1707299559078031	-0.1068258693724291	0.3245226978345584	0.3890723482262225	-0.03888476207984913	-1.539639486716942	0.007886206508835147	0.02832557729042902	-1.774768302490353	0.1633610695941791	-0.2917004151108921	0.5493038324190015	-0.1891287557094876	0.160704118336276	-1.290497538206673	-1.290497538206673	-1.322197064358803	-1.322197064358803	-0.3997329510609935	-0.5224432734241287	0.01006607874243478	0.01003994304631073	0.01010934965660706	0.01007269307691157	0.01011304236412699	0.01588106369002001	0.01054468236294173	0.01584285093815101	0.2006752889573381	0.07946763548187821	0.01265928817101226	0.01070098554241101	0.009946645003922087	0.0096141461379411	0.0102110335788122	0.1051660439046039	0.04363293520865311	0.009986118901379093	0.01040956494608858	0.006372367066381114	0.01001937638681728	0.01006160421107704	0.01034886219756954	0.01017757375705211	0.009946672272889602	0.01186059635149383	0.0106661252191328	0.01913428748467399	0.01247716007244051	0.7972360210770552	0.3897123023120141	0.01007576370831158	0.01016759673790224	0.00995198821118958	0.009749002065551118	0.08117934453107453	0.01078262869558923	0.02412097038521312	0.09614549455203514	0.03734189399807192
25.722	-0.6673917792751805	0.03428689051099962	-0.07189515393714034	-2.366198232535246	0.9509698963501183	2.479645719260748	1.209369342539296	-0.1383209112586963	0.07252372773815059	1.148381922647701	-0.2670224630374264	-0.03150079857675624	-0.2003189180269807	-0.07795934482973965	-0.03561930867040067	0.7712359733073281	0.7712359733073281	0.7157688318007043	0.7157688318007043	0.1867681510731771	0.2454294769652472	0.681341525937372	0.1498738304557454	-0.1077044574294917	0.3338178004954928	0.3994791106139959	-0.01996215984740001	-1.588483993374685	0.0527219064973682	0.02625429703548241	-1.800365921212314	0.1369153904664381	-0.2305946541938057	0.5767529869490515	-0.229377937808401	-0.009849869390249094	-1.348460520242286	-1.348460520242286	-1.446422023980405	-1.446422023980405	-0.3879723999489028	-0.6122709123468527	0.01008474716272915	0.01005350428416832	0.01012843911964944	0.01009058912004742	0.01013146709399444	0.01282023255097942	0.01045529530703897	0.01430891323156393	0.144206540121694	0.06568175423103391	0.01258807771945402	0.01104983682440158	0.01014114875453854	0.01198897371102874	0.009360647319592418	0.09546489834326938	0.01900992440692708	0.00996521335821105	0.01067300805881878	0.0150729818136901	0.01006173042632494	0.01023590733465576	0.009856377359210706	0.0102159364996318	0.0099767967309607	0.01197579617840048	0.01117001052840888	0.05137721858163918	0.02463633355292703	0.7371936288751144	0.3210816712030052	0.01008414560310261	0.01018997246603117	0.01052111402017181	0.01124139878983295	0.1083818906515355	0.01088231125851166	0.02997283434826014	0.07374700230293182	0.04502017103486809
25.7528	-0.6463820767614773	0.03829939076915805	-0.07490189563258592	-2.355792608526365	0.9633900667268567	2.479267957737644	1.159547600208366	-0.1362643890294763	0.07281899748120704	1.092694004397446	-0.2629914931366462	-0.03741293633777935	-0.1825925491459956	-0.08529697346562332	-0.03884191786335543	0.7289416388066461	0.7289416388066461	0.6694440613514265	0.6694440613514265	0.1748825514460476	0.2253267570006138	0.6859771230726589	0.1082134607470623	-0.08405505444918975	0.3425347716892237	0.4060070367815747	-0.005830093107620164	-1.648920192343263	0.07469987479652883	-0.01379885708377646	-1.816965411705322	0.1283143793010689	-0.1520808945799715	0.5719345969192514	-0.2415265953580984	-0.2001119976625324	-1.392991752421169	-1.392991752421169	-1.553243046771017	-1.553243046771017	-0.3918791322980635	-0.7057400860226795	0.01010165506497053	0.01006622836005522	0.01014221189473069	0.01010633197507863	0.01014438907348275	0.01125032792709191	0.01027622412867696	0.01408275238558247	0.07189055083409848	0.03949065639388566	0.0129145800381659	0.01213189782799625	0.01064072651347664	0.01580134943045902	0.009180483722874003	0.08040535213944677	0.01011069840000438	0.01002305833277173	0.01002530933100089	0.04067810419833599	0.01015860796991564	0.01033093535385482	0.009220114848880318	0.0102457651144323	0.01035049993171912	0.01275192668924035	0.01246799699914968	0.10288603394298	0.0465723785384678	0.6753784822648996	0.2686311556642585	0.01009177963785133	0.01020870497505125	0.01143679053360217	0.01839447567502455	0.1517787990741653	0.01161381769319082	0.03239942447057741	0.05261896180828938	0.05150324992014731
25.7836	-0.6250351518567019	0.04085784732867022	-0.07692920573844569	-2.345043450485342	0.9758912698837181	2.479208311214124	1.107713915817313	-0.1340508871015096	0.07120792476126463	1.036250163177634	-0.2589984522667417	-0.04087629377687706	-0.1649945741210102	-0.09252768692538355	-0.04783377248133881	0.68550544544962	0.68550544544962	0.6203888296946497	0.6203888296946497	0.16249257866822	0.2025880259654591	0.7041062562547803	0.05608840385405399	-0.04913792909468994	0.3565903674634729	0.404914568545832	0.0009143145100437128	-1.720604520033896	0.06659197869971521	-0.09558989626767769	-1.854981210621023	0.1293387075340192	-0.07590998583232388	0.5707510300576838	-0.2215008136670703	-0.3773570905843235	-1.427875650795242	-1.427875650795242	-1.623069620118177	-1.623069620118177	-0.4154345159128129	-0.7843618638472201	0.01011493074164026	0.01007721492408289	0.0101482464667718	0.01011805970390315	0.01014969375599363	0.010429147559518	0.01018498209292382	0.01454946725245194	0.02571393886374925	0.01746406280614365	0.01340346674417023	0.01319100282581241	0.01105863754820296	0.01850299021075867	0.01229549525608692	0.06061821588623145	0.009453924966596491	0.01018479143890815	0.008509922643482415	0.08118476729309126	0.0102508796395735	0.01010655176111729	0.01026808442229364	0.01026203690062204	0.01102659336710093	0.01364641146806193	0.01366417923895468	0.157231904900745	0.06765052796110445	0.6098612582132867	0.229907788520609	0.01009658996142075	0.01021949191748074	0.01207571842119639	0.03501517722487922	0.1808614572491182	0.01245177539079397	0.02886688921297135	0.04018559407757635	0.04613718969194801
25.8144	-0.6029869187059832	0.04173523029917831	-0.07792463960348819	-2.333765111430411	0.9882246456602701	2.479255393637215	1.05355102491861	-0.1324558939273284	0.06646510744408174	0.9782561162022543	-0.2551244854052819	-0.04229280745501649	-0.1471787498883659	-0.09874002659811754	-0.06157798303075179	0.6411128520262064	0.6411128520262064	0.5698177417974772	0.5698177417974772	0.1491985120112698	0.1777066531095288	0.7310260260599769	-0.001785645847476831	-0.01949337779015994	0.3758551740610962	0.3958858981857404	0.001811905711776564	-1.800147016287925	0.03948479237621858	-0.215986757188327	-1.914427375930233	0.1154061906118479	-0.02139318949295038	0.5822254541683216	-0.1764585688950258	-0.5034206538485189	-1.460365358696156	-1.460365358696156	-1.655700601450046	-1.655700601450046	-0.4447550319167286	-0.8433234042666726	0.01012639210011267	0.01008798362407918	0.01015175734426442	0.01012884323723198	0.01015231756811906	0.01017513546115336	0.01018783528454489	0.01488052140363418	0.01814681939417312	0.01030283731359159	0.01373270786619449	0.01345905628695641	0.01117967626419774	0.01800471239381926	0.02069777465653267	0.03971041709062596	0.01066288054101516	0.01030213847989344	0.008495302172236333	0.1229611267562216	0.01022848647760569	0.009755069918062308	0.01575241009641908	0.01027187414522147	0.01154400264014591	0.01402344701538206	0.01388007196923319	0.1930795412655194	0.07397979756040556	0.5437817359776842	0.1951769225758949	0.01009945094331455	0.01022617645499838	0.01191563762637578	0.06217550353069455	0.1798648669923604	0.01281148025854856	0.02198306484353122	0.03388432581111803	0.0320140546841155
25.8452	-0.580020375506429	0.04071773373100439	-0.07821668877918471	-2.321892495532553	1.000203295566479	2.479287083893714	0.9968727761969792	-0.1317290934203293	0.05763082769880837	0.918489029830768	-0.2521981336666424	-0.04249622523022282	-0.1291243606404792	-0.1033365054771347	-0.07803646774594397	0.5957347077427234	0.5957347077427234	0.5187351708350757	0.5187351708350757	0.1352445274225716	0.1510553250818603	0.7621617442514268	-0.06829443898160156	-0.002161794748192508	0.3942747344783533	0.3819046631873527	0.0004733432868407736	-1.884801068476112	0.01265163800345694	-0.3600996098810688	-1.963134117486329	0.0649935405184876	0.003706684397225182	0.5831255262717555	-0.1192063113245992	-0.550502686004228	-1.492540134945663	-1.492540134945663	-1.6620108923766	-1.6620108923766	-0.4566748431315176	-0.8987872076559483	0.01013881270740851	0.01010008211247308	0.01016045149037404	0.01014255219476271	0.01015970075054447	0.01021626037992976	0.01021291649913906	0.01464060314119358	0.04351524355173189	0.01830286092818477	0.01373964389106582	0.01285414289982855	0.01093311038436241	0.01477779597891074	0.03310656723175986	0.02435686436439825	0.01100216544367425	0.01011396563202822	0.01434182879407351	0.1489548260230206	0.01013656145343686	0.01050068270690896	0.02718184702622408	0.01028775887570744	0.0117075250869098	0.01372830300203336	0.01308009307098572	0.2008291422106711	0.06153131777844555	0.480803693555931	0.1601969131078268	0.01010235946005863	0.01023574162816383	0.0111055406742996	0.0954625742725492	0.1522256680684873	0.01253182060149162	0.015808668914569	0.02798605433864055	0.01859849072974692
25.876	-0.5560325542487538	0.03753140979191311	-0.07817912604568063	-2.309556257437947	1.011751019830115	2.479282675515392	0.9375622769933881	-0.131615991090266	0.04439200691008599	0.8577548105131566	-0.2513901233413089	-0.04230989284569078	-0.1116139479383676	-0.1061519393281921	-0.09469340611893509	0.5493716856213609	0.5493716856213609	0.4678466888549017	0.4678466888549017	0.1214396331340152	0.1226737847582657	0.7959435754755453	-0.1427407259628323	0.004277349898245321	0.4069338066864249	0.3661849634100371	-0.0004559783008251206	-1.975038449889529	-0.001549026832629338	-0.4980435224093981	-1.974329102057619	-0.0230104076183224	0.006476050924288652	0.5515551962363029	-0.06419460186806793	-0.5140985602075037	-1.519480541628776	-1.519480541628776	-1.643320833536106	-1.643320833536106	-0.4375547949651822	-0.95775110785095	0.01015584627537128	0.01011503238031961	0.01017916293668478	0.0101613624551736	0.01017714326701138	0.01030160379710754	0.01021866235342971	0.01399734483926507	0.08464452521450427	0.03316206731596322	0.01348747027711334	0.01193220651322537	0.0102532149525382	0.01111293258606623	0.04459928767673105	0.01884843777913623	0.01055133485955852	0.009716259961865393	0.02912424129975938	0.1527448741446417	0.01044644320218095	0.01445602022151866	0.04252556938901052	0.01032235806636052	0.0127139602873489	0.01311399935945943	0.01197490480805499	0.1887906978568825	0.04036310127333781	0.4206263194943687	0.1294225360890283	0.01010737296409389	0.01025449001171821	0.01028460483625754	0.1251725563385343	0.1145937997449048	0.01190937770601369	0.0123681367838409	0.02070961502421979	0.01147681229143714
25.9068	-0.5309634914155854	0.03204230994058675	-0.07805641251610322	-2.296928600827711	1.022825870536201	2.479267551971108	0.8753917607282092	-0.1317101985490596	0.02741528476053266	0.7972415201493644	-0.2536222876158813	-0.0421937782160275	-0.09558735912978711	-0.1074515984351063	-0.1092488179690781	0.5022678875454162	0.5022678875454162	0.4179697109902833	0.4179697109902833	0.1086779536674871	0.0927634716015034	0.8321185655861241	-0.2152691288753085	0.003210776290525276	0.4149760650517847	0.3494671036362909	-0.000436335647993879	-2.072868833504099	-0.003597425756375522	-0.5958596287956615	-1.951457457456999	-0.1304303909133445	0.001037773740932493	0.495007417957986	-0.02350956256462276	-0.4145529985118734	-1.53508103465491	-1.53508103465491	-1.587534555504914	-1.587534555504914	-0.3912787301345448	-0.9985531615756659	0.01018230818973949	0.01013523147226713	0.0102081459572566	0.0101861617311788	0.01020594888690569	0.01034709500930156	0.01021375420579125	0.01366462347673809	0.111565964863986	0.0437083900016511	0.01316377007687409	0.01126956049986702	0.009291096129562488	0.00882581623595759	0.04986941181655934	0.01993762497452131	0.01012696074737219	0.01027490525238856	0.05109209971378762	0.1443177935311444	0.01199202159673893	0.02307092935041068	0.05669662161383825	0.01038589507102728	0.01680085338140854	0.0126087763542773	0.01123993884351904	0.1738076346186339	0.02557366071406885	0.3599505932759136	0.1070912202962784	0.01011738805269019	0.01028858140279601	0.009906110951131936	0.1411840600945616	0.08656407265145606	0.01135738550222624	0.01119266969870464	0.0141484852321054	0.00989544462549577
25.9376	-0.5047909153086175	0.02441765393380446	-0.07797417506225685	-2.28402473295289	1.033305607968155	2.479260741246451	0.8099161259594845	-0.1317657430471291	0.008231034237444926	0.7376603273697642	-0.2592971255522066	-0.04221787845185619	-0.08117934118918302	-0.1077866497829069	-0.1201265153066034	0.4549134915051405	0.4549134915051405	0.3702856187367171	0.3702856187367171	0.09754276314583518	0.06205547403434861	0.8677537971205928	-0.2750797791559116	-0.00171039491675816	0.4237419011244647	0.3300147621133658	-7.861746479818796e-05	-2.178568355513668	-0.0008247368648578691	-0.6371545065569924	-1.917682574163741	-0.2364161404902746	-0.002536839739702185	0.4451742672637019	-0.002134947012884443	-0.285997965626573	-1.536401635529377	-1.536401635529377	-1.492574060585396	-1.492574060585396	-0.3332460541765275	-1.002038095222247	0.0102196914442865	0.01016174983578876	0.01024350851003185	0.01021619379191259	0.01024275472032947	0.01037753732711146	0.01022348927343193	0.01467066570303854	0.1020706001455323	0.04363333047162449	0.01297764911223413	0.01109964844709852	0.009076392848446604	0.008675879231384413	0.04793921112092014	0.02061255178500979	0.01006004692880778	0.01431455930655371	0.07376284342991682	0.1390294919527726	0.0154025099955151	0.03498111357922903	0.06560392167561555	0.01047985263995604	0.02467705964007018	0.01244072866436239	0.01109074409965976	0.1668806170713943	0.02452168981429339	0.2973485332354205	0.09259561858990997	0.01013623882462198	0.0103439764551631	0.00993174211440518	0.1401991767747422	0.07789587776233624	0.01114402350355946	0.01091244427631528	0.01040382654606872	0.01045327287241709
25.9684	-0.4775945323362015	0.01505395040054275	-0.07798426482207632	-2.270687630721081	1.042994477991791	2.479262069896122	0.7406872874363065	-0.1317507354851881	-0.01144704009717675	0.6789991008394356	-0.2683552484979668	-0.04227779638410271	-0.06752189688702863	-0.1077355813431028	-0.1267068183210076	0.4078583368068325	0.4078583368068325	0.3258712939677085	0.3258712939677085	0.08818615282841027	0.03133894882671303	0.8965040154589018	-0.3206455914381303	-0.004156487412289948	0.437636687315686	0.3057752284658678	7.238257279844335e-05	-2.289948173588631	0.0007632077710002428	-0.6348672895477111	-1.89192421639892	-0.3312513452827957	-0.002035932675962935	0.4317598643790975	0.003260107885674618	-0.1598220738808453	-1.523254908674031	-1.523254908674031	-1.386286801624479	-1.386286801624479	-0.2813464051019716	-0.9839589094236206	0.0102618573349922	0.01019150552347721	0.01027895828049277	0.01024815409022529	0.01028049980411793	0.01042073393777831	0.01026128298881198	0.01793499866356082	0.06833625845562663	0.03566364016871946	0.01310524867664213	0.01142499187546119	0.01159398878790855	0.01136606849358631	0.04360206060371977	0.01828345509413173	0.01018933779391869	0.02481460245057525	0.08985813702070453	0.1419807864567506	0.02057285359045654	0.04579502816995526	0.06971845140864445	0.01059257984050177	0.03371458100987003	0.01269111133318174	0.01147133698806074	0.1668531723384378	0.032370266495989	0.2359505587616778	0.08489847263007078	0.0101669192280133	0.01042362967074991	0.01009092033828933	0.1286559746588491	0.08191779039383276	0.01137314104362536	0.01070631806338219	0.009400978457054255	0.01085355574523645
25.9992	-0.4496056678363908	0.004442046973089829	-0.07807909618188891	-2.256795665958652	1.051818579836781	2.479264330964633	0.6678505230031815	-0.1317233268948338	-0.03054606012029872	0.6208679290221533	-0.2802699266998511	-0.0422932660035004	-0.05354716360128912	-0.1076722320189654	-0.1294398511172585	0.3614277283845281	0.3614277283845281	0.2848424716648562	0.2848424716648562	0.08033984318134377	0.0008781940770657753	0.9134466707549349	-0.3588683420191036	0.002889633643959455	0.457251686557734	0.2764672571620214	-0.000101960335085171	-2.404293617595656	-0.0006768818012360074	-0.6172165621811292	-1.878028432041353	-0.4164943457605552	0.0007695790531337387	0.4623172791266547	-0.0001018425526835903	-0.05205785489110831	-1.497633885652297	-1.497633885652297	-1.30677623860524	-1.30677623860524	-0.2472797738047585	-0.9753298052246709	0.0102996594754171	0.01021943744748918	0.01030950515484523	0.0102780863827523	0.01031286649132895	0.01047406977922067	0.01032426584592262	0.02370523468117195	0.04416181466097022	0.02712991123427908	0.01361758267725933	0.01217880336984027	0.01832623698071709	0.01749566659248674	0.04295722083090955	0.01580311224860886	0.01028716596070207	0.04306603374792305	0.09593034510349871	0.1471664879946599	0.02681365445972962	0.05139132349133829	0.07263272376858049	0.01070735212528508	0.04016617690627192	0.01336278257404007	0.01228672454851869	0.1663567642660404	0.0394836067240164	0.1801749411347177	0.0847918792426391	0.01020929994111247	0.01052478732376876	0.01020516461444648	0.1166663560899493	0.08438719904240582	0.01202543181993324	0.01050118074534414	0.009686427456943933	0.01068860908252149
26.03	-0.4211870023491109	-0.006843245729136808	-0.07821685976975823	-2.242493963129794	1.060049548566389	2.479264467129113	0.5927098719632714	-0.1317142484352287	-0.04900106385707556	0.5629202095213501	-0.2938842999365116	-0.04226330516332868	-0.03896893936276676	-0.1076935532137679	-0.1298678605395128	0.3154997383455529	0.3154997383455529	0.2459656007458082	0.2459656007458082	0.07336528011453008	-0.02945317947715315	0.9209242706003746	-0.3959536016774391	0.01936695635434134	0.4802200096146326	0.2439990907305596	-0.0004748745478057695	-2.519787435054526	-0.004164059442290489	-0.6013191629058028	-1.870611385623881	-0.497394673494907	0.004266031248156895	0.5210807586152738	-0.006496881617497098	0.04013039023334794	-1.464507879072703	-1.464507879072703	-1.260661962427946	-1.260661962427946	-0.2286835702538069	-0.9846708342909426	0.0103307838747601	0.01024400538378137	0.01033519847153437	0.01030512057441812	0.01033950738665059	0.01052755822191846	0.01040091710683468	0.03115753418878129	0.04223021250810937	0.02144694493675313	0.01440169793943752	0.01320387006328925	0.0283580089547089	0.0262122843031311	0.04710031869266981	0.01523660026719491	0.01029713682641021	0.066754641783867	0.09467262716138031	0.1497670610025971	0.03344890503215724	0.05207320348862216	0.07648762045632899	0.01081686901943157	0.04337416730755739	0.01431960817007306	0.01337667119454202	0.1621443845763033	0.04216999759703086	0.1299580876783759	0.09073804849107588	0.01025905954662009	0.0106386465024444	0.0102571409352696	0.1084292704837696	0.07970146028249435	0.01294659807014781	0.01038969047208315	0.01016754643674805	0.01029791675457309
