ActiveFiberForce
version=1
nRows=51
nColumns=5
inDegrees=no

This analysis gathers basic information about muscles during a simulation (e.g., forces, tendon lengths, moment arms, etc).
Units are S.I. units (second, meters, Newtons, ...)
If the header above contains a line with 'inDegrees', this indicates whether rotational values are in degrees (yes) or radians (no).

endheader
time	recfem_r	vaslat_r	vasint_r	vasmed_r
     24.49000000	     31.11169801	     97.76224168	     32.91325056	   1517.17683466
     24.52080000	    484.55136370	     88.24939133	     31.18646527	    919.07815596
     24.55160000	    842.84013884	    133.61458254	     40.84658233	    440.35870502
     24.58240000	   1093.63727984	    238.71211169	     62.33961614	    162.47544186
     24.61320000	   1307.79848121	    343.15898641	     82.57711457	     71.67485373
     24.64400000	   1568.13803801	    368.33147684	     85.92803896	     91.75502508
     24.67480000	   1879.52215429	    297.17316328	     70.52749746	    172.55479048
     24.70560000	   2170.23812226	    208.90199663	     52.94005211	    298.04243738
     24.73640000	   2374.03898519	    218.74393398	     53.93733268	    425.83751222
     24.76720000	   2492.04714393	    367.89593337	     77.32989489	    495.23769788
     24.79800000	   2574.72290904	    585.37606976	    104.14964390	    496.08953609
     24.82880000	   2665.85698196	    781.75293475	    112.08113876	    472.14779390
     24.85960000	   2764.64254619	    957.30955898	    100.45481208	    455.78678433
     24.89040000	   2848.87862793	   1177.72715984	     92.49666544	    445.84499038
     24.92120000	   2916.02027711	   1466.50168598	    113.92624120	    443.91012999
     24.95200000	   2991.91046118	   1778.87758573	    173.16277006	    467.55975139
     24.98280000	   3101.46919243	   2067.31077211	    259.48547284	    520.40877428
     25.01360000	   3240.75993911	   2321.00929516	    354.12723031	    577.52211300
     25.04440000	   3381.38526771	   2545.09935870	    440.75322281	    608.03913907
     25.07520000	   3495.51714568	   2740.74970350	    508.56116381	    600.83684243
     25.10600000	   3574.27922352	   2907.42411493	    552.70756649	    571.27584158
     25.13680000	   3623.71716627	   3035.59265009	    576.47134499	    553.60954588
     25.16760000	   3649.69035497	   3096.47022230	    588.77166996	    578.62955379
     25.19840000	   3652.66905752	   3064.60460373	    592.34985859	    640.82909892
     25.22920000	   3633.38837387	   2953.25344791	    576.09136404	    690.64299568
     25.26000000	   3594.87695557	   2805.58330513	    527.07899326	    678.65382049
     25.29080000	   3538.53111561	   2647.43736994	    450.53323382	    609.01609389
     25.32160000	   3464.38153102	   2467.54808691	    370.11789674	    534.35733032
     25.35240000	   3375.97062963	   2251.11032373	    305.81582587	    499.59932196
     25.38320000	   3279.76199416	   2020.10305636	    256.01045173	    503.83274845
     25.41400000	   3178.03795201	   1825.23628502	    205.85461958	    514.55818661
     25.44480000	   3066.42496201	   1691.24172657	    153.01060595	    507.79947960
     25.47560000	   2940.88082625	   1580.23286307	    116.95934436	    491.99647695
     25.50640000	   2804.92234606	   1430.19773917	    114.49303958	    494.46319342
     25.53720000	   2667.35573138	   1234.96272185	    132.55868537	    521.87178026
     25.56800000	   2533.67712048	   1069.19005995	    138.92103005	    535.04903336
     25.59880000	   2403.97895314	   1014.36557759	    118.13081132	    478.71990570
     25.62960000	   2279.04263505	   1054.33621373	     86.15026614	    351.82825486
     25.66040000	   2164.28241743	   1066.57566258	     69.61588840	    231.50996979
     25.69120000	   2062.14377510	    945.81644015	     77.77018239	    196.13584699
     25.72200000	   1964.54503480	    720.73151540	     95.95187016	    235.02965706
     25.75280000	   1856.59801045	    510.49130764	    102.90636380	    267.06420096
     25.78360000	   1730.77310976	    386.67971661	     90.88947439	    237.44699909
     25.81440000	   1593.95853062	    323.12645492	     68.56285530	    163.42188774
     25.84520000	   1456.10518470	    264.29362815	     48.80819245	     94.11250415
     25.87600000	   1316.73898234	    193.56764656	     37.78195916	     57.54384518
     25.90680000	   1165.82900828	    130.84037699	     33.82186289	     49.14995710
     25.93760000	    997.38769446	     95.17686910	     32.61433530	     51.42509634
     25.96840000	    819.78342566	     85.07855394	     31.64601727	     52.87911005
     25.99920000	    647.45854999	     86.72576432	     30.69551538	     51.56819538
     26.03000000	    481.43094854	     90.06943284	     30.02909727	     49.19452470
