DataType=double
version=3
OpenSimVersion=4.5.2-2025-05-03-6a4c6ec41
endheader
time	/jointset/patellofemoral_r|reaction_on_child_1	/jointset/patellofemoral_r|reaction_on_child_2	/jointset/patellofemoral_r|reaction_on_child_3	/jointset/patellofemoral_r|reaction_on_child_4	/jointset/patellofemoral_r|reaction_on_child_5	/jointset/patellofemoral_r|reaction_on_child_6
13.82666126999752	0.3623513185705717	12.57922591337852	-73.04966896609481	2084.93347396029	-1085.258514836337	228.7420864144717
13.84172792159751	2.526227641508593	7.831478521697706	-51.69199905046714	1466.562320909739	-889.8624734441744	245.9236259261824
13.85679457319751	1.898889536920919	2.974362321300358	-23.82309579351612	685.7796255019937	-468.770206576082	156.0498830489643
13.8718612247975	1.087729341781025	0.9978069729571589	-10.67213487979991	313.5476759204921	-237.8372055630134	92.13823293857671
13.88692787639749	1.152909665680068	0.6519516897155924	-9.304843140411835	267.9783579158628	-226.7399707985193	95.97052804172363
13.90199452799749	1.427819530790311	0.4056036934366309	-9.653835674087949	261.7465083828283	-245.6285699879851	108.7393100254755
13.91706117959748	1.614302550852546	0.3464952918315236	-10.89958918900808	273.1825645061753	-281.3663080876356	116.1159546047097
13.93212783119747	1.941624123536571	0.3192117142574958	-14.08316092850908	320.3779816855416	-360.6603950520291	131.7711949182458
13.94719448279746	2.369058379366049	0.3663060937679564	-19.88924478606994	407.042885253013	-499.9564207721731	155.8407992234079
13.96226113439746	2.651232918735344	0.7112678453449317	-27.80080245422567	516.4285439412246	-686.8667359447909	176.6174383614538
13.97732778599745	2.706253446510598	1.523530785580156	-38.69613556245402	661.9113994536651	-948.7631095497721	193.5360566677121
13.99239443759744	2.223992701464094	3.261312679323251	-54.02275355000776	864.8267477111692	-1330.874803106575	196.0479339496892
14.00746108919744	0.4436938530989983	6.760689950121315	-72.37665860599022	1108.693736066644	-1810.325884350465	147.5517866052167
14.02252774079743	-3.112520579447171	12.48688598034728	-90.02982887349262	1358.111297680296	-2309.559660791789	16.14374432883908
14.03759439239742	-7.805946326362048	19.42091495579619	-103.5867781606214	1593.473060171462	-2736.883670715171	-180.5555571162555
14.05266104399742	-12.25547776941686	23.91559604871146	-110.8469140547516	1762.690834813948	-2996.688875536131	-354.0309219060459
14.06772769559741	-15.06109440056164	25.3321303846389	-111.4656788865112	1887.305873168124	-3046.650639107263	-440.6481126019615
14.0827943471974	-16.3687618492798	23.73941720147279	-108.820295055107	1948.062099578969	-2937.228375030221	-423.5340918844721
14.09786099879739	-16.28548677076596	20.49544538605494	-104.0552167696795	2030.233978827805	-2698.922760736604	-352.7713692647757
14.11292765039739	-14.85103776115518	16.76022780731048	-97.37621331687143	2111.731111310903	-2350.850393008892	-259.9789021763299
14.12799430199738	-12.68621168565596	13.4399295736181	-89.83663992404989	2163.256834695096	-1945.080922207105	-169.0610110993748
14.14306095359737	-10.47732073566777	10.89813160628149	-82.07856521021682	2167.424429592928	-1526.096014253184	-94.21474008015292
14.15812760519737	-8.67061175792699	8.971735811339409	-74.94820822363519	2126.786173034849	-1134.693419011303	-36.00566817445146
14.17319425679736	-7.390599945217817	7.42682969525129	-69.86269747531529	2070.664910756944	-808.9901666077408	12.11520271904111
14.18826090839735	-6.548484809825172	6.400154916030583	-66.17592965631691	1994.279557474121	-544.5747023954514	57.01631957605734
14.20332755999734	-5.26247099081039	5.066584059596845	-57.44543951959487	1737.993936757906	-300.9030865145054	84.58875401258571
14.21839421159734	-3.771059035779399	3.653773384165389	-43.26270937724376	1315.316270364223	-113.1579613032748	86.15406169583218
14.23346086319733	-2.552391799246753	2.506665428588986	-30.6551765415403	940.147097435	-6.206140418296285	79.27346167893161
14.24852751479732	-1.593599557404141	1.655277449888165	-21.19297663455993	659.2657551023391	41.36576250017597	71.88655421545646
14.26359416639732	-0.9545008529412899	1.114087738934279	-14.21061468935748	457.084507244013	54.68789317161325	62.99543612441018
14.27866081799731	-0.5819084502727914	0.7925377471676964	-9.529444033229044	323.8631907284309	52.6904823111133	55.54434205264101
14.2937274695973	-0.3732387082836864	0.6500486935245029	-6.944612448951941	252.0514677692049	47.63950028466935	53.86409182560082
14.3087941211973	-0.2017168161315489	0.6700025999491279	-5.950225872249342	226.5927039892842	44.71072324414936	60.07846417005842
14.32386077279729	0.06230208403631785	0.8589132670550015	-6.045991345609998	231.7247702756865	42.85230868581783	74.84329287619349
14.33892742439728	0.4800732040471763	1.245161325500777	-7.19697956202153	266.7843595612017	41.19946570260035	97.66657418228191
14.35399407599727	3.69428958442312	7.98161634739758	-24.47440909848426	858.6440943199507	98.47092827340111	325.0686866080135
14.36906072759727	10.13468810944432	22.89897841549726	-62.89034044278037	2123.227987911102	116.3979341088504	729.0700647710306
14.38412737919726	13.69647151815134	38.64683798787645	-111.1847317384737	3665.268087242312	-41.40015649639474	1010.364427822264
14.39919403079725	10.25032366703507	54.49320652279297	-166.7736555355093	5416.443615476306	-414.7822945689369	1032.083021410222
14.41426068239725	-0.9287530039251449	64.17000527123635	-198.8359227297037	6408.562228355194	-908.0414632234573	653.5883520627946
14.42932733399724	-13.10558093126198	67.03357033553637	-203.5199000944731	6519.900404685854	-1363.218344146557	131.1419740358141
14.44439398559723	-20.65300472927522	63.25752125378137	-185.7207459197006	5907.399239749907	-1656.788851867175	-288.1825334182553
14.45946063719723	-21.3229490032884	53.45494378009612	-151.702930346279	4787.201564936133	-1704.853126802624	-481.298389895989
14.47452728879722	-15.71794844295359	38.64386018163518	-107.2856325059005	3359.295091353811	-1464.677701837334	-435.8909491299745
14.48959394039721	-7.076007768261563	19.57650665042226	-56.36988082702668	1748.770164439675	-910.4747865732146	-222.0110077031533
14.5046605919972	-2.295321246506013	7.027495910423272	-24.12759326190062	746.4800069135885	-456.3739367730405	-62.6346457662825
14.5197272435972	-1.104325692716976	2.929290399343917	-11.70397708384732	375.8770291292534	-260.6017698327489	-13.54553000787595
14.53479389519719	-0.6076895174389046	1.72507606607703	-7.188892491125803	238.5138596280703	-183.7992543829471	4.61551899871693
14.54986054679718	-0.1608229725065836	1.384774687154301	-6.677112707304314	215.670852527316	-186.0344643976111	23.95343857988711
14.56492719839718	0.352233921983309	1.073563175392456	-7.164595237091272	214.66526665791	-207.8165669375393	48.8595964211651
14.57999384999717	1.038707941986197	0.6516751080568689	-8.515878956781725	227.8334383025819	-248.5533748201249	82.6924584051476
