TendonForce
version=1
nRows=51
nColumns=5
inDegrees=no

This analysis gathers basic information about muscles during a simulation (e.g., forces, tendon lengths, moment arms, etc).
Units are S.I. units (second, meters, Newtons, ...)
If the header above contains a line with 'inDegrees', this indicates whether rotational values are in degrees (yes) or radians (no).

endheader
time	recfem_r	vaslat_r	vasint_r	vasmed_r
     11.85999641	   1472.24707185	    726.14009251	    123.09950544	    332.00701168
     11.87546306	   1042.64791088	    509.90603741	     97.19860251	    239.04719648
     11.89092971	    682.14887437	    329.81925607	     75.89298773	    161.43603032
     11.90639636	    402.69263911	    205.89037755	     61.82521890	    108.15907860
     11.92186301	    215.84270057	    144.33603781	     55.82901485	     82.13327863
     11.93732967	    133.82488853	    135.78608490	     56.79606590	     79.26469341
     11.95279632	    144.58001988	    157.90164298	     62.22209855	     89.96756929
     11.96826297	    210.48074308	    187.73916190	     69.73629321	    104.65387885
     11.98372962	    299.23147653	    213.55503458	     78.26692085	    118.56655211
     11.99919627	    398.12869662	    235.14223741	     87.81776975	    131.64752919
     12.01466292	    504.46140307	    258.11631058	     99.18251359	    146.32258685
     12.03012957	    615.19747013	    286.68416383	    113.17233620	    164.65746361
     12.04559622	    711.05901769	    317.50372220	    128.48036363	    184.81553630
     12.06106288	    768.87291561	    346.46011059	    143.57426407	    204.46976313
     12.07652953	    777.63281780	    372.90817039	    157.31157182	    222.01574472
     12.09199618	    741.43201743	    398.40991106	    168.81526846	    236.78700210
     12.10746283	    678.30136919	    418.63692253	    178.13330398	    248.88630358
     12.12292948	    607.57801444	    430.50157496	    183.90562665	    256.28232703
     12.13839613	    540.46748208	    432.22394869	    185.12447827	    257.71572695
     12.15386278	    483.58784874	    424.06380497	    181.76509963	    253.20407371
     12.16932943	    436.66089812	    408.20502415	    174.78754451	    244.03291310
     12.18479609	    392.32132187	    387.38629680	    165.54887545	    231.96217218
     12.20026274	    339.47943348	    364.10086168	    154.84650091	    218.36876644
     12.21572939	    278.01820953	    339.84805319	    142.35828520	    202.35200954
     12.23119604	    215.10936877	    310.62402783	    128.44832684	    184.15025305
     12.24666269	    160.45161813	    278.07611358	    113.65662328	    164.63142862
     12.26212934	    119.89995207	    248.13570759	     99.28473706	    145.94947370
     12.27759599	     93.30472000	    228.58287494	     87.40660790	    131.34524823
     12.29306264	     74.99841520	    218.73019880	     78.51704129	    121.07969044
     12.30852929	     61.37216669	    207.75422242	     72.20803540	    113.02216585
     12.32399595	     51.01189727	    179.48090212	     67.59698857	    103.97910691
     12.33946260	     42.36414557	    124.21060386	     62.11576362	     89.84075434
     12.35492925	     38.38788448	     72.62657872	     53.90528789	     72.47834798
     12.37039590	     51.26185327	    127.57739489	     47.17728928	     69.36609781
     12.38586255	     97.79402195	    440.34284538	     57.36189205	    116.12925547
     12.40132920	    183.51599337	   1102.61318838	    107.15854805	    249.25899627
     12.41679585	    289.94025741	   2029.46849421	    208.04745637	    472.11344957
     12.43226250	    384.24658746	   2953.43493366	    338.49941693	    730.08228770
     12.44772916	    448.50653017	   3551.79388756	    444.43710079	    924.99133217
     12.46319581	    497.62645689	   3606.86449456	    472.34431782	    969.27799374
     12.47866246	    558.17803444	   3105.33016638	    408.72484596	    842.23488155
     12.49412911	    623.97371609	   2245.95465023	    288.59173351	    603.85175954
     12.50959576	    648.49981198	   1332.49290590	    165.61624682	    351.75889976
     12.52506241	    594.55022290	    610.68640487	     76.86836584	    161.05928341
     12.54052906	    475.18139712	    183.81621290	     32.19867686	     58.21406085
     12.55599571	    327.89256321	     18.33105483	     21.05681939	     26.87582673
     12.57146237	    188.98599621	     17.77355582	     26.90784223	     34.70203844
     12.58692902	     91.61514469	     79.80774827	     36.53313303	     53.26913277
     12.60239567	     54.38624453	    130.64112575	     42.96481175	     66.22590421
     12.61786232	     71.14549426	    141.93503282	     45.03697669	     69.57533887
     12.63332897	    118.40942769	    122.06069993	     44.47243055	     66.43648159
