ActiveFiberForceAlongTendon
version=1
nRows=51
nColumns=5
inDegrees=no

This analysis gathers basic information about muscles during a simulation (e.g., forces, tendon lengths, moment arms, etc).
Units are S.I. units (second, meters, Newtons, ...)
If the header above contains a line with 'inDegrees', this indicates whether rotational values are in degrees (yes) or radians (no).

endheader
time	recfem_r	vaslat_r	vasint_r	vasmed_r
     11.85999641	   1341.57877668	    603.88737540	     75.00826685	    259.21160345
     11.87546306	    914.93273896	    398.89546975	     53.73885867	    172.86753637
     11.89092971	    558.13584527	    228.08892737	     36.23077088	    100.73982155
     11.90639636	    280.70495982	    110.19623971	     24.64943621	     51.10193331
     11.92186301	     91.02377720	     50.48267105	     19.46401543	     26.30589479
     11.93732967	     -1.82046032	     39.04447946	     19.34621226	     21.90722390
     11.95279632	    -12.99443903	     53.28371893	     21.66492077	     28.13513690
     11.96826297	     16.31955488	     70.05916864	     23.91195107	     35.25218050
     11.98372962	     50.00980842	     77.52148159	     24.85852649	     38.37943841
     11.99919627	     73.45994500	     75.90613180	     24.52973386	     37.65312923
     12.01466292	     85.26746278	     71.18295866	     23.68631682	     35.61710522
     12.03012957	     84.66710269	     67.11656086	     22.69237831	     33.80775659
     12.04559622	     71.81915458	     63.83870122	     21.45831773	     32.21157980
     12.06106288	     52.26941735	     61.33031834	     20.25327685	     30.90202054
     12.07652953	     32.22105021	     59.74468277	     19.18160402	     29.72038947
     12.09199618	     16.39800936	     57.89744753	     18.27557374	     28.68145483
     12.10746283	      7.46683800	     55.41156590	     17.53296031	     27.62257550
     12.12292948	      5.98233393	     52.90169899	     16.82588252	     26.54728322
     12.13839613	     12.25028668	     50.79318650	     16.23295544	     25.63607799
     12.15386278	     25.64398358	     49.46339659	     15.82754266	     25.03336034
     12.16932943	     43.18879558	     49.12236714	     15.65603416	     24.81207109
     12.18479609	     58.41830309	     49.60681795	     15.71337711	     24.92657098
     12.20026274	     64.56708450	     50.32358787	     15.79956511	     25.08613654
     12.21572939	     60.86969073	     50.09163955	     15.81770221	     24.86064422
     12.23119604	     51.39144723	     47.25121978	     15.72050578	     24.31967009
     12.24666269	     42.44718665	     44.36863742	     15.59947561	     23.87379490
     12.26212934	     37.38067755	     45.48831403	     15.84388254	     24.56677481
     12.27759599	     35.29871442	     54.85391227	     17.05507955	     27.60908417
     12.29306264	     32.69344612	     70.24360609	     19.19976532	     32.48155767
     12.30852929	     28.63302600	     80.63770482	     21.96907739	     37.14061875
     12.32399595	     23.22826734	     68.42170521	     24.05852204	     37.65912674
     12.33946260	     16.16519288	     23.27528342	     22.77569172	     29.61106315
     12.35492925	     11.27076428	    -23.92556495	     16.41965690	     14.99361904
     12.37039590	     21.22908350	     30.30170160	      9.47650221	     11.61848037
     12.38586255	     63.11066483	    338.16756667	     17.74081592	     55.62411425
     12.40132920	    142.56360615	    992.59552562	     64.38464187	    184.20594406
     12.41679585	    241.14571218	   1910.34326079	    161.53911961	    401.69150164
     12.43226250	    326.09196294	   2826.15585921	    288.57760964	    654.77811623
     12.44772916	    379.69171004	   3419.81161803	    392.48470998	    846.78786925
     12.46319581	    417.60592312	   3475.74319647	    420.66629750	    891.43582544
     12.47866246	    468.23318940	   2981.60462946	    360.04002702	    768.60246149
     12.49412911	    528.26946135	   2135.42836302	    245.26961394	    537.84122202
     12.50959576	    553.66177951	   1238.54816221	    128.97421209	    295.36740637
     12.52506241	    507.21247950	    533.57081741	     46.98766555	    114.55272246
     12.54052906	    398.98411404	    120.97385921	      8.13789802	     20.32850431
     12.55599571	    262.04279879	    -34.57161158	      1.18598726	     -4.73898250
     12.57146237	    129.72241760	    -29.63611442	      9.44644977	      6.76000101
     12.58692902	     33.90428946	     34.04284711	     19.83913355	     26.60300278
     12.60239567	     -7.25484539	     83.27781440	     25.62611819	     38.74884973
     12.61786232	     -0.09608464	     90.19726487	     25.88577758	     39.51812881
     12.63332897	     32.50627007	     63.92457484	     22.71076005	     32.56225626
