FiberActivePower
version=1
nRows=51
nColumns=5
inDegrees=no

This analysis gathers basic information about muscles during a simulation (e.g., forces, tendon lengths, moment arms, etc).
Units are S.I. units (second, meters, Newtons, ...)
If the header above contains a line with 'inDegrees', this indicates whether rotational values are in degrees (yes) or radians (no).

endheader
time	recfem_r	vaslat_r	vasint_r	vasmed_r
     14.50666079	     26.47140174	    107.88300608	     33.71453485	     49.85784884
     14.52132744	     32.00289263	     71.71812825	     22.31507126	     33.09326981
     14.53599409	     19.43780298	     36.14451844	     11.27305361	     16.71898278
     14.55066075	      3.99615901	     11.09295088	      3.50209389	      5.16431162
     14.56532740	     -3.41472874	      0.05870784	      0.01913427	      0.02786931
     14.57999405	    -11.75145046	     -4.55745256	     -1.53402270	     -2.20461174
     14.59466070	    -38.31089571	    -11.01713547	     -3.66353208	     -5.23855069
     14.60932735	    -77.73688411	    -18.98631649	     -6.22503870	     -8.87204003
     14.62399401	   -101.41087963	    -24.23586502	     -7.96764061	    -11.31075605
     14.63866066	    -90.48684087	    -25.21338306	     -8.38634693	    -11.84382267
     14.65332731	    -58.40254502	    -24.01570534	     -8.13114055	    -11.43049536
     14.66799396	    -28.77002177	    -23.34038140	     -8.06207556	    -11.34648762
     14.68266061	     -9.93894496	    -20.81816775	     -7.35768338	    -10.34716523
     14.69732727	     -2.76371972	    -16.90860993	     -6.14137226	     -8.61816925
     14.71199392	     -1.05444556	    -12.83283841	     -4.80162365	     -6.73139983
     14.72666057	     -0.47290804	     -9.23962849	     -3.48477095	     -4.87518965
     14.74132722	      0.17871131	     -6.76678227	     -2.24864508	     -3.12510593
     14.75599387	      0.75283259	     -4.36512614	     -1.31400217	     -1.94023368
     14.77066053	      1.09072453	     -2.04903663	     -0.62032481	     -0.92481124
     14.78532718	      1.23176587	      0.18374383	      0.05580011	      0.08394685
     14.79999383	      1.35558561	      2.14925079	      0.65049440	      0.98548561
     14.81466048	      1.69438626	      3.78240984	      1.13794038	      1.72205448
     14.82932713	      2.39249314	      5.23176912	      1.68370453	      2.47728995
     14.84399379	      3.42832761	      6.49637992	      2.23150379	      3.32336613
     14.85866044	      4.55878773	      8.07380673	      2.73596688	      4.08549754
     14.87332709	      5.33220742	      9.28770220	      3.25130888	      4.88491077
     14.88799374	      5.37661620	     10.05206023	      3.79617830	      5.83190502
     14.90266039	      4.89001748	     11.29415284	      4.39528934	      6.96735776
     14.91732705	      4.21111495	     15.20178954	      5.14549779	      8.38084450
     14.93199370	      3.76367021	     21.44815921	      5.67726802	      9.15952540
     14.94666035	      3.40204532	     23.75019930	      5.10007806	      7.62110466
     14.96132700	      2.26888454	     14.62173586	      2.98805414	      3.66200390
     14.97599365	     -0.33945436	      0.93213619	      0.54343635	      0.40178399
     14.99066031	     -4.21130541	      7.97685855	     -0.85759519	     -1.07201946
     15.00532696	     -8.34255687	     19.85997864	     -7.74005901	    -16.78547752
     15.01999361	    -11.18273502	    -93.23271135	    -35.68004281	    -76.43204223
     15.03466026	    -11.61675469	   -461.79583303	    -90.86256635	   -186.20908326
     15.04932691	     -9.15820234	   -920.68191437	   -143.08911319	   -285.04301238
     15.06399357	     -6.87724292	  -1087.98286339	   -150.50225787	   -297.09416469
     15.07866022	     -9.25456755	   -804.77234060	   -104.77009537	   -208.28467376
     15.09332687	    -17.51316809	   -188.38802586	    -23.89528908	    -47.91009824
     15.10799352	    -26.46715720	    359.38708758	     45.57376007	     91.41238131
     15.12266017	    -27.56405154	    589.56646876	     76.51758982	    150.85773602
     15.13732683	    -19.32390476	    514.05977792	     69.77269532	    132.06055823
     15.15199348	     -7.83195043	    303.73888132	     44.08483557	     77.92060916
     15.16666013	     -3.44988495	    107.88092539	     17.69382881	     27.36982696
     15.18132678	     -5.76175045	     11.07457258	      3.16697755	      2.97313759
     15.19599343	     -6.76334313	     -2.74101183	      0.00100455	     -0.42272178
     15.21066009	     -4.69899190	      3.08215380	     -0.16703885	     -0.02640828
     15.22532674	     -4.57410646	     -2.87678981	     -2.09883673	     -3.09955962
     15.23999339	     -8.20242099	    -16.46184447	     -5.44517468	     -7.73241776
