FiberForce
version=1
nRows=51
nColumns=5
inDegrees=no

This analysis gathers basic information about muscles during a simulation (e.g., forces, tendon lengths, moment arms, etc).
Units are S.I. units (second, meters, Newtons, ...)
If the header above contains a line with 'inDegrees', this indicates whether rotational values are in degrees (yes) or radians (no).

endheader
time	recfem_r	vaslat_r	vasint_r	vasmed_r
     14.50666079	    701.49637595	    627.50991249	    202.75054560	    335.42072399
     14.52132744	    487.68568323	    442.05629915	    144.05544482	    239.24599613
     14.53599409	    313.59930787	    289.82750813	     95.56618144	    159.37308133
     14.55066075	    190.42467013	    184.75130113	     62.17899388	    104.12326381
     14.56532740	    130.34511649	    130.39235919	     45.23055933	     75.97277518
     14.57999405	    149.23958821	    122.14331662	     43.14258157	     72.19689502
     14.59466070	    237.98889053	    144.01575649	     50.68601219	     83.99814118
     14.60932735	    348.94376255	    175.79461867	     61.47574679	    100.86581197
     14.62399401	    427.39108817	    205.19816957	     71.85714613	    116.79643440
     14.63866066	    457.10631092	    230.83663901	     81.62175665	    131.31847381
     14.65332731	    471.65575581	    257.47675826	     92.48853435	    146.97664858
     14.66799396	    520.44566478	    291.53925971	    106.85912987	    167.31418389
     14.68266061	    625.60955265	    333.66337037	    125.33042148	    192.88975074
     14.69732727	    765.21600569	    379.82163027	    146.65675456	    221.56067564
     14.71199392	    896.74865737	    425.32371189	    169.07599496	    250.75048882
     14.72666057	    982.94845633	    466.00213959	    190.53312013	    277.76602731
     14.74132722	   1000.24890397	    501.44352835	    208.55742480	    299.64146244
     14.75599387	    946.35525534	    529.01547271	    221.57986221	    315.36490711
     14.77066053	    837.89465783	    545.92200895	    229.55905114	    325.14736563
     14.78532718	    697.22704517	    549.31144070	    231.49032677	    327.36884442
     14.79999383	    548.21927951	    538.40570889	    226.90571096	    321.49027958
     14.81466048	    411.90612038	    515.36130928	    216.72358422	    308.64988133
     14.82932713	    299.33306309	    483.29874991	    201.44233227	    290.04772723
     14.84399379	    212.65760806	    444.57788549	    181.41773099	    264.95857594
     14.85866044	    149.29177980	    397.57766545	    158.21285986	    234.97831047
     14.87332709	    103.40232240	    341.72374308	    133.08318887	    201.60297616
     14.88799374	     69.70511617	    280.29518484	    107.31058778	    166.56346946
     14.90266039	     46.58091707	    223.95297137	     84.16877927	    134.65027089
     14.91732705	     32.10212009	    182.65130119	     66.13030266	    109.32750235
     14.93199370	     24.22060859	    158.05208379	     52.90892999	     89.66457568
     14.94666035	     22.25903190	    147.23581099	     44.18483328	     74.65703877
     14.96132700	     24.44493919	    130.24231131	     37.22742897	     59.96717405
     14.97599365	     29.51244500	     77.33751377	     30.66833434	     45.97408389
     14.99066031	     36.15713638	     -6.54886440	     30.18276266	     50.11492594
     15.00532696	     43.45544949	     -1.46521717	     54.73612540	    114.48802376
     15.01999361	     49.66576314	    338.84537200	    129.18221609	    286.15687593
     15.03466026	     52.91559573	   1240.54026818	    264.34094270	    579.27057169
     15.04932691	     53.06648585	   2635.69328197	    435.21723853	    941.09918986
     15.06399357	     56.52477102	   4086.00724790	    589.42270280	   1271.75069817
     15.07866022	     76.76682057	   5057.75401174	    680.03975836	   1475.93056951
     15.09332687	    124.71640598	   5191.85291923	    680.73890299	   1485.22674764
     15.10799352	    195.92048457	   4550.38629259	    603.55174777	   1311.29766947
     15.12266017	    266.68124557	   3468.91448992	    481.24145156	   1023.27365178
     15.13732683	    308.61558779	   2307.23102867	    345.86555714	    703.72034550
     15.15199348	    306.16399612	   1296.96163904	    219.02338258	    414.96717524
     15.16666013	    268.46324385	    583.61289719	    121.13231020	    205.66431420
     15.18132678	    215.74033093	    183.61718249	     61.31318317	     89.19652341
     15.19599343	    169.61872184	     41.52208153	     38.13367650	     52.55983655
     15.21066009	    152.32744641	     61.28854486	     41.27628482	     65.09528537
     15.22532674	    173.66010146	    134.79447353	     55.79655393	     92.28773198
     15.23999339	    222.42517032	    205.03869907	     72.31853810	    117.27719094
