Inverse Dynamics Generalized Forces
inDegrees=no
nColumns=21
nRows=51
DataType=double
version=3
OpenSimVersion=4.6-2026-03-27-4e5ffda9c
endheader
time	pelvis_tilt_moment	pelvis_list_moment	pelvis_rotation_moment	pelvis_tx_force	pelvis_ty_force	pelvis_tz_force	hip_flexion_r_moment	hip_adduction_r_moment	hip_rotation_r_moment	hip_flexion_l_moment	hip_adduction_l_moment	hip_rotation_l_moment	knee_angle_r_moment	knee_angle_r_beta_force	knee_angle_l_moment	knee_angle_l_beta_force	ankle_angle_r_moment	ankle_angle_l_moment	subtalar_angle_r_moment	subtalar_angle_l_moment
143.344	55.29356909651639	97.74852484006766	-19.99664077372758	214.7058356605444	329.7195699189275	-129.7549743084328	-28.36386412368346	74.22576091865443	2.545587638092986	101.1238881820958	35.20280199433016	-18.57064464480605	81.00271017515567	-0.06288610839636624	34.77898196789636	-0.05025446824533386	-180.3161546106699	11.438484604348	33.86039905984733	-3.690058308794459
143.36024	19.86410028394107	40.69648427957734	-11.57591285393219	97.37353631804658	226.0828694800143	-53.89873800979625	-13.99574060328941	37.40325233970048	-5.106768825344668	40.79310172520494	38.22075257904989	-15.67058774100905	60.24306138004895	-0.05642034144596068	41.46422330591275	-0.04234474451968381	-113.1573902595115	9.433027282519253	19.6027667201025	-3.623394630839669
143.37648	-2.187622621680465	7.79196472828027	-2.1939545991201	9.697484642462737	104.1949602911899	-11.43791046068524	3.999242134143226	9.901948345292436	-8.995514687868942	-12.27115723811823	29.8408308090309	-12.74015867078503	40.11772126979001	-0.0503082024886348	50.39521430718555	-0.03887289482973873	-59.3631331368021	5.843968937501471	8.20469512590792	-2.737472130141683
143.39272	-6.416528014257908	3.064724231409069	5.37050936079206	-28.66678851279913	-15.20659513102569	-6.925548871435614	25.51532799658257	-2.35505130603007	-7.873220552499276	-51.2802610116876	13.04677207182679	-10.33844833934768	21.10105184748521	-0.04491794880710917	60.64181034843166	-0.04320397225906306	-24.67242633782097	0.3192926964211887	1.317443065377774	-0.6336965731240178
143.40896	-0.1000012751945926	7.27088778048449	6.666018181516308	-20.84975510642422	-88.3172896351832	-12.3316480414231	45.87796842482675	-1.024298872554138	-3.49947220171779	-72.76241411962945	4.529153546006967	-8.700149816091235	4.418829338406738	-0.04028681681286042	68.85201415242649	-0.05563378185293301	-6.711203557313004	-5.367691968819413	-1.270547199951166	2.014826344311158
143.4252	4.552271357308991	-1.481290536187345	1.222331674523702	5.441798972593107	-91.17854198165087	2.793450911968981	60.07691179719374	5.414357372336419	1.053811499009071	-79.15374939923727	17.1620990062248	-6.372478193209869	-8.305020326750103	-0.03631436790616278	72.98965809723904	-0.07146785547647731	0.3540759649319093	-7.453609504718656	-1.246264199702974	3.014346188149251
143.44144	2.004263989058942	-21.45009387892533	-5.582948046115447	17.39265972971521	-36.99925396322098	34.10206953383382	70.0848691137159	9.929180939532724	3.409381757485838	-79.01300591385508	43.02689682642854	-1.064756842009941	-17.98724840482148	-0.03427473779977182	74.96405239748496	-0.08059008602198982	2.064838406451679	-2.476240201206299	-0.5428388878890027	-0.2845292691816867
143.45768	-2.086833354658232	-27.92966245185224	-7.450836631242018	3.239180296007011	35.52475614899484	44.32335874205235	88.31473741413019	14.06118248424984	2.573123204401881	-86.56976915376055	58.77782786439335	6.40828145653647	-30.03853882619067	-0.03851537970151714	79.20932958858734	-0.06944874843605092	2.476706271099242	7.966326739297068	-0.271893840068	-7.4654097701699
143.47392	0.8980583532613979	-6.097280162996434	-3.384378473540161	-19.79698819296384	80.31879369115758	11.27620963627344	131.1596113024442	24.32142808708817	-1.330416128561577	-119.4291842917132	50.8633008601411	8.629479913036166	-51.40096637067666	-0.05582421228644192	87.28598581006362	-0.02636455896985323	3.913827922052777	12.86380069012311	-0.5915291027069565	-10.98079578516405
143.49016	11.10089047790717	23.50364426426653	2.46992925268526	-23.37291649432387	64.48764121982532	-34.7773389283228	203.2323738972328	41.04377278948642	-7.092498374315346	-187.3226919680864	29.6631201565023	-4.488930927674705	-83.46393071747303	-0.09073368679963897	91.5641997035314	0.05016994986412016	6.941359006577663	-5.893475620708191	-1.26345430035554	3.157512084119347
143.5064	19.27148347914068	24.62665299878534	6.752971752224298	4.293761058323031	-5.36532383967612	-39.42413713373745	280.868668398913	52.99644985187306	-12.14346384023822	-271.1673951720303	12.01312307561401	-32.03631854302332	-115.6665947379393	-0.1380329466317388	73.23790062340709	0.1436724689517607	10.64068715575853	-60.91384606568455	-2.12787978222588	46.36767130232666
143.52264	16.86654257981615	-10.03033764577879	9.436542158003361	44.42754010623171	-75.899011003184	10.65345072708982	310.0828865359221	45.72883744883059	-13.01931795250473	-312.3499439307698	-4.44948610679908	-51.44969315108237	-125.9798521404545	-0.1779283660407434	9.692080711409048	0.2188523898773956	13.17035677365692	-144.3451250154847	-3.107882575919777	115.9361773109195
143.53888	5.221140472245904	-47.88333337579429	9.724839649519382	61.4357689139029	-89.88455726593079	70.29552386544978	231.9551960543988	16.34264709428858	-7.252560489809344	-238.8918411195423	-36.29869850528347	-31.12821828435736	-92.11802844014314	-0.181283633986896	-108.9609568406105	0.2336524766575635	12.67850099554631	-227.27696196188	-3.984216718812875	193.5361966028884
143.55512	-4.540999666714527	-56.46425435502461	4.814228752845706	38.37326593183693	-45.72800572083796	91.00228227455388	28.43782835988741	-20.81354927254639	4.25508160933852	-22.92012922854838	-82.53195177611767	36.07025965040981	-9.266944368529607	-0.1273284114971025	-263.1552811848143	0.1628102459091436	8.478278094570435	-279.3238393179535	-4.369780560407889	257.3701527766226
143.57136	-0.6109211883010652	-41.65450388174777	-3.955933149577489	0.1245070923888392	4.622040862290862	74.44653445537683	-244.7942136662164	-44.45698225234707	16.59537744248317	276.4824601198339	-112.4808635135297	114.7019419977357	98.83525750382134	-0.02436843412368633	-400.773308807136	0.02026930053671998	1.836660569712346	-291.2677374243519	-3.985795496020756	295.0547249561856
143.5876	16.2707759289897	-31.87055352180191	-9.493334059534456	-11.43210689343092	20.54308341512217	54.0688032154638	-473.2856318200268	-43.14144972866551	23.41835360029124	527.7436388105288	-98.45001929285021	152.668464538456	187.4847828664529	0.08451822304642063	-456.6039590379787	-0.1386899212465628	-4.42205098665602	-278.2401201473762	-2.94616453625398	304.854669126527
143.60384	29.44166034963752	-31.85361374339292	-7.91909495799395	12.7992377631549	9.735498097113586	38.18730150669116	-545.761107000077	-22.99930265389212	21.39923484298645	598.8748689645776	-56.26788877518653	127.48544991506	215.1799842401619	0.1418697911124494	-389.1480178753235	-0.24518948415997	-7.507819207172559	-261.7185227557824	-1.734800634221447	289.7780422973765
143.62008	24.71511640128048	-16.8635710646257	-3.56318369933906	42.23667989869647	-4.848879272372551	4.270265389193811	-421.266857964524	-1.61646463838276	12.98959142203166	444.03713390536	-36.21138015183247	62.04351118287378	167.9127350536411	0.1122865019623217	-212.6844987784642	-0.2584798198816011	-6.368294174616	-250.1246144150411	-0.8934279336946993	255.6065348481944
143.63632	10.65725914401128	21.18610497847742	-1.068844279587588	50.10813596238934	-22.34004446723385	-47.09337412082593	-154.5940271184211	4.853926211964842	4.652655350139484	140.5275141508207	-65.80770628825465	-2.07786435212529	67.03896129360538	0.008275554841570158	2.716242414679353	-0.1885201245783694	-2.211153633769819	-236.3581907061729	-0.6897187479523512	212.3298166950716
143.65256	7.25834634610889	49.7668889138132	1.498865276454032	39.45904607974635	-47.70426170362197	-72.13164824418261	134.5664255068952	-6.806317132109113	1.637348932305609	-161.0122827452508	-115.4970938962384	-37.85249336114058	-42.98455111002023	-0.1155153855117694	170.7803887031108	-0.08247866651954051	2.475561338188446	-211.1270373574764	-0.971454469970498	171.1309560909018
143.6688	15.90925097023191	37.88262412505234	7.117012312307915	23.00780300293625	-62.27828188258807	-42.03217778204652	327.0411863574803	-23.360596002884	3.897928287093773	-335.8146307514319	-133.3068116388944	-42.45533422679179	-118.2924238619257	-0.1964291148657673	240.3260211726335	0.008258382779243382	5.560158010732446	-175.2286802058379	-1.278005558347897	137.617204306145
143.68504	18.18198231631625	1.973186476871198	12.21718909756732	3.952135731843688	-41.45145609894176	8.124957333654034	365.2803100630508	-25.10245095132939	6.960171240294688	-349.9463525254368	-102.1757031566012	-27.80372825713894	-137.2186897844311	-0.2015045755000873	216.8658884482016	0.05316092231113932	6.37664633472489	-137.7246213034724	-1.191882597074234	109.5779629168548
143.70128	5.545600391753291	-14.48385181054764	10.21703625390471	-14.30734531616464	5.509966965938197	19.89023170775085	274.3575217796381	-3.775785931074786	6.493487495602884	-250.3447932663886	-48.59519776317387	-8.754746644421038	-107.7544848172509	-0.1425133401850393	143.142306574707	0.04902975249109705	5.641980996688964	-105.2692409122352	-0.6910006514581648	82.01723271034092
143.71752	-7.646719119499733	3.080106041167173	0.8968751255782421	-20.48646010329511	39.56125834649001	-14.6733661762042	131.1278913895089	29.40248593268272	1.810358913629257	-112.5025109480998	-3.541484407249701	4.074702183983327	-56.74670664222005	-0.06067354616197958	64.70930802231875	0.01304781595409338	4.374602816749107	-77.25149699318585	-0.1165863242644831	53.58355066255812
143.73376	-5.8276768971171	26.77721095609264	-8.518994789241187	-9.87090939839114	36.73926330436994	-47.89412276805491	7.06572482276324	55.01543998674408	-4.450696494185111	4.730039998336025	26.50920329966755	7.293387166578593	-9.616534407501364	0.003781366299459579	8.262258390604597	-0.03022300121287589	2.752754050390574	-50.6592319994089	0.2826539637962771	27.94992443012663
143.75	6.573842701653369	26.2812791097856	-11.8022900471294	5.150428712979753	10.11338131941297	-39.42847793742131	-70.49166495378124	63.63779546734175	-8.9598289941719	77.83648556006409	50.0863558810148	3.894574889022739	23.51739220880169	0.03370443597423244	-21.70601283341683	-0.06202737357393046	0.06214348961813287	-25.91599561729799	0.7071446323040419	9.852733695499436
143.76624	13.09795612895514	3.858373545210444	-9.576823835401408	9.576063426913779	-15.14451378399024	-0.0720798036911483	-114.750737660646	61.93302578736409	-9.861011648755742	114.8091048628963	69.76558256428549	-0.8385067533332977	46.49017850301581	0.03642041349715636	-35.28106338904865	-0.07658454698125039	-3.834925875703023	-6.736620568391458	1.504573044052342	0.7779688250671104
143.78248	7.361060789282468	-15.40160972198218	-5.911185668531547	4.945935829071061	-30.20310712440814	30.13205503844517	-148.5532170862847	62.57221619210668	-7.367628842655952	137.8129454544311	79.87576205328291	-3.65815455490591	65.83994530805408	0.02971494794795208	-45.95294740391842	-0.07878043276782114	-6.679699217345908	4.117712690995411	2.35983305647968	-1.627309338699241
143.79872	-0.580302410567975	-15.82474559267704	-2.377637641031296	4.737874812868336	-36.82801007230458	29.28303738709529	-179.0372159262589	70.15134203701051	-3.254064735800251	163.0161397008394	77.44520408558779	-4.690174350206194	82.03925856591646	0.02658170279503404	-61.32531063679582	-0.07583563620741215	-4.291060368694737	7.608561914505671	1.984858251729255	-1.098504837842706
143.81496	1.304438139863718	-4.71148877143207	2.09342639425375	12.41854144848121	-28.02028591437735	9.694247536762219	-196.6728412867382	76.33424501354909	0.1433242097353144	189.4473037408434	66.26704513200683	-5.710431480842319	90.59079759165718	0.02897937025962189	-79.59703336326515	-0.07075743098502378	4.684444658554039	7.231462763466135	-0.6326093842318887	-0.3292199557850056
143.8312	11.58712755749298	1.896225177664338	6.748678825295502	13.72462308999231	5.015233102636481	-4.377310258764295	-191.7765373904893	66.98202798894144	1.163959801196949	202.7484522446415	50.60035163361211	-7.707610356805726	89.61979251027628	0.03122987487435005	-92.59806911801078	-0.0624097117931993	12.07843007127225	6.089923892454255	-3.733557123447087	-0.2907440317699933
143.84744	16.79332366425589	-0.9457534684302227	7.454388904345047	-3.305919776535782	45.89827445618117	-4.140362543655087	-166.8900472518332	34.44519199648039	0.06857877933905909	187.9841472736408	30.02721417518247	-9.799390996764449	83.2183518752788	0.02708179894359467	-92.08123443796774	-0.05010974015674222	-0.2135006669118162	5.417056533680793	-1.598992630762835	-0.8913413159034369
143.86368	7.938252032206149	-4.272727047380459	1.505915228253805	-24.70515423858241	54.70368032225679	0.02109654730351296	-130.0077967811274	-14.93395947441121	-0.2431504490530765	139.878512363056	2.961031665476809	-10.05204903073252	73.13228936545379	0.01459458734969073	-74.44367627412078	-0.03681804400962094	-46.40375417377302	5.076073930919616	12.11322767319463	-1.776873985543194
143.87992	-6.210835016981791	-0.08422844824913911	-7.070410623447088	-18.95020371358317	12.65653236119879	-2.6386127891468	-78.38355277517437	-64.98683861087935	4.83035221503839	64.76997045574754	-26.54426498233129	-7.240524232086852	46.59033864111017	-0.002852649255816243	-41.81143346524278	-0.02748711000493359	-114.7205595427662	4.610028199419707	37.16593188711864	-2.624888932019812
143.89616	-6.33347390337779	6.274320969774378	-10.30642514989645	23.41987458592452	-47.82425772526263	-7.354888065405193	0.8418761747046943	-102.818549097332	17.92556630094305	-22.72503413430376	-49.17913029507916	-1.896424521285659	-20.23868331032784	-0.01846096550213607	-0.8713748902760052	-0.02482137600851613	-161.670711042429	3.806672139003688	62.80291938849319	-3.141132889723482
143.9124	15.36280276945026	3.340380306307104	-5.43202664201131	68.23941035484569	-76.42843375578997	-1.566948191413648	107.1177422535855	-127.4421581048345	35.52207167102697	-103.7489457799716	-59.2111461155659	4.155229761376492	-136.3656645964882	-0.02622214079851792	38.85546092187117	-0.02744699982505302	-142.2837436035465	2.758609997907363	74.10883356818736	-3.140351181175282
143.92864	43.54496744155049	-9.347428638544086	1.91459497115502	70.89339663666009	-58.7308014753895	14.8636508967921	208.5020980228115	-144.1027022356875	49.04044431960561	-159.0332662191929	-60.34969922239517	9.028273005088208	-270.0353614880333	-0.02615161428834977	67.2294476748728	-0.03240971267490564	-57.06270315351311	1.728549836700814	64.54760264956724	-2.678978522455719
143.94488	53.14410719785513	-19.1943412949302	5.00595871728602	27.92019964639965	-21.41271281314013	26.6765832598285	256.2094361129942	-152.7636681092663	52.01188262928909	-173.9031365154664	-59.48685175832822	11.5632597149392	-355.2660396788358	-0.02605278911910971	76.59176145590892	-0.0386544136430039	34.42661064547867	0.9786381053902226	41.19930125805424	-1.997404246530281
143.96112	33.79950637455123	-16.17623165522582	2.96561257615668	-18.72296658656228	4.155625152870679	21.82777526817566	221.9941583808478	-145.6434270097619	44.9106003649393	-144.5395097742104	-55.63379939586927	11.30399590743989	-335.694141861837	-0.03597672434838402	64.97072415760047	-0.04710290370439107	57.09470196640842	0.6232779192522021	16.96213741391382	-1.298945309604859
143.97736	-0.02669097412490429	-3.09373937545995	-1.008814753590332	-28.91886538781262	7.996483819838549	4.398196100756991	123.3780125806597	-114.6817410548071	32.31892729222341	-82.33137638534971	-39.11277463461573	8.20915461962352	-210.2312862445496	-0.05925201734425976	37.52140660614128	-0.05747252709145945	-16.52601598938301	0.5881240078965598	-0.3093745040672389	-0.6349418969902134
143.9936	-22.76861552281101	10.21662449473533	-4.174945877622897	-3.683854464903906	-0.1439793417586421	-12.54673214980724	13.197759596558	-60.65329141858703	18.43887997947433	-11.54829459787458	-3.18011528127079	2.732080740479606	-37.72863857984237	-0.08920502623239558	4.808822044789932	-0.06614376354239063	-144.2293272350385	0.7074731479923766	-10.23867977614878	0.00334759918887334
144.00984	-20.98113561949775	15.90472292179804	-4.757186445096199	24.909575573816	-4.760697774364304	-19.03848368985972	-57.36687625664658	2.517093388296102	6.767460541942473	40.88046760587944	45.59280031973215	-3.778602383199241	104.6653380239297	-0.1146795855084511	-21.5183879233428	-0.06787203646511278	-251.5734028125294	0.8610566561304661	-14.91891737221666	0.5668810926362633
144.02608	-3.261958807893204	11.3568237402663	-1.468930277353401	31.18969037323573	1.294610390972108	-12.49761184664114	-70.0566713436136	53.60390274610205	0.431194086956308	58.02052618962507	89.95416426121005	-9.118506612119335	171.3403323726908	-0.1277794219747206	-33.38827289208145	-0.05948444510698463	-288.6830551644512	1.013958330217066	-14.91277010556471	0.9695473310691547
144.04232	11.59585810837895	-0.2326663972283926	4.375045816057901	15.37405728771111	8.830491070445541	2.41441541835382	-40.86203406707524	78.35134189136227	-0.3274274113118614	39.78512792785193	114.1341910444107	-11.23926262564449	165.1331883512095	-0.1266787513733453	-28.94426069139173	-0.04199431324899745	-255.0813194537595	1.142010764590356	-10.16687975120558	1.184054633928932
144.05856	13.43351667617184	-11.03346354396308	8.096693962332584	-7.055895974500348	-0.7848642855616506	15.58102871068566	1.8737268935897	78.73139205371564	0.6843693681869293	0.1770440229362684	113.1787957617944	-9.609171646291406	117.8794286103604	-0.1136356321773302	-12.23575494256968	-0.01993340801825958	-182.5864008496105	1.161812582659042	-2.611678695511207	1.26025692618567
144.0748	6.3256635277448	-13.65399779724857	5.852797381558499	-22.91588886815067	-33.49826383639407	17.41613094996164	37.54962082105127	67.47339938076908	-0.6683314414475992	-41.77923760642117	92.85897500815874	-5.626820121806929	62.63300061866263	-0.09261077697720302	9.26306305947285	0.0007186329296514223	-105.5066999408424	0.9776391030048133	3.86857109254354	1.249951567105549
144.09104	-0.8043669039863879	-7.089149799163969	-0.8733089884161482	-25.80669079119248	-64.63802571552608	6.817796191054352	58.36736302512332	55.25224341737423	-4.670616254588906	-70.99334920213474	63.8151684221687	-1.595115701554679	19.64034073710894	-0.06850484103585423	27.7799399172951	0.01452096420092681	-44.68440373821831	0.6094341790961111	6.242511154268919	1.155287115794031
144.10728	-4.180788993284422	2.495081470017572	-6.546224188417877	-11.60812793696655	-48.38981936325456	-6.8741839366223	65.06842297442338	44.50391472336675	-8.372479207233384	-81.01219455971567	36.28366679229055	0.8324745567373413	-4.080566850391151	-0.04667524390010559	37.89009661699512	0.01818576987382919	-7.100484813217521	0.246599895550138	4.614811159320642	0.9674221932841397
144.12352	-5.901324049182365	6.978241325131807	-6.691065136430936	22.55449482976542	48.55411540173674	-11.01511889543075	62.27571648428336	32.96086862802279	-9.203458915633687	-73.87454588889123	17.31256678968098	1.403868104308741	-10.39847650776242	-0.03144428388657052	38.03287420390992	0.01168525683487467	9.286031794390547	0.1341597993123597	1.551778330038116	0.7250145646161769
144.13976	-8.805765119201748	2.372051526996435	-0.7614851750659133	74.84344607366232	222.2362805677309	0.6349429679632355	55.33344926051807	19.09985598058687	-6.877494437210214	-56.25972518921288	9.098247105473746	0.813924294232111	-5.402564054956665	-0.0241562593261604	30.26675711499476	-0.002086906007215082	11.12088615569881	0.3849606188584195	-0.551333247246113	0.4972823361620615
144.156	-13.24538336506465	-8.934092871053364	8.768168084309851	137.6877271794344	438.8307862842644	23.80801764749701	47.61784740225025	3.585033394583242	-2.728143199213186	-34.54684267155297	8.252967010111579	-0.1948998221483076	4.576010979796519	-0.0222454267428348	18.44968688007745	-0.01925631883835429	6.059151450332128	0.8927008111376902	-1.312526041981033	0.3102350455677539
