MuscleActuatorPower
version=1
nRows=51
nColumns=5
inDegrees=no

This analysis gathers basic information about muscles during a simulation (e.g., forces, tendon lengths, moment arms, etc).
Units are S.I. units (second, meters, Newtons, ...)
If the header above contains a line with 'inDegrees', this indicates whether rotational values are in degrees (yes) or radians (no).

endheader
time	recfem_r	vaslat_r	vasint_r	vasmed_r
     14.83332733	     -8.35513529	    134.71373181	     38.97448927	     51.73722984
     14.84799398	     79.14488098	    107.11915323	     31.57144752	     42.83653372
     14.86266063	     74.46672434	     67.05243449	     20.57811205	     28.73328806
     14.87732729	     29.53267337	     28.55297946	      9.41322132	     13.60586696
     14.89199394	     -8.39569967	     -0.03221481	     -0.01150961	     -0.01712009
     14.90666059	    -28.84614906	    -25.36417743	     -9.34905890	    -13.95895696
     14.92132724	    -69.13031896	    -57.00078533	    -20.75532504	    -30.44624600
     14.93599389	   -155.37296884	    -90.90388569	    -33.07458101	    -47.44211031
     14.95066055	   -251.41883312	   -113.27563674	    -42.27533624	    -59.23847522
     14.96532720	   -328.06695023	   -129.10239280	    -50.39219419	    -69.27630695
     14.97999385	   -349.05575870	   -132.22405454	    -54.68279184	    -73.50959886
     14.99466050	   -301.62064633	   -120.84217267	    -53.49021698	    -69.92186451
     15.00932715	   -210.72365874	   -105.84919595	    -50.37667022	    -64.07560573
     15.02399381	    -85.52636125	    -98.74776216	    -45.50952067	    -56.30029018
     15.03866046	     58.76840905	    -92.65356328	    -37.75671722	    -47.97376819
     15.05332711	    158.00851656	    -82.04217299	    -33.87786184	    -42.93100888
     15.06799376	    214.48322709	    -61.54961301	    -25.76537837	    -32.62087152
     15.08266041	    231.11353241	    -26.31586583	    -11.12838710	    -14.07351880
     15.09732707	    211.81460342	     18.49339240	      7.83658507	      9.90747931
     15.11199372	    171.74145669	     58.56293921	     24.64810733	     31.18586510
     15.12666037	    130.15765211	     84.61218636	     35.19931788	     44.56404388
     15.14132702	    103.46474466	     99.18019106	     40.81933041	     51.77568902
     15.15599367	     87.83593643	    107.02291527	     50.49354243	     62.55409085
     15.17066033	     72.22442026	    117.01649349	     55.40109653	     70.64078504
     15.18532698	     57.12194248	    128.39410866	     56.63661453	     74.44701541
     15.19999363	     42.02848444	    127.20994884	     52.70657643	     71.62457715
     15.21466028	     28.03916443	    109.88616713	     42.83624713	     60.09638656
     15.22932693	     18.60318577	     95.30159881	     34.67871772	     50.74368856
     15.24399359	     11.59877346	     74.43841429	     25.57493547	     38.65191459
     15.25866024	      6.03692808	     48.31382979	     16.90470745	     25.45982485
     15.27332689	      0.22025479	     20.19360837	      8.41715719	     11.82962393
     15.28799354	     -6.81384375	     -0.06158628	     -0.03518034	     -0.04447740
     15.30266019	    -14.43466141	    -19.43166504	     -9.25161803	    -12.22652542
     15.31732685	    -20.59707251	   -101.77561580	    -23.91602385	    -40.35846715
     15.33199350	    -23.70082301	   -333.03660237	    -50.97636312	   -103.02231969
     15.34666015	    -25.25230460	   -686.08062673	    -89.92693617	   -191.62743760
     15.36132680	    -29.16546906	   -945.15892110	   -120.65298425	   -251.87796838
     15.37599345	    -41.76541126	   -917.48002619	   -120.04132187	   -238.73984843
     15.39066011	    -71.19765727	   -599.69398826	    -81.46576756	   -154.21212480
     15.40532676	   -121.52412767	   -105.85371899	    -14.86136071	    -27.02469262
     15.41999341	   -180.83415920	    354.34662824	     50.87302986	     89.95104287
     15.43466006	   -210.24520334	    618.88396546	     89.94295499	    156.45853318
     15.44932671	   -167.12721353	    654.91362979	     95.81742818	    165.62552024
     15.46399337	    -63.29021788	    518.90002152	     76.82250313	    132.72651768
     15.47866002	     23.54408334	    303.15316492	     46.87793164	     80.53800132
     15.49332667	     48.77289891	    122.01522863	     22.24927347	     37.06933970
     15.50799332	     29.05113180	     30.34078507	      9.54886807	     14.58135648
     15.52265997	      0.70035569	      6.11399752	      4.12063622	      5.80969523
     15.53732663	    -17.71953979	     -3.19621801	     -1.77376455	     -2.50973880
     15.55199328	    -40.98420739	    -26.55514851	    -10.92486209	    -15.79133536
     15.56665993	    -91.33034438	    -61.75067475	    -21.66695859	    -31.76061297
