Moment_knee_angle_r
version=1
nRows=51
nColumns=5
inDegrees=no

This analysis gathers basic information about muscles during a simulation (e.g., forces, tendon lengths, moment arms, etc).
Units are S.I. units (second, meters, Newtons, ...)
If the header above contains a line with 'inDegrees', this indicates whether rotational values are in degrees (yes) or radians (no).

endheader
time	recfem_r	vaslat_r	vasint_r	vasmed_r
     24.62500000	    -25.08752093	     -8.36460256	     -2.60676346	     -3.73460460
     24.65920000	    -21.31580694	    -12.98566686	     -3.32565898	     -4.71738012
     24.69340000	    -21.57709686	    -15.58025080	     -3.82834544	     -5.37035920
     24.72760000	    -26.77510131	    -15.02015316	     -3.94324648	     -5.48779152
     24.76180000	    -33.41731889	    -12.77133672	     -3.84639031	     -5.39598780
     24.79600000	    -38.54855159	    -12.14166103	     -3.99749307	     -5.74556219
     24.83020000	    -43.20824097	    -15.02144055	     -4.60133757	     -6.59908502
     24.86440000	    -48.97422993	    -19.64264795	     -5.28136976	     -7.14016558
     24.89860000	    -55.60094558	    -21.57733224	     -5.60151728	     -7.18370979
     24.93280000	    -61.49320601	    -18.44507351	     -5.64904330	     -7.91226146
     24.96700000	    -65.30759436	    -13.49246975	     -5.74375898	     -9.63761413
     25.00120000	    -67.67036635	    -14.84762336	     -5.99134236	    -10.34956351
     25.03540000	    -69.17842530	    -27.24647941	     -6.08812439	     -8.61286433
     25.06960000	    -68.81113656	    -43.74091904	     -5.74631469	     -7.75349574
     25.10380000	    -65.81719680	    -51.62627063	     -5.27494020	    -12.55489091
     25.13800000	    -61.55498839	    -49.19312654	     -5.43131398	    -20.77453252
     25.17220000	    -58.24966602	    -49.34262721	     -6.72369027	    -24.47940782
     25.20640000	    -57.23138790	    -56.32422159	     -8.90046649	    -20.43459252
     25.24060000	    -58.66718407	    -67.77302898	    -10.94914607	    -15.70186875
     25.27480000	    -61.71958292	    -75.18211910	    -11.97682598	    -16.48822468
     25.30900000	    -68.09933363	    -74.58706705	    -11.14966345	    -22.78255766
     25.34320000	    -74.60469077	    -69.34300720	     -8.90913959	    -27.33555575
     25.37740000	    -79.48100087	    -63.30498773	     -7.24953531	    -25.27203863
     25.41160000	    -82.48281742	    -57.08438680	     -7.63770623	    -19.06329932
     25.44580000	    -84.03707915	    -51.09656892	     -9.35448251	    -13.88413536
     25.48000000	    -84.81512745	    -47.25529145	    -10.48995102	    -11.85460037
     25.51420000	    -85.05684939	    -46.40359981	    -10.37462041	    -11.71347650
     25.54840000	    -84.32082457	    -47.48870542	    -10.00363151	    -12.03004886
     25.58260000	    -82.07885286	    -50.28019655	    -10.24919464	    -13.27885544
     25.61680000	    -78.57582271	    -56.26072070	    -10.74685124	    -16.79587181
     25.65100000	    -74.79660432	    -65.75648714	    -10.67647027	    -22.35393033
     25.68520000	    -71.26131187	    -75.60694483	     -9.99103212	    -27.26135137
     25.71940000	    -67.15833728	    -80.78761880	     -9.48044091	    -28.22420053
     25.75360000	    -61.52679569	    -78.66748361	     -9.65890016	    -24.55178301
     25.78780000	    -58.58256051	    -71.39909414	    -10.12777968	    -19.21405344
     25.82200000	    -55.71090330	    -63.53824025	    -10.25978173	    -16.08439192
     25.85620000	    -54.61492219	    -57.31405281	     -9.13845502	    -16.81888211
     25.89040000	    -56.17410160	    -53.58359754	     -7.37379495	    -18.21488837
     25.92460000	    -59.48570643	    -49.78424342	     -6.06501287	    -17.62190730
     25.95880000	    -61.46027694	    -40.82577225	     -5.73533003	    -14.45422796
     25.99300000	    -60.29742826	    -29.91064257	     -6.06443840	    -10.90645472
     26.02720000	    -56.98243865	    -21.51900094	     -6.26761539	     -8.70761873
     26.06140000	    -54.06208525	    -16.98779766	     -5.85382347	     -7.62287473
     26.09560000	    -52.61144900	    -14.90918197	     -5.07526105	     -6.89410166
     26.12980000	    -49.03976285	    -13.47842412	     -4.51860041	     -6.33495744
     26.16400000	    -40.46451540	    -12.27254425	     -4.41459405	     -6.11427218
     26.19820000	    -30.86260111	    -11.56144401	     -4.43210785	     -6.07227365
     26.23240000	    -24.43325504	    -10.52292194	     -3.93699612	     -5.45469872
     26.26660000	    -21.69439376	     -8.96475230	     -3.03759270	     -4.32017921
     26.30080000	    -19.47818226	     -7.74160094	     -2.47670340	     -3.58237761
     26.33500000	    -15.87852088	     -7.14844106	     -2.45612066	     -3.49813998
