TendonLength
version=1
nRows=51
nColumns=5
inDegrees=no

This analysis gathers basic information about muscles during a simulation (e.g., forces, tendon lengths, moment arms, etc).
Units are S.I. units (second, meters, Newtons, ...)
If the header above contains a line with 'inDegrees', this indicates whether rotational values are in degrees (yes) or radians (no).

endheader
time	recfem_r	vaslat_r	vasint_r	vasmed_r
     24.62500000	      0.54305211	      0.26656743	      0.24778195	      0.25068354
     24.65920000	      0.54305211	      0.26656743	      0.24778195	      0.25068354
     24.69340000	      0.54305211	      0.26656743	      0.24778195	      0.25068354
     24.72760000	      0.54305211	      0.26656743	      0.24778195	      0.25068354
     24.76180000	      0.54305211	      0.26656743	      0.24778195	      0.25068354
     24.79600000	      0.54305211	      0.26656743	      0.24778195	      0.25068354
     24.83020000	      0.54305211	      0.26656743	      0.24778195	      0.25068354
     24.86440000	      0.54305211	      0.26656743	      0.24778195	      0.25068354
     24.89860000	      0.54305211	      0.26656743	      0.24778195	      0.25068354
     24.93280000	      0.54305211	      0.26656743	      0.24778195	      0.25068354
     24.96700000	      0.54305211	      0.26656743	      0.24778195	      0.25068354
     25.00120000	      0.54305211	      0.26656743	      0.24778195	      0.25068354
     25.03540000	      0.54305211	      0.26656743	      0.24778195	      0.25068354
     25.06960000	      0.54305211	      0.26656743	      0.24778195	      0.25068354
     25.10380000	      0.54305211	      0.26656743	      0.24778195	      0.25068354
     25.13800000	      0.54305211	      0.26656743	      0.24778195	      0.25068354
     25.17220000	      0.54305211	      0.26656743	      0.24778195	      0.25068354
     25.20640000	      0.54305211	      0.26656743	      0.24778195	      0.25068354
     25.24060000	      0.54305211	      0.26656743	      0.24778195	      0.25068354
     25.27480000	      0.54305211	      0.26656743	      0.24778195	      0.25068354
     25.30900000	      0.54305211	      0.26656743	      0.24778195	      0.25068354
     25.34320000	      0.54305211	      0.26656743	      0.24778195	      0.25068354
     25.37740000	      0.54305211	      0.26656743	      0.24778195	      0.25068354
     25.41160000	      0.54305211	      0.26656743	      0.24778195	      0.25068354
     25.44580000	      0.54305211	      0.26656743	      0.24778195	      0.25068354
     25.48000000	      0.54305211	      0.26656743	      0.24778195	      0.25068354
     25.51420000	      0.54305211	      0.26656743	      0.24778195	      0.25068354
     25.54840000	      0.54305211	      0.26656743	      0.24778195	      0.25068354
     25.58260000	      0.54305211	      0.26656743	      0.24778195	      0.25068354
     25.61680000	      0.54305211	      0.26656743	      0.24778195	      0.25068354
     25.65100000	      0.54305211	      0.26656743	      0.24778195	      0.25068354
     25.68520000	      0.54305211	      0.26656743	      0.24778195	      0.25068354
     25.71940000	      0.54305211	      0.26656743	      0.24778195	      0.25068354
     25.75360000	      0.54305211	      0.26656743	      0.24778195	      0.25068354
     25.78780000	      0.54305211	      0.26656743	      0.24778195	      0.25068354
     25.82200000	      0.54305211	      0.26656743	      0.24778195	      0.25068354
     25.85620000	      0.54305211	      0.26656743	      0.24778195	      0.25068354
     25.89040000	      0.54305211	      0.26656743	      0.24778195	      0.25068354
     25.92460000	      0.54305211	      0.26656743	      0.24778195	      0.25068354
     25.95880000	      0.54305211	      0.26656743	      0.24778195	      0.25068354
     25.99300000	      0.54305211	      0.26656743	      0.24778195	      0.25068354
     26.02720000	      0.54305211	      0.26656743	      0.24778195	      0.25068354
     26.06140000	      0.54305211	      0.26656743	      0.24778195	      0.25068354
     26.09560000	      0.54305211	      0.26656743	      0.24778195	      0.25068354
     26.12980000	      0.54305211	      0.26656743	      0.24778195	      0.25068354
     26.16400000	      0.54305211	      0.26656743	      0.24778195	      0.25068354
     26.19820000	      0.54305211	      0.26656743	      0.24778195	      0.25068354
     26.23240000	      0.54305211	      0.26656743	      0.24778195	      0.25068354
     26.26660000	      0.54305211	      0.26656743	      0.24778195	      0.25068354
     26.30080000	      0.54305211	      0.26656743	      0.24778195	      0.25068354
     26.33500000	      0.54305211	      0.26656743	      0.24778195	      0.25068354
