NormalizedFiberLength
version=1
nRows=51
nColumns=5
inDegrees=no

This analysis gathers basic information about muscles during a simulation (e.g., forces, tendon lengths, moment arms, etc).
Units are S.I. units (second, meters, Newtons, ...)
If the header above contains a line with 'inDegrees', this indicates whether rotational values are in degrees (yes) or radians (no).

endheader
time	recfem_r	vaslat_r	vasint_r	vasmed_r
     14.01999411	      1.23963812	      1.04758214	      1.06371170	      1.06644129
     14.03626076	      1.21581167	      1.02053316	      1.03684791	      1.04180787
     14.05252741	      1.19147559	      0.99282778	      1.00959036	      1.01677951
     14.06879406	      1.17305489	      0.96797129	      0.98529749	      0.99445116
     14.08506071	      1.16948858	      0.95295448	      0.97064458	      0.98097842
     14.10132736	      1.18776089	      0.95471165	      0.97235960	      0.98255527
     14.11759401	      1.22974093	      0.97642813	      0.99355248	      1.00204038
     14.13386066	      1.29222026	      1.01626174	      1.03262900	      1.03793594
     14.15012731	      1.36835889	      1.06824131	      1.08440646	      1.08538587
     14.16639396	      1.44930037	      1.12447092	      1.14158570	      1.13752853
     14.18266061	      1.53134690	      1.18143566	      1.20091242	      1.19145004
     14.19892726	      1.60793858	      1.23464534	      1.25786664	      1.24291387
     14.21519391	      1.67124959	      1.27983813	      1.30795790	      1.28765072
     14.23146057	      1.71766910	      1.31652214	      1.35038074	      1.32498852
     14.24772722	      1.74368199	      1.34504883	      1.38419660	      1.35410859
     14.26399387	      1.74792974	      1.36842034	      1.40915333	      1.37522386
     14.28026052	      1.73557424	      1.38836944	      1.42913853	      1.39284891
     14.29652717	      1.71249708	      1.40474215	      1.44573579	      1.40759306
     14.31279382	      1.67817927	      1.41484684	      1.45609195	      1.41683837
     14.32906047	      1.63140931	      1.41571419	      1.45698497	      1.41763687
     14.34532712	      1.57388282	      1.40680696	      1.44784482	      1.40947344
     14.36159377	      1.51103651	      1.39058782	      1.43137493	      1.39482959
     14.37786042	      1.44835546	      1.37012658	      1.41085655	      1.37672211
     14.39412707	      1.38316941	      1.34594150	      1.38520954	      1.35496626
     14.41039372	      1.31219772	      1.31602930	      1.34979632	      1.32447885
     14.42666037	      1.23501920	      1.27656283	      1.30425809	      1.28436742
     14.44292702	      1.15080464	      1.22639940	      1.24891852	      1.23486457
     14.45919367	      1.05964167	      1.16605147	      1.18474352	      1.17676770
     14.47546032	      0.96991754	      1.10144336	      1.11801027	      1.11606352
     14.49172697	      0.88647605	      1.03492067	      1.05110491	      1.05488609
     14.50799362	      0.81664512	      0.97103155	      0.98828400	      0.99719695
     14.52426027	      0.76818651	      0.91717272	      0.93557807	      0.94876693
     14.54052692	      0.74466201	      0.88001276	      0.89844827	      0.91485523
     14.55679357	      0.74672537	      0.86405127	      0.88208513	      0.90003501
     14.57306022	      0.77147350	      0.87040654	      0.88863871	      0.90595896
     14.58932687	      0.81348827	      0.89750202	      0.91605895	      0.93090018
     14.60559352	      0.86618332	      0.94027198	      0.95825452	      0.96958864
     14.62186017	      0.92298976	      0.98963338	      1.00646217	      1.01390532
     14.63812683	      0.97908562	      1.03565909	      1.05183858	      1.05555883
     14.65439348	      1.03075191	      1.07008921	      1.08626530	      1.08708577
     14.67066013	      1.07646832	      1.08867775	      1.10503771	      1.10423366
     14.68692678	      1.11545584	      1.09071338	      1.10710184	      1.10611701
     14.70319343	      1.14451743	      1.07641153	      1.09263495	      1.09290823
     14.71946008	      1.15769419	      1.04562175	      1.06175604	      1.06464940
     14.73572673	      1.15026900	      0.99945920	      1.01609271	      1.02275270
     14.75199338	      1.12481328	      0.94381362	      0.96171720	      0.97277126
     14.76826003	      1.09316617	      0.89071880	      0.90926242	      0.92469793
     14.78452668	      1.07432823	      0.85552187	      0.87319922	      0.89203073
     14.80079333	      1.08383622	      0.84765415	      0.86490037	      0.88458720
     14.81705998	      1.12554455	      0.86741242	      0.88555791	      0.90317208
     14.83332663	      1.18891085	      0.90562468	      0.92414974	      0.93829736
