DataType=double
version=3
OpenSimVersion=4.6-2026-03-27-4e5ffda9c
endheader
time	/jointset/patellofemoral_r|reaction_on_child_1	/jointset/patellofemoral_r|reaction_on_child_2	/jointset/patellofemoral_r|reaction_on_child_3	/jointset/patellofemoral_r|reaction_on_child_4	/jointset/patellofemoral_r|reaction_on_child_5	/jointset/patellofemoral_r|reaction_on_child_6
144.348	-7.456301638156557	1.983482418674626	2.356212344808689	-22.82712742272665	-169.8204921171022	-332.4375836369583
144.3652	-6.759745551800137	1.886242293164924	2.093908550357783	-16.76477797112662	-171.93555504044	-298.7711576396789
144.3824	-6.255478660905468	1.830135427965243	1.935790710935932	-14.22565393251779	-171.5779412056106	-271.371322780523
144.3996	-6.334176054591803	1.895582290335393	1.965354472069349	-15.81115390481369	-184.0113837122672	-267.6225867358715
144.4168	-7.136896507106663	2.068699951344839	2.126162364150718	-17.68424630163769	-213.984640665436	-286.9802397286443
144.434	-8.815643760294165	2.277096332952877	2.273685987126743	-14.46841983949678	-261.2110867917358	-325.1900959600025
144.4512	-11.80291398994317	2.504397449364716	2.397922188381671	-4.756181570073412	-330.0046645848376	-384.5765138341724
144.4684	-17.46780781271066	2.597431812421853	2.421936287818227	24.46597302752176	-447.9181438559285	-493.2097197752321
144.4856	-25.95968284897422	2.211381477886003	2.056540704267347	86.02934174350186	-613.2404234523425	-645.3100012206046
144.5028	-34.12083846199091	1.224559494743181	0.9868032486646298	169.56385964451	-756.5875659977547	-771.5903851265032
144.52	-41.90769929276399	0.0003082736078768092	-0.398065533285407	259.6666256107973	-896.0331179606341	-890.1537141080546
144.5372	-50.64883844388154	-0.821547124785546	-1.340801826805165	337.7686422538887	-1073.400166775837	-1039.821304152443
144.5544	-58.82321593101055	-0.4423043354788302	-1.1736056185355	371.1562584667165	-1266.167879364533	-1201.262042094857
144.5716	-65.41244805795102	0.4500427315012406	0.1821711753144899	358.1437152545088	-1468.982340334313	-1300.886609028672
144.5888	-71.05571910887069	2.484626899023048	1.992462303538211	328.185546818672	-1669.776579414944	-1313.750843086137
144.606	-74.30888152422389	4.149618551464096	3.158097544891508	305.2038030025362	-1777.289858838536	-1330.930773155599
144.6232	-74.19810066052679	4.512384222212652	3.003947092741483	312.4358500883333	-1753.510889484837	-1356.04438344171
144.6404	-72.54365553820162	4.028272025440908	2.329562717739764	334.2384341695185	-1641.732005901342	-1412.502621574048
144.6576	-68.83420644354625	3.279017904918425	1.743750468988483	343.5006521756863	-1440.354070120513	-1464.05195823583
144.6748	-62.80790293255909	2.694396586928333	1.186244038045958	330.1455061726072	-1160.877574696037	-1472.760618345264
144.692	-56.16932991495848	2.57773238608153	0.804757876442679	297.7244688191787	-857.9012380767397	-1449.44088511449
144.7092	-54.72380154530011	2.903515502276588	0.3969751830323014	289.3198511867817	-616.8082842122667	-1531.517605862167
144.7264	-58.8384284735189	3.468239323918118	-0.07159286016730185	313.8795984124997	-407.3509052788711	-1731.581577726512
144.7436	-52.54696475405247	3.846578983622186	0.6415202343021921	274.6734405689605	-181.9053929336854	-1580.14250089315
144.7608	-35.89157195952312	2.422752699427199	1.57544695799725	171.545732874328	-41.43374461960499	-1096.992415625467
144.778	-25.30386370511105	1.525940436249258	2.445576818286714	98.55335647394352	24.2835374036802	-801.7628732448517
144.7952	-20.26686845458768	1.010822347361142	3.278600931208495	54.54717803226965	56.82445407608029	-682.2285923904134
144.8124	-14.41081651334859	0.4554106979741341	3.57152270710633	13.87647595098196	62.44603304935939	-533.146145919098
144.8296	-9.346292357396438	0.1026770892333173	3.276452162876292	-13.16588384191522	51.31531453857873	-389.4008908350419
144.8468	-6.875888329153915	-0.023398386643865	3.197428393324859	-31.63138434406549	41.92703266136869	-320.4114544402047
144.864	-6.234984314855502	-0.03599906843282724	3.49285080405902	-49.48272657990458	37.11772195021603	-309.160265814277
144.8812	-8.244000306381741	-0.1234077959301969	4.429109435729632	-69.96688452394318	36.50759238120789	-407.6808932207626
144.8984	-13.29409815348196	-0.336570464658994	6.302606656187248	-102.1041005548242	34.48030095336638	-616.070957577784
144.9156	-26.5596082033145	1.261526493629509	11.71103440149844	-199.5270857372808	46.5979919636472	-1116.782734433567
144.9328	-47.41929254800404	5.22680185696472	19.21679034329612	-321.6453675028671	44.31073951018479	-1865.223542997024
144.95	-79.95045224984617	15.04690174664402	31.00142192154994	-530.1855926472374	7.688194085489787	-3052.247428808244
144.9672	-122.5182371769297	32.06783116701348	43.1295227691124	-724.4328321418582	-122.659017152529	-4605.340351348779
144.9844	-142.5454655581213	41.86778637045903	40.92266155950121	-567.1104922362375	-340.1691015010093	-5311.776113669006
145.0016	-143.1386438026424	43.41682403851257	35.88565525293302	-399.1762460105487	-573.898704404112	-5356.894038213643
145.0188	-127.3173222005608	41.21889713549774	29.55352123224486	-341.0734351420751	-760.736630195773	-4801.8727464778
145.036	-94.99949383015425	34.33150428768791	17.4369349795342	-236.434145678009	-784.7672634318045	-3593.390563308559
145.0532	-64.97510563545121	23.80979448296027	9.475697096953084	-147.4468486321956	-718.907812935193	-2480.228854178767
145.0704	-41.88604098851215	12.18998829881583	7.118447159500398	-74.14355257799723	-622.0387392172382	-1645.773006147595
145.0876	-24.0840247290754	5.232135277598626	5.093618083912129	-23.39541744942123	-462.106219202532	-993.8189723263057
145.1048	-12.09524693012794	2.926989003058744	3.23206585994332	-27.84618319150976	-278.9789080817332	-529.6946969121653
145.122	-6.40188582908169	2.004681379149206	2.313306500907616	-35.42141053486333	-170.4251081826209	-295.4972004310846
145.1392	-5.227026053912616	1.93699932391007	2.067225937179797	-35.39643151907624	-151.1386603523373	-241.999425378832
145.1564	-5.0696908307799	1.945696336310256	1.85678508650396	-28.50469753026375	-152.2792875398035	-225.4628430181933
145.1736	-5.647963772052917	2.04926337182856	1.781122188269952	-21.49459428213199	-177.1414596999026	-241.0320652093945
145.1908	-6.767358868836802	2.258602505954278	1.831025121146193	-17.36621509848104	-218.0835376197663	-272.9349325909233
145.208	-9.040535719447607	2.482393315243415	1.75091326831867	-4.477075046621349	-282.9986127037402	-326.182693600142
