Joint Reaction Loads
version=1
nRows=51
nColumns=10
inDegrees=no

This file contains the reaction forces and moments
applied to the specified body of a joint pair and expressed  in the specified reference frame.

Units are S.I. units (seconds, meters, Newtons, ...)
endheader
time	patellofemoral_r_on_patella_r_in_patella_r_fx	patellofemoral_r_on_patella_r_in_patella_r_fy	patellofemoral_r_on_patella_r_in_patella_r_fz	patellofemoral_r_on_patella_r_in_patella_r_mx	patellofemoral_r_on_patella_r_in_patella_r_my	patellofemoral_r_on_patella_r_in_patella_r_mz	patellofemoral_r_on_patella_r_in_patella_r_px	patellofemoral_r_on_patella_r_in_patella_r_py	patellofemoral_r_on_patella_r_in_patella_r_pz
     12.20666361	   2036.53505314	   -216.65788185	      7.96318806	    -10.33028316	      5.26539135	    -50.81761563	      0.00000000	      0.00000000	      0.00000000
     12.22013026	   1399.26742565	   -174.06460891	     -8.20556472	     -7.45431022	      3.62283668	    -33.73246803	      0.00000000	      0.00000000	      0.00000000
     12.23359692	    910.03769486	   -128.74040209	    -13.70269426	     -5.08746702	      2.31708597	    -21.16996939	      0.00000000	      0.00000000	      0.00000000
     12.24706357	    580.92460259	    -90.09008341	    -13.65263274	     -3.42456836	      1.42065507	    -13.08818036	      0.00000000	      0.00000000	      0.00000000
     12.26053022	    392.09894926	    -63.17773408	    -12.59891446	     -2.48371621	      0.91440672	     -8.65771198	      0.00000000	      0.00000000	      0.00000000
     12.27399688	    324.98093314	    -51.00997396	    -13.41624343	     -2.22886720	      0.74423277	     -7.20466245	      0.00000000	      0.00000000	      0.00000000
     12.28746353	    372.34564276	    -51.56655792	    -11.04600988	     -2.44908070	      0.80970128	     -8.64133301	      0.00000000	      0.00000000	      0.00000000
     12.30093018	    527.81716583	    -53.52715919	      1.85017514	     -2.89337681	      0.97700893	    -13.34264057	      0.00000000	      0.00000000	      0.00000000
     12.31439684	    777.91518970	    -35.99839992	     30.97287158	     -3.35655318	      1.12941949	    -21.63530650	      0.00000000	      0.00000000	      0.00000000
     12.32786349	   1096.23984107	     25.49392787	     75.29168435	     -3.78825371	      1.22824929	    -33.15804759	      0.00000000	      0.00000000	      0.00000000
     12.34133014	   1467.55547556	    148.41842568	    129.64368431	     -4.30794780	      1.33091802	    -47.25721053	      0.00000000	      0.00000000	      0.00000000
     12.35479680	   1863.31941138	    337.90285394	    187.13264709	     -4.99780506	      1.49385497	    -62.42939705	      0.00000000	      0.00000000	      0.00000000
     12.36826345	   2225.57461002	    582.06173085	    241.00810389	     -5.81674513	      1.70798474	    -76.31907377	      0.00000000	      0.00000000	      0.00000000
     12.38173010	   2500.99111657	    836.82828536	    287.82102827	     -6.40923897	      1.81798610	    -86.72725588	      0.00000000	      0.00000000	      0.00000000
     12.39519675	   2633.06486922	   1018.32488304	    326.16892476	     -6.23332833	      1.71161085	    -91.70904837	      0.00000000	      0.00000000	      0.00000000
     12.40866341	   2596.29169491	    995.78071770	    361.23414386	     -5.50042913	      1.52635954	    -90.96529473	      0.00000000	      0.00000000	      0.00000000
     12.42213006	   2477.89033270	    938.12475280	    373.38650763	     -4.89129128	      1.30441574	    -87.06058119	      0.00000000	      0.00000000	      0.00000000
     12.43559671	   2313.19046993	    866.14054020	    364.01189754	     -4.52079420	      1.12632456	    -81.20555458	      0.00000000	      0.00000000	      0.00000000
     12.44906337	   2129.32902558	    788.75491562	    338.71516477	     -4.36275553	      1.03787100	    -74.47965161	      0.00000000	      0.00000000	      0.00000000
     12.46253002	   1940.20955673	    709.73683198	    303.35656978	     -4.32808729	      1.03420170	    -67.51061230	      0.00000000	      0.00000000	      0.00000000
     12.47599667	   1755.09690218	    633.23629122	    262.84133673	     -4.33876349	      1.07649525	    -60.70863919	      0.00000000	      0.00000000	      0.00000000
     12.48946333	   1584.27516123	    565.34960443	    220.96527577	     -4.36776848	      1.12414018	    -54.44835909	      0.00000000	      0.00000000	      0.00000000
     12.50292998	   1432.63533144	    508.83784724	    179.72586650	     -4.42426986	      1.15344812	    -48.86336157	      0.00000000	      0.00000000	      0.00000000
     12.51639663	   1295.90779992	    461.01549777	    139.45321074	     -4.52276770	      1.16157092	    -43.76591776	      0.00000000	      0.00000000	      0.00000000
     12.52986329	   1157.63288844	    397.02081830	    101.59358887	     -4.57442278	      1.14949958	    -38.63514429	      0.00000000	      0.00000000	      0.00000000
     12.54332994	   1009.12033758	    302.51822045	     70.52212296	     -4.85912052	      1.45955328	    -33.05041071	      0.00000000	      0.00000000	      0.00000000
     12.55679659	    860.68316444	    196.96826354	     46.95766928	     -4.49768888	      1.51695790	    -27.53185809	      0.00000000	      0.00000000	      0.00000000
     12.57026325	    736.98558409	    116.44243899	     27.15228528	     -4.19730659	      1.60125915	    -22.79786795	      0.00000000	      0.00000000	      0.00000000
     12.58372990	    637.90140978	     56.87914269	     10.75387463	     -3.94559778	      1.65478437	    -18.89249727	      0.00000000	      0.00000000	      0.00000000
     12.59719655	    550.68649537	     12.76039268	     -2.59283603	     -3.68586852	      1.56678162	    -15.42015829	      0.00000000	      0.00000000	      0.00000000
     12.61066321	    450.45275503	    -16.61459095	    -11.72161658	     -3.30752502	      1.21243353	    -11.80179020	      0.00000000	      0.00000000	      0.00000000
     12.62412986	    348.12049337	    -30.70822249	    -15.04431349	     -2.88681436	      0.63861576	     -8.47587265	      0.00000000	      0.00000000	      0.00000000
     12.63759651	    278.85118720	    -35.22117417	    -14.86451093	     -2.65067772	      0.10994458	     -6.32784117	      0.00000000	      0.00000000	      0.00000000
     12.65106317	    322.72905146	    -43.07896381	    -20.72941127	     -3.11896053	      0.31252313	     -7.16634117	      0.00000000	      0.00000000	      0.00000000
     12.66452982	    613.01954476	    -66.73776230	    -44.87760135	     -5.06466904	      2.36176993	    -14.20984633	      0.00000000	      0.00000000	      0.00000000
     12.67799647	   1279.80204102	    -99.70536345	    -86.25368789	     -9.10119682	      7.25505696	    -31.31471374	      0.00000000	      0.00000000	      0.00000000
     12.69146313	   2352.82484005	   -106.48407083	   -122.93282673	    -15.16945976	     14.96316742	    -60.50117296	      0.00000000	      0.00000000	      0.00000000
     12.70492978	   3676.40104808	    -48.63236071	   -131.60834819	    -22.31877835	     23.90873436	    -98.51070445	      0.00000000	      0.00000000	      0.00000000
     12.71839643	   4923.36981756	     64.02742334	   -109.41982169	    -28.82931974	     31.51730764	   -135.94169809	      0.00000000	      0.00000000	      0.00000000
     12.73186308	   5737.55596070	    162.93012731	    -74.67373285	    -32.83120819	     35.53183390	   -161.25232203	      0.00000000	      0.00000000	      0.00000000
     12.74532974	   5876.30781742	    175.62900906	    -48.75779332	    -33.04748221	     34.89736710	   -166.02128935	      0.00000000	      0.00000000	      0.00000000
     12.75879639	   5307.43148434	     90.05288797	    -40.94630196	    -29.42451814	     30.06296989	   -148.85598654	      0.00000000	      0.00000000	      0.00000000
     12.77226304	   4213.01613524	    -36.79132891	    -45.23791928	    -23.10926319	     22.63874083	   -115.75978579	      0.00000000	      0.00000000	      0.00000000
     12.78572970	   2922.15019677	   -128.84457602	    -48.10099283	    -15.93333239	     14.74459274	    -77.55112552	      0.00000000	      0.00000000	      0.00000000
     12.79919635	   1763.62416485	   -150.77577681	    -39.77758957	     -9.56062638	      8.12337653	    -44.53503189	      0.00000000	      0.00000000	      0.00000000
     12.81266300	    927.76207411	   -119.35538145	    -21.82310216	     -4.93261504	      3.57795556	    -22.01565191	      0.00000000	      0.00000000	      0.00000000
     12.82612966	    440.85867010	    -73.83984122	     -4.95286286	     -2.26040855	      1.05587333	     -9.82127606	      0.00000000	      0.00000000	      0.00000000
     12.83959631	    228.70436726	    -45.22507284	      3.58663779	     -1.17349112	      0.03496614	     -4.82369689	      0.00000000	      0.00000000	      0.00000000
     12.85306296	    198.44526510	    -40.17580405	      0.76682605	     -1.19723499	     -0.05712793	     -4.08398426	      0.00000000	      0.00000000	      0.00000000
     12.86652962	    278.76047077	    -51.57847485	     -5.02614185	     -1.73555937	      0.31870403	     -5.89100430	      0.00000000	      0.00000000	      0.00000000
     12.87999627	    419.99323056	    -68.63025636	     -7.90093150	     -2.41996300	      0.89103873	     -9.31919215	      0.00000000	      0.00000000	      0.00000000
