TendonPower
version=1
nRows=51
nColumns=5
inDegrees=no

This analysis gathers basic information about muscles during a simulation (e.g., forces, tendon lengths, moment arms, etc).
Units are S.I. units (second, meters, Newtons, ...)
If the header above contains a line with 'inDegrees', this indicates whether rotational values are in degrees (yes) or radians (no).

endheader
time	recfem_r	vaslat_r	vasint_r	vasmed_r
     12.20666361	     -0.00000000	     -0.00000000	     -0.00000000	     -0.00000000
     12.22013026	     -0.00000000	     -0.00000000	     -0.00000000	     -0.00000000
     12.23359692	     -0.00000000	     -0.00000000	     -0.00000000	     -0.00000000
     12.24706357	     -0.00000000	     -0.00000000	     -0.00000000	     -0.00000000
     12.26053022	     -0.00000000	     -0.00000000	     -0.00000000	     -0.00000000
     12.27399688	     -0.00000000	     -0.00000000	     -0.00000000	     -0.00000000
     12.28746353	     -0.00000000	     -0.00000000	     -0.00000000	     -0.00000000
     12.30093018	     -0.00000000	     -0.00000000	     -0.00000000	     -0.00000000
     12.31439684	     -0.00000000	     -0.00000000	     -0.00000000	     -0.00000000
     12.32786349	     -0.00000000	     -0.00000000	     -0.00000000	     -0.00000000
     12.34133014	     -0.00000000	     -0.00000000	     -0.00000000	     -0.00000000
     12.35479680	     -0.00000000	     -0.00000000	     -0.00000000	     -0.00000000
     12.36826345	     -0.00000000	     -0.00000000	     -0.00000000	     -0.00000000
     12.38173010	     -0.00000000	     -0.00000000	     -0.00000000	     -0.00000000
     12.39519675	     -0.00000000	     -0.00000000	     -0.00000000	     -0.00000000
     12.40866341	     -0.00000000	     -0.00000000	     -0.00000000	     -0.00000000
     12.42213006	     -0.00000000	     -0.00000000	     -0.00000000	     -0.00000000
     12.43559671	     -0.00000000	     -0.00000000	     -0.00000000	     -0.00000000
     12.44906337	     -0.00000000	     -0.00000000	     -0.00000000	     -0.00000000
     12.46253002	     -0.00000000	     -0.00000000	     -0.00000000	     -0.00000000
     12.47599667	     -0.00000000	     -0.00000000	     -0.00000000	     -0.00000000
     12.48946333	     -0.00000000	     -0.00000000	     -0.00000000	     -0.00000000
     12.50292998	     -0.00000000	     -0.00000000	     -0.00000000	     -0.00000000
     12.51639663	     -0.00000000	     -0.00000000	     -0.00000000	     -0.00000000
     12.52986329	     -0.00000000	     -0.00000000	     -0.00000000	     -0.00000000
     12.54332994	     -0.00000000	     -0.00000000	     -0.00000000	     -0.00000000
     12.55679659	     -0.00000000	     -0.00000000	     -0.00000000	     -0.00000000
     12.57026325	     -0.00000000	     -0.00000000	     -0.00000000	     -0.00000000
     12.58372990	     -0.00000000	     -0.00000000	     -0.00000000	     -0.00000000
     12.59719655	     -0.00000000	     -0.00000000	     -0.00000000	     -0.00000000
     12.61066321	     -0.00000000	     -0.00000000	     -0.00000000	     -0.00000000
     12.62412986	     -0.00000000	     -0.00000000	     -0.00000000	     -0.00000000
     12.63759651	     -0.00000000	     -0.00000000	     -0.00000000	     -0.00000000
     12.65106317	     -0.00000000	     -0.00000000	     -0.00000000	     -0.00000000
     12.66452982	     -0.00000000	     -0.00000000	     -0.00000000	     -0.00000000
     12.67799647	     -0.00000000	     -0.00000000	     -0.00000000	     -0.00000000
     12.69146313	     -0.00000000	     -0.00000000	     -0.00000000	     -0.00000000
     12.70492978	     -0.00000000	     -0.00000000	     -0.00000000	     -0.00000000
     12.71839643	     -0.00000000	     -0.00000000	     -0.00000000	     -0.00000000
     12.73186308	     -0.00000000	     -0.00000000	     -0.00000000	     -0.00000000
     12.74532974	     -0.00000000	     -0.00000000	     -0.00000000	     -0.00000000
     12.75879639	     -0.00000000	     -0.00000000	     -0.00000000	     -0.00000000
     12.77226304	     -0.00000000	     -0.00000000	     -0.00000000	     -0.00000000
     12.78572970	     -0.00000000	     -0.00000000	     -0.00000000	     -0.00000000
     12.79919635	     -0.00000000	     -0.00000000	     -0.00000000	     -0.00000000
     12.81266300	     -0.00000000	     -0.00000000	     -0.00000000	     -0.00000000
     12.82612966	     -0.00000000	     -0.00000000	     -0.00000000	     -0.00000000
     12.83959631	     -0.00000000	     -0.00000000	     -0.00000000	     -0.00000000
     12.85306296	     -0.00000000	     -0.00000000	     -0.00000000	     -0.00000000
     12.86652962	     -0.00000000	     -0.00000000	     -0.00000000	     -0.00000000
     12.87999627	     -0.00000000	     -0.00000000	     -0.00000000	     -0.00000000
