PassiveFiberForceAlongTendon
version=1
nRows=51
nColumns=5
inDegrees=no

This analysis gathers basic information about muscles during a simulation (e.g., forces, tendon lengths, moment arms, etc).
Units are S.I. units (second, meters, Newtons, ...)
If the header above contains a line with 'inDegrees', this indicates whether rotational values are in degrees (yes) or radians (no).

endheader
time	recfem_r	vaslat_r	vasint_r	vasmed_r
     12.20666361	    148.65643873	    107.99546601	     42.13571844	     64.22960165
     12.22013026	    147.44893886	     99.99514677	     38.93130246	     59.62049709
     12.23359692	    143.48173911	     92.97124002	     36.11295895	     55.53079967
     12.24706357	    138.84777853	     88.08833383	     34.12125560	     52.59817142
     12.26053022	    137.93188190	     86.82813899	     33.54297830	     51.69286798
     12.27399688	    145.63648502	     90.56226356	     34.93962972	     53.66312319
     12.28746353	    166.67758322	    100.31056291	     38.74943657	     59.15972956
     12.30093018	    206.14344073	    116.77358967	     45.34302540	     68.65837294
     12.31439684	    269.15945829	    140.08836116	     54.98147868	     82.36880163
     12.32786349	    356.83990736	    168.93142176	     67.38087290	     99.62103539
     12.34133014	    467.84632976	    202.74788454	     82.54101767	    120.22961976
     12.35479680	    595.91887571	    239.82597216	    100.06973210	    143.54165937
     12.36826345	    714.52065729	    275.06356271	    117.87563920	    166.63156213
     12.38173010	    801.25544840	    306.70809849	    134.80606337	    188.14344072
     12.39519675	    844.02756503	    340.68171473	    150.46878633	    208.05599382
     12.40866341	    845.96637326	    376.22145797	    166.17759110	    228.64584904
     12.42213006	    816.41203373	    410.62420066	    181.70284349	    249.03236500
     12.43559671	    754.44684939	    440.10758882	    195.28209195	    266.84584744
     12.44906337	    663.52059398	    459.17762542	    204.24916096	    278.55922161
     12.46253002	    554.22889861	    462.98315007	    206.17702319	    281.02621319
     12.47599667	    442.66039497	    450.44477583	    200.48933191	    273.52007627
     12.48946333	    343.21338966	    425.03334713	    188.88934713	    258.25527709
     12.50292998	    262.79737845	    392.35472871	    174.12779920	    238.83910884
     12.51639663	    201.17715301	    357.13548587	    158.47980819	    218.29914324
     12.52986329	    153.02702388	    322.23422258	    143.17394631	    198.40866943
     12.54332994	    113.36360676	    290.51267158	    127.09098599	    178.15482317
     12.55679659	     81.78939553	    257.67245816	    109.98038407	    156.25808735
     12.57026325	     57.69514553	    221.71158491	     92.46413722	    133.37120746
     12.58372990	     40.88707705	    186.36543239	     76.13131726	    111.55852816
     12.59719655	     30.51571183	    156.05855047	     62.68371817	     93.26076720
     12.61066321	     24.41727956	    131.09252509	     51.98606166	     78.36942521
     12.62412986	     21.68812677	    113.18287628	     44.45984469	     67.66197265
     12.63759651	     21.60119453	    103.31282830	     40.31386117	     61.64426808
     12.65106317	     23.58953909	    101.06186165	     39.27647377	     60.06930706
     12.66452982	     27.35283628	    105.40264029	     40.92388201	     62.39258164
     12.67799647	     32.76871941	    114.92666680	     44.73039057	     67.84676274
     12.69146313	     39.78861561	    127.68413109	     49.97253473	     75.33410458
     12.70492978	     48.38322826	    141.00382556	     55.59045943	     83.28541304
     12.71839643	     58.65337747	    151.88477427	     60.30156405	     89.88333231
     12.73186308	     70.95574848	    157.93806750	     63.00761222	     93.64616231
     12.74532974	     85.53820015	    157.85639362	     63.07253557	     93.74896528
     12.75879639	    101.77292881	    151.51905207	     60.42793065	     90.10623175
     12.77226304	    117.36163760	    139.83307697	     55.51296434	     83.27760472
     12.78572970	    128.63523871	    124.56348583	     49.14920911	     74.33123400
     12.79919635	    133.02773836	    108.27059350	     42.44994405	     64.78238054
     12.81266300	    131.53784293	     93.67373862	     36.51412654	     56.19355488
     12.82612966	    128.49396156	     82.97209487	     32.15657686	     49.78666467
     12.83959631	    129.27140104	     77.51413264	     29.88209851	     46.36786593
     12.85306296	    138.24008406	     77.67153222	     29.84705420	     46.22174380
     12.86652962	    157.54724014	     82.75969443	     31.78169691	     48.98146466
     12.87999627	    185.86683880	     90.94620449	     34.95092643	     53.56264785
