PennationAngle
version=1
nRows=51
nColumns=5
inDegrees=no

This analysis gathers basic information about muscles during a simulation (e.g., forces, tendon lengths, moment arms, etc).
Units are S.I. units (second, meters, Newtons, ...)
If the header above contains a line with 'inDegrees', this indicates whether rotational values are in degrees (yes) or radians (no).

endheader
time	recfem_r	vaslat_r	vasint_r	vasmed_r
     15.89999053	      0.17570463	      0.23780450	      0.05810927	      0.38673421
     15.91879051	      0.17681848	      0.24540636	      0.05992662	      0.39832104
     15.93759049	      0.17866054	      0.25273546	      0.06165672	      0.40938131
     15.95639047	      0.18022417	      0.25813393	      0.06292021	      0.41747395
     15.97519045	      0.18026045	      0.26010377	      0.06337992	      0.42042136
     15.99399044	      0.17808821	      0.25816944	      0.06292850	      0.41752709
     16.01279042	      0.17380015	      0.25299102	      0.06171670	      0.40976519
     16.03159040	      0.16791274	      0.24564921	      0.05998428	      0.39868923
     16.05039038	      0.16115534	      0.23711668	      0.05794357	      0.38567986
     16.06919036	      0.15444394	      0.22827763	      0.05579271	      0.37203300
     16.08799034	      0.14837190	      0.21955209	      0.05362591	      0.35831640
     16.10679032	      0.14346463	      0.21151232	      0.05158141	      0.34538936
     16.12559030	      0.14030700	      0.20505668	      0.04988546	      0.33473039
     16.14439029	      0.13881252	      0.20025129	      0.04857331	      0.32653022
     16.16319027	      0.13867683	      0.19643720	      0.04761247	      0.32055835
     16.18199025	      0.13967837	      0.19351850	      0.04695579	      0.31630977
     16.20079023	      0.14145942	      0.19165125	      0.04653329	      0.31354744
     16.21959021	      0.14406070	      0.19093687	      0.04637058	      0.31248014
     16.23839019	      0.14763093	      0.19139458	      0.04647490	      0.31316467
     16.25719017	      0.15205670	      0.19291088	      0.04681873	      0.31541509
     16.27599015	      0.15704706	      0.19532416	      0.04736092	      0.31894701
     16.29479014	      0.16264824	      0.19852298	      0.04811809	      0.32369606
     16.31359012	      0.16896125	      0.20240056	      0.04916618	      0.33023032
     16.33239010	      0.17650184	      0.20759271	      0.05055936	      0.33895756
     16.35119008	      0.18631088	      0.21471933	      0.05240394	      0.35058268
     16.36999006	      0.19918089	      0.22404915	      0.05474835	      0.36542306
     16.38879004	      0.21505811	      0.23545697	      0.05754280	      0.38313157
     16.40759002	      0.23411184	      0.24949301	      0.06089381	      0.40450109
     16.42639000	      0.25347016	      0.26472337	      0.06445708	      0.42733226
     16.44518998	      0.26820367	      0.27798093	      0.06756437	      0.44726776
     16.46398997	      0.27305947	      0.28516088	      0.06927569	      0.45820409
     16.48278995	      0.26662796	      0.28392843	      0.06897979	      0.45631705
     16.50158993	      0.25275669	      0.27517583	      0.06690273	      0.44302765
     16.52038991	      0.23725055	      0.26244598	      0.06392610	      0.42392491
     16.53918989	      0.22413528	      0.24977008	      0.06095915	      0.40491888
     16.55798987	      0.21479803	      0.23973857	      0.05857403	      0.38969357
     16.57678985	      0.20890569	      0.23334262	      0.05703026	      0.37987654
     16.59558983	      0.20501180	      0.23033458	      0.05629700	      0.37522695
     16.61438982	      0.20167087	      0.23002590	      0.05622148	      0.37474843
     16.63318980	      0.19811060	      0.23174492	      0.05664140	      0.37740986
     16.65198978	      0.19433952	      0.23503237	      0.05744005	      0.38247869
     16.67078976	      0.19094591	      0.23976096	      0.05857940	      0.38972778
     16.68958974	      0.18863478	      0.24598001	      0.06006279	      0.39919058
     16.70838972	      0.18784831	      0.25362686	      0.06186585	      0.41071987
     16.72718970	      0.18860905	      0.26228525	      0.06388863	      0.42368447
     16.74598968	      0.19052367	      0.27109929	      0.06594611	      0.43689038
     16.76478967	      0.19270133	      0.27871379	      0.06773779	      0.44837821
     16.78358965	      0.19380156	      0.28341567	      0.06885697	      0.45553326
     16.80238963	      0.19260249	      0.28384353	      0.06895944	      0.45618722
     16.82118961	      0.18883395	      0.27994678	      0.06803013	      0.45024920
     16.83998959	      0.18360888	      0.27354485	      0.06651938	      0.44056903
