inDegrees=no
DataType=double
version=3
OpenSimVersion=4.5.2-2025-05-03-6a4c6ec41
endheader
time	/jointset/ground_pelvis/pelvis_tilt/value	/jointset/ground_pelvis/pelvis_list/value	/jointset/ground_pelvis/pelvis_rotation/value	/jointset/ground_pelvis/pelvis_tx/value	/jointset/ground_pelvis/pelvis_ty/value	/jointset/ground_pelvis/pelvis_tz/value	/jointset/hip_r/hip_flexion_r/value	/jointset/hip_r/hip_adduction_r/value	/jointset/hip_r/hip_rotation_r/value	/jointset/hip_l/hip_flexion_l/value	/jointset/hip_l/hip_adduction_l/value	/jointset/hip_l/hip_rotation_l/value	/jointset/walker_knee_r/knee_angle_r/value	/jointset/patellofemoral_r/knee_angle_r_beta/value	/jointset/walker_knee_l/knee_angle_l/value	/jointset/patellofemoral_l/knee_angle_l_beta/value	/jointset/ankle_r/ankle_angle_r/value	/jointset/ankle_l/ankle_angle_l/value	/jointset/subtalar_r/subtalar_angle_r/value	/jointset/subtalar_l/subtalar_angle_l/value	/jointset/ground_pelvis/pelvis_tilt/speed	/jointset/ground_pelvis/pelvis_list/speed	/jointset/ground_pelvis/pelvis_rotation/speed	/jointset/ground_pelvis/pelvis_tx/speed	/jointset/ground_pelvis/pelvis_ty/speed	/jointset/ground_pelvis/pelvis_tz/speed	/jointset/hip_r/hip_flexion_r/speed	/jointset/hip_r/hip_adduction_r/speed	/jointset/hip_r/hip_rotation_r/speed	/jointset/hip_l/hip_flexion_l/speed	/jointset/hip_l/hip_adduction_l/speed	/jointset/hip_l/hip_rotation_l/speed	/jointset/walker_knee_r/knee_angle_r/speed	/jointset/patellofemoral_r/knee_angle_r_beta/speed	/jointset/walker_knee_l/knee_angle_l/speed	/jointset/patellofemoral_l/knee_angle_l_beta/speed	/jointset/ankle_r/ankle_angle_r/speed	/jointset/ankle_l/ankle_angle_l/speed	/jointset/subtalar_r/subtalar_angle_r/speed	/jointset/subtalar_l/subtalar_angle_l/speed	/forceset/addbrev_r/activation	/forceset/addlong_r/activation	/forceset/addmagDist_r/activation	/forceset/addmagIsch_r/activation	/forceset/addmagMid_r/activation	/forceset/addmagProx_r/activation	/forceset/bflh_r/activation	/forceset/bfsh_r/activation	/forceset/edl_r/activation	/forceset/ehl_r/activation	/forceset/fdl_r/activation	/forceset/fhl_r/activation	/forceset/gaslat_r/activation	/forceset/gasmed_r/activation	/forceset/glmax1_r/activation	/forceset/glmax2_r/activation	/forceset/glmax3_r/activation	/forceset/glmed1_r/activation	/forceset/glmed2_r/activation	/forceset/glmed3_r/activation	/forceset/glmin1_r/activation	/forceset/glmin2_r/activation	/forceset/glmin3_r/activation	/forceset/grac_r/activation	/forceset/iliacus_r/activation	/forceset/perbrev_r/activation	/forceset/perlong_r/activation	/forceset/piri_r/activation	/forceset/psoas_r/activation	/forceset/recfem_r/activation	/forceset/sart_r/activation	/forceset/semimem_r/activation	/forceset/semiten_r/activation	/forceset/soleus_r/activation	/forceset/tfl_r/activation	/forceset/tibant_r/activation	/forceset/tibpost_r/activation	/forceset/vasint_r/activation	/forceset/vaslat_r/activation	/forceset/vasmed_r/activation
15.89999052999565	-0.03383842838853161	0.05160035219556386	-0.03510208368114249	2.155493332817121	0.9797974135594868	0.9931078265146288	0.07862053515981138	0.02334826048046847	0.02941907440622357	0.5558935219938727	-0.1829937325493429	-0.1004753020044064	0.6686989213506888	0.6686989213506888	1.321818041577942	1.321818041577942	0.2051753475238772	-0.09291464472206373	-0.1569757851551208	-0.1300939129711086	-0.446499602457523	0.4959744635927366	2.585549977103955	0.177941485403685	0.9132820467724729	-0.2693865214983286	-6.069943649227506	-1.347596249700382	-2.267847202982472	2.935000863374672	0.2565514962744084	-4.949787645476904	-4.811620693455035	-4.811620693455035	-4.323031532364882	-4.323031532364882	-8.395726427319138	1.190877656130034	-1.273321042891677	2.304440436244977	0.01006657954423356	0.01006970446921402	0.01005471511208216	0.01003663079531183	0.01011848387963078	0.01026929877297531	0.01001390395573248	0.01005132007540842	0.1889145554832772	0.06229279683402437	0.01314914447284757	0.01271650779863878	0.01051834286662768	0.4205757036676256	0.01006557193712095	0.01002478438550226	0.01002339406684912	0.01008766074574276	0.01289948528595135	0.04393486513984765	0.01068375235494763	0.0444674659347456	0.05135792613940408	0.0100517668911348	0.2080169289913401	0.01005339725400946	0.01001167939243324	0.1337103174905575	0.2348880723187181	0.4728769138716643	0.03419599738555237	0.0100053557994834	0.01001250175571422	0.01004169671885797	0.1585230060000179	0.2902569978250092	0.03324492386331268	0.01277222596542162	0.01078572775377165	0.0379593496432678
15.91879051119564	-0.04426948401754606	0.05748690696334058	0.01007291763446645	2.159033367407974	0.9954828478039557	0.9878941197551387	-0.02442388018579401	0.002519301062247099	-0.03322220261537105	0.5966276635897874	-0.1711809376337903	-0.181793271496213	0.5784466813153673	0.5784466813153673	1.229389332244815	1.229389332244815	0.04159655685301135	-0.07347336523777957	-0.1559990915141717	-0.07800328645965089	-0.7602558236754251	0.09497745854409589	2.230550048277555	0.1845463763362866	0.7659789736030597	-0.2716250047676838	-4.947548128821986	-0.8269558778276672	-3.229372867260744	2.14842207493759	0.6393635638257928	-3.881518248785791	-4.538459087366387	-4.538459087366387	-5.209491517091082	-5.209491517091082	-8.086059496363287	1.189460193117923	0.001126003483163482	3.022540203761834	0.03281826721993209	0.1059020216276486	0.01005484291938424	0.01008521755124066	0.01010320741709746	0.02579473770627135	0.009390310458268743	0.0935555322636971	0.1486671073876268	0.04912327960039757	0.0118764784071455	0.01165144027232696	0.02225282134152692	0.2881031553562556	0.01004112328134392	0.01001562478724413	0.01001453642622582	0.01019720739228337	0.01857155563229861	0.05725269159725102	0.03928158915888817	0.07833106967955115	0.07804641696865891	0.06933502819521513	0.2552852747235179	0.01639473625089504	0.05984396442901137	0.1383196964510925	0.2758944814286788	0.3267280180382383	0.09480355641564675	0.0474243298427295	0.02493534477316551	0.01002551359860394	0.1440072125767577	0.2644137752623407	0.02417775327284374	0.01169062308544202	0.01047892683432896	0.02715586968298605
15.93759049239563	-0.06023372222799578	0.05635344696337605	0.04886739831794184	2.162462951499309	1.008780250879782	0.9828479542178503	-0.1085126880367863	-0.00970663545247828	-0.09564859289373066	0.6322722049189119	-0.1575287391250003	-0.2469851360781011	0.500702659756365	0.500702659756365	1.12584709867415	1.12584709867415	-0.1062245124175056	-0.05020079667288304	-0.1515686802587726	-0.0174424698412195	-1.104308459429994	-0.381050952377886	1.76616954345731	0.1798621782964905	0.5920449829194143	-0.26251622437115	-3.592890533697285	-0.2475702984666153	-3.459807778340695	1.563681074207999	0.8691167507381894	-2.68217608810083	-3.662933629101649	-3.662933629101649	-6.06718354035241	-6.06718354035241	-7.154765519625379	1.378779273724978	0.568764713564636	3.643613685968147	0.05903730260857744	0.1961866849712662	0.01005066892007373	0.01011070166796479	0.01001828251822467	0.04799344880941891	0.009914444801834536	0.1525570883229166	0.1243555617049903	0.04213728785229764	0.0108444055071772	0.01075092700368169	0.02797782501789099	0.1602458817895789	0.01002044705980268	0.01000792459087274	0.01000734535898955	0.01016930707950028	0.02129605024540406	0.0605268692821646	0.05528992529712962	0.1003931769427081	0.09623604603478368	0.1151264778640299	0.3004218621516449	0.02371064880745864	0.09116414012358	0.1364899706205234	0.3211852986615772	0.1848415461171132	0.1417864166760332	0.06708658680671579	0.03299442454389635	0.01001199181392028	0.1322953246778854	0.2223760730697631	0.01647266755928356	0.01076783898263783	0.01021735183516639	0.01786969761093949
15.95639047359562	-0.08376518305642734	0.04466294062833153	0.07692427990370317	2.16563809113759	1.018220580125424	0.9781592704207247	-0.1625138321365234	-0.009318547756376503	-0.1509555964449669	0.6601535342829524	-0.1419289500162871	-0.2867858909914693	0.4480410655452047	0.4480410655452047	1.006423937262361	1.006423937262361	-0.2244303010540012	-0.02059344857437481	-0.1480025309261859	0.05354850095044013	-1.402521597784893	-0.8831764887911265	1.174675758977594	0.1617394804023151	0.3911309185655883	-0.2383834336824396	-2.055681218439354	0.3303018675424254	-2.694544013277584	1.16387524655248	0.9098553646515518	-1.405943248817321	-2.031807287695761	-2.031807287695761	-6.765979768107479	-6.765979768107479	-5.412753975036718	1.722648174500709	0.1843535361690321	4.003583666580514	0.0875041261745714	0.2691803861924189	0.01001436887532082	0.01002149834884609	0.009898094239200347	0.0748042835839446	0.01158642298787959	0.1722875029916907	0.1221062970647499	0.04309543958999929	0.0102419051760689	0.01017423313006047	0.02555952481834515	0.05923005978208853	0.01000720810417429	0.01000307377858065	0.01000325677171913	0.01005170073739575	0.01977903172304952	0.04990872468932977	0.05300122194534275	0.1021880770906521	0.09991782882986346	0.1381168011075448	0.3382658895509085	0.03117341812813344	0.09762650885832985	0.1251972209205555	0.3660411241848321	0.07130536131551805	0.1642728100122643	0.05996398048933044	0.0301562253125788	0.01000357139913408	0.124692544560982	0.1705257294305055	0.01149657110745021	0.01016579118179276	0.01004688851482069	0.01173504989246736
15.97519045479562	-0.1121611269266728	0.02360217065703841	0.09265145543017993	2.168429649313021	1.023518034360368	0.9740197132763458	-0.1861842418029132	0.002093005928413181	-0.1869692698841908	0.679378266739832	-0.1260148080563776	-0.3017138611436356	0.4296764434075966	0.4296764434075966	0.8756841967636948	0.8756841967636948	-0.3034403025668734	0.01487899056310681	-0.1557518211285962	0.1289720827546131	-1.494348856429186	-1.26267535540326	0.5293703030386901	0.1370244359270609	0.1882753094695052	-0.2028231349001352	-0.6598303885337556	0.7754612377076423	-1.190067331429927	0.7627387580232907	0.813200145460206	-0.3266990511853581	-0.01059519848371093	-0.01059519848371093	-7.013308631796419	-7.013308631796419	-3.165100182057249	1.983066373202368	-0.8573719036328715	3.926456542701718	0.1122641659951516	0.3138803286580646	0.009933342548976263	0.009778939611291327	0.009929523968228871	0.09514833365071351	0.01223882283049852	0.1603536280169301	0.132468103713469	0.04736053641182019	0.01006258596478348	0.009959103933153435	0.01868550633564341	0.006922638339276279	0.0100022697283717	0.01000136248287484	0.01000226799923762	0.01009404441652178	0.01543905309747702	0.0310808755769287	0.03987715426566751	0.08572440423914209	0.08996270142877273	0.1404462148460409	0.3646349123001642	0.03730199784164681	0.09118361636037474	0.1071981737186045	0.3988602749822828	0.01014533643123161	0.1626842391351221	0.034555377207375	0.01898433349449112	0.01000067623183169	0.1201349221344279	0.1359947195107865	0.009610997955246579	0.009932400510538323	0.009980940982187046	0.009304717474877855
15.99399043599561	-0.1392602340666636	-0.002416987883166202	0.09649891680772302	2.170787070931758	1.025179760594363	0.9705889327501892	-0.1876328713207263	0.02003032999206036	-0.1936516844068109	0.6888374621729192	-0.1122807189593154	-0.3005531628642175	0.447706216465756	0.447706216465756	0.7471257011473345	0.7471257011473345	-0.3410398968774566	0.05264428880493835	-0.182432239187531	0.1986012676179978	-1.25030843045447	-1.408808942750915	-0.0834362967484079	0.1130652119194105	0.01019259073111147	-0.1607871704987477	0.2687564551318349	1.023306324127097	0.5583504887918407	0.2278759420630785	0.6068379708681364	0.2318966338625203	1.894521000345205	1.894521000345205	-6.421440347724216	-6.421440347724216	-1.003789328582053	1.988038026848975	-1.97582782413582	3.343308866226838	0.1263199130507404	0.3283472819670687	0.009890756499428591	0.009640139465772414	0.01030282060123604	0.09838023402319168	0.008771304389350176	0.1436902649555316	0.1397985470264216	0.04819984155306361	0.01009183460137726	0.009969970137245172	0.01362915841512132	-0.0005202041308468887	0.01000247480942049	0.01000153904674767	0.01000254998403437	0.01044138977707417	0.01130155618386097	0.01481694636838405	0.03290516990894529	0.06530608566205925	0.07441590860159042	0.1350789227472861	0.3791836765133154	0.04274364598458354	0.09064680056799301	0.08960656093261614	0.4103884143599555	-0.00286492581618953	0.1510157363927112	0.0142896811010407	0.009382851591537789	0.0100010527379246	0.1171576184900253	0.1392934736834318	0.009680049692359615	0.009939892735428587	0.009983162729771204	0.009344793951811665
16.0127904171956	-0.1581789417012262	-0.02868093555590137	0.08971092156060254	2.172719294158032	1.023894012848747	0.9679758210775193	-0.1776347080576953	0.04058824949546934	-0.1690042500363003	0.6872293541631472	-0.1035801907639851	-0.2955948669574678	0.4981280390596189	0.4981280390596189	0.6401038404181101	0.6401038404181101	-0.3446602298236053	0.08918748768767859	-0.2262432026076298	0.2526224927831088	-0.6875841369949972	-1.348729916875266	-0.6217809125692905	0.09115355373194373	-0.1381922883926508	-0.1159831064382904	0.6727793177740169	1.127282046676917	2.080796157431306	-0.3775501058321593	0.2710308159326829	0.1793235600721331	3.459663227029462	3.459663227029462	-4.762876361053571	-4.762876361053571	0.4792101495329659	1.875009206719204	-2.662616707654097	2.309817446728831	0.1259439763793025	0.3181951927925862	0.01004649767694306	0.01009657621987287	0.01081693741391569	0.08499014566567413	0.002428059047841752	0.1458426315980285	0.1401256509279661	0.04428568949072738	0.01011382403774462	0.01002571596271309	0.01316614081567855	0.01303534979655356	0.01000366591812141	0.0100019798719129	0.01000216570194386	0.01071512768339508	0.009347034310235505	0.007607525840894614	0.04294714225127241	0.05703135882022925	0.06222955565570727	0.1347166536661676	0.3810337676377468	0.05005991727653841	0.1018570269115953	0.07898904405615403	0.399868095436434	0.005633095642321387	0.1458710326673005	0.02015768457184079	0.01402362239100127	0.01000187237118199	0.1159448028090821	0.1712023920162498	0.01014949521297167	0.01000442383783847	0.01000146742969872	0.01000049612901703
16.03159039839559	-0.1646852666062913	-0.05266639691676352	0.07370111917218818	2.174227357269008	1.020010753067933	0.9661998905922784	-0.1637489775706506	0.06219331070535616	-0.1200452823308249	0.6753549200708626	-0.1024655855404217	-0.2958436504865287	0.5757395181599709	0.5757395181599709	0.5732203908263341	0.5732203908263341	-0.3296183041998682	0.1256151915201199	-0.2778488633504366	0.2834521526369373	-0.02277024805155079	-1.224232442750708	-1.069339900578856	0.06860704001506016	-0.2801073353046967	-0.07397710279520708	0.8174084850842658	1.196502647063428	3.026995528763603	-0.8326080035202478	-0.1692998628907557	-0.1724893987556682	4.78406342701525	4.78406342701525	-2.276789904675113	-2.276789904675113	1.000824054759748	2.024983008282684	-2.768962455601389	0.9125671096463427	0.1139666066403357	0.2931090127215085	0.01039000166186028	0.01112962945557782	0.0106596408474026	0.06752895173355319	0.003766136276687874	0.1705116028445827	0.1433763424673524	0.04115899319932429	0.01007252104432924	0.01003922222108383	0.01490432300280918	0.02842430197126731	0.01000406292190575	0.01000201105204556	0.01000125207000646	0.01026603407234182	0.009322041945673147	0.007743612451623785	0.06234361669922087	0.06475554516054789	0.05734005995398612	0.1444154517297734	0.3662884983915293	0.05931587208416795	0.1158249534305021	0.07728468097340202	0.3747916968855613	0.01301347400007556	0.1546672430313129	0.05385310126832685	0.04164177103475607	0.01000188753666884	0.1154886337490647	0.2032430188459039	0.01026245205803415	0.01002874618195785	0.01000835672471721	0.01026272407791246
16.05039037959558	-0.1600940120004074	-0.07486746187381163	0.05040848437263735	2.175286334450543	1.01326327244408	0.9651190340590481	-0.1466780332768361	0.0853643942487082	-0.06010400763228597	0.6580495236134579	-0.1096543760300314	-0.3011166196176671	0.6774661005318389	0.6774661005318389	0.5553775448664211	0.5553775448664211	-0.3124117406865736	0.1684323565805031	-0.3280075161788972	0.2853003857232052	0.411577821682365	-1.185395827842647	-1.38803639125349	0.04418628292693488	-0.449780575984972	-0.04417616117655149	1.102509567655773	1.316603454451637	3.202937217140565	-0.9117858830462175	-0.5790232599194669	-0.2559595432107515	6.01651095537663	6.01651095537663	0.3135935159943656	0.3135935159943656	0.7457579594477943	2.650364807046329	-2.532851774154844	-0.7493405404960225	0.1001433387732747	0.2670791009594623	0.01045851444955695	0.01135924326113762	0.00918882960385398	0.06002608557187524	0.02707319283322333	0.2063613976206674	0.1575904243260972	0.04471542007141548	0.0100217621314542	0.01002095055501094	0.01534864965298946	0.04218481717547484	0.01000425155954362	0.01000197204622115	0.01000207883054044	0.009570480023802428	0.009947998171208785	0.009899097484497438	0.07198514967940862	0.07696161854729786	0.05795728651197097	0.1632347842494878	0.3350062024228902	0.0658899721129461	0.1252067487732865	0.08098153028495528	0.3462043611339476	0.01331487412483369	0.1737369751197144	0.09638809804149855	0.09174314071013386	0.01000139716551287	0.1106193013874752	0.2184293268040836	0.01010455177236794	0.01001576705637766	0.01000462602739708	0.01014214275636361
16.06919036079557	-0.1513439305446084	-0.09772769013988926	0.02284048626792886	2.17587051801963	1.002936144231203	0.9644085843014411	-0.1208352843870227	0.1115714497296304	-0.004201189225706556	0.6433346505478446	-0.1227338219150416	-0.3015433353116246	0.8014050731297253	0.8014050731297253	0.5808974390439405	0.5808974390439405	-0.3031701409883656	0.2234939441201037	-0.3733520402400149	0.2550664182324088	0.3978540606893808	-1.28662307101795	-1.524182409660084	0.01809868866894394	-0.6576938934812731	-0.03447132404967962	1.765749204360869	1.509722441080966	2.644028271205698	-0.5486631309408159	-0.7821312567151449	0.3422150622838636	7.135328343594277	7.135328343594277	2.259974220973589	2.259974220973589	0.2127642171418509	3.416258300746326	-2.303431386728352	-2.432903086726956	0.09674791312878084	0.2552228962004195	0.00962639523345791	0.008892255700054991	0.007836990979861572	0.06584795254706857	0.07298571056209885	0.2392397112742583	0.1787980749171544	0.05472590171702695	0.01000489035447253	0.01000507267771058	0.01368098980074327	0.05754110395554336	0.01000496343402639	0.01000236392818297	0.01000590422024311	0.01125066511379979	0.0104045311830294	0.01083942046398646	0.06386328581594472	0.07812021316483816	0.05879278641053278	0.1855295655789465	0.2992992661343302	0.06606295213196108	0.1324303715839757	0.08269626045468854	0.3219444183759078	0.01064020029969734	0.1926778830792436	0.1220423003929961	0.1526740144949505	0.01000102447350769	0.0972125694722972	0.2226159113663003	0.00996709719091848	0.009999487379495334	0.009999843171617818	0.009979504962021782
16.08799034199556	-0.146795991530842	-0.1232971799299779	-0.005471710343411026	2.17593209919971	0.9885806421719812	0.9636956017465302	-0.07921506092727183	0.14182920045068	0.03629481008049372	0.638622153211061	-0.1368122138069719	-0.2843022051301139	0.9438878372254628	0.9438878372254628	0.634769823327443	0.634769823327443	-0.3026185511270909	0.288498230121794	-0.4156832254619685	0.1959216054421979	0.03051859225942184	-1.44186187521934	-1.483666689140869	-0.01246683241447176	-0.8649676153863127	-0.04192390509808011	2.708591973117293	1.718264054976028	1.654552465452356	0.08359676406345584	-0.6941789784888456	1.530420894197025	7.96828270331799	7.96828270331799	3.361112074525199	3.361112074525199	-0.1247740613126545	3.694451755528724	-2.221782390083944	-3.689841944637232	0.1115418693493147	0.2648999477983348	0.008293551651129417	0.004874719873217036	0.01127402044839983	0.07606619852922458	0.1193693274015667	0.257781311115782	0.1972536064743352	0.06500431751111745	0.01001570435870406	0.01000365212989244	0.01142889071625687	0.07309575091639461	0.01000570845257162	0.01000306639065133	0.01000877288454534	0.01803953010649808	0.01047900173027697	0.01050822087992385	0.05321285817750319	0.0627330169195215	0.05409736609567353	0.2002743937886217	0.2786163290750588	0.06350655734410388	0.1407553320115643	0.07493889435782959	0.3017090878585311	0.00906033256554032	0.1991799002287097	0.1162158939284828	0.2059156283454381	0.01000095258554824	0.0790352771108669	0.227658134650649	0.009951035585438289	0.009995854775751297	0.009998648096630633	0.009938805617781304
16.10679032319555	-0.1504060636887905	-0.1509649213178109	-0.03231332282130719	2.175332298440224	0.9708643349650043	0.9628028938388242	-0.0190947087860197	0.1753788778315185	0.0577864035121726	0.6461691819798392	-0.1468420092478848	-0.2433207774889436	1.098024545748638	1.098024545748638	0.7042275787166771	0.7042275787166771	-0.3049130199150626	0.3545028391217048	-0.4568360283262599	0.1197917917998347	-0.3557637082119142	-1.474039292342805	-1.383204204087964	-0.05333726468740696	-0.9984282130590854	-0.05093794941648808	3.616242379846586	1.827109390195388	0.6940333233337137	0.6336330700266137	-0.3644300628957901	2.753830808997663	8.348147987803916	8.348147987803916	3.992162516618463	3.992162516618463	-0.07044823768842588	3.368428587185219	-2.142449132679209	-4.095550664527175	0.1430144749250983	0.2900427795382854	0.008837877617262655	0.006396950114625478	0.02502815588174948	0.08021169682725603	0.1397107193928922	0.255179973612509	0.206411606604818	0.06895071094488202	0.01002859386578078	0.0100090718131996	0.01008273288729326	0.08318416217692537	0.01000543034117949	0.010003203688808	0.01000258573293344	0.02930408646575453	0.01004488364900122	0.00998094073391554	0.06149094378447302	0.03801122289181558	0.04172888976242936	0.1971595065956348	0.2817376750507916	0.06540567870129529	0.1468146093611158	0.05578127822428335	0.2784318764870143	0.009205211139189918	0.1848144838455095	0.08443833602844025	0.2372143866360111	0.01000094115390651	0.06312202068945959	0.2348635428717219	0.009993004278213407	0.01000046218644367	0.01000018855361001	0.009977750502118066
16.12559030439555	-0.1594139303245907	-0.1770749935265862	-0.0581670980475472	2.173847578746748	0.9517988104799255	0.9618779669593627	0.05609178724336088	0.2094841084017254	0.06472979409519898	0.6607450247898873	-0.1494827901435099	-0.1839771956544961	1.254570767532877	1.254570767532877	0.7844325879980288	0.7844325879980288	-0.3032923714899369	0.4164089572160776	-0.4944787541909761	0.04397411195308572	-0.4696685615336596	-1.257617436446371	-1.372352344993362	-0.1061454240448332	-0.9992829046133412	-0.04518525414313675	4.233713037795458	1.755660791565643	0.1202618203662783	0.7348869453114187	0.0963534924588253	3.436056908972637	8.20427853877437	8.20427853877437	4.506228512198347	4.506228512198347	0.2739099061158063	3.040972344398619	-1.805356458692881	-3.598701279687791	0.1797915570989926	0.3139109939895153	0.01406366523345815	0.02195300459650833	0.0494905911667194	0.07683341240535282	0.1320781519565552	0.2327971990439587	0.2041169353099131	0.06476699057319628	0.01002976906055015	0.01001214108461521	0.009835468907488534	0.08567372872165346	0.01000390540399394	0.01000188045567167	0.009986797431886409	0.04364478728333294	0.009177550344750473	0.009819044339168109	0.09014773119068499	0.01594257011481288	0.02566611784646025	0.1770824378421717	0.2943738086677024	0.07201051835539413	0.1456642664733085	0.03188882321226624	0.2452680254204813	0.0100032395884546	0.1518232647502351	0.04655735206791273	0.2463805227993586	0.01000074140435218	0.05015634126003771	0.2373871701882817	0.01002010164260628	0.01000479281891603	0.01000228257271873	0.01001306684546692
16.14439028559554	-0.167158747395513	-0.197212251022789	-0.08518987426618339	2.171316305606843	0.9340906533972405	0.9612416225900097	0.1392701558990096	0.2408999560947371	0.0652876284711402	0.6708875245725241	-0.1433647546517703	-0.1188132869194348	1.403383222247629	1.403383222247629	0.8724910532031669	0.8724910532031669	-0.2943931257653077	0.4773602099712447	-0.5220668119244167	-0.01709335392041376	-0.2430059103071948	-0.8450490002769071	-1.483968064598085	-0.1624020527523536	-0.85786290397207	-0.02251005006128417	4.482575663806717	1.532116084094675	-0.027103841023446	0.1593018267178565	0.5832330347575339	3.413322325994542	7.522142977659256	7.522142977659256	4.73919276930534	4.73919276930534	0.670706413651457	3.129561293040262	-1.060665417206362	-2.595579055698579	0.2036006334613177	0.3164958417945645	0.02322559753935439	0.04954314632348166	0.07523673871564977	0.07083299903077377	0.1216133022428009	0.202323462530389	0.1910303892012039	0.05613838200720332	0.01002511306576543	0.01001162514477802	0.01007012423399724	0.08468120016064214	0.01000213566319526	0.009999656783264099	0.009982151082229542	0.06836728188981958	0.008934271694771225	0.0099212945030607	0.1209335649361036	0.006178011614669152	0.01301139281873334	0.1527454786799483	0.2910282806728338	0.07501532737483842	0.1380076916984852	0.01387605412032062	0.2018977661049595	0.010604325353461	0.1152479499934177	0.0208109685742976	0.2450873756280892	0.0100005463975723	0.03772777857539782	0.2309291881185073	0.01001836781259046	0.01000584845016642	0.01000332863009614	0.01001676870262211
16.16319026679553	-0.1676432345550941	-0.2093007603369466	-0.1144610543290642	2.167816635141526	0.9201841215591402	0.9610884327387965	0.223082530387041	0.2672390529601649	0.06517632478289916	0.6631053578997701	-0.1286880034985788	-0.05889626606078919	1.534075502141961	1.534075502141961	0.9585116382498896	0.9585116382498896	-0.2790055665543196	0.5394488003105047	-0.5322024836012227	-0.05848101686661424	0.2088005040628193	-0.4236684038120737	-1.59515667585393	-0.2064417851740041	-0.6073537878715334	0.004058322773746411	4.388248715886276	1.213192792482893	-0.01017400193400085	-1.076988836690038	1.003919354713086	2.949167130595006	6.29139163357842	6.29139163357842	4.210965164796979	4.210965164796979	0.9433697240694716	3.187966610834406	0.02357278375233673	-1.653713027687369	0.197036167234289	0.2840420703010664	0.03051057634021081	0.07188070020452934	0.08667287680068647	0.06311601529466987	0.132658833010898	0.1806366775073008	0.1716639783432334	0.04891588830924445	0.01002968474075524	0.01001196234372259	0.01030577246919913	0.08495797570312449	0.01000156164384629	0.00999951109082615	0.01001913086318439	0.119412880609458	0.01136006471244973	0.01003176100551695	0.140115346063977	0.01378466938307229	0.007818884872335258	0.1369912188603475	0.2616249960117352	0.06827117045511608	0.1288503088874619	0.00746180687700035	0.1554937522417092	0.01057688849612674	0.09500860647505648	0.01172323442216285	0.2451312637988061	0.01000100395540583	0.03180023931633771	0.2176620899611854	0.01000968060701167	0.01000582231259646	0.01000221988833247	0.01000619943042587
16.18199024799552	-0.1584533398275023	-0.2144102291245213	-0.1442332492301134	2.163722523767802	0.9116687162822522	0.961328958298329	0.3017655329418531	0.2859700875902481	0.06414722393131424	0.6274255517342339	-0.1070363664388449	-0.008928107122274483	1.636572914356398	1.636572914356398	1.025126768185014	1.025126768185014	-0.2598805028125222	0.5944027580779101	-0.5205708244934517	-0.08522028870765874	0.6901472484332909	-0.1269141389428311	-1.54235542971315	-0.223954697730238	-0.2970593508260924	0.01929654302837109	4.025276963655235	0.7306414581317049	-0.1600465027220752	-2.677755310277193	1.287885076333706	2.388614494285113	4.549331079892207	4.549331079892207	2.692959036689541	2.692959036689541	1.072682746020479	2.496858160016435	1.205753483173867	-1.179205439309912	0.1557859712194028	0.2200661320762854	0.02998555497312664	0.07092468738952355	0.07454420800295464	0.04909878406435943	0.1641328304250279	0.1788691670078793	0.1544813742289266	0.04718730931662461	0.01004824321989493	0.01001581309699304	0.01046454206825471	0.08588012353208642	0.01000306287552952	0.0100046810580494	0.01008467731094305	0.1995912990463409	0.01770566794559936	0.0100527555072314	0.1507090434075074	0.03706791404732151	0.00870180074164136	0.1330322609524602	0.2222233946827621	0.05693153444286536	0.1210728745922186	0.009608354693409116	0.1171435226571025	0.009631603178627331	0.1015201135117237	0.01314147474627743	0.2501844103950004	0.01000235389948272	0.0441542412136534	0.202825072556985	0.01001107857663078	0.01000810214037065	0.009999423805433963	0.01000276094222732
16.20079022919551	-0.1413372439632773	-0.2147043450883362	-0.1705825300166506	2.159610524040877	0.9091958483537032	0.9616827408368814	0.3718322937898156	0.2923807348421128	0.05718940787101177	0.5615718997918003	-0.08117398075821504	0.03094047722454858	1.70263184652468	1.70263184652468	1.055402904071609	1.055402904071609	-0.2389421647451928	0.6272390679640697	-0.4880396695362351	-0.1075590970711652	1.011425051596049	0.07114597400960827	-1.249147292652253	-0.2082032198964895	0.02776525416434092	0.01771765990642716	3.505357227511113	-0.06763805976768117	-0.6343083811531208	-4.199517906880152	1.401739713190357	1.853156423123987	2.446143849003648	2.446143849003648	0.4463876271987349	0.4463876271987349	1.155807676071855	0.9209067058028403	2.202089226488529	-1.267394419746469	0.09619812120996346	0.1492341208910222	0.02211901406099708	0.04757815782288686	0.04556543213046441	0.02809328061233525	0.1925622994379845	0.1948768329189465	0.1471236860348634	0.05100149081159023	0.01006623893203747	0.01002040461596573	0.01055939280115188	0.08213773282808871	0.01000618837948269	0.01001255622206086	0.0100779219698405	0.2779740755067944	0.02629953364350553	0.01002351945966863	0.1595030069912295	0.06541506157497705	0.01179645876314693	0.1358143654024184	0.1971724624746934	0.05249164294899306	0.1136699802590032	0.01237713472229605	0.09695001166759044	0.008305121774798726	0.1276174414001563	0.02034223397107342	0.255725931706821	0.01000324863612017	0.07524376990306991	0.1912252917775605	0.01002056657778763	0.01001329443148382	0.009999021873401013	0.01001037632992711
16.2195902103955	-0.1208348879393071	-0.2113498506604028	-0.1894595462033198	2.156099112398188	0.9126729489660704	0.9618888351683168	0.4317762578096463	0.2806019884106893	0.03877944746299401	0.4708329537311262	-0.0547498687520082	0.06034607408547257	1.727697369325948	1.727697369325948	1.040340811043518	1.040340811043518	-0.2160994204134811	0.6264126759648431	-0.4402083231868131	-0.1350188143462955	1.076120154939532	0.2544806261666168	-0.7638393747339919	-0.1612203656733188	0.3332600452518638	0.005288506665590408	2.921597321832314	-1.155669568808195	-1.340890847821641	-5.317627223004135	1.324822589972394	1.234735266115599	0.2194354267423384	0.2194354267423384	-2.014443796179803	-2.014443796179803	1.286951349300196	-1.098023535469131	2.809359527243223	-1.754450138462829	0.04714118580770559	0.1035525016505401	0.01324589055216749	0.02059835638381073	0.0169814213827875	0.009714113340750778	0.1949991811733844	0.2164876816768959	0.1501462696562476	0.05629729422981968	0.01006637107000538	0.01002171235670338	0.01052001892068979	0.06987954226013193	0.0100086610521324	0.01001104423300451	0.00989251209935936	0.3058424141825163	0.032774142165738	0.01000017963560675	0.1618513455351232	0.08329061400745963	0.01422798685887147	0.1392409031445708	0.1928699549622777	0.0584784264763557	0.1067561265753764	0.009768771580493801	0.10035991572641	0.008850725371782883	0.1560974151677552	0.03461126639052603	0.2516743662504505	0.01000122603639344	0.1065448958710169	0.1867074145289113	0.01002703255160785	0.01001661316090747	0.01000650227350356	0.01001613087949397
16.2383901915955	-0.1017478218286796	-0.204734778167604	-0.1986162944897296	2.153697850700974	0.9214912944117876	0.9618624765136549	0.4808810156322658	0.2484450020852566	0.006773203921453124	0.3637746685651768	-0.03193109495557413	0.07633839923734469	1.711657853308499	1.711657853308499	0.9803570340357797	0.9803570340357797	-0.190266648533441	0.5887203676021024	-0.3852771913563715	-0.17251262641063	0.922479094457873	0.4227267292387305	-0.2240303318764679	-0.09214410441380556	0.595550290844535	-0.006295708306290572	2.300781933652549	-2.192054677120641	-2.038564378898729	-5.983408916892341	1.044531730855764	0.416308788577628	-1.898029977930523	-1.898029977930523	-4.248347509486637	-4.248347509486637	1.462911158843787	-3.037115710406258	2.957912685104089	-2.357660094803183	0.03045759648919253	0.09882395031222935	0.008727520626880115	0.006262399769775643	0.002289408453851768	0.009274017863247715	0.1689873482766134	0.2316292578385027	0.1563237176656438	0.05741895429085518	0.01005109304815202	0.01001969736894347	0.01033623305353444	0.0513927104139796	0.0100073070838672	0.009989607998055179	0.009655940458399173	0.2601478272800244	0.03312905229783532	0.01000406782497776	0.1451405333706865	0.08040324377428119	0.01490035281111784	0.1411053714180907	0.1907488569816797	0.06523720101639489	0.1044118576118757	0.003641932791671468	0.1269132285208473	0.01391612223247922	0.175152610094399	0.05609699098869324	0.2270789762452039	0.009996299591437934	0.1144426177271771	0.1915494311241497	0.01002246274013722	0.01001048512699842	0.01001882594219717	0.01000394120289138
16.25719017279549	-0.08695569138040196	-0.1959814678125358	-0.1985764244021388	2.152698871678638	0.9346701213624096	0.9617247878976599	0.5182050108037162	0.2013637651960548	-0.03640142474806259	0.2476325193385645	-0.01635164988070499	0.07543804999393185	1.658109444196482	1.658109444196482	0.8825327325373408	0.8825327325373408	-0.1613406434594734	0.5178608758593124	-0.3315212146802017	-0.2191857896430035	0.6731268490346958	0.4951912172920124	0.2116792266318779	-0.01446221839683158	0.7963512734739866	-0.006913652883641606	1.634912996954506	-2.730044554151379	-2.504621048021734	-6.331986780786673	0.6136596245578785	-0.5203711037194212	-3.7472412284266	-3.7472412284266	-5.992355285724814	-5.992355285724814	1.591536824344587	-4.574185873991245	2.708098325245074	-2.775699149964314	0.04766819436389012	0.1243083995569714	0.008685636300769224	0.0053612223765981	0.004777346180980959	0.03691609413233588	0.1334088017215208	0.2346879013882961	0.1576715570178741	0.05163081443024529	0.01003868672528575	0.01001666960790084	0.010133303624333	0.03328249068642391	0.01000222198196481	0.009965363969124209	0.009857228639753914	0.1655850072407126	0.02703770697784621	0.01003088345575433	0.1054219582939513	0.05920344721421525	0.01389789107584651	0.1431589795023851	0.1665433596518071	0.0630803639036511	0.108460183358715	0.005542431902171004	0.1705940531772334	0.02282038068323319	0.184686218650174	0.07716076457867972	0.1801003548372128	0.009994915780570858	0.09111311476264408	0.2034878898548752	0.01000596879211074	0.009995721222194163	0.01001646742454256	0.009977932038335118
16.27599015399548	-0.07692829537882821	-0.1874418898910874	-0.1923118151144953	2.15312827799792	0.950925454991106	0.9617206958071159	0.5427755159621119	0.1510979002696986	-0.08536068048854005	0.1270315811805491	-0.009538980953420324	0.05791524986499153	1.572848592547115	1.572848592547115	0.7577952201939591	0.7577952201939591	-0.1311573759297726	0.4208358475482313	-0.2849163718728422	-0.2688758274446224	0.4318428121126815	0.4157959516865745	0.4404057832483882	0.05773809537190012	0.9209027735722164	0.006936650182901655	0.9501477410807401	-2.553418943963291	-2.655710914293536	-6.466610855532121	0.1631501384786042	-1.283000182089837	-5.257750726559377	-5.257750726559377	-7.094381999620598	-7.094381999620598	1.583274227838055	-5.664124357505806	2.241246661834776	-2.741526558991322	0.08213650648633983	0.1543791131200726	0.01002646714405151	0.009250745502916442	0.02044962648733273	0.08751073752382273	0.1110346747170766	0.2253540693442442	0.1533034002519968	0.04216879330547966	0.01004004253371286	0.01001383455659852	0.01002896184276815	0.02068944108025933	0.0100022984274314	0.009991221312090584	0.01094184369059361	0.07226911727359514	0.01826634119382721	0.01005698732442479	0.05647970341755171	0.03257336710376491	0.01205488646549108	0.1470256685262257	0.1162885865702448	0.05593609320222737	0.1122111715875646	0.0284416484324863	0.2195127602439765	0.03005420826100292	0.1889802729920177	0.0869264504298215	0.1249918200859872	0.0100063151971864	0.05125687817264769	0.2145479965024422	0.009988526724759085	0.009992288106073926	0.009979746115851605	0.009978145465428634
16.29479013519547	-0.07102932315039931	-0.1816113996797499	-0.1837073361925803	2.1547747888856	0.9687384982184677	0.9620831057368178	0.5547734962346657	0.1098667710702804	-0.1347115417257	0.00611015365046284	-0.01036232514342894	0.03012457694770265	1.462356983760955	1.462356983760955	0.6192971332788431	0.6192971332788431	-0.1026076230347387	0.3035880056588645	-0.2469150228258203	-0.3117091782026196	0.2106317551477361	0.2197089370118752	0.4672896695326295	0.1140232393986942	0.9599324963317768	0.0310450935075253	0.3350348227213706	-1.811654618893455	-2.567012002754431	-6.338891685099185	-0.1844478974493599	-1.568932897283197	-6.432154735267304	-6.432154735267304	-7.475676343939947	-7.475676343939947	1.429738245271147	-6.567136870163329	1.847067476552423	-2.10434357464613	0.1108382707926131	0.16816194563355	0.01035425437970602	0.01139769602721502	0.03996935145958639	0.1376467174728254	0.1087951386434228	0.205256837430732	0.1491908502753242	0.03611397362082871	0.0100495988000521	0.01001437108535974	0.01002387012307132	0.01419964723180528	0.01002271944574318	0.01009694553067552	0.01254415488359386	0.01625741558884839	0.01154498663893592	0.01003773900587892	0.01948386185282621	0.01364996339401809	0.0104505106837684	0.1490242494580051	0.06196816549619612	0.05358205290616078	0.107129659049261	0.06953525676070289	0.2556857041519565	0.02991659982477679	0.1872382814223152	0.08292747092451881	0.08273635183089083	0.01002651453434312	0.01833977348259272	0.2169888052293803	0.009998116365507183	0.01002600065362909	0.00993407801186297	0.0100480880422572
16.31359011639546	-0.06939179413133269	-0.1795571238201003	-0.1756295894711035	2.15728902522237	0.9864843187482659	0.9629194203034293	0.5565624470826855	0.08466458740257868	-0.1813260001175091	-0.1089302774911	-0.01617345681963785	0.002079779439844397	1.332603681191628	1.332603681191628	0.4805850381233234	0.4805850381233234	-0.07781590778950727	0.1678647321056197	-0.213057069333816	-0.3372206534699224	-0.05897155606570276	0.02041266221511156	0.3905929158032765	0.1503092330304509	0.9132123160025102	0.05688313994717041	-0.09638274120611223	-0.8851698851897073	-2.384003827104124	-5.813653999624549	-0.3873861801918553	-1.328720520765465	-7.323148736631452	-7.323148736631452	-7.1720878455188	-7.1720878455188	1.2110200417975	-7.587175856015071	1.840440701127077	-0.9234984830608406	0.1179071530378543	0.1609508178957845	0.009629588896191126	0.01104351589518053	0.05103881635059676	0.1579538096962319	0.1143423595244221	0.1768417538059741	0.1505699652222755	0.03861037611194862	0.01005395607083161	0.01002459851023298	0.01005863320933442	0.01155947473100716	0.01006461468786674	0.01018256256235449	0.01346401862233826	0.000328729346234077	0.00887826500785896	0.009950001674386	0.004570165045123196	0.006845354096445306	0.009683801598933858	0.1406934859596536	0.03084250074180776	0.05478277685259382	0.09486177791659607	0.1034386886302393	0.2608513728256592	0.02269133598284435	0.1732416100442156	0.07497914777001877	0.06227230277645283	0.01002469432722711	0.004750269715202607	0.2121510380282036	0.01005550706030018	0.01008147133589265	0.009969805526041636	0.0101443643667126
16.33239009759545	-0.07373530820621295	-0.1800331362003213	-0.1689858851067997	2.160302414662823	1.002623322261711	0.9641940325146472	0.5524939614465996	0.07540529155617251	-0.2242600065477321	-0.2096770018713376	-0.02424326154470266	-0.01863490430975404	1.18827082921453	1.18827082921453	0.3532875242364334	0.3532875242364334	-0.05685818899657274	0.01488604717098839	-0.1741684530139842	-0.3385380549533447	-0.4411737424507354	-0.05032058584079051	0.3124313888212132	0.1679856618749428	0.7914569327219425	0.0782201016393153	-0.2789782688117217	-0.127604912219407	-2.171825136760421	-4.826202822003824	-0.4520903668838174	-0.8566723731679793	-8.006236512045529	-8.006236512045529	-6.319798000425656	-6.319798000425656	1.042260840901188	-8.486229415529104	2.376564653177943	0.5065830041220675	0.1048577780763746	0.1430022861279282	0.009553121412459889	0.0100441394098057	0.04881456737412453	0.1388397836948705	0.1123241872081346	0.143641726875935	0.1565928994537193	0.04910553874562977	0.01003888973230188	0.01003960398525155	0.01008629180615651	0.01059471156372863	0.01008793043689394	0.01002548346373624	0.01297082502592229	0.005015549816929555	0.009009013856367749	0.009881814080942766	0.00537663613387718	0.00779157143510125	0.009663470108976131	0.1181435776387911	0.02961962178495782	0.05049558089223637	0.08543053350727015	0.1031436689335103	0.2301066818611837	0.0141884598087984	0.14365300433706	0.07393856618987707	0.05519847739153132	0.009967376303591359	0.005933044621540358	0.2112245471127729	0.01011168623638681	0.01007095070185548	0.01014686943294822	0.01009261583093687
16.35119007879544	-0.08621723783615484	-0.1798529603796781	-0.1635709408286388	2.163499600946274	1.015917093322548	0.9658248363221952	0.547126543784862	0.07740610941742726	-0.2622047687042477	-0.2881050008865733	-0.03199195556940063	-0.03168690234289367	1.032591363536812	1.032591363536812	0.2463406809735342	0.2463406809735342	-0.03799362204195343	-0.1446253728652652	-0.1211921203946806	-0.3160905755867827	-0.8982450148885759	0.08429585823912707	0.2485976077554631	0.1704631847431092	0.6159112106886335	0.09602801222769825	-0.2675468055398625	0.3227531331104481	-1.826958612629187	-3.490101963281277	-0.3640202669111802	-0.5746909636668803	-8.541995561066848	-8.541995561066848	-5.032012531698892	-5.032012531698892	0.9883000544599214	-8.393296924726787	3.276239384152675	1.716192743318829	0.08912392846504612	0.1293538616667956	0.01181029247020128	0.009604825283533699	0.0433745071929183	0.1037720913569188	0.1008312662116034	0.1103146179882724	0.1628989472278053	0.06249161058021518	0.01000119033945776	0.010029253736689	0.01005994997764166	0.01022568277284434	0.01002423478261445	0.009579005265509373	0.01188544265770725	0.01154964634036257	0.009880360465411108	0.01003050518440187	0.009836674048133758	0.01024038636952631	0.01005710760720931	0.08986836772126357	0.03957058223889082	0.04146688218752428	0.08350993801275552	0.07054033632039609	0.1806197902760363	0.009428567069693382	0.1051952091437782	0.07978467657447133	0.04895069530377599	0.009890689223451831	0.01073404277435582	0.225253133593527	0.01003362376824625	0.009915307881706069	0.01030518026733674	0.009767454239773677
16.36999005999543	-0.1069368153167421	-0.1754049061894596	-0.1597506338080946	2.166628024125684	1.025615632788337	0.9678054515939113	0.542593797312667	0.08559952952101285	-0.2909960158719356	-0.3400970399860375	-0.03644203799120635	-0.04287027298856614	0.8681628360386581	0.8681628360386581	0.1674021088179081	0.1674021088179081	-0.01934948633293886	-0.2869970977739421	-0.05162224515721319	-0.2792395946562483	-1.264188329350435	0.3964581465291303	0.1357484179887243	0.1608389164085263	0.4153709443715152	0.1161259403024964	-0.242916309010219	0.5401669677844361	-1.18277427061827	-2.083135493099834	-0.09548096017421105	-0.6646346940520302	-8.919130812610392	-8.919130812610392	-3.338078226682822	-3.338078226682822	1.00529221368652	-6.711932031327808	4.053919509925529	2.199033347365812	0.08666181463646738	0.127367450700459	0.01604929684751721	0.009723396077773965	0.04740686308214925	0.08617283285438805	0.08789895070736897	0.08282370758310827	0.167760398343173	0.0729499043850465	0.009978403786342868	0.009967249366852303	0.009945284755215941	0.009993484333152225	0.009874372457323819	0.009377733058291695	0.01160132105337722	0.0136917615858583	0.01062062716558728	0.01043904108842734	0.01163923043835589	0.01134606110012326	0.01057439304447518	0.07020959855209878	0.03811141483410661	0.03855419527304221	0.08327827752933971	0.03825520969589925	0.1409420445764835	0.008853697805725378	0.07242693770838247	0.087673619505116	0.04000732765812248	0.009937339652819064	0.01280410317901069	0.2540342357619528	0.009766805230741034	0.009740146678396679	0.01005470827843468	0.009464310203391163
16.38879004119543	-0.1321129546086145	-0.1644495735140596	-0.158978186893017	2.169488561717174	1.031540175855264	0.9702151182302049	0.5370647475238248	0.09692163836843706	-0.304744241305202	-0.3675016354316729	-0.03444999309378728	-0.05750365121276125	0.6991084742124444	0.6991084742124444	0.123610125877294	0.123610125877294	-0.0006550119535862165	-0.3874042193062415	0.02719597151112813	-0.2442072953786774	-1.332458472888864	0.7679747031296968	-0.0659813294729068	0.1421510500348895	0.2190487117958517	0.1407737906834725	-0.4041718396827335	0.6476516663370754	-0.257371365517808	-0.9232613654025564	0.3235732865764259	-0.8939693023396912	-8.98360798955926	-8.98360798955926	-1.303569381238672	-1.303569381238672	0.9815458614449689	-3.920680385889937	4.207162113430011	1.670275930274713	0.09433241381747344	0.1311076908323673	0.01944767420224436	0.01005567153875381	0.05736464397952388	0.09271510514852553	0.07780016774844133	0.06852299023102904	0.1738520193587164	0.07704646780521671	0.01004983730649209	0.009905536259331195	0.009867128072214182	0.009696237701966086	0.009825069602035181	0.01030432059631697	0.01221766893477957	0.01324113303885371	0.01110500027660228	0.01063187341864392	0.01137633387325846	0.01122321655807803	0.01070858796984612	0.06535923775547528	0.02437571479146683	0.04481043549382714	0.07693428435483636	0.03789763169106808	0.1297651292458963	0.0102089559906716	0.05873294796623058	0.1032823700101193	0.03429025294094971	0.01021148123810662	0.01231708276238795	0.2845389647592272	0.009601644184698881	0.009931994110024548	0.009276922161970324	0.009935108555207283
16.40759002239542	-0.1547192928015816	-0.1471511037069529	-0.1624780930680251	2.171939905736002	1.033987674825871	0.9730873459546896	0.5260380167321242	0.1096234305964617	-0.3008511560493052	-0.3772767584528602	-0.02408458192047226	-0.07411771026033978	0.534131035101836	0.534131035101836	0.1195314995810955	0.1195314995810955	0.01659495761331485	-0.4353874698531811	0.1012214250532642	-0.2272011321836137	-0.99553153647878	1.056495050907603	-0.2993027052912995	0.1177523928805257	0.04648995251245856	0.1634439941057361	-0.8098840779545794	0.6761955621734986	0.6288161197216192	-0.2090554330984397	0.7787490842127124	-0.8195412672432341	-8.425111635716226	-8.425111635716226	0.8507491858975371	0.8507491858975371	0.844858693911781	-1.141879164765062	3.561606250314305	0.3564610133889561	0.09439489338193456	0.128197839233409	0.01920859480986329	0.01039964644669304	0.05732112809104593	0.1007056866929908	0.07079146975919941	0.07386753748312087	0.1838140290186197	0.07480544307293759	0.01022912381802127	0.00999075470059662	0.0102646320327374	0.009549029773929699	0.01015138954443337	0.01215809096217946	0.012541198528959	0.01111782105107692	0.01064938224015469	0.009847098998197674	0.01106956548836639	0.01018845807148635	0.009766980325409701	0.07051470960284384	0.02030448338424688	0.04984526119940221	0.06279306657022063	0.0704273841330728	0.1473500432217499	0.01145787719353962	0.06942055080680312	0.1413752135447627	0.03965361797685458	0.01047242984516396	0.01111630320862427	0.301109631274659	0.010099120384934	0.01068754943004747	0.00886219532030884	0.0114311787575996
16.42639000359541	-0.1674852835871656	-0.1260571006223957	-0.1697755647757753	2.173899914350337	1.033453711369507	0.9762798647790384	0.505993316855593	0.1217577234520775	-0.284104275560832	-0.3779893195201964	-0.005938306345992648	-0.08423311553476293	0.3882450331326626	0.3882450331326626	0.1547159891209347	0.1547159891209347	0.03045068833425824	-0.4381967290614969	0.1572841679440405	-0.2354689098542159	-0.3322935447173404	1.15305469418305	-0.4580831099484192	0.09036624616557157	-0.100629938298039	0.1735483038947888	-1.308285160696445	0.595479498180134	1.065955276855205	0.08481226388125745	1.122982143869365	-0.1908774577251023	-6.922310203965016	-6.922310203965016	2.841909368917166	2.841909368917166	0.6146279062795121	0.8170458664385312	2.358880135578548	-1.03418733474921	0.07612616784366794	0.1121425723954208	0.01557663657935722	0.01046580938300478	0.04111333549332192	0.09015339997123474	0.07153898554932925	0.09873473612082685	0.1966688828653014	0.0696405928456552	0.01030319996770592	0.01028468864669836	0.01167902280180385	0.01012462120193766	0.01074863820709601	0.01226327161268094	0.0118333903397132	0.006103947571289519	0.008518560365194786	0.008392428970350797	0.01033280945967378	0.008280410552760232	0.008086831865749405	0.07852172934777477	0.04528725296323208	0.04517689039935386	0.04660819540870623	0.1085011494105089	0.1816922158281158	0.01123673298867486	0.09962095129981412	0.2055292384150678	0.05836651931537178	0.01009820445695834	0.009316743353103583	0.3001234105261565	0.01126139189759298	0.01123100925649357	0.0103919751156524	0.0122632119498679
16.4451899847954	-0.1664720814410902	-0.1052594500452333	-0.1788383556475271	2.175327721893143	1.030272945939013	0.9794947647208556	0.4778324279500475	0.1313199381045521	-0.2646775917810632	-0.3754527635265177	0.01686594745748975	-0.07859391385618092	0.2804507404932057	0.2804507404932057	0.2244672174927179	0.2244672174927179	0.03992909799458737	-0.4126783249765953	0.1887810241931259	-0.2633122915913618	0.4137584501667627	1.021002392327099	-0.4859569630928136	0.06144653580806084	-0.2391945637151673	0.1657890027993023	-1.619747514506036	0.420357853331575	0.9343960828926376	0.196969495932077	1.258702023223011	0.8120896726313748	-4.402661749704502	-4.402661749704502	4.527498999129201	4.527498999129201	0.3797638364929564	1.784164546678441	0.9909811554837977	-1.799451593703099	0.04684396487295239	0.08662848243290555	0.01149335173552763	0.009804907387631255	0.01999392977382487	0.06444640346899508	0.08325839596480948	0.1312724117509079	0.2106068676921127	0.06749705948338863	0.009920384935281632	0.01047745605790721	0.01388551280386745	0.01141510531023149	0.01072716639674555	0.007406522608135969	0.01064330879189066	0.002124078180007422	0.006754013544872453	0.00900695023785451	0.007856505404516467	0.007454964599356239	0.008459937641186476	0.08403397613440239	0.09107118303629284	0.03639138268266639	0.04070744815140985	0.124217668462304	0.2125913992904822	0.008756713643943429	0.134214046354257	0.2745899815428894	0.08262232661375113	0.008873967664892119	0.007006852425793804	0.2958577497116521	0.01158190762523503	0.009947337257144017	0.01369218310429291	0.009389592212451441
16.46398996599539	-0.1530148468181796	-0.08856797894927393	-0.1873769085900052	2.17619929111301	1.024367500010373	0.9824256600814124	0.4476904720150389	0.1372514390479806	-0.2506271853207401	-0.3698925624153998	0.0403020169214335	-0.05449109948806553	0.227332207124546	0.227332207124546	0.3233549586722038	0.3233549586722038	0.04621732552126939	-0.3760555731980769	0.194879194378734	-0.2969315947901014	0.9596187123491761	0.7441676274307184	-0.402703539895947	0.03125176044558192	-0.3932366741937428	0.1440996111254341	-1.502157248771604	0.2094474875389159	0.569073133523446	0.4479013505890042	1.206664163822611	1.707785554695592	-1.193202655768786	-1.193202655768786	5.961237213580696	5.961237213580696	0.2980731165919072	1.974267197348156	-0.3554759162424913	-1.725071117814695	0.02180463880890708	0.05956821491899531	0.009396922448597118	0.008627739937539874	0.007565858054800809	0.03900398623749013	0.0944160200781221	0.1507580170713671	0.2250255475012797	0.07365841657002248	0.009192467567081338	0.01000061061372368	0.01495979130563491	0.01172303844707286	0.00914204750852626	0.0004411261480712645	0.009871690365337906	0.01424032093756741	0.01230043962854298	0.01572829197072912	0.006334464680445217	0.01277943622997097	0.0149937753623149	0.08080582657194876	0.1241374130521425	0.03559946127766041	0.05763140163776276	0.1114554376264073	0.2142868859536066	0.005721502363755297	0.1520765778136907	0.3127540112563373	0.09686064167811431	0.008235608294716238	0.008299696364384653	0.3079048543280927	0.009036617846381578	0.006746759849739119	0.01427779142929362	0.003245121809024208
16.48278994719538	-0.1328475661877829	-0.07692383699358747	-0.193825246996293	2.176479469351607	1.015309312135198	0.9849014304318482	0.4247522974011538	0.1393168348004332	-0.2411046608880556	-0.35622016987366	0.06203552754189531	-0.01812414983710816	0.2362431225661637	0.2362431225661637	0.4477241195128561	0.4477241195128561	0.05422790469925827	-0.3404330245773182	0.1753890620841385	-0.3235860472936538	1.131119963721083	0.5307884260335981	-0.2659620661814755	-0.001823314069972215	-0.5732986736787717	0.1186078334164449	-0.8786985250623038	-0.005889136503575108	0.5278068324109372	1.065241035758741	1.119216340505669	2.077593090378608	2.085737665179903	2.085737665179903	7.248369947974663	7.248369947974663	0.611117116348004	1.74153719197754	-1.757895028630508	-1.105426737071106	0.009417459587302196	0.03670398855818492	0.009322575759390753	0.008796008896990679	0.006071774343629857	0.0227497632265308	0.08633054602344846	0.1410607161803649	0.2336569173959249	0.08730715402536204	0.009388048596120897	0.009085307918917658	0.0121633493085908	0.008677531230301835	0.007278279810158883	0.004743674684776798	0.009757230914224944	0.06277967312930938	0.03471513882954008	0.03048522208178252	0.01500188178249206	0.02951144794791861	0.02899967306402194	0.06427178492607952	0.1164553014572009	0.04547396788932632	0.09412175650034127	0.0825452413080556	0.1717463575917585	0.007974166275300143	0.1386912854203019	0.294499131464967	0.08919223147818117	0.01103479609771752	0.0215637114215174	0.3376246166296676	0.005428128724834029	0.006279879473802382	0.006593443900983225	0.003376577289158611
16.50158992839538	-0.1132026928763763	-0.06689508568650676	-0.197672237348222	2.176083303109861	1.002738070569327	0.9869463841278702	0.417525309548996	0.137365298905509	-0.2262766964852061	-0.3269550433020429	0.08337499495167595	0.01945760144220469	0.3020772359516984	0.3020772359516984	0.5949706147480597	0.5949706147480597	0.07344068643652546	-0.3107128233851703	0.1283279569899695	-0.3377276789390392	0.9277599121677567	0.6000472727829036	-0.1376988516133413	-0.04140771149746764	-0.7611337890334658	0.09976026224720402	0.1198956387699382	-0.219144390161595	1.150722744948155	2.084376704852954	1.201273657939404	1.845570713608319	4.769222018473786	4.769222018473786	8.379881109459273	8.379881109459273	1.537383295752716	1.437247625822903	-3.260435439534997	-0.4139816190630787	0.007527711202253899	0.02061951858443672	0.009927527327006353	0.01298921683987416	0.009101930117064236	0.01483994124287937	0.05668983553963679	0.1041803193098454	0.2199487695395675	0.09922572760255997	0.0126817747767497	0.01054976241909839	0.006036137426963155	0.003699235991844483	0.01058963688179109	0.03451460731422853	0.009949239729583149	0.1565274104430459	0.07977245555698161	0.05255289772168865	0.04370041301269482	0.05807568741984398	0.04692279188923852	0.03900816307345743	0.07354798697903921	0.05485043714525294	0.1234019055357691	0.05256744188745338	0.09985826605966458	0.02139007370516409	0.0986756133654782	0.2236563346024327	0.06272767328451603	0.01860082960450952	0.05212701217652383	0.3606995767305605	0.01164507810470761	0.01726298396448129	-0.003455268485573312	0.02538419464140863
16.52038990959537	-0.099880434842145	-0.05215085819007133	-0.199319793277619	2.174863456318881	0.9868911827147683	0.9887269549848737	0.4300393606185653	0.1314094951897865	-0.194556640585541	-0.2757658592703568	0.1089154534143743	0.04898796683923811	0.4083912535691651	0.4083912535691651	0.7609252891877957	0.7609252891877957	0.1153163839864166	-0.2857581492986313	0.05357311722904758	-0.3412022554577416	0.4808474412731096	1.016838011365405	-0.04440758510369529	-0.08972716894095237	-0.9140403561001152	0.09110117329000227	1.166383253281312	-0.4132811324771244	2.264636558635999	3.368324974705155	1.568518702598277	1.261173964337661	6.335864192651193	6.335864192651193	9.208371068561656	9.208371068561656	3.02798540779368	1.276326907453618	-4.614942161122422	0.02026922121793347	0.009510639674569147	0.01185262852442822	0.01024393806573945	0.02160823665551143	0.01104360641401005	0.01144618120274004	0.02393943379214286	0.05883036150362698	0.1713938639303668	0.09792347985780409	0.02104259152144943	0.02112844444282494	0.004815814259000033	0.005887229072637433	0.02699487699136031	0.0836134231471468	0.01009221652556001	0.2790823041099669	0.1435884784229745	0.08298165991404609	0.09056420750074989	0.09214407224630826	0.06428481674380283	0.01719404526855673	0.02745596988534079	0.05111153489822368	0.1167867852878844	0.03484169303934569	0.03510557086725737	0.04328007082841567	0.05281070279675628	0.1313734359272043	0.0330600973918178	0.02930601119169598	0.0924278512244226	0.3537961707339177	0.04820701565344359	0.04586986181729987	0.01344754072180947	0.07655430807820736
16.53918989079536	-0.09568892292381707	-0.02738829348716672	-0.1990353071742973	2.172682425510244	0.9688767288156633	0.9903747599858297	0.4589468432082177	0.1219004439566065	-0.1419474927775044	-0.1998521996560817	0.1435714522601549	0.06697141648776049	0.5312174730038125	0.5312174730038125	0.9381455351648752	0.9381455351648752	0.1867212492106837	-0.2622170215653775	-0.04216214828133166	-0.3395281193232668	-0.03208203023191071	1.617431040840342	0.07384554021360569	-0.14264743747876	-0.9860365087470475	0.08421485779138342	1.815795997619855	-0.5827283702876559	3.271039183137156	4.691681136003012	2.134352679056216	0.6561972104455813	6.510443942525907	6.510443942525907	9.553863858836518	9.553863858836518	4.62126416247016	1.259875536595171	-5.407187791277334	0.1295658212811633	0.010820214668249	0.008988432209809088	0.01018267793897643	0.0308471396727275	0.0108960067784412	0.01014989045676586	0.00611877041600554	0.02472267188418142	0.09996151756881407	0.07971880656773293	0.03630171765805008	0.05066165534452145	0.02207607748529175	0.02735424415896502	0.06060325669266814	0.1216066646199885	0.01009875781572343	0.3946412529899739	0.212259782971218	0.1254154331705534	0.1378572549125228	0.1220726821467379	0.08018570407851672	0.007149286729308186	0.003871892779985863	0.03442166761571324	0.07522239756629875	0.04212525666561961	0.002967567521712239	0.0620256369121862	0.02071639416270744	0.0546977497097084	0.01397359691418456	0.04654843853952478	0.1227746735883312	0.328436029692264	0.137135476963317	0.08982915623714582	0.09914828233426956	0.1458926708419805
16.55798987199535	-0.1003604276068504	0.007859738766822732	-0.1953346373098982	2.169542039055504	0.9505229085711532	0.9917867864223024	0.4931077522550225	0.1093430740240768	-0.07638059934806668	-0.1007393843263609	0.1886003350710897	0.07502647333599702	0.6446314057131148	0.6446314057131148	1.116442295651715	1.116442295651715	0.2835508006259095	-0.2385180047983694	-0.1456020941767876	-0.3377973367353179	-0.4566049504000577	2.082124410078196	0.3413627640179022	-0.1897974150916414	-0.9485578540356738	0.06350074293590501	1.701439194487962	-0.7382738447085105	3.5699148600564	5.817807438385	2.618830303675624	0.2238926634061372	5.36786758800936	5.36786758800936	9.315389484076135	9.315389484076135	5.633063933867105	1.240629296993954	-5.410453081105352	0.03301850838515603	0.01065138250621163	0.009169736774170836	0.0100331503770626	0.03542320860346269	0.0100963629291377	0.00984812343507149	0.004457502035045621	0.009163855036502647	0.03728395898433483	0.05201840987699091	0.06183450365150703	0.1077713088377863	0.0658902700645687	0.07109497293560219	0.1048578593722058	0.1252886491377918	0.01004721922317044	0.4749267975166152	0.2687756566697151	0.1766050026618693	0.1668048947151921	0.1411958210622944	0.09499515460111915	0.006921595360562906	0.003090655681300714	0.01654916528225848	0.02871972264510479	0.07446719546183253	0.0001977218095690673	0.07172446914994296	0.007823885987644842	0.01353011367754279	0.007837989362643566	0.09270225376057092	0.1287746741658325	0.3248617823659591	0.2870842582586264	0.14077238867992	0.2685981831528591	0.2143383893763918
16.57678985319534	-0.11136683236865	0.0479929581334365	-0.1845843296888147	2.165651302657701	0.9339482305724498	0.9925991429755008	0.5171782214140181	0.09437356225045375	-0.01353874423210714	0.01605994995687646	0.2393851473231041	0.07680995305510038	0.7277485534459998	0.7277485534459998	1.284782620649618	1.284782620649618	0.390305730276487	-0.2161321650334226	-0.2426905345141797	-0.3383392216111739	-0.6991649803868024	2.112026942130201	0.8360269840714347	-0.2208697689322339	-0.7987218651804237	0.01943853292811967	0.7600009298629062	-0.8384073100540328	2.989655662221088	6.553121837984894	2.709096961616728	-0.01013969200970906	3.373517638139767	3.373517638139767	8.501511034218838	8.501511034218838	5.584250334792786	1.098277379278523	-4.770588852401051	-0.08992679507369525	0.009995913620289312	0.009957098451035182	0.009975778690145924	0.033407893118856	0.009732612762549836	0.009877115652304614	0.008933058481675556	0.007065933414551492	0.005835994064968645	0.02687387355484701	0.1014593259354761	0.1925274402198322	0.1311423626722003	0.1286601088904305	0.1423441346021975	0.1089384751213095	0.01001632768373298	0.5234403316997153	0.3033584785968942	0.2194975270737853	0.1771128399953294	0.150425754202056	0.1060438796097689	0.009526974948596457	0.01005290406930482	0.007395824668164204	0.003841071261319006	0.1073998645931115	0.00846174026021212	0.08361196270343677	0.007486479236359378	0.003593580739880578	0.008693768101797499	0.2055022241706355	0.1184999927384668	0.3680660650820405	0.4807919990390733	0.1904600630943658	0.4795275148768423	0.2724792970371928
16.59558983439533	-0.1251377548481877	0.08362087781095996	-0.1626854350713499	2.161368485571616	0.9210904149859288	0.9923938308995577	0.5180200552101244	0.07903374141302114	0.03259267084415565	0.142247996010854	0.2869267270633362	0.0758092446313216	0.7706314416259878	0.7706314416259878	1.433051506208771	1.433051506208771	0.4868610819724895	-0.1975136821435225	-0.3247396080377187	-0.3402444874734401	-0.7431621704783351	1.612206670997371	1.511335608831617	-0.2311702060574388	-0.5573763562308028	-0.04286710677461457	-0.7147155163655223	-0.7642091068946022	1.872643206802372	6.799488867509821	2.269103090164624	-0.08122825107778509	1.199216712541689	1.199216712541689	7.195327083184485	7.195327083184485	4.501488669176346	0.8643697343787183	-3.885515801192887	-0.08297984307391983	0.009670398615531296	0.01053850470345633	0.009999400258246374	0.0272955578350021	0.009836400132695339	0.009934702447596765	0.01159323119263064	0.009679866857843462	0.002057070568837231	0.01234802067008086	0.1523841323211541	0.2899197090213497	0.2057568582161892	0.1967076429423427	0.1548988674911159	0.1040275750972524	0.01002293294033978	0.5681733528887239	0.3192552696782214	0.2355513396085255	0.1861354953408417	0.1574844704190793	0.1108837960315715	0.01073204955192715	0.01267549312416696	0.006986109992513232	0.001899226235462179	0.1099692836324982	0.01465620165182123	0.1134667919360871	0.01071812070645915	0.007712471856698069	0.01043077983437335	0.4019772030739177	0.1161191004098564	0.4396590717576113	0.6753548425740433	0.2310830612662562	0.6546766951169014	0.3199798540276674
16.61438981559532	-0.1383503723163342	0.106156631138664	-0.1274477329105509	2.157086460256011	0.9133341852672073	0.9909662324809843	0.4898574038308868	0.06752454449489272	0.05714165760946299	0.2687347959592876	0.322101294617104	0.07482468894785642	0.7751750740592811	0.7751750740592811	1.553015779485717	1.553015779485717	0.5575235407653205	-0.1831818620593061	-0.3905119938569802	-0.3401496635648204	-0.638354442049443	0.7539631459245179	2.219815986286238	-0.2213379439659175	-0.261805071144153	-0.1071072472710202	-2.263021756895819	-0.4197050040890961	0.7844864267215298	6.582477180916368	1.414571638451285	-0.02278197533558596	-0.6224085723143327	-0.6224085723143327	5.511972786758683	5.511972786758683	2.844146374381798	0.6830062373763087	-3.12568296404623	0.1393909745207254	0.009850588602437879	0.01092382472120947	0.01003169038233321	0.02073193153554145	0.01002337208800079	0.010093674411471	0.01127835131667287	0.01161068341205182	0.00818876487869841	0.008982769841346654	0.1992836331455923	0.3707357704818249	0.2805943911788613	0.2866634681483323	0.1368275893547655	0.1131471027253643	0.01004172296545597	0.6293954841423248	0.3282942646311737	0.2241052544706533	0.208984289893237	0.1705975017679383	0.1131852609463323	0.01075960164249894	0.009431279443718618	0.00965829705487095	0.008441380062851257	0.077848622076368	0.0150941555541636	0.160620758499377	0.01222760041020113	0.01204253207005015	0.01086647590985604	0.6419201163387663	0.1375951541922669	0.495613960251111	0.8169306514563224	0.2518733756128715	0.7371165173559984	0.3500046649329676
16.63318979679531	-0.1487851657442768	0.1118812000495351	-0.08001505297912748	2.153162366337234	0.911311768931763	0.9884602424447381	0.4347913667163207	0.06462549626528011	0.06492669230436585	0.3876300013770267	0.3393505093124562	0.07557810993465089	0.7502107607216123	0.7502107607216123	1.638699517548237	1.638699517548237	0.5959525171916977	-0.1708349900901726	-0.4434714203909688	-0.3339079816501895	-0.4547198392552003	-0.1370540148266273	2.776349704511152	-0.1936844073454385	0.04596290613961963	-0.1548025077388551	-3.538534694897708	0.1414019024404236	0.1327715704442617	6.006195900802475	0.3890700193438066	0.0879271592438587	-1.923418107250395	-1.923418107250395	3.575674980833569	3.575674980833569	1.141172319274111	0.6718610060995026	-2.598167698624597	0.5613917292537334	0.0103317235100233	0.01056901970642037	0.01003765991117283	0.01564870399702355	0.01008184749928409	0.0104041107000551	0.01011085753115065	0.01152611444896573	0.01195066798682072	0.01199573905420626	0.2206162061900812	0.4044377422468262	0.3459123156674878	0.4001822889172102	0.09860398870041912	0.1083565101004063	0.01004585205255966	0.6991930086156009	0.3384641846555771	0.2007948989912919	0.2446006535829307	0.1908733675854299	0.1186759229993472	0.01100584800203	0.007667565954616795	0.01122920910858997	0.01241581490424592	0.03616374720446641	0.009421264831463426	0.210491250955947	0.01051612339238918	0.01266415517837239	0.0105543120597822	0.8406089964527603	0.1773719326114009	0.5033718553109312	0.8626104129560643	0.2426293469303577	0.7165391473979813	0.3462781410814282
16.6519897779953	-0.1553803063977842	0.1030504303632105	-0.02499070630090446	2.149912478380136	0.9149157979094815	0.9853314036433101	0.3592152084937487	0.07250528602941494	0.06522540609852408	0.4930762063358575	0.3373391923884717	0.07750953696760765	0.7047619668249629	0.7047619668249629	1.6865302062214	1.6865302062214	0.6034110783654424	-0.1570132584158098	-0.4866287811984276	-0.3186276748285454	-0.2403376209842513	-0.7709681192951315	3.014028095746043	-0.1499239372382073	0.3307739044972278	-0.1726721247453457	-4.440358854221939	0.6963493153986827	-0.03303261066614027	5.171535777465959	-0.6153074506408003	0.09273199077449834	-2.840355344549121	-2.840355344549121	1.513332799747309	1.513332799747309	-0.3622973334144954	0.8255233214722972	-2.118249103335422	1.071283565523619	0.01059657931990813	0.00875114344706604	0.01002537876809503	0.01231892739856188	0.01004296751640815	0.01044717637899773	0.009552541602634629	0.009709695064959013	0.01219431362385289	0.01571592693157977	0.2050714475450717	0.3783782406206151	0.3822474848053521	0.4992400054297091	0.05810526575569633	0.07484915931007805	0.01003132340784436	0.7484332756175081	0.344131117714162	0.1775935578530134	0.278907034134609	0.209695187766487	0.1254186003223577	0.01099104431197623	0.01923751809874163	0.01093727510952922	0.01227996599799745	0.009935860145332816	0.0003305244105712268	0.2534625069505612	0.006895103248661842	0.01121314967525174	0.01015638545779082	0.9241460513243257	0.2171806618126303	0.4592509298983597	0.8009475034306237	0.2032866739503971	0.6117956066317827	0.2995724615826817
16.6707897591953	-0.1578811423219113	0.08588156461596481	0.03060730371716859	2.147620923584369	0.9234635067130595	0.9821917939515201	0.2698348697095616	0.08846029304961765	0.06507472538964726	0.5809358416990634	0.3172420372653736	0.07698366935306677	0.6443576279788812	0.6443576279788812	1.695454774034481	1.695454774034481	0.5827080457924662	-0.1395415673008868	-0.5188325348532274	-0.294047545049651	-0.02777707722654196	-1.023046796861635	2.847722602494255	-0.09210520541536522	0.5684419609735217	-0.1573973699372392	-5.020272723367694	0.9706093730151473	0.01736875042848436	4.150154305210959	-1.521779561672531	-0.1722222751520196	-3.564371766672421	-3.564371766672421	-0.5414203883466651	-0.5414203883466651	-1.810897846303047	1.032854307710402	-1.404984183208952	1.524500113508931	0.009948903586545212	0.007051629649690513	0.01001309705743328	0.01050582855874706	0.010000892553967	0.00959246319185556	0.009624877676797492	0.007457444550283555	0.01189301579909582	0.01677755917986585	0.1620165803688906	0.3077995736580743	0.3687842355110874	0.5258384084898874	0.02873640694531022	0.03179009048891364	0.01001250190907638	0.7436272646033446	0.3295812036308955	0.1545427726775294	0.2941692822784962	0.2145626529460893	0.1249290528573261	0.008866511504474452	0.05394104554961344	0.009590189564856161	0.0105324577816072	0.004787957979963187	9.820240263198714e-05	0.2858620192216068	0.006239552003182862	0.009064313275016738	0.009524247065107934	0.8694710036481579	0.2409625291271088	0.3777755445265775	0.6610030041627317	0.1468331185638983	0.4515178407108368	0.2209696763938625
16.68958974039529	-0.1567352908899931	0.067071097622382	0.07952345424564597	2.146508880349863	0.9358789091187678	0.9795949188890443	0.1723469028213407	0.1057086596256298	0.06496922734048177	0.6484850269993081	0.2810350390984484	0.06845809130045755	0.572067520477744	0.572067520477744	1.667061905924956	1.667061905924956	0.5325060125827266	-0.1186434787845841	-0.5346172946338698	-0.2621914037257467	0.1411893035380005	-0.9590481010940609	2.332196278818194	-0.02529193119380324	0.7423233521923753	-0.1176062730168275	-5.312561592230865	0.8259511601158263	-0.1053285060777885	3.021720639033675	-2.314445320324488	-0.7494845010831199	-4.130561171691181	-4.130561171691181	-2.444945255432196	-2.444945255432196	-3.54146972335615	1.176241858882757	-0.2912473012363793	1.843349454343911	0.008471131646199533	0.01119588718190439	0.01000857362820834	0.009860388095603394	0.00999309685489661	0.008247023065162803	0.00994518194597975	0.008784404162118531	0.01106393155673282	0.01456058154683363	0.1144894817671352	0.2256906235786522	0.3061099459251038	0.4600626752838746	0.01394317447665721	0.00567743851382269	0.01000229470722217	0.6610984136585112	0.283796720493761	0.1303648347414632	0.2767593885140875	0.1991124189899849	0.1138062915304559	0.005378653733371329	0.1115109382809308	0.008401981321542793	0.008646489273290833	0.01520024304833688	0.0284543879723369	0.2947731888686168	0.0158931114629439	0.006948258875835391	0.008765047050735282	0.7017640112589375	0.2412004336797582	0.2748238892184245	0.4983451696027056	0.09102574366314513	0.2744361635201806	0.1359093530800068
16.70838972159528	-0.1532186897655759	0.05058235374137744	0.1169339606136654	2.146661872909127	0.9508255551437885	0.9778354604869244	0.07254279727309476	0.1173831829159413	0.05878371607957315	0.6948266707349884	0.2309305389619167	0.04727143197390277	0.4917589524188438	0.4917589524188438	1.605519690843648	1.605519690843648	0.4465328967080964	-0.09604878722784051	-0.5264554937233917	-0.2252673826887553	0.2209354680155982	-0.7910195291643297	1.656574490131185	0.04114355024628324	0.8396264371966922	-0.07080969801070244	-5.26782698537776	0.3937274409942459	-0.6670330850407558	1.907361254708542	-2.984637884866356	-1.511397717620186	-4.411756591849042	-4.411756591849042	-4.060457463466322	-4.060457463466322	-5.681037220652183	1.217537160400796	1.220409424189083	2.081685605523157	0.008308686962514182	0.02867210555168836	0.01000951298490112	0.009865880944478706	0.01000434986466	0.00884603091897046	0.01037193699563792	0.02015806786567952	0.007342798315570781	0.01002536552039392	0.08062308086843746	0.1590871051462236	0.2231585191955862	0.343394615931189	0.009600448770247414	0.001843049503026649	0.01000150319895769	0.5031115743539052	0.212130193814691	0.1089376239089733	0.2255439667769935	0.1680606388609	0.09824294588745615	0.007050623223078921	0.1778177078120031	0.009210814582972892	0.007582196721733046	0.03590971981301794	0.09347362045850191	0.2615733400589401	0.03924992428102045	0.007831896257587234	0.009375510656717826	0.4745019137018834	0.2179785654238886	0.1667909547388043	0.3599728098315713	0.04833839703616452	0.1259253110911803	0.0678194653342204
16.72718970279527	-0.1493645499297325	0.03585800078310981	0.1421113283474872	2.147968087128495	0.9668197467724108	0.9768651571450804	-0.0224955009942633	0.1212737306408462	0.03756781655561427	0.7216409412141708	0.1692484180024315	0.01203280833196614	0.4098333605348727	0.4098333605348727	1.516979595372772	1.516979595372772	0.3193798329802468	-0.07325095248603258	-0.4876556898068714	-0.1832854218636863	0.1840474828173123	-0.7807450385300488	1.048383800759099	0.09581581387464208	0.8523299290945283	-0.03488716687415693	-4.808377828902329	0.01971814356881954	-1.655042580368526	0.9601192072005852	-3.534061918446689	-2.238241698171533	-4.261946434214232	-4.261946434214232	-5.302745893410438	-5.302745893410438	-7.865072274689372	1.200567507306442	2.976730307642436	2.393486655306386	0.01306489970276206	0.06216867650885239	0.01001174447913454	0.01001755252571907	0.01001504617927627	0.01424947393520071	0.01066965807185479	0.04494249687877987	0.003102469303758192	0.005773002372944797	0.06139831901021912	0.1129010452436051	0.1556172868112604	0.2388765125333099	0.00970379007592396	0.007826692493168185	0.01000401993664725	0.3089980184514888	0.1342273878093706	0.09214125412961412	0.1567056800575225	0.1325601123354884	0.0854609439420275	0.022110488572996	0.2304998423873368	0.0135515957005059	0.01040182775362561	0.06012330876774444	0.1747715507370632	0.1870281142261714	0.06933169084231121	0.01654563685144365	0.01328748127175006	0.2530047730241514	0.1770243797266712	0.07992060274869647	0.2563606944597149	0.02261154731678105	0.03637275495308283	0.02703943634799479
16.74598968399526	-0.1474735464592402	0.01828982419496265	0.1578484279872161	2.150125799541065	0.9823496758197524	0.9763817490983273	-0.1047755765958854	0.1215334859130338	-0.004941674419176225	0.7333572360629093	0.09813093929808218	-0.03503319991927721	0.3345426563231214	0.3345426563231214	1.40834191916518	1.40834191916518	0.1549274107633948	-0.05060105950993204	-0.4154722781089232	-0.1333634000791513	0.03417358724550619	-1.101195975049031	0.6460032185738741	0.1301090628304505	0.7816761536585874	-0.01898710849341446	-3.917626932699456	0.01764373397261551	-2.798190722942087	0.3124142168626634	-3.978570699999962	-2.752009665436314	-3.620781355210807	-3.620781355210807	-6.181054816225692	-6.181054816225692	-9.410389665172255	1.189024275943483	4.69325641256366	2.91863807220701	0.02427759128992727	0.103940050428194	0.01001403947130367	0.01007355076848276	0.01002662114781002	0.02368944645810583	0.01016943152365293	0.07624130349480689	0.0104578933565321	0.007371135056663743	0.04666301610925912	0.07670898167062323	0.1186550371945318	0.1792778636919664	0.01035217465159309	0.01199224156358205	0.01000546066260791	0.1395105422567481	0.07109383534805612	0.07540940005551486	0.09489841087482541	0.1009065768785011	0.07525101581095077	0.04951767227309552	0.2523849631868168	0.02000523368902448	0.02162168232090936	0.0762826608595461	0.2346836080763536	0.1003885311084419	0.09151882084785749	0.03452123995124221	0.0202414845722826	0.09340389429479293	0.1280025806270817	0.04540025366661812	0.1707878543717788	0.01126715939694849	0.00404246986587915	0.0104365946664658
16.76478966519526	-0.1491586948185936	-0.008074072498790255	0.1680386175655526	2.152727168466199	0.9959746711100605	0.9760274656045548	-0.167391559649088	0.1256013370792018	-0.06797315570308482	0.7360143648474039	0.01962729658981747	-0.08950421194221475	0.2748875511213768	0.2748875511213768	1.285934206634039	1.285934206634039	-0.02942518277430001	-0.02784946082187837	-0.3135429442295198	-0.07152622299659206	-0.1812412138723689	-1.731625997059125	0.4432699823580237	0.1419918671094196	0.6418028316338439	-0.02078972962933886	-2.711775746716217	0.4330563685501049	-3.726991036315234	0.003275888820158943	-4.316848687533747	-2.99031682904016	-2.520825829596902	-2.520825829596902	-6.780067147888767	-6.780067147888767	-9.782735527552449	1.204984119779945	6.042088011549755	3.659969816092503	0.0382498380357112	0.1376670895951195	0.01001756627584302	0.010043766021322	0.01005189555329651	0.03130926337173123	0.008617981182631244	0.09818644973677954	0.04319312233845358	0.02071752715020178	0.03033865233816934	0.04392701607424558	0.1013921175398298	0.1552564321637755	0.01038757788833536	0.01188621462249484	0.01000544355540633	0.03754196679234226	0.03281791593788406	0.0546885477011815	0.05575923823241057	0.0739456048430996	0.06221285241502864	0.07445042897664793	0.2428482596549352	0.02383947455868388	0.04217772745822501	0.07445171029411313	0.2490114197310372	0.03630810685502381	0.09479162766647686	0.05694281040341862	0.02741017920454421	0.01689686421998506	0.08173990515383124	0.07501923770759139	0.09317087246250361	0.008762391819651973	0.003813633664537831	0.007892676522089579
16.78358964639525	-0.1542354168881505	-0.04718086744438454	0.1753029084263283	2.155375728162708	1.006422300664893	0.9755556793944938	-0.2070862556179572	0.1388708706351235	-0.1428534335142571	0.7350532494553778	-0.06364903378233036	-0.1464757347886464	0.2399742319293323	0.2399742319293323	1.154956163376408	1.154956163376408	-0.2060268876107032	-0.005344624545506134	-0.1916831524736366	0.004193970679952627	-0.3629262056016632	-2.473282574968422	0.3416415043027814	0.1363316293559309	0.4578779923443874	-0.03130441460539644	-1.460067246910878	1.028267175990351	-4.145228035338255	-0.05776533442674444	-4.515175040239599	-2.994449987585713	-1.080626205375784	-1.080626205375784	-7.165830517379734	-7.165830517379734	-8.857100846723926	1.20638300462961	6.808520965825371	4.437203312383033	0.04758391889493323	0.1489595370285447	0.0100229060906777	0.01000920136717063	0.01009025328349683	0.03129222054199183	0.007905097407434929	0.09975914224640314	0.09672725197928976	0.0432484514984125	0.01572900978260912	0.0187671575399426	0.08473277696153975	0.1395963362044948	0.01009768014321869	0.01025861216609841	0.0100051865987976	0.00272539482987761	0.01619467493144257	0.03292189940993357	0.03876724679733404	0.04942617047588432	0.04416562155658688	0.08121682237754724	0.2165476671937247	0.02191258689513485	0.06438096665527429	0.05554464108144276	0.2231779217728241	0.007936435830785184	0.08063869855576024	0.07877912357194519	0.03361916711965118	0.002967328577374864	0.04686988866847201	0.1416479686998838	0.03358917768978025	0.009616596067686427	0.01055553178469408	0.009756236611860541
16.80238962759524	-0.1605354417259858	-0.09915420194482449	0.1803409932399731	2.157791293796694	1.012835906413991	0.9748795500781937	-0.225690564856192	0.1616750573180194	-0.2167838266118338	0.7335250241860573	-0.1483890660790841	-0.2019092495666778	0.2368599467670134	0.2368599467670134	1.019682167534723	1.019682167534723	-0.347109188781092	0.01551613599603779	-0.06213383327456073	0.09190382483058435	-0.3927065602906724	-3.077674063761151	0.2409700751025657	0.1217121057613513	0.2575917755599739	-0.04159087709073812	-0.4928218055287241	1.476913555152185	-3.92582003405081	-0.03957340940122051	-4.544113984605393	-2.871642403257681	0.5052733552289624	0.5052733552289624	-7.313414514813561	-7.313414514813561	-6.816735256702317	1.110531473287835	6.992409966939334	4.974932051679719	0.04638318680819736	0.1355790944051092	0.01002837286497433	0.0100040607018514	0.01011735385996789	0.02428471340994449	0.01227308529184379	0.0872709643602908	0.1393269257234505	0.05938155279749367	0.007959039590098643	0.006578974242908327	0.06080567132136797	0.1133456428656154	0.009905707933109065	0.009379664982660593	0.0100054114965728	0.003821041272677385	0.01154137336352302	0.01687733353882572	0.03573042837853882	0.02868120526933537	0.02599033162260686	0.07031195821867801	0.190962418152384	0.0175515047478103	0.07350030180493734	0.03172189901342551	0.1805512453093606	0.004377347008952148	0.06133809170720439	0.1026263791608237	0.0431139633157815	0.01222273190469371	0.02752129896324413	0.1897757692346421	0.003805795530776308	0.01049966733856328	0.01317597221854914	0.01099291897244574
16.82118960879523	-0.165544084040019	-0.1608153103452354	0.1830650767171715	2.159877849910634	1.015281774569632	0.9740282946255627	-0.2291819035512893	0.1906248971022679	-0.2803782836007044	0.7321320799793682	-0.2318761879126264	-0.253831230207512	0.2656046496912089	0.2656046496912089	0.8833394996491953	0.8833394996491953	-0.4395803712983584	0.03339902516526604	0.06603827277469715	0.1869936394172488	-0.2105786704654367	-3.403971306586916	0.09253939177191217	0.1056121706144004	0.0601319161413921	-0.0468498656518399	-0.0007793136854521154	1.593970889598143	-3.135504012310798	-0.07712521036718899	-4.42200061466161	-2.741109660983596	2.050511644419359	2.050511644419359	-7.169740534006196	-7.169740534006196	-3.971004021703273	0.8592220844536256	6.766993368957355	5.098951226249953	0.03393507269283767	0.106429588966474	0.01003155580028048	0.01001616139887737	0.01010603287582665	0.01609046004934338	0.02512465926739188	0.07737602741209876	0.1365920515152859	0.05224845369131961	0.007211279200364279	0.005644600482183879	0.0343355646677529	0.07330609733525552	0.009906527990662035	0.009487309489746368	0.0100060967912936	0.01015935666328829	0.01065821499864762	0.01009957985163289	0.04037764885461224	0.01575604684435546	0.01445584387787993	0.05590676956857204	0.1750904404109276	0.01746031974309619	0.05845470754836254	0.01591603451524469	0.1409006523934309	0.00797511224802013	0.04916852793264937	0.1357139958026036	0.06187059465310141	0.01632302593984111	0.02260519018889139	0.1757269083799278	0.000400440491389969	0.01051550385210364	0.01205034787340836	0.01081562169594651
16.83998958999522	-0.1687326961360517	-0.2274467662894736	0.184107270988746	2.161735000813119	1.015194239508283	0.9730830994013142	-0.2251600212586325	0.2220120590686104	-0.3342554516468523	0.7307081044256842	-0.3136436366837898	-0.302996505044937	0.3149102858176243	0.3149102858176243	0.7473401935624968	0.7473401935624968	-0.4967082082920855	0.04878463587886769	0.1906846229051222	0.2850317593220695	0.1255940251099136	-3.511672070939713	-0.09654668955893578	0.09087193044648657	-0.1301823426608711	-0.04764054445023036	0.1270071490940695	1.449007244834531	-2.010087838882352	-0.1908814360821807	-4.214613732904826	-2.652845799996223	3.501992747544392	3.501992747544392	-6.802543792142822	-6.802543792142822	-0.6951281281729486	0.4858376956401838	6.351327861649334	4.899987699741375	0.01452775187198922	0.07157198250809427	0.01003223142341796	0.01002973657546906	0.01005868560206375	0.01006817287037021	0.04480168123207609	0.07693683275394624	0.09043049634332059	0.02309038827451082	0.01007056788160806	0.0100252748339712	0.01000444426377209	0.02536759828506994	0.01000712540773398	0.01000602024562937	0.0100069860193287	0.01083167839097554	0.01001692478900024	0.01001099751297827	0.04898345702426381	0.01018296849337644	0.01003534440770478	0.04663190846087967	0.1672188154791416	0.02325057360231467	0.02373517472802902	0.01002121690576939	0.1088036003115133	0.01000636178472048	0.04591633555921368	0.1785443372825373	0.08937180180228037	0.01000081918067306	0.02635628748239209	0.1065045924548255	0.01001881214627851	0.01000710203292786	0.01000220786367544	0.0100052245772526
