TendonForce
version=1
nRows=51
nColumns=5
inDegrees=no

This analysis gathers basic information about muscles during a simulation (e.g., forces, tendon lengths, moment arms, etc).
Units are S.I. units (second, meters, Newtons, ...)
If the header above contains a line with 'inDegrees', this indicates whether rotational values are in degrees (yes) or radians (no).

endheader
time	recfem_r	vaslat_r	vasint_r	vasmed_r
     13.76665999	    728.81327508	    168.64233512	     61.52429757	     92.89972347
     13.78439331	    554.81046295	    165.97022201	     60.20216196	     91.04943857
     13.80212662	    376.63147741	    167.06959585	     60.27824744	     91.22830893
     13.81985994	    238.40351725	    173.95382039	     62.52405232	     94.55863458
     13.83759325	    179.70589127	    187.15014673	     67.17245813	    101.38086606
     13.85532657	    198.86097793	    206.58583159	     74.26323654	    111.73663979
     13.87305988	    260.91931138	    232.34086869	     83.94233888	    125.76933518
     13.89079320	    337.92326637	    264.58428497	     96.47038119	    143.66754904
     13.90852651	    426.40167149	    304.61047813	    112.62925336	    166.27951589
     13.92625983	    534.13821801	    353.66728687	    133.37931599	    194.64387107
     13.94399315	    649.39738883	    406.92196192	    157.28576904	    226.30645224
     13.96172646	    745.64954254	    458.38123108	    181.88100427	    257.82653765
     13.97945978	    801.36981542	    502.97072738	    204.55120520	    286.02385983
     13.99719309	    806.45950240	    537.24570870	    222.99408997	    308.35615793
     14.01492641	    762.99681725	    560.62136639	    235.51554186	    323.14467135
     14.03265972	    685.78333747	    571.57062902	    241.42676907	    329.93344381
     14.05039304	    594.53613562	    569.09193875	    240.56761925	    328.74915301
     14.06812636	    503.94018036	    553.24916656	    232.84185967	    319.46680892
     14.08585967	    419.52159603	    525.15982221	    218.27285979	    301.87347893
     14.10359299	    340.89552711	    484.69711308	    197.47385898	    276.29518621
     14.12132630	    267.33033417	    431.45927835	    171.80526646	    243.88796765
     14.13905962	    200.30316979	    367.16770209	    142.95548066	    206.26463071
     14.15679293	    144.14152314	    298.30981127	    113.82599061	    167.02649788
     14.17452625	    104.08377339	    238.66221027	     89.24730435	    133.19352214
     14.19225956	     77.26766296	    193.03586251	     70.32482171	    106.80905968
     14.20999288	     61.67880169	    163.88612769	     58.02415254	     89.61858783
     14.22772620	     54.96534089	    143.95835207	     51.12240310	     79.53318756
     14.24545951	     54.71667550	    121.41017562	     47.00747508	     71.77373591
     14.26319283	     58.85000603	    109.77098676	     45.68656214	     66.62162177
     14.28092614	     65.80083468	    193.36610026	     56.06788537	     82.54299235
     14.29865946	     74.90199556	    518.40129349	     95.42791342	    157.29853437
     14.31639277	     86.19808107	   1182.29708767	    174.84481073	    320.14130195
     14.33412609	    100.12757096	   2109.40181946	    284.01307337	    556.37584243
     14.35185940	    116.61263206	   3075.64157351	    395.61913189	    807.73428883
     14.36959272	    133.88650239	   3879.56480836	    487.90325334	   1017.90965087
     14.38732604	    147.53649242	   4426.47970345	    553.26392506	   1161.15409500
     14.40505935	    151.94181718	   4688.80809936	    589.64119511	   1233.46092185
     14.42279267	    146.28026757	   4663.31763983	    593.24005480	   1234.61370933
     14.44052598	    143.09744898	   4349.73850022	    558.23050765	   1158.42462011
     14.45825930	    171.28708117	   3762.47936385	    483.51369949	   1003.49373329
     14.47599261	    255.63268706	   2958.38798107	    379.44887259	    790.28098331
     14.49372593	    378.29645927	   2058.78572561	    267.37776137	    561.51123233
     14.51145925	    476.03146342	   1228.72952632	    170.39758027	    361.42052793
     14.52919256	    490.71598628	    606.68517970	    102.31340554	    214.49861925
     14.54692588	    416.18006914	    250.23960832	     64.73094050	    124.69843096
     14.56465919	    295.65971775	    116.94599583	     49.88080245	     81.94756366
     14.58239251	    187.00390782	    108.13784366	     47.17001013	     69.65529030
     14.60012582	    127.81024440	    135.43118986	     48.80533933	     71.79161543
     14.61785914	    121.09100976	    155.21551724	     51.40941093	     77.74691028
     14.63559245	    145.50247486	    161.80732684	     54.52881509	     83.22406515
     14.65332577	    181.40568529	    162.62897468	     58.28667575	     87.86001279
