Moment_knee_angle_r
version=1
nRows=51
nColumns=5
inDegrees=no

This analysis gathers basic information about muscles during a simulation (e.g., forces, tendon lengths, moment arms, etc).
Units are S.I. units (second, meters, Newtons, ...)
If the header above contains a line with 'inDegrees', this indicates whether rotational values are in degrees (yes) or radians (no).

endheader
time	recfem_r	vaslat_r	vasint_r	vasmed_r
     13.76665999	    -38.85447389	     -8.49622495	     -2.95646381	     -4.37341612
     13.78439331	    -29.65523329	     -8.41795322	     -2.90806814	     -4.31892613
     13.80212662	    -20.15590252	     -8.49838554	     -2.91934114	     -4.34311063
     13.81985994	    -12.74062362	     -8.82102213	     -3.01968433	     -4.48424661
     13.83759325	     -9.56321861	     -9.39090158	     -3.21920060	     -4.75330223
     13.85532657	    -10.48739233	    -10.15271515	     -3.51798657	     -5.14703801
     13.87305988	    -13.46660438	    -10.99366563	     -3.88493236	     -5.61443491
     13.89079320	    -16.65990663	    -11.70957056	     -4.25322353	     -6.04533137
     13.90852651	    -20.41712890	    -12.82691994	     -4.82710956	     -6.74146634
     13.92625983	    -24.82815169	    -14.15839894	     -5.56695907	     -7.62388087
     13.94399315	    -27.49233927	    -14.38535043	     -5.97264858	     -7.96157063
     13.96172646	    -28.23671133	    -14.00097588	     -6.17275738	     -8.00194421
     13.97945978	    -27.30286897	    -13.38315792	     -6.25338830	     -7.90190909
     13.99719309	    -24.90938604	    -12.69834760	     -6.18693551	     -7.64298231
     14.01492641	    -21.68403006	    -12.80987125	     -6.00528681	     -7.28508389
     14.03265972	    -18.61142500	    -12.79165616	     -5.85919072	     -7.03484234
     14.05039304	    -16.22484190	    -12.74068114	     -5.84333608	     -7.01636960
     14.06812636	    -14.54222338	    -12.65370939	     -5.95098041	     -7.22111165
     14.08585967	    -13.24317833	    -12.42748241	     -6.07512357	     -7.50884743
     14.10359299	    -11.91409582	    -12.96124551	     -6.05963824	     -7.66507319
     14.12132630	    -10.41808490	    -13.29262348	     -5.86928692	     -7.62493172
     14.13905962	     -8.75853472	    -13.19727572	     -5.49828989	     -7.36154612
     14.15679293	     -6.90474110	    -12.18593612	     -4.81582386	     -6.64844752
     14.17452625	     -5.09770082	    -10.24959920	     -3.85698600	     -5.46712409
     14.19225956	     -4.01114416	     -9.12300677	     -3.25207801	     -4.76315947
     14.20999288	     -3.28144826	     -8.20105532	     -2.77604503	     -4.19085888
     14.22772620	     -2.96232517	     -7.41801797	     -2.51263095	     -3.85821911
     14.24545951	     -2.97681008	     -6.31361894	     -2.35841599	     -3.56471506
     14.26319283	     -3.20611467	     -5.70683288	     -2.30133030	     -3.32254004
     14.28092614	     -3.57244477	    -10.04753578	     -2.79825150	     -4.07621753
     14.29865946	     -4.02027256	    -26.54152455	     -4.65286821	     -7.55544179
     14.31639277	     -4.58089050	    -58.98227858	     -8.34999742	    -14.92915086
     14.33412609	     -5.23664402	   -101.21390129	    -13.26529420	    -25.13291627
     14.35185940	     -5.90422996	   -139.77293698	    -17.78529280	    -34.79564193
     14.36959272	     -6.58404343	   -168.42309074	    -21.22864719	    -42.14164023
     14.38732604	     -7.17143866	   -188.25524485	    -23.78449019	    -47.32601583
     14.40505935	     -7.36316425	   -198.17949057	    -25.28582146	    -50.08442251
     14.42279267	     -7.08762862	   -197.27060014	    -25.44691278	    -50.15415033
     14.44052598	     -6.95358242	   -185.43694894	    -24.02660923	    -47.29275732
     14.45825930	     -8.40700578	   -163.48616078	    -21.04998805	    -41.57523904
     14.47599261	    -12.81866916	   -133.10143001	    -16.93087220	    -33.73889527
     14.49372593	    -19.50851016	    -96.80064607	    -12.32103720	    -24.92968518
     14.51145925	    -25.02012028	    -59.82683069	     -8.02993135	    -16.52458254
     14.52919256	    -26.07905184	    -30.31727772	     -4.89093290	    -10.01788535
     14.54692588	    -22.28608305	    -12.74558382	     -3.13888899	     -5.94657004
     14.56465919	    -15.97829742	     -6.04921007	     -2.46515383	     -4.00141433
     14.58239251	    -10.15173667	     -5.62322223	     -2.36474179	     -3.45665691
     14.60012582	     -6.94252653	     -7.03714202	     -2.46440145	     -3.58899447
     14.61785914	     -6.57499849	     -8.06491383	     -2.59617395	     -3.88712032
     14.63559245	     -7.89312816	     -8.41418270	     -2.73431330	     -4.13106977
     14.65332577	     -9.80437221	     -8.41957604	     -2.88472328	     -4.29735102
