FiberLength
version=1
nRows=51
nColumns=5
inDegrees=no

This analysis gathers basic information about muscles during a simulation (e.g., forces, tendon lengths, moment arms, etc).
Units are S.I. units (second, meters, Newtons, ...)
If the header above contains a line with 'inDegrees', this indicates whether rotational values are in degrees (yes) or radians (no).

endheader
time	recfem_r	vaslat_r	vasint_r	vasmed_r
     13.76665999	      0.10807439	      0.11805974	      0.12042320	      0.11853298
     13.78439331	      0.10715392	      0.11671779	      0.11910245	      0.11734892
     13.80212662	      0.10705042	      0.11611447	      0.11850881	      0.11681660
     13.81985994	      0.10828160	      0.11676101	      0.11914497	      0.11738705
     13.83759325	      0.11093522	      0.11881782	      0.12116998	      0.11920223
     13.85532657	      0.11479093	      0.12215654	      0.12447138	      0.12215831
     13.87305988	      0.11949990	      0.12649862	      0.12880951	      0.12603498
     13.89079320	      0.12465475	      0.13149225	      0.13387032	      0.13054067
     13.90852651	      0.12988071	      0.13682872	      0.13937653	      0.13542005
     13.92625983	      0.13494604	      0.14235521	      0.14519699	      0.14056594
     13.94399315	      0.13919497	      0.14747435	      0.15072428	      0.14542424
     13.96172646	      0.14212854	      0.15168837	      0.15541517	      0.14950908
     13.97945978	      0.14365255	      0.15488329	      0.15909043	      0.15267890
     13.99719309	      0.14381801	      0.15711938	      0.16174420	      0.15494595
     14.01492641	      0.14271661	      0.15856031	      0.16342387	      0.15636690
     14.03265972	      0.14055598	      0.15927323	      0.16422205	      0.15703687
     14.05039304	      0.13763631	      0.15926139	      0.16420898	      0.15702593
     14.06812636	      0.13422685	      0.15852455	      0.16338324	      0.15633270
     14.08585967	      0.13042045	      0.15705880	      0.16167175	      0.15488438
     14.10359299	      0.12609172	      0.15477928	      0.15896880	      0.15257450
     14.12132630	      0.12099776	      0.15146743	      0.15516521	      0.14929245
     14.13905962	      0.11489750	      0.14690515	      0.15010158	      0.14487912
     14.15679293	      0.10778450	      0.14095175	      0.14370643	      0.13924972
     14.17452625	      0.10030080	      0.13403017	      0.13647557	      0.13285149
     14.19225956	      0.09304882	      0.12660913	      0.12892064	      0.12613415
     14.20999288	      0.08656577	      0.11931429	      0.12165945	      0.11964078
     14.22772620	      0.08169673	      0.11336084	      0.11579576	      0.11438374
     14.24545951	      0.07893947	      0.10971597	      0.11217513	      0.11114213
     14.26319283	      0.07852066	      0.10888505	      0.11134121	      0.11039755
     14.28092614	      0.08025098	      0.11076218	      0.11321982	      0.11207623
     14.29865946	      0.08360480	      0.11473725	      0.11715306	      0.11560079
     14.31639277	      0.08792181	      0.11984931	      0.12218740	      0.12011370
     14.33412609	      0.09258077	      0.12509847	      0.12740466	      0.12478070
     14.35185940	      0.09696730	      0.12964934	      0.13199299	      0.12887196
     14.36959272	      0.10061736	      0.13302258	      0.13543840	      0.13193214
     14.38732604	      0.10336473	      0.13513305	      0.13761522	      0.13386095
     14.40505935	      0.10525773	      0.13605115	      0.13856749	      0.13470400
     14.42279267	      0.10654173	      0.13590605	      0.13841678	      0.13457059
     14.44052598	      0.10753851	      0.13483442	      0.13730618	      0.13358728
     14.45825930	      0.10843377	      0.13294545	      0.13535916	      0.13186187
     14.47599261	      0.10913438	      0.13032417	      0.13267906	      0.12948218
     14.49372593	      0.10933029	      0.12707211	      0.12938663	      0.12654988
     14.51145925	      0.10877306	      0.12339194	      0.12570016	      0.12325737
     14.52919256	      0.10746642	      0.11955825	      0.12190013	      0.11985639
     14.54692588	      0.10567699	      0.11584143	      0.11824012	      0.11657565
     14.56465919	      0.10385677	      0.11250330	      0.11494809	      0.11362395
     14.58239251	      0.10256797	      0.10987377	      0.11233305	      0.11128325
     14.60012582	      0.10237591	      0.10837349	      0.11082568	      0.10993781
     14.61785914	      0.10365757	      0.10835059	      0.11080256	      0.10991720
     14.63559245	      0.10639680	      0.10982479	      0.11228405	      0.11123946
     14.65332577	      0.11002776	      0.11226798	      0.11471512	      0.11341519
