DataType=double
version=3
OpenSimVersion=4.5.2-2025-05-03-6a4c6ec41
endheader
time	/jointset/patellofemoral_r|reaction_on_child_1	/jointset/patellofemoral_r|reaction_on_child_2	/jointset/patellofemoral_r|reaction_on_child_3	/jointset/patellofemoral_r|reaction_on_child_4	/jointset/patellofemoral_r|reaction_on_child_5	/jointset/patellofemoral_r|reaction_on_child_6
12.2066636099986	-5.264916755447755	13.81850055390303	-49.97351345521525	1867.862167691616	-838.8687104817267	23.06978395805461
12.22013026319859	-3.998799492619359	10.54183208992939	-38.76618481916945	1426.756576882181	-764.0924244126664	10.12401928825271
12.23359691639859	-2.242222592673075	5.293225571096405	-20.37216386365364	746.3922274769425	-462.8780519260551	2.727353314484546
12.24706356959858	-1.40553073110942	2.521382546986005	-9.96080286715063	367.1935535125995	-256.0381397182905	-3.965643790828447
12.26053022279858	-1.497634218343454	2.209303006512666	-7.989936273594111	294.6698236550854	-226.24397826876	-13.97905885266511
12.27399687599857	-1.71078299591133	2.365120963775448	-8.189989440543711	290.560207284015	-244.2787636614042	-23.18703838438595
12.28746352919856	-1.992338748801938	2.757188842570573	-9.772435688227436	318.4165911379517	-292.4621671743758	-32.65723410643198
12.30093018239856	-2.534418578266058	3.49087251343034	-13.59659442040236	390.0815969071983	-390.9346433471192	-44.49340494611786
12.31439683559855	-3.4963310527238	4.654782466338144	-20.238890039112	506.3763399754266	-549.751701572019	-59.75136150791297
12.32786348879854	-5.122597276520269	6.394576859465464	-31.52877882122245	695.4495130622837	-811.8543955775103	-76.4621382852844
12.34133014199854	-7.247903001719433	8.530343262387209	-47.03037110232653	941.7840194415481	-1170.718259248894	-88.05734842421995
12.35479679519853	-8.674120717559662	10.0382586315026	-61.05237884393181	1147.736744847578	-1506.141639918075	-77.52381431034705
12.36826344839853	-9.06686320536476	10.56514623781234	-72.28000389333452	1310.427227299995	-1791.995848867326	-38.63880850588087
12.38173010159852	-8.882958995525234	10.83514030463632	-83.78951915424308	1495.815704599748	-2113.081504368412	17.82863164182488
12.39519675479851	-8.087283279982957	10.3340982027789	-94.75395704190791	1662.943435845368	-2444.53609255996	100.4789276641033
12.40866340799851	-6.434617434328172	7.810311689496134	-94.95663199302906	1547.892895133314	-2489.384720671916	217.0703637768471
12.4221300611985	-4.458670308991364	4.687252656060879	-85.58687530267726	1350.455331584553	-2240.048734829416	298.6190582488403
12.43559671439849	-2.375925928481735	2.451844075515375	-78.11243513442767	1260.575018166377	-2009.131385947663	361.6575020707696
12.44906336759849	-0.0619284737448008	0.890264585240276	-73.50540024636642	1272.710979527312	-1821.251051979767	422.7723742911319
12.46253002079848	2.310842351296904	-0.1724175514309046	-67.82951020603954	1298.766031620546	-1575.569597860878	466.1051262180832
12.47599667399848	4.370421222347463	-0.6146508191697453	-61.1934648209329	1309.073839859889	-1286.419020644725	486.438237860652
12.48946332719847	5.884517412912566	-0.5107289962339426	-54.69141086944843	1301.475952573585	-992.0337245389442	488.6434265001703
12.50292998039846	6.867768733311071	-0.07982290004794425	-49.40654372349547	1290.342329265983	-720.7990295222374	483.5758793149413
12.51639663359846	7.134876205611485	0.6160347923039747	-44.21723989709918	1244.519995159113	-465.4996106891067	461.120577879299
12.52986328679845	6.539908976112532	1.322674970837352	-38.23593339732248	1127.370312155498	-248.4272509675213	412.3926696502465
12.54332993999845	5.281184857291548	2.115786716409675	-32.39852529211066	972.5398426276757	-102.1640107410655	355.6596999284815
12.55679659319844	4.192022926739557	2.020516293039585	-26.70105230212926	805.0717247949078	-20.59244401440756	296.9136851232016
12.57026324639843	3.070307189569643	1.842747308140912	-21.97902126538465	671.7665709935887	29.30456834956866	244.4342497357384
12.58372989959843	2.078666651583603	1.669958222223602	-18.53085091702097	581.4303864391441	58.91028191891117	204.2639196801226
12.59719655279842	1.230355739021033	1.454712606213975	-15.82063581695616	517.7570202042124	74.44999388010807	173.0626729148042
12.61066320599841	0.5054478304620876	1.242764785886341	-13.64145542438309	471.8293059468908	80.44958377669658	148.1718540019761
12.62412985919841	-0.0465540878411334	0.9616626458629437	-10.81594348003398	397.5721652159571	71.76228415564825	116.9812598692071
12.6375965123984	-0.2458215360660068	0.6469629955991635	-7.454505669673258	289.0082157451433	50.26722985411926	81.07109143653757
12.6510631655984	-0.6268911792889842	0.4650657544652644	-8.130037600592106	325.1529521849902	49.68217186428682	85.18409718036361
12.66452981879839	-1.535158231258386	0.6303912248223681	-13.52080754005661	541.4192118611918	67.62561685051826	130.0972807185561
12.67799647199838	-1.961516660944256	6.546903723192449	-30.11487758897361	1171.875315185617	116.026742630279	256.3955723220078
12.69146312519838	-1.740567554056268	19.69061523977697	-59.44155476196579	2247.890467559705	129.322340533748	433.5368943965128
12.70492977839837	-3.522054764058158	33.49870604943735	-94.90651352351978	3507.560914434871	8.268804928101153	537.6995947301888
12.71839643159836	-9.335131718021971	47.17816983284121	-134.0515957969941	4878.548379112075	-288.4660402003475	484.2634532471994
12.73186308479836	-17.31743576087565	56.85737738956406	-158.4044377036631	5719.372194566311	-715.0798979701389	210.6009141362198
12.74532973799835	-24.56807179911117	60.99675695919067	-164.3529878481108	5912.368592674356	-1159.134503347915	-157.1687306752393
12.75879639119835	-27.22558562460407	56.96035537002483	-147.6541898097595	5307.146650660064	-1445.894416386487	-453.7360490101621
12.77226304439834	-23.4443474800066	44.04460294414093	-111.9201010337412	4020.664744028516	-1426.233674264246	-538.852277498735
12.78572969759833	-16.49437390125664	28.99840361631251	-73.19342729296812	2639.526542233313	-1164.471083223372	-451.0559817499116
12.79919635079833	-8.714104271954316	14.70524221972147	-37.81227149610594	1376.037268804873	-731.9610767958552	-265.3289177200355
12.81266300399832	-4.0056019309917	5.880549524459579	-16.82452322611216	621.8137303220278	-392.2916349470506	-119.7235053845804
12.82612965719832	-2.671249924514891	3.046121223528831	-8.997358428193701	346.2240453482633	-251.3608056005068	-73.22198643877509
12.83959631039831	-2.190430654047298	2.250327351322529	-6.243590381373082	246.0865959416706	-201.5386215811733	-58.77276389079235
12.8530629635983	-2.099728436817215	2.227109706236314	-6.203552571925721	236.0048313712761	-216.6056684382153	-55.44362531301736
12.8665296167983	-2.020709055468734	2.237200479318918	-7.168624255380598	249.708562248746	-255.3555933246292	-44.83891366891887
12.87999626999829	-1.847026293637962	2.081555876707284	-9.233803560982659	280.9947488635918	-317.6779554115982	-19.42583986891844
