Inverse Dynamics Generalized Forces
inDegrees=no
nColumns=21
nRows=51
DataType=double
version=3
OpenSimVersion=4.6-2026-03-27-4e5ffda9c
endheader
time	pelvis_tilt_moment	pelvis_list_moment	pelvis_rotation_moment	pelvis_tx_force	pelvis_ty_force	pelvis_tz_force	hip_flexion_r_moment	hip_adduction_r_moment	hip_rotation_r_moment	hip_flexion_l_moment	hip_adduction_l_moment	hip_rotation_l_moment	knee_angle_r_moment	knee_angle_r_beta_force	knee_angle_l_moment	knee_angle_l_beta_force	ankle_angle_r_moment	ankle_angle_l_moment	subtalar_angle_r_moment	subtalar_angle_l_moment
142.82	19.33017684995401	-36.31821963735594	15.55892230485206	-10.0894095455689	260.0111057807224	89.461018749921	27.6228906852974	-37.53256477963158	3.610527702600912	18.6580653532479	19.40639747839104	-8.599028675050121	8.998712462173682	-0.1130846356295679	27.71978586140967	-0.008283517469199322	-52.37075620107534	4.555305753367037	4.035088039998135	-1.887739694621809
142.83704	4.317613421797867	-23.19515532602619	7.653948879847018	-3.647282413098782	167.656095264118	50.47011132922872	63.44543238854817	-2.738998652086154	-0.1333359705803507	-45.41251530175462	32.17760039792245	-8.827824556165204	-0.6086439579951528	-0.1026909263788325	44.98345087298294	0.01482729920753446	-32.09612043042736	2.949738230531123	0.06767818152066384	-1.141747431055124
142.85408	-5.148323091169479	-8.234306724173692	1.093296785066453	-2.270279195025177	65.00184162700904	14.11417147551489	90.9857688315323	26.35505258060872	-2.137010359954083	-96.6119831900419	38.56325310599268	-8.512745302266195	-8.405451992879687	-0.09035017352062999	58.66448872488222	0.03035112379033405	-14.92418761697613	1.159326998072824	-2.053121533634778	-0.4399542603276033
142.87112	-7.272668375580738	6.291296561289783	-2.474941951907848	-4.534265750006437	-26.94598489423331	-13.32951207992272	105.460760901197	44.71974836226254	-2.45106975522827	-125.9630228836781	36.28902771164558	-7.646251776430268	-13.38877106356929	-0.07646774883724594	65.71462544866374	0.03495759370550373	-2.95995433478332	-0.872592558079467	-2.025432337083386	0.06735699272926129
142.88816	-4.207093614470068	13.4293599681951	-1.906519252207051	-4.45594997511447	-73.90532258578317	-23.4197815916591	109.5957950081993	49.93081355565295	-2.404759961340132	-134.2848483815886	29.96071189326823	-6.70131964365078	-16.43975912652559	-0.06416456499843788	66.08565491584899	0.03193318300172766	3.42031938083641	-2.95898117156718	-1.017199780288701	0.08038639371932788
142.9052	0.5860606606856658	7.637334827439521	1.342963323249315	0.5874385459682945	-63.11796124533301	-13.06495625390175	112.8024045886004	44.15753129484869	-3.082370419207582	-132.4835071210479	27.74970607303114	-5.734386342908275	-20.27284043521197	-0.05754304825876459	63.88737324479685	0.02761173279416882	5.636320452880526	-4.431438693109604	-0.3250999498968851	-0.7295053708534371
142.92224	4.88586227554597	-6.504305671903763	3.288832224595946	6.444463045340672	-12.12293971287814	8.005191994370525	123.6869898218187	32.81517770590907	-4.4967883329147	-132.844822131165	31.31433158461163	-3.615211616105266	-27.35090028903463	-0.05966284998908586	64.16027956816203	0.02368860965860982	5.926173425390773	-4.060552949764882	-0.4000352946271066	-2.19336637819159
142.93928	8.3674028787396	-13.36425158438657	1.675840236218558	8.003198575581456	41.41973998711183	19.23153497634673	142.699161568983	20.17423000939139	-5.543215933521894	-140.0604644757353	28.94880979210974	1.199907254288382	-37.43093732037164	-0.07130297718392453	67.73862500976234	0.01435053883553154	5.958076268600471	-1.023981199687052	-0.9802945781093516	-2.684330737586764
142.95632	11.0782992380902	0.6351212163212283	-0.9591667049156104	5.883634022122151	57.95272357444093	4.978124719897684	161.0207587293523	7.211235417869457	-4.816362236835356	-149.5787328833783	4.701872349820533	8.788471982193176	-46.97016111232871	-0.0897150692952233	69.33819431521012	-0.007176674645729087	6.240657073024262	2.694581234674997	-1.667689226352492	1.61492892673418
142.97336	11.57788216233678	30.00591168026457	-1.079215542394283	4.354762324329918	25.8879768195286	-27.75938207098212	165.2432228890655	-5.955350197893981	-2.080790775055362	-151.3308191914491	-41.53384697773104	17.45915931054574	-50.87387448771808	-0.1074194887705734	60.78297276581321	-0.03905767911044235	6.4874053050784	0.3995291036726378	-2.190516187905826	16.06729640642393
142.9904	8.211359361920096	52.80733415140696	0.1264526021624342	4.768476105170716	-21.11813765485739	-53.82520836459491	144.9739999252637	-17.45307262900088	1.18725368847061	-134.302238819076	-89.89542719373772	25.81650046266713	-45.72600529890376	-0.1135000732212021	35.71246803082715	-0.06890591422489539	6.230084760176307	-16.83421120584623	-2.360960070923673	44.65158698093032
143.00744	2.574430563565233	53.58528280477898	-0.9499532686303843	5.002935362566125	-35.44127415277449	-55.50904686687655	100.2716545243349	-25.05460197659665	3.334317336509689	-92.41380839384543	-121.2984053351313	32.86916769377832	-32.67870613264733	-0.09911560349296057	-7.389112264221374	-0.08300138857170462	5.251365421574818	-52.90900110665939	-2.087094236800109	85.82519202264702
143.02448	-1.232744534078231	34.98875920705818	-2.925945253517068	3.721619565536197	-8.999505165330692	-35.44872487607945	44.00106961891542	-29.01221211652291	4.500525739651488	-32.36873573522748	-133.0882871392743	35.15081596095036	-17.4403614635831	-0.06435850066884811	-61.76165685669051	-0.07873924043460016	3.764753667249204	-101.6387936341007	-1.496755512198523	131.2112734933514
143.04152	-1.382248087232881	9.266408529480875	-0.7929027068171672	1.830928578439963	21.6453065573917	-7.763422117371885	-4.396160412688044	-31.22248454078884	6.238386133786639	25.34925696976157	-132.8429055520426	28.95428613083418	-6.560774309068059	-0.02027696839643732	-110.5233782325147	-0.06809317170933937	2.305976200250413	-150.2123245239227	-0.9231461066439204	169.7092897886049
143.05856	0.4424379306232611	-9.956035172629978	4.819024025560265	0.809078748130903	24.47230645248816	11.75502414667181	-30.1090081374491	-31.54795803536059	9.044919818061716	59.49778081967929	-127.8494726611364	17.69864211391002	-2.980416891259523	0.01714873629359025	-133.7181396009968	-0.06787461275823074	1.401374150479735	-187.6776828126378	-0.6649584029993043	193.4905197440288
143.0756	1.753964707545762	-14.39578505500163	7.089717453081777	0.872260344021039	5.374342011977385	14.49603461665352	-30.52436138917768	-27.14158004239686	11.2420223978538	63.18342304768806	-119.9467051221037	10.54389981877504	-4.860417273206408	0.03702821830586519	-121.2392446575338	-0.08548577584208333	1.262837824897927	-209.9562752012616	-0.7680519387679468	200.3205987209805
143.09264	1.130369055752634	-8.185447737863873	3.008463194147313	0.4509276838218091	-10.92614863357801	6.634172291759241	-14.26557876357578	-16.61941316484041	10.92848865029926	45.62209596214466	-105.7201926819387	11.32519201707687	-8.157853586701277	0.03965009561388752	-79.50469828187978	-0.1132930743574816	1.732403287091715	-218.190751077248	-1.06081924255103	191.6138501335581
143.10968	-1.016591265920046	-2.393445279180758	-2.248031319897028	-1.691076409555506	-13.36841241456982	1.309671191854869	5.553691784104897	-3.783618777285224	8.464731330863371	22.91537449486692	-84.31460768680965	14.18405496592305	-9.695606533534256	0.03428587087834461	-26.86798885549382	-0.1359434732046923	2.461928849218936	-214.4124676448944	-1.358630480920262	170.096847048302
143.12672	-2.678600143410027	-2.403149943569288	-2.548422255662224	-3.978828799974331	-8.871949821465927	3.442731195552921	18.01239314747985	4.542177618711808	6.217370288420096	8.289357307801907	-62.56705305068325	11.34896747606109	-7.989657323958379	0.03127887828958616	17.54522181555069	-0.1427276450485532	3.142475336344079	-199.6846820968256	-1.585011479117726	139.6342553593786
143.14376	-2.294089116805851	-4.893741926194354	1.431621406734195	-3.383228959180126	-5.469382454437429	7.282453274421308	17.62758897633465	5.12431403269367	5.823553552137162	7.091025381654054	-48.44245715895625	2.011604206201911	-2.34979651810826	0.0348097386534035	43.30891281629289	-0.1340379429284505	3.624192781999579	-175.1537908645527	-1.711905767777248	105.6676893066089
143.1608	-0.3091182869726314	-4.259423945368443	3.907509024390657	0.7238064305431458	-2.064793340702656	5.617689805905528	4.21569343655351	2.41139158760704	6.245413429455022	17.58808266045179	-41.98477600133805	-7.426139520953394	7.640090731156124	0.0413240488440697	50.35490902725914	-0.118323962801068	3.881250227303208	-143.1607195471235	-1.653869585361998	73.90021379602854
143.17784	1.632565753491309	0.8490188104343231	1.831693735787528	5.288424342215503	5.678615691154469	-2.118816365572829	-19.17176049123675	5.034280069688029	4.900699182983812	35.37893898884116	-34.9911377594489	-10.55611744095882	21.56938952518438	0.04393836709273721	44.09449132893244	-0.1045193426167001	3.864188630975854	-107.2693597330465	-1.28642610872157	47.92847249317062
143.19488	2.277250660841301	6.349602560818938	-1.927733898268501	6.236284659221177	15.33130833351225	-9.528856523791482	-48.7713694314836	17.33781172359603	0.5885161789818063	57.00810184884913	-19.21759790790863	-6.807826355022588	37.75198451430008	0.03876806101756345	30.30380329748476	-0.0967450415935036	3.351077143223231	-71.78689762138102	-0.5829153283889494	28.42661375684977
143.21192	1.123951244736475	6.616668150265118	-3.062535165001782	1.887718889796844	17.01310740236178	-9.078865897805162	-81.60715251245507	34.54627996750703	-5.099273668911171	80.33656304941061	5.838197830242676	-0.4286695872516005	53.85550328879328	0.02825629969088007	13.34208747963084	-0.09389443290667691	1.983945130599984	-40.90082005617212	0.298784320217712	14.5519073386403
143.22896	-1.850902661269716	-0.0700197019158043	-0.6386487808838148	-5.657110997192807	2.876512798535564	0.9020324356942724	-114.7355143281016	47.27596011544737	-9.360408631704153	102.9104357703545	32.72517789343765	4.093319848806928	67.90157224071194	0.01933614917634529	-3.459470886989283	-0.09235342627287454	-0.3449616522490546	-17.61219128261389	1.078662838478714	5.525831458000151
143.246	-5.319262670359168	-8.256623996976309	2.788140280934722	-11.23668922582692	-21.64493324064835	12.68862828576792	-142.8453249604098	50.74963854703444	-10.74856036294933	121.1648523126519	51.14104373056306	5.014759388146297	78.34475452667971	0.01785085313972082	-17.46893628293594	-0.08900902923582597	-2.901899659679273	-2.980440459954274	1.4451970418778	0.68288852819581
143.26304	-5.779261256986717	-8.904595020317901	3.8912948521896	-9.285108965953768	-35.40129877042612	14.06267535648378	-157.5989774447553	47.76278098062011	-9.794767724085954	131.5881300987865	53.43807984263563	3.467544953248351	83.38851571524292	0.02306966216930445	-27.10624286160938	-0.08281171315724364	-4.010351199412285	4.096996776754778	1.056424715630702	-1.199795146645857
143.28008	-0.4249830580010402	0.6743297185277858	1.135353374765209	1.274800251296096	-17.11434745448448	0.6491813582878463	-152.1565788373199	41.65307878257852	-7.314944506410505	132.1211348424814	38.79812408811792	1.736566114097554	81.10537501244711	0.026685570686663	-31.9579201906467	-0.07461131558612401	-2.314572949128456	6.266530685294002	-0.3096324561672547	-1.725619832465946
143.29712	7.481471949002488	11.98698835779357	-4.023757656505492	13.11762351730709	26.5919013245309	-17.15370083920377	-128.8664940824225	29.12670647820822	-2.780426680541856	122.3514215495647	14.14193590305516	1.144465907013525	70.92218685723627	0.01822903287676998	-32.16771410746798	-0.06612853025328765	0.778827945427929	6.263455618792622	-2.086349458691347	-1.995863969631542
143.31416	8.733259784707492	14.11770286821396	-7.587665759925867	14.18468287864567	54.09229513989226	-23.25049041759728	-101.1500708693588	4.409785881214617	4.94418780023329	103.7669821153319	-9.487048313161615	1.047747384442113	54.49078673812671	-0.006244577523431181	-28.21614937616375	-0.05921674668524092	-0.2285291921931583	5.71904448906538	-2.163482236025487	-2.227286727844709
143.3312	-2.152991808993181	6.124800803440131	-5.619318960448872	-0.5294605921396094	30.47880689637103	-12.10538561922575	-82.90496227469424	-29.87427162197221	15.05165209824546	80.77271119821751	-22.82641283191422	-0.2673827434640826	33.62597657247817	-0.03895331744276604	-21.6915485129233	-0.05558959238987075	-12.23783683372998	5.150383037616687	2.509158394781248	-2.193246831312459
143.34824	-17.60096274714747	-3.450265599088604	1.632949252888384	-20.60554147847015	-22.32765969178721	6.773629426586913	-74.39176219311047	-62.14017882731925	23.95985170080791	60.02903508019157	-23.3196902264675	-3.372695400572178	6.931876131177573	-0.06373386693035345	-15.5311618296792	-0.05611642976767794	-37.71681902717062	4.631112902186404	13.52743444040187	-1.815526345997506
143.36528	-22.65694050989842	-7.448187970094033	8.482299141935616	-28.07655378831476	-45.1463140297569	18.82414551225837	-63.8711900953295	-83.88516206622528	28.3501355022119	46.76008757380995	-16.32922164597903	-6.2073780089276	-29.25143837393508	-0.0668255036453515	-12.4960007234504	-0.05948107267738972	-71.80916226485422	4.216112436034982	29.31556011834322	-1.336482463773753
143.38232	-12.31280629071921	-4.06015504924441	8.957705704210964	-16.32988395840542	-16.92493448955345	14.27290559271735	-45.55847541023495	-95.54999623222437	28.6386861269856	41.35195694517196	-10.68989486643614	-5.408115592545772	-74.33942851851566	-0.04771746400609488	-13.19259978025501	-0.06176335523311454	-106.3821384344897	3.944314264153146	46.55547603944149	-1.084622837418996
143.39936	2.301491187126516	6.318779978502244	3.288490226953669	2.683274587311457	21.7500726619662	-6.71165262482436	-28.12685726195126	-99.91706755305218	28.27543401203044	39.94427358314037	-11.0026111417233	0.1501743010550161	-119.8258635930325	-0.02118988680030442	-15.71738260181911	-0.05834480664392803	-136.1834894952067	3.758064187789442	62.79950646963962	-1.172845109366295
143.4164	7.839612622884174	18.3855066322622	-2.696341124657113	12.59429455405435	27.91035804467903	-29.47936066903539	-21.07633022376725	-99.10171481153596	30.06644432690319	37.93010008621553	-14.04450486610099	7.440119736776291	-154.5048035832324	-0.00761118705790044	-17.09721769194875	-0.0469576623163539	-160.3636307075668	3.540404011534779	76.56345549401627	-1.427563295802933
143.43344	3.043217214915519	20.81964347895432	-4.388218419844452	9.149707321615118	6.083899268766208	-32.46379522018429	-20.68468500817446	-97.95752581614923	33.66460103848486	32.64838998021062	-13.53347002679745	11.79734870352051	-171.8508666108764	-0.01852264948278465	-15.13248062851185	-0.02909721873131641	-179.9695136751919	3.213066213785977	85.65482377001882	-1.591675855280335
143.45048	-3.39963995613834	9.012326745052	-2.611304680959067	0.2264680134295818	-12.07352137269379	-10.89634742919326	-14.83550897553471	-100.4311395949297	35.87494259909352	23.81220323440806	-7.672800908512867	11.39861937733638	-171.3794499115658	-0.04933108245969475	-9.519641538893053	-0.008651047850394252	-195.583316064772	2.792561645844434	87.38073296500862	-1.577345850043181
143.46752	-4.051562997359617	-5.529123594832418	-1.084032183791424	-5.320220226648136	-12.21033688581272	13.5336078582574	3.022319853100952	-102.4048761879049	33.45617271897635	12.70308452059251	-0.475989851678188	8.490135899768445	-155.6169224433624	-0.08465954790534222	-1.89024337488728	0.01075721658418823	-206.4060100952591	2.373164668101841	80.88500653297312	-1.502521015628815
143.48456	0.8686491423797449	-7.673690385762164	-1.697836492622823	-5.018504239044707	-5.418822542782709	16.53568197103873	28.01602268598854	-95.20843693143784	26.22025039660074	1.137795366425957	3.957389488737114	6.113132316064774	-127.8680419610896	-0.1104297606918588	5.22010728570438	0.02749557769489701	-210.3298751973057	2.061650707425204	68.3660732465317	-1.495055308441221
143.5016	5.465099389851187	2.84355245950321	-3.134290146244864	-1.609248255955017	-3.380435625968453	-0.9594596321130401	49.15307858105035	-76.1498333409734	17.1036212573935	-9.41177998107236	6.401677714650592	4.59691931849377	-92.22662626837059	-0.1219191089915222	9.978520048267823	0.04157378648941931	-204.7328013926723	1.917615530761984	53.47528595857511	-1.516252188024651
143.51864	4.438824825022269	11.92517686720356	-3.025140390936744	1.683017704949136	-1.177823320936395	-16.44031733794278	58.44394200233831	-51.67866996138864	9.347106723143902	-18.26665674834664	10.86791727931015	1.919262985888738	-54.27217027935384	-0.1227699362901087	12.43407744671907	0.05268126754925307	-187.7445936745096	1.940457352067091	38.83872041454083	-1.414455438568209
143.53568	-1.911191761834926	8.46037332200066	-0.4589982016748612	3.669724682444401	11.45342548705127	-13.23412599077637	56.29348038305231	-30.15772652243019	4.284399132962345	-25.65210766373992	19.28176095199472	-3.088540882619916	-20.54503527948425	-0.1186676319985218	14.47807746400633	0.05871724812819883	-159.6792165954834	2.080961176208342	25.39410653689225	-1.125004749967795
143.55272	-7.772532376636651	-3.858273315022306	3.355908402642924	4.032972163247834	27.78235597451294	3.033501229728256	50.09291395169851	-14.08441046548948	1.526306857522709	-32.83326884636082	29.23977573070117	-8.871437140905172	3.553056092155592	-0.1123789750061738	18.66117032921793	0.0569682246203208	-123.8949818586949	2.22245612429375	13.57906590750953	-0.7609395061979332
143.56976	-7.012883760959682	-12.72897428969036	6.189134286487073	1.503836301013423	22.08214890279378	14.82200352149932	47.85886478441581	-0.4181199408354579	0.2979942307136793	-41.81244626100919	36.82400446246781	-12.5584655741504	16.00654455734704	-0.1033515312773281	26.56407004019422	0.04715556006533471	-86.18062101021128	2.151485871951341	4.32101280811319	-0.4923630395826564
143.5868	0.8153122705890152	-11.17332891545206	6.341564037705448	-4.754451752683726	-21.60134792164404	12.68869757277237	51.96240750886887	13.37286814635223	0.1591896542012877	-53.51227113077672	40.24955629404236	-12.60191608296197	18.82268736389129	-0.09044664326028121	37.43414702418256	0.03266027460595734	-52.67201510232191	1.63418889149713	-1.303887443248759	-0.3759292677916137
143.60384	9.331559959009486	-2.799210990238504	3.678986497460243	-11.2472035638438	-76.07026931703503	1.938491703837675	57.81097971989794	25.49190646683427	0.7485733674052901	-65.15503052189545	40.15161007027237	-9.769235858894438	16.35696579797685	-0.07459818755113883	47.7876310314858	0.01793159627373991	-27.38875890410106	0.6397059915144981	-3.098212621955789	-0.3349700539347865
143.62088	10.25646668377538	3.87322939906913	0.1109662153331222	-9.612311588687275	-74.98441940399428	-5.915075074786406	58.06763905628394	31.04530877817262	1.5685048779784	-70.19370069930171	37.40032838050244	-6.03602122512971	12.66045526459355	-0.05921066653042729	52.76842988272922	0.00490252756187189	-11.06882770562116	-0.492093283665947	-2.295803370598629	-0.2811912034049089
143.63792	-0.4639900671248558	2.78180180145899	-0.9999332003672716	7.623580576800418	37.65852526156885	-3.308843551092055	48.27519801278697	25.76674028490226	2.341340301438732	-62.67098643595252	32.05284783978021	-3.0135319629602	10.09708895178265	-0.04820736808716748	49.07010442703851	-0.007465359955668292	-2.134633064093106	-1.214058170028856	-0.9692425718672842	-0.2051575814071639
143.65496	-20.87218820009559	-6.877670000722593	2.790032244403102	40.93778883233374	262.4445595767153	10.21679640318749	29.25826747710095	9.284223673791882	3.166504835548616	-42.12218219785449	24.26768583446062	-1.241349392770848	9.459176782264509	-0.04335478674087528	37.13181167572964	-0.02066907729590961	1.669251315253026	-1.200788699745005	-0.6647089556384228	-0.145123809558695
143.672	-46.0484489685571	-21.76922064078527	10.56510755130366	83.82677202049383	551.1719039726019	30.18388198544176	5.279600975839791	-14.16085959675203	4.137404051420791	-13.80091565573102	15.02400823580563	-0.3324606978988992	10.25267253102421	-0.04288530899750926	20.51888105519334	-0.0348270907267354	2.758870561428556	-0.6285653430501643	-1.464423706596236	-0.1139711805690705
