Coordinates

Units are S.I. units (second, meters, Newtons, ...)
If the header above contains a line with 'inDegrees', this indicates whether rotational values are in degrees (yes) or radians (no).

inDegrees=no
nColumns=21
nRows=1073
DataType=double
version=3
OpenSimVersion=4.5.2-2025-05-03-6a4c6ec41
endheader
time	/jointset/ground_pelvis/pelvis_tilt/value	/jointset/ground_pelvis/pelvis_list/value	/jointset/ground_pelvis/pelvis_rotation/value	/jointset/ground_pelvis/pelvis_tx/value	/jointset/ground_pelvis/pelvis_ty/value	/jointset/ground_pelvis/pelvis_tz/value	/jointset/hip_r/hip_flexion_r/value	/jointset/hip_r/hip_adduction_r/value	/jointset/hip_r/hip_rotation_r/value	/jointset/walker_knee_r/knee_angle_r/value	/jointset/patellofemoral_r/knee_angle_r_beta/value	/jointset/ankle_r/ankle_angle_r/value	/jointset/subtalar_r/subtalar_angle_r/value	/jointset/hip_l/hip_flexion_l/value	/jointset/hip_l/hip_adduction_l/value	/jointset/hip_l/hip_rotation_l/value	/jointset/walker_knee_l/knee_angle_l/value	/jointset/patellofemoral_l/knee_angle_l_beta/value	/jointset/ankle_l/ankle_angle_l/value	/jointset/subtalar_l/subtalar_angle_l/value	/jointset/ground_pelvis/pelvis_tilt/speed	/jointset/ground_pelvis/pelvis_list/speed	/jointset/ground_pelvis/pelvis_rotation/speed	/jointset/ground_pelvis/pelvis_tx/speed	/jointset/ground_pelvis/pelvis_ty/speed	/jointset/ground_pelvis/pelvis_tz/speed	/jointset/hip_r/hip_flexion_r/speed	/jointset/hip_r/hip_adduction_r/speed	/jointset/hip_r/hip_rotation_r/speed	/jointset/walker_knee_r/knee_angle_r/speed	/jointset/patellofemoral_r/knee_angle_r_beta/speed	/jointset/ankle_r/ankle_angle_r/speed	/jointset/subtalar_r/subtalar_angle_r/speed	/jointset/hip_l/hip_flexion_l/speed	/jointset/hip_l/hip_adduction_l/speed	/jointset/hip_l/hip_rotation_l/speed	/jointset/walker_knee_l/knee_angle_l/speed	/jointset/patellofemoral_l/knee_angle_l_beta/speed	/jointset/ankle_l/ankle_angle_l/speed	/jointset/subtalar_l/subtalar_angle_l/speed
14.05332738999727	-0.005632579190354926	0.01425402044007617	0.05718512846676291	2.425650308703767	0.94277376453397	1.098201196180848	-0.1762761960655823	0.01316674802766504	-0.2297369404786928	0.3817485364204488	0.3817485351061258	0.1304778233174824	-0.04035893653340193	0.3892423861886321	-0.04822183332876304	-0.06806385559376668	0.9555444484230855	0.9555444491488312	0.09138653513940145	-0.2440927352443429	-1.103115010839202	1.757419792566145	0.04129154981162858	0.3204243397765768	0.6072002041346783	-0.1246486922721788	-3.33128862301074	-1.814390132542767	-1.00135616809752	-3.602260513635747	-3.602260471169448	-6.969745485642617	1.316473785337325	-0.1190057651229021	1.863601112447133	-3.156144688204603	-10.56929240768547	-10.56929238418405	1.185980913795043	3.588491881222116
14.05999404999726	-0.01367544432720272	0.02540124839289785	0.05762139584029231	2.427711840906834	0.9467046201187495	1.097309844080589	-0.1964680051127682	0.001440928361075714	-0.2366796621613302	0.3594624441462592	0.3594624431645458	0.08330697020162389	-0.03231204205150635	0.3885323450850887	-0.03567311412750299	-0.08825554657939221	0.8835924080649404	0.8835924089337721	0.09887324773396969	-0.2194953687360151	-1.307680162002676	1.579928911379625	0.09294059244285865	0.2970387689793905	0.5712890180850082	-0.1431645382985432	-2.723920996304044	-1.698640667706773	-1.083805378162906	-3.073927104693918	-3.073927047694447	-7.155950318414893	1.102155462683945	-0.09121586143615532	1.897556906397808	-2.884794140231254	-11.00671332656102	-11.00671330770441	1.059541020777773	3.788311460704584
14.06666070999726	-0.02303057420988582	0.03523724238569077	0.05845764256422346	2.429599079943128	0.9503811671313411	1.096287962322146	-0.2125837390135906	-0.009427685115977056	-0.2442145253302936	0.3408838974546961	0.3408838968925373	0.03541069229604157	-0.0256018782563005	0.3880520838796271	-0.02297285469870176	-0.106323665370117	0.8089370323396292	0.8089370333102583	0.1055099234992934	-0.1936335399864698	-1.495233631027691	1.365404012337778	0.1595682065183517	0.2683767793798901	0.5309741275099633	-0.1636433782161505	-2.111468435669249	-1.558632738922197	-1.178309360448709	-2.491137721109921	-2.491137653099634	-7.186952668292255	0.9153352572679327	-0.05174187687762857	1.908245425929758	-2.521796622090577	-11.37705934161758	-11.37705933032173	0.9314029501342135	3.9648866452462
14.07332736999726	-0.03355240317610363	0.04354467719790838	0.05975948399843164	2.431281858910604	0.9537752526417106	1.095125912774945	-0.2246502049692213	-0.01930780134164229	-0.2524069113519913	0.3263530088880667	0.3263530087984878	-0.01217613310271698	-0.02005598768157834	0.3878474409174278	-0.0102916234946061	-0.1217177156866027	0.7320966797886935	0.7320966808045172	0.1112947213496153	-0.1667213344126476	-1.65602436463109	1.123064282908874	0.2309607357556724	0.2359665025355043	0.4865993388329987	-0.1850296112191514	-1.512194060523404	-1.403809365760119	-1.280184965427588	-1.860791282498711	-1.860791210040237	-7.063916327354745	0.7514881298344287	-0.00994524034336884	1.891182173281734	-2.0861698467958	-11.65801703641618	-11.65801703431501	0.8045549484115111	4.100542800898475
14.07999402999726	-0.04502961752095647	0.05017388281306613	0.06152706146914904	2.432740546821351	0.9568607004973266	1.093821394588988	-0.2328153440191124	-0.02813605269065246	-0.2612869943123342	0.3161631804940688	0.3161631808790484	-0.05845034028719664	-0.01555673988808232	0.3879087790015635	0.002173708486013231	-0.1340303745207286	0.6537565946863917	0.6537565956840474	0.1162492371844087	-0.139086168156901	-1.780296388708002	0.8638681747385337	0.297902516779011	0.2014168710742227	0.4384195900751172	-0.2061961085826077	-0.943916804971344	-1.24490813033671	-1.383528031171956	-1.190050717415583	-1.190050648973478	-6.795100923372235	0.5988316101189866	0.02716550056217586	1.843048970392114	-1.601672531874757	-11.8220165427201	-11.82201655027649	0.683119637714469	4.179436032338403
14.08666068999725	-0.057189779344401	0.05505211124111144	0.06370575650480303	2.433966130935479	0.9596128341685621	1.092379551549758	-0.2373399097648761	-0.03592178680388543	-0.2708414222700467	0.3105582735152898	0.310558274319787	-0.1024854556759051	-0.01208562454721065	0.3881917797752022	0.01420966951861196	-0.1430251330070786	0.5747989896878701	0.5747989906034492	0.1204270480757271	-0.1111474105831718	-1.859704983919996	0.5998361572059638	0.353351911216919	0.1662845117788543	0.3866370216956254	-0.22605405827688	-0.4224031741299162	-1.09284011013828	-1.48120583331251	-0.4866761103757834	-0.4866760541918093	-6.395085778225614	0.439730814480497	0.05637561019791584	1.762302984122925	-1.095555296247686	-11.8379309090086	-11.83793092600905	0.5725447049769321	4.190221765939843
14.09332734999725	-0.0697126619910752	0.05818920272381257	0.06620341262729434	2.434959517963953	0.9620083291035848	1.090812405316487	-0.2385796049966957	-0.04274558304195293	-0.2810056433408738	0.3097274031732097	0.3097274042942466	-0.143469917306849	-0.009755132288773245	0.388644466058888	0.02560080036375618	-0.1486547588241821	0.4963170871867924	0.4963170879588222	0.1239210847102885	-0.08337939613381615	-1.888341042285943	0.3437141094315563	0.3931436163022584	0.1319762121338219	0.3314729866744347	-0.2436396960046852	0.03970554017816545	-0.9580082903575093	-1.56501606076343	0.2406094502483008	0.2406094883309763	-5.883519626844259	0.2529405689883302	0.0784603181445246	1.650067521951896	-0.5971041034052217	-11.67425107861958	-11.67425110459663	0.4790136276483358	4.127992589055878
14.09999400999725	-0.08224649404105124	0.05968272888910909	0.06890958066433198	2.435730332240649	0.9640257914300443	1.089137869271162	-0.2369644993279651	-0.04875546626257141	-0.291657069669175	0.313797422946624	0.313797424253524	-0.1807356644526467	-0.008823953282900478	0.3892282204311111	0.0361510879775799	-0.1510698589313962	0.4196027064180837	0.419602706988678	0.1268640896153128	-0.05626531118661139	-1.86249680920243	0.1091202706521203	0.4158617846085808	0.09969410236780724	0.2733151671560014	-0.2581508533341115	0.4325658689959075	-0.8502744099810706	-1.625747425359578	0.9818104659703817	0.9818104835203695	-5.283528231824324	0.01633618767211325	0.09612779935077068	1.511225296474914	-0.1361094903201802	-11.3037862584501	-11.30378629277091	0.4079814830596642	3.994984727185735
14.10666066999724	-0.0944189103465755	0.05972424235059037	0.07171139127964025	2.436295437115043	0.965647443319835	1.087378675681218	-0.2329844121622878	-0.05416371321318233	-0.3026084198080851	0.3228239630030941	0.3228239643594552	-0.2137760243387967	-0.00969249183213587	0.389919268128214	0.04571167240379367	-0.1506158310760968	0.3460996405860214	0.3460996409030362	0.1294172481807623	-0.03025208170497294	-1.779503010922452	-0.08942261595173864	0.4220379371275751	0.07040256702256918	0.2128826445512026	-0.2689416682086389	0.7479009449231036	-0.7790242884866965	-1.653238956887644	1.725570661580188	1.725570659160018	-4.620171679533632	-0.2899018342750349	0.1105458991203139	1.355067880178843	0.2592181838476613	-10.70900072962298	-10.70900077109825	0.362177996591433	3.799487823750452
14.11332732999724	-0.1058409880326391	0.05860303212678542	0.07450359017268343	2.436677241702697	0.9668615978251773	1.085561367841544	-0.2271809787570509	-0.05924217915096805	-0.3136029101641065	0.3367831715798544	0.3367831728603732	-0.2422544679290359	-0.01287580332975383	0.390688709996841	0.05420942177361348	-0.1478121096726018	0.2773233704064806	0.2773233704292303	0.1317452524636097	-0.00571916392975081	-1.637051193369627	-0.2373508096319407	0.413314467244438	0.04479523522098877	0.151277628461099	-0.2755150644628547	0.978481304940928	-0.7525754521321202	-1.636967150923684	2.459492614453842	2.459492594695121	-3.91927100858637	-0.6797570883564914	0.1187526036728453	1.194842316314937	0.565522879090727	-9.886542725598575	-9.886542771902075	0.3396242122762545	3.552816240059745
14.11999398999724	-0.1161107557040086	0.05670083971473325	0.07719421823407183	2.436901789129177	0.9676649115865491	1.083715277586494	-0.2201383992308245	-0.06431110537706809	-0.3243160107974262	0.3555669785376634	0.3555669796398018	-0.2660067276238067	-0.01895345239539196	0.3914723645341644	0.06166852699048554	-0.1433065067048655	0.214756561465149	0.214756561172792	0.1339796919513183	0.01702820383461211	-1.433699149200836	-0.321834631382974	0.3919957010773977	0.02326448488628758	0.08987012365300645	-0.2775350057942575	1.11900138623836	-0.7768754935366523	-1.56741018259434	3.170849840097584	3.170849807140532	-3.206556378484149	-1.15812880806452	0.113228535349038	1.04615538258382	0.768292836208865	-8.849839826829374	-8.849839874381608	0.3322114643342111	3.265244700378061
14.12666064999723	-0.1248226185327674	0.0544733528717264	0.07970843494619823	2.436996679194486	0.9680634699258945	1.081871376338893	-0.2124655712211083	-0.06971831079050657	-0.3343678937481626	0.3789838762441325	0.3789838770969337	-0.2850376844552587	-0.02850112473259657	0.3921441803499507	0.06821866539248628	-0.1378050716678497	0.1597356994740399	0.1597356988720664	0.1361767121687229	0.03774003215492897	-1.169996435870637	-0.3338567687854949	0.3609008739602836	0.005882842205971731	0.03007841263567834	-0.2748497030641943	1.167615180234566	-0.8540178694594789	-1.437788306700943	3.847494881622505	3.847494840709606	-2.50691528983476	-1.718738682181935	0.08327188100264574	0.9246131835239271	0.86490094934684	-7.629067973452967	-7.629068018105994	0.325530919707515	2.942671961171571
14.13332730999723	-0.1315842432390508	0.05241854991007429	0.08199178190300066	2.436988900435402	0.9680723063759551	1.080060965508335	-0.204768280115173	-0.07580937796777905	-0.3433470797124316	0.4067659196593059	0.4067659202283926	-0.2995130913874616	-0.04201378428623237	0.3925029277878573	0.07408620302724887	-0.1319893113341919	0.1133478314283405	0.1133478305486663	0.1382796255635357	0.05618715762027	-0.8495134383946139	-0.2699948691764639	0.3233224360280128	-0.007606988051365821	-0.02686899399457279	-0.2675160564844844	1.127286031569509	-0.9810974445955349	-1.24560519400407	4.478796930663805	4.478796887370359	-1.843572992260649	-2.343728092504542	0.01751941312846728	0.8431853330442395	0.8651989518927073	-6.268137858956652	-6.26813789711071	0.3006026339986516	2.585459622350182
14.13999396999723	-0.1360389592658049	0.0510354052713537	0.08401332957334361	2.436902605079986	0.9677134508094574	1.078314202006124	-0.1976142271378339	-0.08289243141751293	-0.350842766571493	0.4385817751933859	0.4385817754803156	-0.3097452707534616	-0.05983179228868628	0.3922779727538882	0.07956865657705488	-0.126438534196877	0.07635646439108833	0.07635646328556836	0.1400996588369257	0.07212667875792721	-0.4794303992730509	-0.1334669054591082	0.2830314682080209	-0.0177995865149919	-0.08012788042117018	-0.2558247195855695	1.006538469575618	-1.149786377259895	-0.9936846465558126	5.05650062293485	5.056500582374079	-1.23708848508283	-3.004899543167209	-0.09296301859049957	0.8099374952825564	0.7894757695486467	-4.819117276013572	-4.81911730533331	0.2375139173669001	2.189409417052853
14.14666062999722	-0.1378901991414676	0.05077892787092542	0.08576901013472037	2.436756853366687	0.9670129528183593	1.076658459564011	-0.191495615033208	-0.09120315691808255	-0.3564820762617999	0.4740548848539936	0.4740548848922026	-0.3161713823973819	-0.08207972153627312	0.3911554439422284	0.08499711237030591	-0.1215720660375915	0.04916969061748306	0.04916968934959443	0.1413252836541217	0.08527790932032377	-0.07055473615332529	0.06584041566215097	0.2443249716243729	-0.02562641633660767	-0.1293459211241216	-0.2403232614246377	0.8194272752045867	-1.346845081846404	-0.6905931879902817	5.575377325047769	5.575377291698619	-0.7041392318174338	-3.666214078928816	-0.2517868732104509	0.8267705281533519	0.664744730320795	-3.335410789100492	-3.335410808340419	0.1201776477784256	1.747742114941859
14.15332728999722	-0.1369243974536926	0.05201848997182027	0.08728525160109686	2.436563436711863	0.9659975263783755	1.075116570658258	-0.1867943249001615	-0.1008762326909129	-0.3599676661469517	0.5127848736538468	0.5127848735051309	-0.3193232758681429	-0.1086250183674766	0.3888211089125254	0.09069446256151605	-0.117618554718608	0.03185331500369408	0.03185331364338892	0.1415638227093516	0.0953125501144451	0.3631154962401946	0.3123617135845406	0.2120478662992334	-0.03232856074310619	-0.174669348988222	-0.2218259665063341	0.5848415057094505	-1.555497918502646	-0.3502882206032247	6.03352539264603	6.033525370551551	-0.2562536543323184	-4.28720520106617	-0.4552037106434264	0.8894263752221507	0.5204832287037506	-1.865348643090431	-1.865348651451572	-0.05894132445082216	1.253348924229699
14.15999394999722	-0.1330302720112986	0.05500547556098751	0.08862216033411308	2.436325040604643	0.9646914495247143	1.073705107932288	-0.1837529310825336	-0.1119279821879237	-0.3611096893528135	0.5543695271724713	0.554369526923397	-0.319789502342074	-0.1390617786226168	0.3850128560326452	0.09693740463659528	-0.1146134706324187	0.02418115965796388	0.02418115828020951	0.1404111878582142	0.1018608717894132	0.8049977896814202	0.5866012292297828	0.1913952833082644	-0.03937838067475778	-0.2166635238135333	-0.2013878913085052	0.3255099154894395	-1.757360147044509	0.009264342414070301	6.432234526436556	6.432234518843645	0.1012242984200778	-4.827049427226903	-0.6913149918621174	0.9885458482908518	0.384520687585593	-0.4476610463135989	-0.4476610430727735	-0.2953014590596797	0.7013728685736749
14.16666060999722	-0.1262138758462921	0.05985408893338976	0.08987411349721947	2.436034143146378	0.9631142180922886	1.072433018022251	-0.1824527028746653	-0.1242525934829562	-0.3598448788326539	0.5984243781581711	0.5984243779111107	-0.3181719503445777	-0.1727227784056281	0.3795733871679767	0.1039277771116494	-0.1124220572805209	0.02570632872231818	0.02570632740647697	0.1375382441998092	0.1045361232132376	1.23659811489706	0.8672697768380133	0.1873229603868585	-0.04833673763055919	-0.2561696189114817	-0.1802233068145325	0.06689746433567861	-1.934512579788585	0.3685333541497707	6.775407178495017	6.775407186664902	0.3696752048708278	-5.248885795874711	-0.940847696266556	1.111336172262307	0.2796161983888963	0.8901860909485164	0.8901861063453625	-0.5709556342303681	0.09202255149324362
14.17332726999721	-0.1166085253207959	0.06653670631906887	0.09116533893609445	2.435673055484001	0.9612793099354339	1.071300980758618	-0.1827997129232882	-0.1376315708278688	-0.3562371092990202	0.6445970516273312	0.6445970514830491	-0.315041056788414	-0.2087195579312436	0.3724920797896548	0.1117759037456325	-0.1107810477485641	0.03583362457437426	0.03583362340216266	0.1327772250622059	0.1029766558280905	1.638410438901077	1.133456337474355	0.2036791218786091	-0.06065763712208621	-0.294118574709857	-0.1595728247465879	-0.1641640608900231	-2.071338774560646	0.7094043004077724	7.068576146674591	7.068576168741919	0.5570703382579459	-5.5238110997194	-1.179606638309157	1.243449241636588	0.2213463540892349	2.130763454356268	2.130763482011238	-0.8558797925621258	-0.5670692368954612
14.17999392999721	-0.1044775648350017	0.07489297863633229	0.09263966932195375	2.435215336859567	0.9591942586071056	1.070301751489877	-0.1845214268271275	-0.1517538444903556	-0.3504586731201949	0.6925740618396041	0.6925740618754408	-0.3108943441717796	-0.2460063780371842	0.3639260141709873	0.1204962879727181	-0.1093491244305048	0.05387676473168785	0.05387676378305681	0.1261909735895317	0.09690010120005337	1.991167118684193	1.366537105074096	0.2423781085038867	-0.07747948792907142	-0.3313296828506304	-0.1405469872138966	-0.3412477685183613	-2.155854438402745	1.017840983048954	7.317659426253086	7.317659457157966	0.6771119390708413	-5.633948608004816	-1.382141407232382	1.370759933873426	0.2175838843695431	3.263582111749236	3.263582150956108	-1.111700868588197	-1.259678583095237
14.18666058999721	-0.09020791881211025	0.08465011153900052	0.09444562326809851	2.434628501462066	0.9568620245865032	1.069421529037237	-0.187175969858395	-0.1662427302893807	-0.3427568856352859	0.7420792003416387	0.7420792005935042	-0.3061229006068107	-0.2834600210946885	0.3541951348299881	0.1300140418443901	-0.1077565047203896	0.0790928876697034	0.07909288701554676	0.1181113584375875	0.08616047436660429	2.277309793213949	1.551586348692785	0.3028458768467996	-0.09945462620267921	-0.3683288138745941	-0.1239803919888108	-0.4403007960918029	-2.180428886418602	1.28554885636918	7.527737463499742	7.527737496141867	0.7477300636066269	-5.57406050792123	-1.525659036989218	1.480763879579997	0.2691667897167583	4.281618330179604	4.281618378791942	-1.297066630670397	-1.961278623362565
14.1933272499972	-0.07429396854164677	0.09545044569759269	0.09671882272844091	2.433877619264726	0.9542834170427079	1.068642182639155	-0.1901739605185732	-0.1806856885455432	-0.3334135537535283	0.7928646916748221	0.7928646921294845	-0.3009897410627681	-0.3199648189891494	0.343753355319474	0.140178721600933	-0.1056481874828145	0.1106960581277409	0.1106960578174704	0.1091390596183087	0.07079891643395687	2.482362255335307	1.678140718560388	0.3817660606417674	-0.1266557399174034	-0.4052198667038382	-0.1103232886619086	-0.4413673197414963	-2.141909467265909	1.510471901080679	7.702144266437704	7.702144293503279	0.7890344642772072	-5.351519426414971	-1.593187044816527	1.563375122540216	0.3710085183622938	5.178626591920806	5.178626645515065	-1.373699449205498	-2.640609170544925
14.1999939099972	-0.05731348055680512	0.1068819069065644	0.09956349037307369	2.432929252166088	0.9514601334030309	1.067944035653177	-0.1928099328424153	-0.1946630718573583	-0.322704274342332	0.8446977368067934	0.8446977374070892	-0.2956233159816984	-0.3544928643923815	0.3331428358994312	0.1507812542595817	-0.1027199934467824	0.1478569247845257	0.1478569248293481	0.1001034394458482	0.05108065220838637	2.59590610634764	1.740309074599894	0.4730456271630354	-0.1585676499836499	-0.4416297492047375	-0.09958430521424137	-0.3297086292377097	-2.041209123341113	1.696410647660882	7.841995157868762	7.841995173819372	0.8208567472579036	-4.984977487548457	-1.57541227833061	1.611065208968551	0.5130946904680636	5.947686249457607	5.947686301044033	-1.312160711952569	-3.262183168348436
14.2066605699972	-0.03989865793716016	0.1185074175887124	0.1030344602686511	2.43175520326884	0.9483979134437883	1.067308837636689	-0.1942991667707895	-0.2077727221868695	-0.3108624506370183	0.8973452256014606	0.8973452262643217	-0.2900277568106844	-0.3861722600041472	0.3229405380459298	0.1615700591435504	-0.09874859986076569	0.1896965008844026	0.1896965012428397	0.09198739145847053	0.02751296223273705	2.612072871703096	1.73638838496599	0.5680254623891126	-0.1941477490537952	-0.4767278346852294	-0.09133293007065647	-0.09634099598780331	-1.882507667659876	1.851998092420823	7.946090362250688	7.946090365103693	0.8602759422993627	-4.502155446127224	-1.471197141192598	1.618533727999155	0.6813291225688894	6.580841822676025	6.580841863730371	-1.096464324339071	-3.789445128084635
14.21332722999719	-0.02270541704377985	0.1298906983984632	0.1071219105519727	2.430335694322151	0.9451093403724768	1.066722490844259	-0.1938167787211176	-0.2196485356582155	-0.2980523575030651	0.950558746153351	0.9505587467971749	-0.2841082590543737	-0.414338226965686	0.3137050570239338	0.1722643168793019	-0.09361536157410835	0.2352803595236095	0.2352803600981177	0.08582715347197772	0.0008401260260849551	2.529588336771435	1.668194221970309	0.6561170206293492	-0.2319342234547798	-0.5093106107604168	-0.08477196443351523	0.2617970763891315	-1.672273008934019	1.989000701847635	8.011085544495778	8.011085536691207	0.9196158273042708	-3.936935358604253	-1.287016126958745	1.582232183227004	0.8586318530886522	7.069544636166638	7.069544658798312	-0.7268860421187567	-4.188526901137873
14.21999388999719	-0.006383738953967277	0.1406170828226412	0.1117419822621952	2.428661706007798	0.9416159028223778	1.066177065007439	-0.1905370307107596	-0.2299723910160468	-0.2843555356461313	1.004061405033372	1.004061405605651	-0.2777075570948648	-0.4385632089296519	0.3059301791218086	0.1825642392554975	-0.08732099840481979	0.2836178007728927	0.2836178014217788	0.08260057418672284	-0.02798844890795775	2.351431723279794	1.54026063714369	0.725913526772781	-0.270186249021677	-0.5379342110618759	-0.07887561695096323	0.7419188709477273	-1.418278743705749	2.120070470241421	8.031851038332793	8.031851025847082	1.005135160952074	-3.326036674259058	-1.035560964436472	1.499967433685481	1.026592143445398	7.405662980635343	7.405662979799183	-0.2205753924854464	-4.432471838172166
14.22666054999719	0.008449425963998104	0.1503092001186716	0.1167358147206546	2.426736337019688	0.9379491301859306	1.065671747843453	-0.1836724309767757	-0.2384801754667139	-0.269773029200244	1.057537343166586	1.057537343659636	-0.2706484703448765	-0.4586646064890926	0.300008783198747	0.1921594493503053	-0.07998784381271012	0.3336687910306743	0.3336687915919438	0.0831190082597114	-0.0578778157597273	2.084517146346472	1.359155257372015	0.7665536911511297	-0.307033315619322	-0.561049823026825	-0.07256458881038465	1.335258757240625	-1.128868878063267	2.256295190110905	8.001893002177455	8.001892991977432	1.116553195213457	-2.705688290134832	-0.7341964809728929	1.370766142230305	1.167475990756557	7.58273549587167	7.582735470626847	0.3901360618956341	-4.505132745480613
14.23332720999719	0.02123692031937371	0.158639309383637	0.1218777377060515	2.424575216144406	0.9341509748586774	1.065212603366026	-0.1725162875217933	-0.2449645508752779	-0.2542438670656569	1.110623824395819	1.110623824843606	-0.2627761690117114	-0.4746910541820853	0.2962048785851473	0.2007378437729547	-0.07184881007014107	0.3843589569067968	0.3843589572262075	0.08793761223700955	-0.08766868335057171	1.739976594822314	1.133188086295558	0.7690688443134329	-0.3406062915842675	-0.5770876815412617	-0.0648836286235303	2.026103778234885	-0.8127453972403454	2.404812189583601	7.913687888813773	7.913687886023855	1.247636407101314	-2.10855008196318	-0.4041724582059361	1.195169780981292	1.266133404872798	7.59708025323392	7.597080206747771	1.061492857625192	-4.403587092925173
14.23999386999718	0.03151204700086986	0.1653409700584401	0.1268918943756246	2.42220613649669	0.9302738397018537	1.06481120928302	-0.1564941505254778	-0.2492780913267605	-0.2376784271846383	1.16290525589896	1.162905256358551	-0.253993014816995	-0.4868897129353681	0.2946279401416559	0.2079976939002089	-0.06322487329859408	0.4346009077327782	0.4346009076881159	0.09729605848015141	-0.1162278728618642	1.333954135538177	0.8724566890699414	0.7275422575605907	-0.369139980327688	-0.5844842061595209	-0.05515693760048963	2.790244278676397	-0.4792537334313656	2.566800805996579	7.758950212530471	7.758950218837248	1.387790892884058	-1.561161074005404	-0.07062607447022265	0.9758645970742874	1.311506051850442	7.448575766849586	7.448575705310859	1.743564626175276	-4.138472577470241
14.24666052999718	0.03893415158029533	0.1702211257247707	0.1314755998292396	2.419668084465623	0.9263804965017131	1.06448238371519	-0.1352243593970324	-0.2513391016179946	-0.220002608603649	1.213909269310684	1.2139092698387	-0.2442805268871489	-0.4956594762115684	0.2952068553848151	0.2136640792505717	-0.05449415426386608	0.483319635550721	0.4833196350664534	0.1110970606274651	-0.1425342576225189	0.8881423250815351	0.5888567262375889	0.6399496405551941	-0.3910536127007796	-0.5816964107938425	-0.04310310470889505	3.594005023788749	-0.1388360509272645	2.736328492048936	7.529016065152035	7.529016078856716	1.524254781168889	-1.082327767919153	0.2374655177425808	0.7182840321522631	1.297632331419374	7.141105593077405	7.141105524012726	2.386198083725261	-3.73234996963718
14.25332718999718	0.04332475599477161	0.1731711163509865	0.1353269625805894	2.41700978456698	0.9225438119824974	1.06424132321975	-0.1085799413825596	-0.2511399075831133	-0.2012056853978262	1.263106189514948	1.263106190148317	-0.2337059115009393	-0.5014971448189444	0.2976668255979416	0.2175082038312611	-0.04605607771709153	0.5294798586203953	0.529479857671403	0.1289244133701483	-0.1657483764968389	0.429308856645477	0.2957018811360764	0.5085894496012321	-0.4050165002197023	-0.5672523322329123	-0.02889486144089012	4.394954138220797	0.196745975174321	2.90044844399445	7.215490609491341	7.215490626616349	1.644478471091217	-0.682615084990127	0.4882464032849778	0.4308192107764675	1.224114171296919	6.682711474571096	6.682711405402888	2.944758946899269	-3.216533502868375
14.25999384999717	0.04469575836560143	0.1741732208446085	0.1381739815991672	2.414287841345711	0.9188459132656921	1.064100547978811	-0.07673826672384262	-0.2487548391459317	-0.1813828215309633	1.309913821049484	1.309913821795094	-0.222413034754918	-0.5049433540309827	0.3015175058506367	0.2193660813593183	-0.03829428709126879	0.5721138007547563	0.5721137993633365	0.1500959420978856	-0.1852575561283567	-0.01265566847760628	0.006746323104964954	0.3401004351907291	-0.4100040360048252	-0.5398727518617428	-0.0131568086438003	5.14492117333101	0.5147715411320445	3.040702579267622	6.811191024301289	6.81119104005985	1.738352561249537	-0.3647333601008502	0.6494578854155281	0.1243930656143495	1.096019947079983	6.085599279081167	6.085599216612002	3.384713618950872	-2.627033263816772
14.26666050999717	0.04325993895787843	0.1732988937206252	0.1398024246924265	2.411564535166245	0.9153763052819295	1.064067067718354	-0.04020338281038417	-0.2443436282076781	-0.160763469287186	1.353709226780601	1.353709227614565	-0.2106001358261579	-0.5065334332784637	0.3060625205880654	0.2191522175385046	-0.03154211152965484	0.6103487185559509	0.6103487167884017	0.1737410612867734	-0.2006929733083872	-0.4079698652473407	-0.2652683723278288	0.145073032284129	-0.4053448691100801	-0.4986564051677698	0.003097921651447161	5.794998173623318	0.8025355892570738	3.13576283961818	6.311264576127302	6.311264586264224	1.799885898281301	-0.1246122530626656	0.6922247099439821	-0.1885773749447681	0.9232197840838143	5.366035151476531	5.36603510218193	3.684353568023918	-2.000300066314422
14.27332716999717	0.03941894768800321	0.1706972294899326	0.1400795731886693	2.408905355764536	0.9122287516765049	1.064140158394011	0.0002070197172422276	-0.2381474747280408	-0.1397204037062168	1.39384771805018	1.393847718924531	-0.1984892946712025	-0.50675748302712	0.3104345021612854	0.2168653541023454	-0.02605417096776302	0.6434326151525775	0.6434326131182249	0.1988896385031197	-0.2119192642771726	-0.7302128003369306	-0.5099758685921432	-0.06281701478870179	-0.3907503512326302	-0.4432480372962574	0.01858609478415545	6.300775454150935	1.048470010125617	3.164445934110616	5.714172029902827	5.714172031539154	1.827951932581225	0.04692567012821795	0.594586997728108	-0.4954404200659662	0.7192323842152798	4.543840530823485	4.543840501138257	3.835472428889006	-1.369327021095946
14.27999382999716	0.03373349510986533	0.1665762691424533	0.138970505621354	2.4063764246625	0.9094973428204731	1.06431007684533	0.04340485024770675	-0.2304785892587945	-0.1187597450162033	1.429687051352805	1.429687052205904	-0.1862944677496908	-0.5060330236424235	0.3136480156109194	0.2125863028655503	-0.02198678200509424	0.670754507492875	0.6707545053429629	0.2245590271385862	-0.2190007334849972	-0.9582900763831098	-0.7201227074049052	-0.2681672843552674	-0.3663182012262989	-0.373907612634951	0.03191427462472758	6.62598719791705	1.242941729901843	3.108306068171655	5.022236281082819	5.022236273009842	1.82598383090656	0.1621301298791137	0.3431994817215012	-0.7843838471634789	0.4997720287442013	3.64126895624719	3.64126895218194	3.842189364413165	-0.7606134722198543
14.28666048999716	0.02688453729704812	0.1611814102122912	0.1365441033575052	2.404041961021506	0.9072723811072173	1.064557924123902	0.08809370558263807	-0.2217053158540669	-0.09849584530301043	1.460613801725545	1.460613802493234	-0.1741944664536512	-0.5046911919809461	0.3146583277656376	0.2064692581842988	-0.01938873128708622	0.6918560127986564	0.6918560107202039	0.2498280958372576	-0.2221514404869885	-1.077370495307516	-0.8917733971542925	-0.4555360814023163	-0.3325185704499624	-0.2915126759451112	0.04176017645200177	6.74475704519703	1.378856353124092	2.953615564021083	4.241785372994053	4.241785355646661	1.80086218575861	0.234372084447766	-0.06633286418558168	-1.045369911959404	0.2810796927941239	2.681637796540287	2.681637822590104	3.718304958756745	-0.1924109143636682
14.29332714999716	0.01962740546824019	0.1547727056583456	0.1329673024023937	2.401961851717458	0.9056361355518932	1.064856740436201	0.1328464243711423	-0.2122324002975866	-0.07961397673512535	1.486070181787436	1.486070182413537	-0.1623148016955584	-0.5029745241652821	0.3124236493790384	0.1987262375096654	-0.01820440587919744	0.706435034001616	0.7064350322024243	0.2738903448913926	-0.2216781360703022	-1.080309188760546	-1.024522921980157	-0.6112488575339342	-0.2901787230736961	-0.1976136618202847	0.04705813904581785	6.644290096225507	1.452584679953237	2.693115194653523	3.383192234832876	3.383192210137154	1.761444840212614	0.2766649096475528	-0.6284229001798719	-1.271317776931873	0.07784915366171768	1.688431395584254	1.688431453224186	3.483786162576741	0.3256894293418926
14.29999380999715	0.01273313980974351	0.1476001541945625	0.1284875532216137	2.400189322130039	0.9046579363125353	1.065173789805319	0.1762039289956021	-0.2024737378159487	-0.06282177227703306	1.505581095082006	1.505581095527406	-0.1507194293172373	-0.5010426099321229	0.305978894878588	0.1896027742875995	-0.01829190502220933	0.7143459192473742	0.7143459179308562	0.2960825168874343	-0.2179246058065036	-0.9699076466891785	-1.121832007204928	-0.7250747591357114	-0.2404659273293706	-0.09456288902284311	0.04716486916916518	6.328340610099133	1.46520752249116	2.327560954659486	2.460869646381308	2.460869617458228	1.717108454865098	0.3007738533664688	-1.325273807164871	-1.459452591901993	-0.09908825823078576	0.6851034258508958	0.6851035120888099	3.161021405769366	0.7919223625873906
14.30666046999715	0.006916909719989197	0.1398780304560855	0.1234056619914413	2.398768779380016	0.9043885773987004	1.065473764824359	0.216792914205976	-0.1928180706530317	-0.04879329893176924	1.518779938550469	1.518779938799053	-0.1394117812637951	-0.4989821580782429	0.2945219763939004	0.1793464637117279	-0.01945463228373037	0.7155992390586208	0.7155992383912099	0.3158886960884632	-0.2112259978972816	-0.7601182188284628	-1.190844959613437	-0.791357103921539	-0.1848493820926555	0.01444051555210282	0.04196144886874262	5.81884184847032	1.423205349910333	1.866203888062719	1.492815362903603	1.492815333371303	1.676424671514707	0.3167386420913801	-2.125870120806133	-1.611917794317395	-0.2442740661460284	-0.3049634991368003	-0.304963392397021	2.771263422670254	1.210162808654738
14.31332712999715	0.002766977857307851	0.1317637182228911	0.1180440052750614	2.397734013119472	0.90485511972532	1.065722347651976	0.2534414576523611	-0.1835942386585914	-0.03811574154132918	1.525428899231713	1.525428899290187	-0.1283440996727718	-0.4968195368830726	0.2774963033757296	0.1681761698623123	-0.02147734846366937	0.7103602225933178	0.7103602226724386	0.3329222147143967	-0.2018821408590224	-0.4746133346642678	-1.241215988441857	-0.8092370492909819	-0.1250316278843423	0.1255217994007839	0.03185523085361341	5.153573550477542	1.337860807847616	1.325503064902087	0.4994132120864421	0.499413184997731	1.646006972893377	0.3325840708992368	-2.98820513257064	-1.734927964453878	-0.3573787845778603	-1.258851326932641	-1.258851212010351	2.33159348879445	1.586481407464235
14.31999378999715	0.000690198617720095	0.1233467449519274	0.1127163656271855	2.397106921695839	0.906057433271011	1.065889454602372	0.2852684469776385	-0.1750442238356666	-0.03124954215684992	1.525429385491532	1.525429385382965	-0.1174334888010898	-0.4945347583860869	0.2546499190289783	0.1562611193321524	-0.02415497749245024	0.6989435971965764	0.6989435980297012	0.3468902719045502	-0.1901561844601022	-0.1435515837513636	-1.283344516961938	-0.781980960013099	-0.06286277476440572	0.2344586456252388	0.01768799830236717	4.381055209062634	1.223631151340842	0.7265417049027738	-0.4982482276088662	-0.4982482504259429	1.629684198619632	0.3541888866005202	-3.863687677475881	-1.836777704237779	-0.4414005496718306	-2.154733044955393	-2.154732936044613	1.852850692665521	1.925161951963658
14.32666044999714	0.0008804417685831217	0.1146496070635912	0.1077042107659521	2.396896824743047	0.9079670857562159	1.06595167742426	0.3117364075080525	-0.1673084375380876	-0.02850701416855366	1.518820947397959	1.518820947154288	-0.1065818252862957	-0.4920755130264744	0.2260638692244702	0.1437146996713554	-0.02730708994223343	0.6818043558844498	0.6818043573861627	0.3575492291098671	-0.1762982300426863	0.1998902138092891	-1.326686691788344	-0.7158156563485663	-0.0002511589082368915	0.3370420613480738	0.0005970184391250141	3.554951450795399	1.096216143654593	0.09225305234922782	-1.480086066021444	-1.480086083599881	1.628195144770422	0.3854221725612671	-4.701743142413979	-1.925565157055092	-0.5003917178040381	-2.972441513070737	-2.972441423391636	1.338972734670813	2.225432813979348
14.33332710999714	0.003309792758104867	0.1056387154685096	0.1032404830232915	2.397100391712299	0.9105286199097751	1.065893832544607	0.3326678120133884	-0.1604232955340792	-0.03004731158066026	1.505769417888186	1.50576941754722	-0.09569567758833085	-0.4893690924299048	0.1921507328609181	0.1306021496139464	-0.03077970260732863	0.6595249987264553	0.6595250007330771	0.3646612161012526	-0.1605838793286654	0.5229486474307922	-1.378421205922202	-0.6189649055124964	0.0609338689676111	0.4294335535675644	-0.01810170109102975	2.728685712669106	0.9708741053556793	-0.5545835259755759	-2.428526705955403	-2.428526717401632	1.639494819959918	0.4286534630915829	-5.454239322869958	-2.007414591900816	-0.5381726424674215	-3.693978484505561	-3.693978424014185	0.7880883092681514	2.480528514512034
14.33999376999714	0.007743610245024871	0.09624295824278713	0.09949753211207596	2.397702260318885	0.9136632211674608	1.065709957933476	0.348225561130181	-0.1543283217662143	-0.0358807476325749	1.486545986022486	1.486545985628255	-0.08470228169664264	-0.4863296123585607	0.1536229745658274	0.1169569799952149	-0.03444483780351164	0.6327992857729577	0.632799288069299	0.3679639161808723	-0.1433482616967841	0.796989290712078	-1.442504120306271	-0.5013965086033144	0.1189701167593967	0.5085209849868539	-0.03695987390070758	1.950108692559874	0.8612685746546931	-1.192131726044856	-3.329703126203359	-3.329703130617655	1.659602332253801	0.4856361228270762	-6.080099976784906	-2.085668114221383	-0.5589796223570391	-4.304053996337275	-4.304053970382266	0.1953091114317961	2.679964292113707
14.34666042999713	0.01377902020191184	0.08637704294189355	0.0965751281908231	2.398676339446358	0.9172745417324721	1.065404165294478	0.3588607955232747	-0.1488792751164771	-0.04587511865850932	1.46149980676315	1.461499806363893	-0.07355882945358537	-0.4828586778836347	0.1114326085522041	0.1027998985734078	-0.0382088313161176	0.6024125889990992	0.602412591351277	0.3671624017274269	-0.1249978374903724	1.000514787674363	-1.519203218608063	-0.3749106248597549	0.1723718682777231	0.5721856785469036	-0.05440682296370779	1.257366466025728	0.7787720223023563	-1.799433103099444	-4.174154553566461	-4.174154550709754	1.683691717226943	0.5585341068285831	-6.5489394318032	-2.160848096330745	-0.569113604202382	-4.790525654173615	-4.790525662993655	-0.4436633889800359	2.813450147260229
14.35332708999713	0.02089601715951649	0.07596601724477008	0.09448922236442472	2.399987521872458	0.9212556249867576	1.064991315627129	0.3652426410474535	-0.1438651998606293	-0.05976092109766618	1.431028198141295	1.431028197783237	-0.06225478921870823	-0.4788396771646353	0.06669576889748134	0.08815721001470339	-0.04202907667127527	0.5692202701274679	0.5692202723164981	0.3619440023886162	-0.1059989953070813	1.119748189277325	-1.605216119495341	-0.2527134323163515	0.2199192745743169	0.6193515486095411	-0.06880383216909246	0.6778062503247095	0.73194416289804	-2.356252207405074	-4.956838104647979	-4.956838095370964	1.707038292895739	0.6507616514248036	-6.841743242201693	-2.230759642290627	-0.5775329159902474	-5.144537177993178	-5.144537216997129	-1.129427806305384	2.873538159655791
14.35999374999713	0.02850459167355893	0.06496725148126981	0.09316597255540442	2.401593399613782	0.9254954494389994	1.064497103096663	0.3681901715156347	-0.139028686588862	-0.07713642348446084	1.395548764738951	1.395548764459697	-0.05080890048484177	-0.4741275242901906	0.02062213178770678	0.07307876357051003	-0.04592901202988033	0.5341258702270604	0.5341258720776897	0.3520101664146166	-0.08685626186621581	1.147169470953601	-1.694278187617201	-0.1483264664200525	0.2606367371912975	0.6498447487379224	-0.07856244642136495	0.2293622910238823	0.7261067666499903	-2.843198734259296	-5.67659877707002	-5.67659876301196	1.725674022911054	0.7675110206964695	-6.949108403748742	-2.290562908614263	-0.5948453021741452	-5.360492416057391	-5.360492476983302	-1.856913914465072	2.856244455680475
14.36666040999712	0.03598165869023673	0.05338736147632565	0.09244378227155972	2.403445805842422	0.9298843746808938	1.063957267547122	0.3686143424195155	-0.1340881401267389	-0.09747437880166614	1.355475712651165	1.355475712476449	-0.03926254508539955	-0.4685358046730541	-0.02554336879694752	0.05765437376218705	-0.05000420295062377	0.4980590595418482	0.4980590609410045	0.3371180143861571	-0.06808869793512863	1.080293484379367	-1.778041676006323	-0.07436309028267332	0.2937706031070415	0.6642324541575191	-0.0822785897973218	-0.07827772558017879	0.7632074076787815	-3.242085040653313	-6.335508516612801	-6.335508499603415	1.736835521535362	0.9160081115367525	-6.869751023557427	-2.333243948281302	-0.6318651410046051	-5.436196099937598	-5.436196172744095	-2.614391974155442	2.761290003413121
14.37332706999712	0.04270470333322109	0.04129268066677402	0.09208303417831604	2.405492293747691	0.9343187556246746	1.06341596320268	0.3674621874461086	-0.128759453265222	-0.1201318845245776	1.311200228254927	1.311200228198948	-0.02767071379930975	-0.4618232543560435	-0.07057442296093434	0.04202478923778816	-0.05441978448258042	0.46195177713381	0.4619517780354998	0.3171257875781104	-0.05020235382674618	0.9219252799952034	-1.847126838817998	-0.04144291960707458	0.3187932072566658	0.6637374568922733	-0.07885015752794641	-0.2441833455340327	0.8421433543818634	-3.536527709913266	-6.938318433662895	-6.938318415274335	1.73922819421846	1.105429078528969	-6.61068965429645	-2.350784828907097	-0.698480912181198	-5.373237006711069	-5.373237081635207	-3.383298317555017	2.593066999807057
14.37999372999712	0.04809037381870408	0.02881231903573815	0.09178283280236707	2.407677709224133	0.9387051427490023	1.062923396915991	0.3656540235617526	-0.1227742680085166	-0.1443652705930707	1.263074371025753	1.26307437109398	-0.01609204220692521	-0.4536825421586555	-0.1133219089922594	0.02638306993803816	-0.05940091410989987	0.4267116796357184	0.426711680053576	0.2920365041363256	-0.03365511270881411	0.681150155695853	-1.892270267171147	-0.05715872387733049	0.3354238921858035	0.6501831069217114	-0.06757943625614352	-0.2774777318326426	0.9594054374596345	-3.71285340326648	-7.491904867316743	-7.491904848549209	1.733028199538215	1.346247317929492	-6.18817771474437	-2.335790384378811	-0.8026343884827474	-5.177344490560626	-5.177344559659983	-4.138962893878344	2.361775179904452
14.38666038999711	0.05163754795345568	0.01613381285072788	0.09120450657211913	2.409945905903814	0.9429638969628604	1.062532835267952	0.364015033656768	-0.1158940565575575	-0.1693517666735712	1.211399673919699	1.211399674113403	-0.004579837668530836	-0.4437359970045859	-0.1527756551976132	0.01096516434654125	-0.06521620615722344	0.393194603244234	0.3931946032369892	0.2620337445819382	-0.01881656703540815	0.3734162460400686	-1.905358143251918	-0.1251006059909245	0.3436477903088211	0.6258539192112594	-0.04825831160159749	-0.1973897541895809	1.109613485829826	-3.761189540610097	-8.00434804690909	-8.004348028019317	1.719585562363215	1.648777145738725	-5.627407308985055	-2.283004953757483	-0.9492409581047901	-4.858250125706346	-4.858250183388895	-4.852219400400125	2.083608393284451
14.39332704999711	0.05296500211317826	0.003492778476500432	0.09000095592812603	2.412241545171194	0.9470314087356131	1.062297138755392	0.3632143960109703	-0.1079217976533646	-0.1942183767718315	1.156423774647801	1.156423774968406	0.006824093854196837	-0.4315437390843559	-0.1881166886776121	-0.003968013709749052	-0.07215410171443612	0.3621803817388134	0.3621803813956987	0.2275043130035794	-0.005931736358736002	0.01883851571576292	-1.880183139945579	-0.2441146934105015	0.3437222424049238	0.5932199867262955	-0.02122239275596788	-0.03093451078090736	1.285704152440202	-3.676498133136015	-8.48345055707648	-8.483450537864305	1.700903570277916	2.020949800393332	-4.959968884112266	-2.190312786215488	-1.139180810145932	-4.428832193206627	-4.428832235789986	-5.491690272778492	1.779392031457211
14.39999370999711	0.05183403011036967	-0.008841636078337212	0.08784955835043286	2.414511910943068	0.9508602572434899	1.062265074504819	0.3637252495101486	-0.09871304596952778	-0.2180770054962438	1.098348142951687	1.098348143401091	0.01809188092825292	-0.4166280940284572	-0.218747925567564	-0.01815335980443099	-0.08049323344300341	0.3343558667785521	0.3343558662089787	0.1890441524110306	0.004901618945604164	-0.3603522771253853	-1.81296637230926	-0.408008202433937	0.3361766260448973	0.5546194072558215	0.01263798954454082	0.1906942472083368	1.478984307411999	-3.459407090697897	-8.934965768294109	-8.934965749004085	1.67907137198913	2.465747466966226	-4.220263069667197	-2.059217694914744	-1.368529647072677	-3.903907594608719	-3.903907619632849	-6.026478847456751	1.471983006599524
14.40666036999711	0.04815533291119253	-0.02058426104017155	0.08448519099731744	2.416708721747453	0.9544174959002325	1.06247771114057	0.365807957696107	-0.08818623485116722	-0.2400643741528629	1.03734734815189	1.03734734872591	0.0292085912568034	-0.39851463906226	-0.2443026608853766	-0.0313502192364483	-0.09046878058362513	0.3103056807966812	0.3103056801232162	0.1474457730989067	0.01373638786244931	-0.7418183661547983	-1.702731480275572	-0.6058161437894642	0.3218114891244012	0.5120292561794769	0.05191333409804384	0.4353060680705699	1.679336954190171	-3.116813449690729	-9.360965768592761	-9.36096575094275	1.655824456200399	2.978870254481451	-3.442630811546159	-1.894936562236807	-1.628138784654022	-3.299181247055913	-3.299181253042234	-6.428970083965217	1.183208063212718
14.4133270299971	0.04198554029259367	-0.03145343688664252	0.07972959725815157	2.418789914050843	0.9576818427075058	1.062965200446847	0.3695115263148981	-0.07633086296683426	-0.2593850408877932	0.9735980483030447	0.9735980489797538	0.04016895348612956	-0.376786676668502	-0.2646379315443685	-0.04336440439806822	-0.1022373856301591	0.290508855898982	0.2905088552502197	0.1036675740656871	0.02075935510350038	-1.104257916462225	-1.551531105101379	-0.8226252071815848	0.3016884400539374	0.466964363663564	0.09475497834758541	0.6720146551405703	1.875647351406587	-2.662188708574769	-9.758576135589195	-9.758576123171707	1.632300528986162	3.547106956071793	-2.659642116150644	-1.706108244771144	-1.903634120063008	-2.630532833244101	-2.630532819925208	-6.677403778748188	0.9309611658452872
14.4199936899971	0.03351777123265533	-0.04119144914214605	0.07351351155214454	2.420721289046569	0.9606405393722509	1.06374423314042	0.3746886564849566	-0.06321217134465792	-0.2753549626451812	0.907314975499709	0.9073149762283438	0.05097302957968016	-0.3511472712968729	-0.2798189501431577	-0.05406880945986325	-0.1158436631042423	0.2753392537488401	0.2753392532498968	0.05878773005559808	0.02625673523488983	-1.428146559198808	-1.364484627473783	-1.040915906002415	0.2770974165511914	0.4204713879598666	0.1389968673488014	0.8731259510338906	2.05642739239639	-2.115398911122072	-10.11915089993084	-10.11915089762521	1.608957563401977	4.147738553729018	-1.901016600157145	-1.504057597987251	-2.175909751837417	-1.913575950237036	-1.91357591900949	-6.757877568326411	0.7268452669777656
14.4266603499971	0.02306705607552763	-0.04958447410955487	0.06588826669985087	2.422477840492784	0.9632863533019265	1.064816434152188	0.3810235292566687	-0.04897105141547999	-0.2874416690067241	0.8387908075038093	0.8387908082005712	0.0616216417103029	-0.3214813038104734	-0.2900966184805457	-0.06341762474904925	-0.1311919013914679	0.2650684181809937	0.2650684179406835	0.01394739845181603	0.03056657332685321	-1.696611649497004	-1.149586289115393	-1.242358164456689	0.2494927572483334	0.3731699197910842	0.1823143487505513	1.016136322142033	2.210614315222546	-1.50184479098035	-10.42794229133903	-10.42794230389662	1.585565094333467	4.749141938798624	-1.192533562491628	-1.301619706438238	-2.422204681982716	-1.163341803021415	-1.163341757454551	-6.66551734910759	0.5746276934317105
14.43332700999709	0.01104872246534786	-0.05648034666494186	0.05702438482103402	2.424044543752337	0.9656149090161501	1.066167905810597	0.3880737912195595	-0.03381827763378957	-0.295296322811851	0.7684363602410695	0.7684363607956741	0.07211174394695868	-0.2879094325135545	-0.2958767102729506	-0.07145149647111861	-0.148026966358068	0.2598704968599764	0.2598704969553721	-0.02971083907395272	0.03402407539289046	-1.896659192949101	-0.91723715227625	-1.409874622652353	0.2203958682137995	0.3253074956917351	0.2224063608262887	1.085955999730473	2.328452338324163	-0.8509116630159892	-10.66435540219445	-10.66435543253958	1.561189424629812	5.312613024300195	-0.5546246163608007	-1.11162627284683	-2.617776609348228	-0.3939649617837471	-0.3939649078049352	-6.404743085644005	0.4696850680397165
14.43999366999709	-0.00205156702505271	-0.06180228685931905	0.0471964998575554	2.425416407082877	0.9676224414514141	1.067769990758713	0.3953264357394896	-0.01802296693414218	-0.2987739793512	0.6968166787170917	0.6968166790096046	0.08243171319742806	-0.2508257057378088	-0.2976796470210467	-0.07829212317107574	-0.1659279847584357	0.2598291843049175	0.2598291847671996	-0.07110358306144271	0.03690679218733171	-2.020321449976072	-0.6795138688450985	-1.529603795959478	0.1912741392871409	0.2768361056515719	0.2571736129671699	1.076669691477436	2.402323886776093	-0.1940643588835769	-10.80295958777795	-10.8029596357439	1.534199331985605	5.795471882866455	-0.001103925586058395	-0.9453087189831623	-2.738024371369956	0.3815861575477276	0.3815862122818829	-5.988745312854908	0.3995217208252734
14.44666032999709	-0.0157127310882661	-0.06555726062946723	0.0367567688830077	2.426597699221536	0.9693042286730362	1.069581117078289	0.4022605195801193	-0.001895862878994832	-0.297941521461335	0.6246772844232423	0.6246772843461508	0.09255703287934826	-0.2109097770356129	-0.2960950038918912	-0.0841270627702886	-0.1843170021267825	0.264945895802406	0.2649458966097771	-0.1092615320256974	0.03938690589837929	-2.064861427820238	-0.4493233621923562	-1.592324103270178	0.1634194749416376	0.2275443501175173	0.2848603451730133	0.9916456060855973	2.427468083846889	0.4368579385040938	-10.81545469226823	-10.81545475435004	1.502391218775233	6.155583816228644	0.4609925247823956	-0.8110315838431428	-2.760820039312836	1.151590590491979	1.151590638019968	-5.438321399151603	0.3453823222940411
14.45332698999708	-0.02941017845068771	-0.06783877620863188	0.0261013937495325	2.427600435390469	0.9706541032263778	1.071549415326874	0.40840343705211	0.0142317105121457	-0.2930757773602987	0.5529540704596617	0.5529540699380336	0.102447216889036	-0.169104997130172	-0.2917399657963438	-0.08918817420779671	-0.2024833837651404	0.275147828774842	0.2751478298558626	-0.1433748129848013	0.04149784875124198	-2.031704127925933	-0.2395880668404387	-1.594080523634024	0.1378503106499607	0.1772421818947674	0.3041438769915342	0.8415427754355381	2.402547108272789	1.01089411369744	-10.67357644809015	-10.67357651819937	1.4632146021002	6.356933813430347	0.8301115335891042	-0.7136742993505297	-2.668879632248753	1.905484697163657	1.905484730785378	-4.78018573594089	0.2849203626173642
14.45999364999708	-0.04263820060268008	-0.06882420128127417	0.01563550520753747	2.428442319169583	0.9716651830659995	1.073615784850831	0.4133693625383591	0.03003175259265761	-0.2846537820126292	0.4827616990938003	0.4827616980988002	0.1120440056709492	-0.1265593919336369	-0.2852290630832766	-0.09372798699946562	-0.2196237896199904	0.2902954242819055	0.2902954255277838	-0.1728258607927332	0.04312147107049916	-1.924844993935495	-0.06238622893941406	-1.536087027652996	0.1152466357223127	0.1259260451739545	0.3141835918640487	0.6412152420127192	2.329901571592774	1.499185346300656	-10.35254899442547	-10.35254906499428	1.413881895799097	6.374885912195137	1.108317283626742	-0.6545798164056413	-2.452034562302074	2.633810566498418	2.633810581826385	-4.044977387477074	0.1955997346154554
14.46666030999708	-0.05492323315943549	-0.0687657463276603	0.005740325225274109	2.429144360606091	0.9723313883411983	1.075717216289935	0.416877761365857	0.04520367666431525	-0.273332935413825	0.4153587293186936	0.4153587278743921	0.1212692024974589	-0.08453767283075314	-0.2771546362348932	-0.09799672093752587	-0.2348962846624366	0.3101900667377672	0.3101900680195574	-0.1972089771982937	0.04399822072315879	-1.74985169536046	0.07209643522143726	-1.424190282378199	0.09591786395929518	0.07383896518495681	0.3146518055990931	0.4070409657956234	2.215341539637442	1.876875007271483	-9.834526466486928	-9.834526529328581	1.351124143225785	6.199353782083532	1.300098732766179	-0.6317579466162615	-2.109147912987632	3.328347061283282	3.328347056699483	-3.265310330668309	0.05804438742410967
14.47332696999707	-0.06583373780099396	-0.06797413244437531	-0.003255221454711194	2.429728398087986	0.9726489301711462	1.077790278027588	0.4187576036979492	0.05949560336980009	-0.2599156693554355	0.3520910550879702	0.3520910532731235	0.130019627637033	-0.04432206359732018	-0.2680716569053411	-0.1022212775679455	-0.247485212485107	0.3345832696951529	0.3345832708827239	-0.2163375881232802	0.04375745152890827	-1.513811856081001	0.1566583754510563	-1.268080517763707	0.07980722202951121	0.02140641724848043	0.3057501947967396	0.1552925208762337	2.067547506906608	2.125792329344165	-9.111602861553646	-9.111602908582785	1.270603673482341	5.834945016503539	1.412212189039707	-0.6403033443160884	-1.649387644327011	3.982416487672351	3.982416464435779	-2.474031033754	-0.1413272649945324
14.47999362999707	-0.07499135471560819	-0.06679587163410054	-0.01109673794228039	2.430214787198205	0.9726171040215458	1.079774612677121	0.4189429770440228	0.07272088434148244	-0.2452955627662784	0.2943176613683167	0.2943176593125904	0.1381579686869493	-0.007121424842902366	-0.2584818520722563	-0.1065883891030628	-0.2566718622005418	0.3631882680789594	0.3631882690597869	-0.230240303325392	0.0419627357274259	-1.22562521664838	0.1878493982755252	-1.080222973620741	0.0665377166887873	-0.0308951717406238	0.2881928163121016	-0.09893634566692006	1.897261281440455	2.237163085480248	-8.188039379618473	-8.188039403843849	1.166357338239501	5.298492429581236	1.453891066493386	-0.6732562302279796	-1.092660655564657	4.591274117012567	4.591274079095741	-1.702577710175264	-0.4084103540269406
14.48666028999707	-0.08208314717315848	-0.06558712461699344	-0.01761861291191792	2.430620524482311	0.972238183380751	1.081616178544232	0.4174618613052341	0.08476872505895791	-0.2303880112131945	0.2433254684647186	0.2433254663373303	0.1455015579668069	0.02599783154666983	-0.2488175397493107	-0.1112349514436494	-0.2619045236634559	0.395693790535187	0.3956937912311977	-0.2391462608886356	0.03816712082706206	-0.8959744865775187	0.1662266800512717	-0.8745677090429687	0.05549470074770131	-0.08266780183245301	0.2631479866345522	-0.3427315232552115	1.716323985230967	2.213404441646533	-7.081220130964021	-7.081220127712045	1.030819538507725	4.615214055354685	1.436634534053538	-0.7228430033088702	-0.4689352258770029	5.152311896378553	5.152311850057904	-0.9794288237709936	-0.7404042457958575
14.49332694999707	-0.08687222010443875	-0.06468742251922638	-0.02274968019045377	2.430958000249833	0.9715165648389781	1.083270017158008	0.4144187997726195	0.0956079468910036	-0.2160535388848204	0.2002433101296481	0.2002433081202921	0.1518144213442633	0.05415412319107576	-0.2394289326853913	-0.116246755492478	-0.2628593684163691	0.4317776615569	0.4317776619377325	-0.2434609256920734	0.03197047387428233	-0.5368954291713451	0.09615435854481331	-0.6653086455973416	0.04592858380273497	-0.1336838774745572	0.23215848535978	-0.5661287925145914	1.536597780260855	2.068493186081611	-5.820917818860838	-5.820917786794087	0.8558186531648924	3.814702012237829	1.373405110929897	-0.781687094242758	0.1838700352111415	5.664775165315575	5.664775118472146	-0.3288173668376181	-1.126283089938673
14.49999360999706	-0.08920466506770336	-0.06439611129237358	-0.02651128345617293	2.431234439351024	0.9704574717714758	1.084702467437317	0.4099739720121365	0.1052836814786059	-0.2030238065311647	0.1659664290259807	0.1659664273205607	0.1568093826046643	0.07666777661492886	-0.2305779812447913	-0.1216644946295515	-0.2594824589092057	0.4711169939786464	0.4711169940683161	-0.2437342978987065	0.02306852727836528	-0.1611277395473787	-0.01481421370296662	-0.4658467873516972	0.03705425396975685	-0.1839237833721397	0.1970559075131613	-0.7624122122996985	1.368967560880125	1.82678967487702	-4.446930322876948	-4.446930264505717	0.6345646799148876	2.927412566396135	1.277531114660621	-0.8437797381359664	0.8233818403422615	6.129078129423168	6.129078090194078	0.2302856209756628	-1.548710514621649
14.50666026999706	-0.0890117255736538	-0.06495425743869526	-0.02900894700476027	2.431451924350134	0.9690656323337967	1.08589277705641	0.4043217337877393	0.1139083157960027	-0.1918403385769151	0.1411008351186048	0.1411008338736516	0.1601657576295769	0.09305734995049275	-0.2224395173229041	-0.1274955510387398	-0.2520051862693797	0.5133935768088196	0.5133935766809294	-0.2406227686023372	0.01128668448474045	0.2186551418282193	-0.1569402922615892	-0.2878955187778243	0.02812284119699353	-0.2335445539621865	0.1598636205424696	-0.9279954896089733	1.22263651375356	1.520438184123227	-3.005583360047008	-3.005583281584325	0.3642496794796928	1.982006863588112	1.161668420184872	-0.9052435203124182	1.407140626333783	6.546110003815077	6.546109978590477	0.685078463722455	-1.986548233137891
14.51332692999706	-0.08630684828480178	-0.06653400929327943	-0.03041855114879271	2.431607766505667	0.9673443878161208	1.08683400742608	0.3976711898554703	0.1216488246892903	-0.1828143678713346	0.1259331764953979	0.1259331758161361	0.1615648238882693	0.1030222305689636	-0.2151082617814761	-0.1337298513147723	-0.240929495636249	0.5582952984317622	0.5582952981917098	-0.2348453552863554	-0.003403193188641674	0.5905667006672396	-0.319482413675142	-0.1407473815017165	0.01845420189513538	-0.2827857929589516	0.1226818475504825	-1.061920174819855	1.104731775670912	1.185713486438047	-1.545661081092138	-1.545660991487848	0.04868120190513898	1.003975296492407	1.037126486724958	-0.9647410388963713	1.897190823722235	6.916746547827993	6.916746539566788	1.029671206983449	-2.417429628977264
14.51999358999705	-0.08117888150916409	-0.069235576556441	-0.03096856055848569	2.431694986388194	0.9652955486628663	1.087533121805403	0.3902316003474009	0.1287121618114765	-0.176012993234499	0.1204282037956885	0.1204282037228725	0.1607413988095986	0.1064214611323377	-0.2086084382592623	-0.1403564340207102	-0.2269834305095746	0.6055149110266496	0.6055149107865583	-0.2271362772331592	-0.02088332875987602	0.9438989012680599	-0.4917527375266034	-0.03084216426087683	0.007440660998567468	-0.3318463875834135	0.08755851235430351	-1.164902983488908	1.020092399074298	0.8588852554737991	-0.1142877558351876	-0.1142876652021965	-0.2996053390128409	0.01590552624281424	0.9137874537348554	-1.023242970187676	2.264303392720638	7.241527616175098	7.241527623978183	1.265396081681019	-2.820383446091056
14.52666024999705	-0.07378424385463335	-0.07309022595867183	-0.03092044944679881	2.431702784708063	0.9629200579924084	1.08801017886211	0.3822054097478085	0.1353294858807502	-0.1712727603433012	0.1242522597876525	0.124252260295005	0.157546262228335	0.1032593842528365	-0.2029017312448945	-0.1473761046352026	-0.2110512026597181	0.6547470735250908	0.6547470733799055	-0.2181974798445434	-0.04090769853037206	1.269037080263809	-0.6638457226138474	0.03835957556175929	-0.005456158673882092	-0.3807711961759672	0.05635066827287923	-1.238044952468617	0.9711154923933812	0.5722280183028502	1.246662506677485	1.246662588554138	-0.6583034199161224	-0.9608445035402466	0.8006730072968451	-1.083108551244049	2.491313671236179	7.520466521712871	7.520466541489536	1.400495648598585	-3.178268261876049
14.53332690999705	-0.0643409907888894	-0.07806686680349283	-0.03054893409271845	2.431617015730433	0.9602193033593254	1.08829658703721	0.3737900620246897	0.1417393494786246	-0.1682377910487656	0.1368174594698091	0.1368174604700561	0.1520103156052015	0.09368477057856682	-0.1978897904707488	-0.1548063216855431	-0.194085310214597	0.7056846743210776	0.7056846743308576	-0.2086554366245297	-0.06313377228737915	1.557015807862177	-0.8269885076808861	0.06632884418018663	-0.02069970120622847	-0.4293723740046035	0.03058303265082971	-1.281557812704686	0.9575938540291941	0.3507272018616709	2.503115315756621	2.503115380529766	-0.995949859970462	-1.903951862994065	0.7069569136886388	-1.146731822158412	2.575090477787936	7.753031462784761	7.753031488360817	1.449155531946401	-3.479468904405977
14.53999356999704	-0.05312617873639779	-0.08407987246841701	-0.03012288366191096	2.431420748095797	0.9571968170626647	1.088432445402409	0.365187004406148	0.1481698104887447	-0.1664163914077393	0.157338578387843	0.157338579745663	0.1443979611582477	0.07800341582773851	-0.1934097134906964	-0.1626766323422634	-0.1770112730758899	0.758015620591922	0.7580156207722006	-0.1990264075423145	-0.0871619467609373	1.799037297740389	-0.9735811468162818	0.05531419389095042	-0.03865714967039766	-0.4771909823542697	0.01131852193191885	-1.293956443376035	0.9765675936490112	0.2098827681237324	3.630034531281067	3.63003457305176	-1.274569752723078	-2.788437805914676	0.6429677744809194	-1.215123319244291	2.52673004894708	7.938294358916412	7.938294383343891	1.429954874637698	-3.71847530756868
14.54666022999704	-0.04047553819243101	-0.09099652835997456	-0.02988761022334959	2.431095028264971	0.9538601189989494	1.08846311412113	0.3566133818127075	0.1548198779240712	-0.1652479151317924	0.184893589750632	0.1848935913019796	0.1352362513899372	0.05669810670673868	-0.1892243725177828	-0.1710154410077417	-0.1606374365473269	0.8114209131339225	0.8114209134553783	-0.1896935304798057	-0.1125749131485936	1.986305289356383	-1.097068569326777	0.01008337307733927	-0.05956011409597886	-0.5234910083109816	-0.0009404590961891574	-1.272101901475508	1.022290525716216	0.1548590649480664	4.611279393603224	4.611279409748629	-1.454237746051468	-3.586248242949642	0.620664107509873	-1.286778926336543	2.369860758387145	8.075146470525363	8.075146487536905	1.363899402835535	-3.895301754588986
14.55332688999704	-0.0267829995500983	-0.09864334726336384	-0.03004915655114504	2.430619947158022	0.9502224991195847	1.088435272857273	0.3483106389342329	0.1618412801916491	-0.1641704652149132	0.2184789510409111	0.2184789526158695	0.1253087722274857	0.03044579629597929	-0.1850117624996968	-0.1798307856485429	-0.1455814371918662	0.865574093091431	0.8655740934888652	-0.1808978586417109	-0.1389699654383969	2.110194685227777	-1.191733374948092	-0.06240971564293027	-0.08345564576635639	-0.5672851028275334	-0.006304834652445918	-1.212011162531688	1.086356515432045	0.1810848229112352	5.438222773250663	5.438222764589726	-1.498964242767204	-4.267559568634135	0.6534969401973906	-1.35702450392076	2.137447525036145	8.162486438574723	8.162486443843756	1.272236497855739	-4.014025300888733
14.55999354999703	-0.0124989697866291	-0.1068107639162913	-0.03076093212785453	2.429976012996161	0.9463044824433893	1.088392809955811	0.3405469567062139	0.1693214623162432	-0.1626801340888714	0.2570528255256834	0.257052826969759	0.1156085058682603	0.0001200571312797488	-0.1803561338992976	-0.1890883456108396	-0.1322208871363928	0.920141827526647	0.9201418279145404	-0.1727441539814911	-0.1659801867790627	2.162399642022198	-1.25242293171513	-0.1533927033855072	-0.1101664078897317	-0.607405866368763	-0.00549540776474333	-1.109780469779488	1.157935235343013	0.2761273234888738	6.10762295847938	6.107622928666593	-1.38291977177829	-4.803840793897083	0.7560804050746741	-1.417837746256544	1.867851106347556	8.199376930817204	8.199376922624559	1.174249830656473	-4.081016118036537
14.56666020999703	0.001872293527294332	-0.1152561860026742	-0.03211293523594672	2.429145732005149	0.9421346970627574	1.088372941456698	0.3336140413121358	0.1772686932009367	-0.1603750880874948	0.2995635153681649	0.2995635165576273	0.1072516625993354	-0.03323085922676666	-0.1747419980739759	-0.1986900756332513	-0.1206711693613465	0.9747853434408047	0.9747853437309255	-0.1652206861025544	-0.1932842047038946	2.135153576208392	-1.274380891831781	-0.2526913802295417	-0.1392673410742813	-0.6426056199656194	0.0002233324287290942	-0.9624199742612122	1.224208161996916	0.4222319218428185	6.619420192247148	6.619420146641031	-1.095685160936092	-5.171901574996795	0.9435335591853973	-1.458255483182557	1.600678563090643	8.185120328128811	8.185120307317204	1.085323488135159	-4.103315963300341
14.57332686999703	0.01577933188016563	-0.1237072605547291	-0.03412409739241661	2.428115320166383	0.9377501630590059	1.088402982636406	0.3278166167455501	0.1856015508271167	-0.1569827653596357	0.3449643758951918	0.3449643767440564	0.1013635139110392	-0.06843209854833038	-0.16755657344616	-0.208458317031106	-0.1107913274317371	1.02916159146979	1.029161591586402	-0.1582299698675942	-0.2206057663523279	2.022371281007734	-1.253535821676764	-0.3492606254937195	-0.1700673192235662	-0.6716181409918419	0.009171798947041714	-0.769365324840932	1.271293367512093	0.5987276701776862	6.974938495138763	6.974938439495288	-0.6452089737509605	-5.357411410831424	1.229411944462067	-1.465651585992152	1.372502708944656	8.11906892496657	8.119068894292065	1.015657817609843	-4.087184360860083
14.57999352999703	0.02864228804334274	-0.1318690783752309	-0.03673863619270081	2.426876540300319	0.9331964336908318	1.088498151161261	0.3234480651103857	0.1941465913997464	-0.1523729579014548	0.392218750047062	0.3922187505060064	0.09895457344617073	-0.1042481211919029	-0.158112470846718	-0.2181315060821192	-0.102218506552553	1.082921966640607	1.0829219665298	-0.1516250998188197	-0.2477040164502049	1.822107138764073	-1.187374941323529	-0.4318520946082661	-0.2015910677616666	-0.6931411695277402	0.01943267952255135	-0.5350740735578488	1.285754685956349	0.7838260329399704	7.175713412554364	7.175713351983513	-0.05768312005304012	-5.356600033841579	1.621775375164516	-1.427890945244522	1.212657121879573	8.000095050118595	8.000095013168444	0.9698952127773479	-4.03678497119927
14.58666018999702	0.03989021760164229	-0.139438304163037	-0.03982720392642428	2.425428614529627	0.9285280230024071	1.088660647031904	0.3207475661951116	0.2026472154654907	-0.1465607361058379	0.4402994883349945	0.4402994883850087	0.1008078698024893	-0.1394532391654883	-0.1456996464976224	-0.2273757480999595	-0.09442832330133329	1.135706937305611	1.135706936936747	-0.1452455325949416	-0.274356239846627	1.539406700862547	-1.076058222327758	-0.4897781853381818	-0.2325789592591851	-0.7057805409330622	0.02905209776774553	-0.2717183383372816	1.25637139380282	0.9559366086161174	7.223052186424757	7.223052124870217	0.6255683182813709	-5.176038532677008	2.118669437018656	-1.335805198980423	1.139802975901747	7.825953219282895	7.825953179268994	0.9476337422901473	-3.953309097380969
14.59332684999702	0.04901448858565944	-0.146123917046535	-0.04319339888064562	2.423780005534974	0.9238091093470248	1.08888008344877	0.3198434749349142	0.2107838106175054	-0.1397007857126514	0.4881880529559978	0.4881880526004519	0.1073946182863151	-0.1728967870903596	-0.1296636914496075	-0.2358116873427994	-0.08681340830244956	1.187137106560339	1.18713710592077	-0.1389471009959647	-0.3003373064503632	1.188053130248909	-0.9231943157765246	-0.5137591163184443	-0.2615302490396373	-0.7080355828356023	0.03624027763291203	-0.0003831853981004461	1.175674600023347	1.095018511217425	7.11833983118762	7.118339771477709	1.353310017662709	-4.831435595753272	2.705055579818527	-1.185177242196648	1.160003475161571	7.592905077484926	7.592905036564067	0.9445973746719178	-3.834906959611438
14.59999350999702	0.05562730467910883	-0.1516707751993865	-0.04658621104065173	2.421949725891929	0.9191140454955836	1.089135203600366	0.320696526801382	0.2182023106026266	-0.1320716088698219	0.5348778485307524	0.5348778477897862	0.1188285544073917	-0.2035594797837652	-0.1094957823585206	-0.2430512877372369	-0.07876879556445934	1.23680339220854	1.236803391297459	-0.1326227945044947	-0.3254016802904582	0.7902858121163554	-0.7358747225107563	-0.4968508112540968	-0.2868014270123854	-0.6983757292582486	0.03955415529291437	0.2501382392319156	1.040896400821606	1.184270521292147	6.863971363545092	6.863971308030091	2.070593701880889	-4.346265439597282	3.352496088642929	-0.9776784388889287	1.266600690073753	7.295852583205073	7.29585254295254	0.9541949018605609	-3.677508813110264
14.60666016999701	0.05951139053082033	-0.1558807363513838	-0.04971872204414605	2.419967834181966	0.9145270393918943	1.089396714473913	0.3230589337603894	0.2245467191879181	-0.1240479944755553	0.5793852760588053	0.5793852749691935	0.1348621468433726	-0.2306002617739266	-0.0849149511918747	-0.248737064459348	-0.06977249308716862	1.284259920065082	1.284259918893904	-0.1262124915548632	-0.3492732772940131	0.3745020540923127	-0.5239296587518031	-0.4353704899457634	-0.3067480972888441	-0.6754089706931075	0.03804739818413987	0.4468022464580472	0.8542078853715065	1.21187360095312	6.46469112033232	6.464691071787215	2.724986100750784	-3.75023300242235	4.021699901475556	-0.7206930685392589	1.44172810880684	6.929005039351942	6.929005002095105	0.969238917389446	-3.476298001498588
14.61332682999701	0.06064968305444314	-0.1586269186472679	-0.05229247288121658	2.417874919054509	0.9101405265208777	1.089630966472191	0.3264612465422153	0.2294910614915425	-0.1160631519805314	0.6207700403649629	0.620770038984774	0.1549222677112115	-0.2533913185063602	-0.055926199058825	-0.2525772176784918	-0.05945170202163432	1.329022674397804	1.329022672999086	-0.1197013335194047	-0.3716460495169058	-0.02824711860779565	-0.2986799715059308	-0.3296322403400561	-0.3198808638955102	-0.6380933671855158	0.03137095292376223	0.5569288141256382	0.6223436842343283	1.172276711227574	5.928939707043728	5.928939669065951	3.272057481011255	-3.077196764194295	4.666986657336688	-0.4263361548415445	1.659014410025819	6.486890765477363	6.486890735313957	0.9835939241422316	-3.227358816423665
14.61999348999701	0.05923143952118639	-0.1598592123027974	-0.05402538905926597	2.41572059741125	0.9060522397916819	1.089804083268511	0.3302288699300124	0.2327675230588079	-0.1085647142768396	0.658162752881434	0.6581627512939177	0.1781781120118167	-0.2715366394132383	-0.02284712383933153	-0.2543728615805663	-0.04762863551422045	1.370575090752084	1.370575089191445	-0.113108012169024	-0.3921944320430615	-0.3875983842640476	-0.07163593614093117	-0.184236565060859	-0.324999745402905	-0.5859009398649659	0.01980444330102709	0.5521868589661744	0.3558799054449916	1.06671944262245	5.269593766002133	5.269593742348261	3.679470441345711	-2.362296326872579	5.240981867820707	-0.1101414004688249	1.886904170419467	5.965369047340704	5.965369029943711	0.9935149004001221	-2.928895692799017
14.626660149997	0.05563889108769048	-0.1596017646062663	-0.05467965259024393	2.413561251626779	0.9023614864999274	1.089886032989007	0.3335201506422468	0.2341889992781076	-0.1019701614978388	0.6907944045696537	0.6907944028795524	0.2036303151771025	-0.2848692987227572	0.01369460646050832	-0.2540361867809979	-0.0343434170853075	1.408379730984073	1.408379729366439	-0.1064658543715035	-0.4105896477090576	-0.6764162563019787	0.1466108314994523	-0.007760041850731602	-0.3212872708062934	-0.5188967358278982	0.004206692482816399	0.4111458325786376	0.06825706289798102	0.9028731249261168	4.503801895080664	4.503801888162295	3.929190268996198	-1.638550066615237	5.698713185930961	0.2103576534732289	2.092174043014096	5.362440922382435	5.362440923547256	0.9984252371992912	-2.581795233087675
14.633326809997	0.05041691239990517	-0.1579431568280414	-0.05408575388037431	2.411457263702154	0.8991649507655683	1.089854117498585	0.3353803606378999	0.233663488970618	-0.09662755661052667	0.7180228182663708	0.7180228165858287	0.2302078617759113	-0.2934269002713277	0.05279220235965943	-0.2515980423503762	-0.0198531605883123	1.441895069715237	1.441895068178669	-0.09980128637943231	-0.4265186621175335	-0.8736036957277733	0.3475301760740317	0.1880402468952238	-0.3083695072030264	-0.4378228112227248	-0.01410603594329205	0.121837338786197	-0.2257482617467258	0.6936307278984076	3.652356021063257	3.652356030518428	4.017602284210914	-0.9339055242442978	6.002332893521222	0.5174517599791294	2.243559013085883	4.679013991902364	4.679014015407623	1.000896026851748	-2.189956056849261
14.639993469997	0.04422077138365051	-0.1550184509914544	-0.05216037083674594	2.409469909076404	0.8965517174122937	1.089695484524351	0.3348161305775238	0.2311962516311315	-0.09278634504409394	0.7393548285704509	0.7393548269987376	0.2568590198201117	-0.2974117024156225	0.09332655810565192	-0.24720161844698	-0.004607130113601162	1.470597541961748	1.470597540657375	-0.09311517121809382	-0.4397055225062116	-0.967741479137759	0.5258987335993092	0.3892392961678884	-0.2863572757658833	-0.3442409135646546	-0.03352555977091443	-0.3147946678124836	-0.5120876297275241	0.4553872962552763	2.739060185084974	2.739060207502544	3.953647889613582	-0.2696922703779835	6.126952877755285	0.7955301712742108	2.315196305142038	3.919683315654124	3.919683361415903	1.005841200341952	-1.760649086313231
14.646660129997	0.03774200409469478	-0.1509842512974193	-0.04891735121396968	2.407658072130143	0.8945974869463058	1.08940848910178	0.3308900046262315	0.2268786377512943	-0.09057959600795214	0.7544637747210073	0.7544637733277108	0.2826242850507556	-0.2971457999893541	0.1340685135166418	-0.2410816663809467	0.01079803773459383	1.494007718090468	1.494007717153935	-0.08637118897416393	-0.4499339652795372	-0.9595326795211976	0.6805095189241976	0.5807839185998175	-0.2558543889749157	-0.2405995909072714	-0.05232635733504908	-0.8828707503158557	-0.779198087844102	0.2064260376757823	1.789877574619891	1.789877604828661	3.755378829093019	0.3393502852057198	6.064809786642066	1.032961930982262	2.288995980710063	3.093089343186072	3.093089406684908	1.019281180903745	-1.304424830745785
14.65332678999699	0.03162807806268766	-0.1459925394684368	-0.04447169135684586	2.40607507741703	0.8933590140575407	1.089002915385731	0.3228165930838066	0.2208683653514623	-0.09001576988207165	0.7631996464073648	0.7631996452275351	0.3066828805154347	-0.2930306026345168	0.1737952305789543	-0.2335347821884671	0.02567351110589704	1.511716211146943	1.511716210671409	-0.0794929214652232	-0.4570666662917584	-0.8611354919975649	0.813813412804578	0.7475755340219492	-0.2179127840120212	-0.13009449765701	-0.06883270541475425	-1.553209018914053	-1.018788878355256	-0.03435802601915729	0.8315848010290041	0.8315848341735785	3.445609048754209	0.8839162947939263	5.825218612709719	1.222862541522259	2.155398441074757	2.211464816214795	2.211464889509212	1.046999313363931	-0.8342101175657767
14.65999344999699	0.02641471005557411	-0.1401697058517889	-0.03903564586568702	2.40476599700893	0.8928700040834521	1.088499086381043	0.3100385133179536	0.2133669522917681	-0.09097923518727805	0.7655894597684505	0.7655894588101131	0.3283698460892814	-0.285515804376713	0.2113949977194755	-0.2248876045362523	0.03929458510331688	1.523404384158446	1.52340438417847	-0.07236994824316556	-0.4610568313474354	-0.6934023188607176	0.9308314478158823	0.8757816036483996	-0.1739372111771002	-0.01639733589422424	-0.08158757347381516	-2.28729765901749	-1.22603101876366	-0.2489304424522522	-0.1097161701051752	-0.1097161371682023	3.04760534921069	1.358571136771769	5.431624973975147	1.363073096238247	1.913132739437524	1.289612173166501	1.289612247023457	1.093192166458958	-0.3640272395423033
14.66666010999699	0.02247803437104267	-0.1336035512917287	-0.03290504006054679	2.403765703766388	0.8931388540939456	1.087925826671439	0.2922748920168726	0.2045962105280117	-0.09324275301933184	0.7618286159329172	0.7618286151887435	0.3471669982312189	-0.2750782384309942	0.245949898450137	-0.2154660487045202	0.05095460850547093	1.528857693682163	1.528857694173186	-0.06487257176066823	-0.4619515469946058	-0.4828654058888642	1.037913673500626	0.954448628628063	-0.1255607358632746	0.09661337980020875	-0.08952562481344474	-3.04133346615761	-1.399682688673665	-0.4222462207692008	-1.009774894514734	-1.00977486341033	2.581668677382174	1.760428901057504	4.918146104286172	1.45591777995229	1.568824485659965	0.3437728597431978	0.3437729260310186	1.159278353229305	0.09215669140829419
14.67332676999698	0.02000694379870142	-0.1263385746949748	-0.02643446643534198	2.403097790164825	0.894148125815815	1.087317328579689	0.2695436492389134	0.1947743488627915	-0.09649555621920135	0.7522656015681316	0.7522656010214115	0.3626754467898988	-0.2622077752183768	0.2767947009947054	-0.2055668260661949	0.06001618679373535	1.527971627265639	1.527971628157662	-0.05687300052363137	-0.4598879653268924	-0.2585957666739214	1.141490860237582	0.9771539300900534	-0.07451275092609697	0.2051102611469609	-0.09212260276783357	-3.770178758017017	-1.542017892811176	-0.5446787465966243	-1.847038271444137	-1.847038243610918	2.063065085872427	2.088390546815755	4.325757136931662	1.507718876444029	1.136515934576275	-0.6094674173326248	-0.6094673639291757	1.243212399863503	0.5214623116078079
14.67999342999698	0.01899818911727272	-0.1183795268600576	-0.02000268743820875	2.402774342862456	0.8958558128715628	1.086709216690151	0.2421558549690629	0.1840941198963936	-0.1003862807843922	0.7373817642720077	0.7373817638936687	0.3745793082167302	-0.2473962145670142	0.3035471559264628	-0.1954335745268047	0.06595771555879752	1.520750334944304	1.520750336142689	-0.04826867279668213	-0.4550825450739457	-0.04851866179963707	1.246871702623518	0.9432026266943737	-0.02249686816847248	0.3055989360497549	-0.08947958992902592	-4.431793758362104	-1.658258802377531	-0.613892554493909	-2.603293679283815	-2.60329365709244	1.501461177318363	2.342991236682179	3.697510008423777	1.527890445621367	0.6366716243032704	-1.554280029027566	-1.554279990647615	1.339544692576366	0.9131529329709448
14.68666008999698	0.01927667710428111	-0.1097021559896433	-0.01397299130988371	2.402796460158291	0.8981985191172204	1.086134373103051	0.2106800830972101	0.1727065355105781	-0.1045740385232493	0.7177673842256299	0.7177673839675308	0.3826104659921608	-0.2311259978874851	0.3261043339720398	-0.1852403198691375	0.06841055632521155	1.507297930842092	1.507297932246301	-0.03900274422801691	-0.4478133948356309	0.1243131100675102	1.357334662487218	0.8578775212419288	0.02890814728030698	0.395201369164415	-0.08230577682349603	-4.991647410791876	-1.755485872688575	-0.6352886379233923	-3.264138328021104	-3.264138314698495	0.9017588527217163	2.526511446860744	3.073296332276604	1.527667006061551	0.09433239638691797	-2.47667963412544	-2.476679610607951	1.440185047749381	1.259617678541531
14.69332674999697	0.02053825427611161	-0.1002684759568038	-0.008655659456042668	2.403155332400705	0.9010963829995356	1.085619251335262	0.1758801197904991	0.160713244256888	-0.1087764684819345	0.6940951452702683	0.6940951450630184	0.3865225087822969	-0.2138589355815873	0.3446055720466548	-0.1750842554061969	0.06718104100659127	1.487802878062391	1.487802879577155	-0.0290777417387384	-0.4383968205263679	0.2446039452375912	1.47368692828788	0.7315708174430026	0.07831743874854083	0.4718872386878269	-0.07179174952398441	-5.426152098850654	-1.841161717393879	-0.6206693014032456	-3.819293289465373	-3.819293287899196	0.265927175897428	2.642783789173965	2.485249482198993	1.518604050900199	-0.4635373051325458	-3.365488341478344	-3.365488331583726	1.535643905566659	1.557101749703962
14.69999340999697	0.0224067908643873	-0.09004349991990221	-0.004279136358121451	2.403833667834929	0.9044592083282288	1.085181298178147	0.1386354745577595	0.1481692876310851	-0.1128042296233373	0.6670921152340414	0.6670921149947643	0.3860786508043469	-0.1960278712628299	0.3593700139481704	-0.1649886924330312	0.06225362695274419	1.46251688990953	1.462516891449115	-0.01856016027588211	-0.4271601834406505	0.3061004737920595	1.594247922082021	0.5781292639028112	0.1245733941290862	0.5345937126027489	-0.0594140407063802	-5.72423994244142	-1.921554526475175	-0.5856508398404802	-4.262716685733367	-4.262716696803467	-0.4047321699770465	2.696524810505627	1.954913663346247	1.511078497161461	-1.01091456383213	-4.212974926180729	-4.212974928364028	1.616456684253496	1.806069365654827
14.70666006999697	0.02449272921507471	-0.07901099245127004	-0.0009733620960681853	2.404807201724937	0.9081928532210209	1.084827734190989	0.09985982341241671	0.135095691436479	-0.1165765063240324	0.6375120677156514	0.6375120673662709	0.381054631214834	-0.1780337850903811	0.3708240834406624	-0.154915075440079	0.05377650636202961	1.431731321622776	1.431731323112042	-0.007575794590898093	-0.4144137399232017	0.3106909667179812	1.71514212783615	0.4129401291854279	0.1667368594772759	0.5831767373040788	-0.04673205605190855	-5.88633130444407	-2.000418691047466	-0.546683405648734	-4.592363680092404	-4.592363701333701	-1.107439329973747	2.692423036994458	1.493159687701664	1.513121473394045	-1.525005636002534	-5.014940473498914	-5.014940486130916	1.674494642639357	2.011143163858971
14.71332672999696	0.02643895671468826	-0.06718648590438812	0.001234395326843847	2.406046028520945	0.9122047461492696	1.084555597436643	0.06043442119635926	0.1214991766771534	-0.1201172672153033	0.6061107008672345	0.6061107003579147	0.3712544484182492	-0.160248687548072	0.3794372869370076	-0.1447810209726814	0.04203509071477825	1.395754931537289	1.395754932912434	0.003702748443914173	-0.4004241417674956	0.2656946891525815	1.830817194425307	0.2511456490377439	0.2040471162712144	0.6182108867125355	-0.03521604390530336	-5.921100000943424	-2.078220576049262	-0.5183610418158545	-4.809581499694357	-4.809581525233976	-1.836264090818527	2.634406864986631	1.102550287062891	1.529794081396953	-1.987584071747037	-5.770253018781712	-5.770253040061469	1.703987944865901	2.180696175752902
14.71999338999696	0.02794704665846286	-0.05462622943839116	0.002412968240892056	2.407515657057804	0.9164078825446026	1.084352784449284	0.02116512623625138	0.1073945722847124	-0.1235363073937781	0.573625433847893	0.5736254331752364	0.3565354157260616	-0.1430209609839572	0.3856766648775345	-0.134480658300762	0.02741948975485492	1.354895767637336	1.354895768847678	0.01507439339905986	-0.3853912090995333	0.1809919767372337	1.934735270162414	0.1062409828446346	0.2358850662776051	0.640756408936774	-0.02612171952376596	-5.841991201425224	-2.152128156724479	-0.5116440441202024	-4.918390035028188	-4.918390057191963	-2.580999976960666	2.52575248823014	0.7801967664634537	1.563107454831634	-2.385492877719346	-6.480134845290459	-6.480134873052751	1.70226616122782	2.326306752748612
14.72666004999696	0.02878716227036789	-0.04143129953468758	0.002712999913483647	2.409177900518345	0.9207234030214244	1.084199746405362	-0.01724043315818605	0.09282472937893434	-0.1270025370686658	0.5407599460606827	0.5407599452713665	0.3368388015861488	-0.1266762751803635	0.3899779023615328	-0.1239040711605033	0.01039089204464772	1.309447977395134	1.309447978405913	0.02633179231497145	-0.3694289308324181	0.06698358491320308	2.020097128620853	-0.0108406406305793	0.2617606930334626	0.6521657198549924	-0.0204200872478862	-5.664641569233103	-2.216731006790009	-0.5333081607544642	-4.924762529341312	-4.924762541227564	-3.326639759478269	2.370250914974374	0.5199110192932231	1.612338567945709	-2.710487654024718	-7.147397891750121	-7.147397923390498	1.670135967589116	2.461966804392082
14.73332670999696	0.02879522171951374	-0.02774739585848873	0.002347930497006292	2.410991732670441	0.9250818685371047	1.084071466027565	-0.05417910547944368	0.07787418639346343	-0.1307168850869234	0.5081740479552513	0.50817404713251	0.3122213627715493	-0.1115091871730845	0.3927307151475514	-0.1129538818338071	-0.008548959090793961	1.259684213368569	1.259684214163559	0.03728400776957472	-0.3525540078375876	-0.06736467272649491	2.080384471408073	-0.09225779039376768	0.2813120413732967	0.6538730870991358	-0.01878213865998648	-5.404270996184888	-2.26512330495935	-0.5862806328466822	-4.835712257316392	-4.835712255189468	-4.053674398722002	2.173653343458795	0.31454470924609	1.674544469053922	-2.958472755916943	-7.775499658569419	-7.775499691157117	1.611601158660948	2.602533607409946
14.73999336999695	0.02785643760431535	-0.01376174241987473	0.001572387770337131	2.412914143975336	0.9294230218082118	1.083939390087806	-0.08913997649149204	0.06267530494030103	-0.1348888230185775	0.4764802366604676	0.4764802358979601	0.2828816824527052	-0.09776668800855193	0.3942814592177699	-0.1015579812221336	-0.02888153867242583	1.205855038314556	1.205855038897875	0.0477748658811836	-0.3346875026568096	-0.2164901481722019	2.109710158469123	-0.1335153519553106	0.2943072518569452	0.6471643625760124	-0.02160413152172544	-5.072952688614994	-2.290058480099429	-0.6703232313609274	-4.658262421532052	-4.658262406068941	-4.739348284243458	1.94456755905918	0.1586143454019201	1.745207596531317	-3.128285622010128	-8.367422470592899	-8.367422500959247	1.532883360351204	2.761429749637796
14.74666002999695	0.02587953515209968	0.0003022004446804638	0.0006598208134583188	2.414901055756202	0.9336942590756132	1.083773118948652	-0.121678345836567	0.04740661784342767	-0.1397179379648633	0.4462462239892732	0.4462462233625779	0.2491754352932229	-0.0856280638071813	0.3949494623649715	-0.0896774850960914	-0.05008662221317385	1.148195593512679	1.148195593910275	0.05769352682230152	-0.315672400681604	-0.3788300883116288	2.103149644384541	-0.1334325232688914	0.3006621480950462	0.633039210530877	-0.02905133547742055	-4.678497780973236	-2.285127289650617	-0.7828568291400894	-4.398757788146977	-4.398757763821489	-5.359664595307629	1.694683056784847	0.04950670990654986	1.819012950876667	-3.220367082345259	-8.92466393980261	-8.924663964589227	1.441149442443758	2.948295234277828
14.75332668999695	0.02277336079614291	0.01419232421119796	-0.0001187791176369393	2.416908412369231	0.9378486488648368	1.083541806773367	-0.1513899563002406	0.03228351358604932	-0.1453813410242032	0.4180002451213215	0.4180002446699027	0.2116159673662797	-0.07518548518289669	0.3950443568854277	-0.0773094918517855	-0.0716490889981727	1.086938181031042	1.086938181290955	0.06697672817729479	-0.2953055321554801	-0.5555967578712347	2.057087575131243	-0.09386965972287381	0.3004739074680896	0.612207470122144	-0.04109745165318059	-4.225544668574646	-2.245843729884244	-0.9198654011099048	-4.062708446310913	-4.062708418982274	-5.891708150596959	1.438294250102432	-0.01332924973012195	1.890586676478014	-3.235657761572992	-9.446464732448325	-9.44646474850415	1.343324968128281	3.167054718398808
14.75999334999694	0.01843538855300076	0.02763763894454901	-0.0005139527691991431	2.41889350483769	0.9418432203248384	1.083215367141767	-0.1778971174038942	0.01754256667308451	-0.1520267400763553	0.3922359871601729	0.3922359868881971	0.1708595535749457	-0.06643076995372964	0.3948739308163525	-0.0644856874843999	-0.09305992108831278	1.022329444310172	1.022329444498012	0.07560386110440764	-0.2733806482029243	-0.7485867707586245	1.969524955498336	-0.01936430986725756	0.2940540049371655	0.5851638965052517	-0.05754120387577509	-3.717861345624533	-2.170441253168716	-1.076635160320123	-3.655038855074868	-3.655038829028275	-6.315855565737488	1.190895145546153	-0.03024846235581207	1.954983929582696	-3.175004917676413	-9.929189349305284	-9.92918935473323	1.245149075605195	3.414537992486677
14.76666000999694	0.01275617658754941	0.04036015795591283	-0.0003143737048273543	2.420816478181057	0.9456379063943949	1.082765668108581	-0.200852130789085	0.003421688146756657	-0.1597689898672874	0.3694147047321466	0.3694147046259975	0.1276772206114671	-0.05925466375805245	0.3947379963333108	-0.05126852601443142	-0.1138155814071867	0.9546511661939084	0.9546511663799689	0.08358689573854866	-0.2497379081183437	-0.9576479087326086	1.840429924390117	0.08324736051309997	0.2819495120480839	0.5523079137452258	-0.07799313567762697	-3.161169797788191	-2.060338028011904	-1.248020518476315	-3.180677939389947	-3.180677915549457	-6.617552630851264	0.9668736263341908	-0.003682301605845272	2.007953013394754	-3.03928972913958	-10.36587518123989	-10.3658751767266	1.150597969522982	3.680015335097963
14.77332666999694	0.005640439247003113	0.05208944075421179	0.0006392802580542767	2.422641927467168	0.9491953740952082	1.082167887809008	-0.2199596804451856	-0.009861793985353978	-0.168686630999501	0.3499626016254361	0.3499626016759373	0.08291674423009456	-0.05346322584695952	0.3949071822587449	-0.03774600740232065	-0.1334205784414978	0.8842433268706434	0.8842433271101082	0.09095799774936238	-0.2243123970213075	-1.178375511535474	1.672166722259573	0.2052904511085473	0.2649471067591121	0.5140814213397611	-0.1018443037220252	-2.565831583247181	-1.920283377630875	-1.428204413692545	-2.645338045395843	-2.645338021771038	-6.788460942657202	0.7768053113546967	0.05977559034670881	2.046102066694838	-2.830212581127439	-10.74600262894439	-10.74600261830224	1.061774618243369	3.945969172280735
14.77999332999693	-0.002960394385543936	0.06257960362521463	0.002444149134561814	2.424340434166369	0.9524816349986565	1.081402062316096	-0.2350128342443588	-0.02213259579732839	-0.1788160088229617	0.3342635084248927	0.3342635086397404	0.03745939546624042	-0.04881126650420615	0.3955919989429791	-0.02402576187377023	-0.1513963913786524	0.8115282044062548	0.8115282047209473	0.09775788233793538	-0.1971737028253655	-1.401173369936096	1.46974660560384	0.3369186585899717	0.2440491494149095	0.4710509528221521	-0.1282451956408771	-1.947991981295567	-1.758039341410079	-1.610284253127512	-2.056072027906345	-2.056072001884156	-6.826878195704237	0.6251963795821615	0.1487738491771279	2.066917146010869	-2.551334596351392	-11.0553873409598	-11.05538733008149	0.979221702970394	4.189944352118465
14.78665998999693	-0.0130161217631041	0.07162658600869455	0.005130332224826546	2.425889826948137	0.9554668580870989	1.08045466652197	-0.2459287515977321	-0.03327486968894264	-0.1901431112322699	0.3226494419851182	0.3226494423843761	-0.007823659849389607	-0.04504718123450414	0.3969154426801273	-0.01022980417390915	-0.1672970567519382	0.7370350002136018	0.7370350005850219	0.1040273122728018	-0.1685505287577053	-1.612332720954074	1.240634051274182	0.4680380031443764	0.2204149005638652	0.4238861637680459	-0.1561193422662915	-1.328356693294725	-1.583480840960516	-1.786041448980114	-1.421348009167193	-1.421347979976419	-6.7374300333465	0.5093994578032103	0.2488406691329947	2.068544074890693	-2.208996333333463	-11.27614543820521	-11.2761454329149	0.9025301073956102	4.387146905536317
14.79332664999693	-0.02439781250249884	0.0790827372216764	0.00866278186391611	2.427275950100779	0.9581258053095045	1.079319973997072	-0.2527705119938479	-0.04324206240299621	-0.2025948099539787	0.3153918200706541	0.3153918206699117	-0.05211074211898178	-0.0419605336347718	0.3989016210525201	0.003508780725396087	-0.180730167532753	0.6614238419033581	0.6614238422799514	0.109803281198831	-0.1388359139948167	-1.796362814065809	0.9941734226505268	0.5893782051395886	0.1952736871264716	0.3732825148519381	-0.1842148262001447	-0.7295175015267409	-1.40728704101744	-1.945986199684199	-0.750836964958559	-0.7508369347347033	-6.530139115907806	0.4198496000791315	0.345275393915328	2.049467391538139	-1.813026318214037	-11.38697770039275	-11.38697770455207	0.8311124711732986	4.513648362836435
14.79999330999692	-0.03687386602628332	0.08486698170117697	0.01295020552340096	2.428492795783787	0.960437800191965	1.078000978259847	-0.2557506351037005	-0.05205763544470526	-0.2160310772316044	0.3126941985492146	0.3126941993416097	-0.09466128974518963	-0.03942431507746324	0.4014832123095595	0.01704734418355137	-0.1913819256145896	0.5855057642916234	0.5855057646050998	0.1151203919935186	-0.1085695769649886	-1.938281620166436	0.7408711995485493	0.6934781765676468	0.1698228560314127	0.3199092775251417	-0.2111818342548549	-0.1733392469584831	-1.239565780985168	-2.079585186817227	-0.05519398819737675	-0.055193961311737	-6.219069085695214	0.3413765100720783	0.425678040363632	2.00832180177191	-1.377240650374532	-11.36414791782244	-11.36414793255286	0.7649453681593493	4.549980086001357
14.80665996999692	-0.05011896843465118	0.0889701876164577	0.01785946735844776	2.42954193589804	0.9623865511790499	1.076509755106168	-0.2552197730135222	-0.0598072704893883	-0.2302390177821754	0.3146864044776907	0.3146864054244077	-0.1348376804986957	-0.03742565221804776	0.404521744759849	0.03023475080943659	-0.1990445583002129	0.5102531258580375	0.5102531260417955	0.1200162725909987	-0.07839649990197742	-2.025134845663875	0.4916957612277695	0.775307747575868	0.1451218183251383	0.2644192259499956	-0.2356601309000131	0.3208223375453525	-1.088722095158459	-2.175568478826837	0.6541605696890979	0.6541605883400656	-5.820774757909671	0.2553124536566506	0.4811862445525078	1.943964687036376	-0.9196248591798941	-11.18339793040834	-11.18339795410703	0.7049833224021995	4.484541499618764
14.81332662999692	-0.06373035149579437	0.09145635016303942	0.02323245890246021	2.430431288779716	0.9639602108699026	1.074867243138268	-0.2516464448981983	-0.06662516083104061	-0.2449293396681486	0.3214204441701254	0.3214204452029803	-0.1721166015586795	-0.03608066389345826	0.4078313785650173	0.04291409686006368	-0.2036433343526117	0.4367939353713239	0.4367939353781715	0.1245376849071655	-0.04900574012120879	-2.046713930471303	0.2575581026679176	0.8323863418708766	0.122003713791964	0.2075031930930643	-0.2563651991157493	0.7370709753692563	-0.960868329996269	-2.222393039819265	1.365365986315891	1.365365993073557	-5.352737394343711	0.1420768480950891	0.5063361232992604	1.855924674115154	-0.461993704098796	-10.82285351974348	-10.82285354821446	0.6528918585269823	4.315971123311399
14.81999328999692	-0.07724743391734394	0.09246159165353628	0.02890238224257278	2.431173457602003	0.9651518063777704	1.073102457496852	-0.2455920603275628	-0.07267903087691663	-0.2597373683167444	0.3328689872015869	0.3328689882356589	-0.2060901729769658	-0.03563163981928242	0.4111985932659821	0.0549302190747469	-0.2052589616022326	0.3663838600309307	0.3663838598492368	0.1287416767470142	-0.02105935368432906	-1.995951199101571	0.04920822101867042	0.8645258990805528	0.101041045235619	0.1499369097176406	-0.2721726199517637	1.063519741129219	-0.860065880262852	-2.209206945497287	2.066563474214625	2.0665634678627	-4.831866525819017	-0.01617478802482093	0.4980971204449455	1.745411293810696	-0.02891120415882898	-10.26676144255803	-10.26676146948287	0.6097987035052156	4.053612843141888
14.82665994999691	-0.09017423609794324	0.09219378127022738	0.03470766295373078	2.431784060756082	0.9659598229468689	1.07125114711989	-0.2376824864072654	-0.07815937672339071	-0.2742327687137689	0.3489271082101398	0.3489271091623461	-0.2364577147724376	-0.03642729517662286	0.4143946193990863	0.06614542391388284	-0.204139683243164	0.3003520247257284	0.30035202438897	0.1326854394677287	0.004873750462471821	-1.869373917803212	-0.122547878500628	0.8734022906374838	0.08257379494790321	0.09257638851369764	-0.2821995439358504	1.292803253129268	-0.7892620584184361	-2.127475662764925	2.746429969015098	2.746429951370316	-4.273242609845214	-0.2331541715331917	0.4547492050797426	1.616668031994676	0.3543636047274323	-9.509467345918978	-9.509467364460384	0.5742546856438131	3.715520178283298
14.83332660999691	-0.1020046776999325	0.09093276817854033	0.04050271568608595	2.432280326500323	0.9663885747288651	1.06935394623784	-0.2285763872674475	-0.08327500976146855	-0.2879412435807906	0.3694178984603005	0.3694178992697073	-0.2630110562527667	-0.03888815258211414	0.4171809931291414	0.07646285568657925	-0.2006957716727746	0.2400225296965157	0.2400225292784787	0.1364024595705376	0.02836237012918955	-1.667455667382797	-0.2470284486647451	0.8620481447879157	0.06674894294733469	0.03630184915707027	-0.2858729096527589	1.422497510964858	-0.7510674629910101	-1.972837095102562	3.394803429645352	3.394803405438893	-3.689514037190161	-0.5163796280347317	0.3749865195545441	1.4777200304791	0.6651152477354237	-8.558507305946133	-8.558507311280476	0.5403649346119677	3.324053078664244
14.83999326999691	-0.1122490318398267	0.08902626914212383	0.04616526535117887	2.432679832540656	0.9664480931037582	1.067454139908837	-0.2189316860379381	-0.08825090514996382	-0.3003775935691706	0.3941023514631602	0.394102352107246	-0.285618915594169	-0.04345967331856499	0.419310580622877	0.08585031663964725	-0.1954692548848258	0.1866215993509407	0.1866215989448876	0.1398699561708415	0.04912268892035911	-1.394589662077911	-0.314822319738768	0.8343472006426804	0.05352067292901967	-0.01806711544364728	-0.2829766697823627	1.45523501357868	-0.7476144524296395	-1.74657618389505	4.003310097244649	4.003310072992639	-3.091227846993962	-0.865619457566736	0.2574956960329737	1.339703903400009	0.8872150854102374	-7.435679053055867	-7.435679044363571	0.4971878773077382	2.900077785603777
14.8466599299969	-0.1204589101502539	0.08687559539258737	0.05160071552567629	2.43299912435911	0.9661534150768107	1.065595179339198	-0.2093726181215007	-0.09332222555141523	-0.3110864514111536	0.4226928032630263	0.4226928037632789	-0.3042161024026238	-0.05055799735296069	0.420527968797112	0.09435513792905958	-0.189077488431401	0.1411859971210903	0.1411859968114754	0.1429781896972471	0.06698991129280255	-1.058694885340207	-0.3195715572788757	0.7946806707093607	0.04261909512435481	-0.06986293971737734	-0.2736805954840384	1.398401821063079	-0.7796426544195476	-1.456430099167663	4.565761072829189	4.565761054852024	-2.487870678015254	-1.27232355758762	0.1012098535944932	1.214958313867619	1.014653640106265	-6.175559362726925	-6.175559343309503	0.4299335227205298	2.457721975412639
14.8533265899969	-0.1262487260032479	0.08490946357331998	0.05674498885077284	2.43325210560709	0.9655233095248612	1.063818053927906	-0.2004602761983757	-0.09872135714328559	-0.3196858160302781	0.4548677271973635	0.4548677276108268	-0.3188006114715978	-0.06051635901395934	0.4205739326515291	0.1021042183866318	-0.1821391356595478	0.1044897901288128	0.1044897899688875	0.1455139156201047	0.08186250498858255	-0.6705702835178849	-0.259648923630806	0.7478262468838963	0.03351687305995776	-0.1186429626656005	-0.2585545163018734	1.263401414432502	-0.8454155438280463	-1.116601043419481	5.078155827442451	5.078155819777487	-1.889106337119253	-1.720418053061363	-0.0937386591740033	1.114611225229352	1.053088310044768	-4.821540202365396	-4.821540177884315	0.3229775254332198	2.001666636232214
14.8599932499969	-0.1293124210924786	0.08354871769659009	0.061567369908773	2.433448256087872	0.9645786339518068	1.062158628728265	-0.1926690347119131	-0.1046588029769137	-0.3259077555757131	0.4902854930062189	0.4902854934052752	-0.3294381860087146	-0.0735411906398523	0.419198027962462	0.1092884526165448	-0.17519862197285	0.07700385130047867	0.07700385130474867	0.1471686936159183	0.09363967347232525	-0.2431625634833076	-0.1391124849542495	0.6990300132505749	0.02541494005457418	-0.1642265148349968	-0.2385626065614041	1.064688850319294	-0.9400668705048997	-0.7468941910092062	5.538412029619959	5.538412032726404	-1.305697508129978	-2.188365468766484	-0.3245924872991069	1.046445233462642	1.01873178690003	-3.420190329984234	-3.420190306016583	0.164143902537924	1.52783410250379
