DataType=double
version=3
OpenSimVersion=4.6-2026-03-27-4e5ffda9c
endheader
time	pelvis_tilt	pelvis_list	pelvis_rotation	pelvis_tx	pelvis_ty	pelvis_tz	hip_flexion_r	hip_adduction_r	hip_rotation_r	hip_flexion_l	hip_adduction_l	hip_rotation_l	knee_angle_r	knee_angle_r_beta	knee_angle_l	knee_angle_l_beta	ankle_angle_r	ankle_angle_l	subtalar_angle_r	subtalar_angle_l
145.168	-0.2079597536120888	0.003542577620891565	-0.03342017730876591	1.121434320832624	0.9675902818001413	-0.3430326345480022	-0.0102575990307385	0.05831064840321087	0.00868969013136368	0.7695445663175412	-0.01995467738306481	0.04487668466879828	0.2987951023270368	0.2987951023270368	1.24694066581785	1.24694066581785	0.001108647818465563	-0.03260538507047503	-0.2614325471997403	-0.3260051253212843
145.18544	-0.2062156358970073	0.04681740023674931	0.01151053750151179	1.124206055870089	0.9825659798799515	-0.3474556129934412	-0.08451240314557899	0.007385341757196318	0.001120376064297962	0.7363436482837996	0.04733267686449528	0.04559974434624825	0.2461950104045397	0.2461950104045397	1.025537226607914	1.025537226607914	-0.1695332526520738	-0.055800677343037	-0.2687483211710835	-0.3533402569731884
145.20288	-0.2065704082776325	0.08577466265506659	0.04821996267244794	1.127047929913328	0.9956833614271742	-0.3513231281622258	-0.1496261718226135	-0.0390361993308742	-0.007265528103921018	0.6987489747298828	0.1051585287225189	0.05254447447131146	0.2077440746975247	0.2077440746975247	0.8048377989983374	0.8048377989983374	-0.3199081883838633	-0.07616659929816419	-0.2697959154283323	-0.3618287064270951
145.22032	-0.2101736319321063	0.1152693846150699	0.06974964229745625	1.129882878711004	1.005574908794042	-0.3541545171827045	-0.1973433974235538	-0.07657456057246426	-0.0128474390988001	0.6576254713450949	0.1442544699479214	0.07183090302675559	0.1973757523120408	0.1973757523120408	0.5926243834973868	0.5926243834973868	-0.4318036064596282	-0.0941257961921127	-0.2610735485179887	-0.3494134347732866
145.23776	-0.2165594604299979	0.1308705028609611	0.07192960096265942	1.132483208816739	1.011645468236787	-0.3556399888157397	-0.2222747024975528	-0.102152189526196	-0.007638173876054232	0.6185829417435226	0.1579108078922791	0.1078492817318074	0.225813824918598	0.225813824918598	0.4036589435052577	0.4036589435052577	-0.4947825179327589	-0.1138475118597332	-0.2430752397254476	-0.3329818369005012
145.2552	-0.2233790528792133	0.1317064793645608	0.05481612451046212	1.134598456517399	1.014051429389394	-0.3557444234730586	-0.2244952248732429	-0.1153748751160071	0.01587420312582156	0.5866315322510446	0.1456449641548384	0.1603103579092058	0.2961330026453823	0.2961330026453823	0.253072395841932	0.253072395841932	-0.5114528099536816	-0.1410571506477296	-0.2202534458332709	-0.3347383871504611
145.27264	-0.2266278066527067	0.1217207303766152	0.02331798515316272	1.136092643112932	1.013418764485986	-0.3547749092663787	-0.210735942953404	-0.118571956029477	0.0591428982345741	0.5616493045131097	0.1152731232876463	0.2220352318739536	0.402172916033457	0.402172916033457	0.1497685857824866	0.1497685857824866	-0.4960619164441196	-0.1805537505325442	-0.2004811004527289	-0.3651837789992263
145.29008	-0.2217232226391117	0.1081663778148869	-0.01356713294661266	1.136998901990361	1.01041634527238	-0.3533569663566198	-0.1922655358048716	-0.1153362365323555	0.1156731805748776	0.5385812957814693	0.08133215646826404	0.279946520520482	0.5320529564498713	0.5320529564498713	0.09467865222324461	0.09467865222324461	-0.4666083896267417	-0.2349366285230073	-0.193790389813115	-0.4166862999340047
145.30752	-0.2057522727447407	0.09839237242493813	-0.04504259444188458	1.137477570411721	1.005340831421001	-0.3522835827728767	-0.179468434466126	-0.1086446408857484	0.1738267196862425	0.5117561340852004	0.05979790360794619	0.31999585416878	0.6743729671599847	0.6743729671599847	0.0831381620028743	0.0831381620028743	-0.4363922415507892	-0.303327947656845	-0.2096760661959561	-0.4714669889882956
145.32496	-0.1802218509418963	0.0963333541145958	-0.06165532655742203	1.13770850345408	0.9979238910295033	-0.3522763253055315	-0.1755950602938781	-0.09938211835574047	0.2215927123473171	0.4798457542558712	0.06084010940139521	0.3335960363192639	0.8224894625995983	0.8224894625995983	0.1074362372061243	0.1074362372061243	-0.4104077241982169	-0.3782924016440402	-0.2530663044822549	-0.5155098719830729
145.3424	-0.1522103192153997	0.09990305136742531	-0.05807251948515652	1.13776392600682	0.9875697731028187	-0.3537624986355717	-0.1736681835782624	-0.08563325836365145	0.2500692689481765	0.4480018384138049	0.08306934568442929	0.3211641280308429	0.9742286204091852	0.9742286204091852	0.1576139142407534	0.1576139142407534	-0.387287636647842	-0.4425646176767967	-0.3206694021080924	-0.5457264229430099
145.35984	-0.1317652314607446	0.10117314781838	-0.03519102933876044	1.13752144918698	0.9740088333333491	-0.356705555744195	-0.1595258508993405	-0.0636166717637824	0.2551972465693699	0.4255130844894289	0.1133879669962655	0.2906317081076374	1.128257897296824	1.128257897296824	0.2226885977655585	0.2226885977655585	-0.3634867001957727	-0.4713951858563731	-0.4002073281963746	-0.5650867343331806
145.37728	-0.1260603113814724	0.09076009423172308	-0.001995444243483572	1.136684481923986	0.9579654518806912	-0.3604562492347183	-0.1200272004246924	-0.03077376043754198	0.2394424663111954	0.4196939805249357	0.133920760230322	0.2539664984215473	1.280651370796292	1.280651370796292	0.2941253219027242	0.2941253219027242	-0.336089207928399	-0.4445513324555945	-0.4737879156858058	-0.5726625109200267
145.39472	-0.1344805461302197	0.06427047758762545	0.0250202449329381	1.134935040924246	0.9412950325535309	-0.3637811650090031	-0.05106329085668491	0.01107887142789321	0.2126252709938009	0.4293811255379268	0.1323040397568584	0.2256047024483901	1.424113802145957	1.424113802145957	0.3686534045557591	0.3686534045557591	-0.3032265764934392	-0.3617816818759239	-0.5240799063024776	-0.5604962709749539
145.41216	-0.1492010411189348	0.02561855393741238	0.02904254820721758	1.132142151397355	0.9264159711577069	-0.3653793448194784	0.0405431687775835	0.0558713334584327	0.187709679696491	0.4431978912737292	0.1085311171960645	0.2200131146096385	1.549491765321514	1.549491765321514	0.4462344821723668	0.4462344821723668	-0.2635068285097246	-0.2466150020687428	-0.5401779036246235	-0.5212086603352564
145.4296	-0.1612554300156824	-0.01573251489353128	0.004462563974061222	1.128487317866522	0.9154228531678709	-0.3647195339681694	0.1423982897251665	0.09694304559529525	0.1716340533352104	0.4452612204059068	0.07355165744696432	0.2429890243475032	1.647771475195751	1.647771475195751	0.5239532167497136	0.5239532167497136	-0.2161062244303848	-0.1304599280094903	-0.5206451048646434	-0.4578649022467556
145.44704	-0.1670193629386126	-0.05103742024712105	-0.03845987726174633	1.124433437311251	0.9094601753159274	-0.3623832809157888	0.2443146032292137	0.1307957450499542	0.1596698760335555	0.4244817706182417	0.0406807300026702	0.2826162037605252	1.711434661525545	1.711434661525545	0.5915035211053518	0.5915035211053518	-0.1618603233307684	-0.02985669797073368	-0.4733332180486615	-0.3852178161576703
145.46448	-0.1701044580135664	-0.07672121494758462	-0.08240598525412465	1.120580526085087	0.9086428237634163	-0.3594589563863119	0.342307264697542	0.1576821709474294	0.1400413143598643	0.3800058690584779	0.01677406388482507	0.3142676816593712	1.735090425562406	1.735090425562406	0.6329050686954817	0.6329050686954817	-0.1044185150371405	0.06020973004332891	-0.4128499607079282	-0.3208814524701188
145.48192	-0.1779811492223519	-0.09425175839478356	-0.1165731917171265	1.117498864664147	0.912398831869847	-0.3566306649692059	0.4365665067562782	0.1792481770145335	0.1039810966549758	0.3190484206544484	9.303602351385266e-05	0.3195478326654316	1.715682407613346	1.715682407613346	0.6334153368563971	0.6334153368563971	-0.0501723146153316	0.1508363093458634	-0.3564256804652126	-0.274454252102979
145.49936	-0.1962033562982389	-0.1072253765993993	-0.1413184488182346	1.115604008856632	0.9199197198844336	-0.3538996640397955	0.526086642416516	0.1962017021578437	0.05151279962694005	0.2499626960566623	-0.01530316098037875	0.2995433061495922	1.652549760904891	1.652549760904891	0.5864989778426005	0.5864989778426005	-0.006397573202895741	0.2398676217325746	-0.3188684426302335	-0.2435710357431679
145.5168	-0.2240901354191361	-0.1189088207302264	-0.1616088847445399	1.115097497658593	0.9304383786634691	-0.3510342592065669	0.6049267085539256	0.208179414395428	-0.009956843528040786	0.1765715924766821	-0.03430670105210765	0.2689549834008196	1.54743673531055	1.54743673531055	0.4967993241369945	0.4967993241369945	0.02156357845476463	0.3085077366460651	-0.3078875547397569	-0.2195757448112517
145.53424	-0.254875677359456	-0.1312987836936258	-0.178861136364015	1.115961204032081	0.9432023183340383	-0.3480706871829425	0.6636786688161136	0.215215050680058	-0.07002013662840983	0.09790907405399778	-0.05842569818495273	0.2404498120058643	1.404327627772475	1.404327627772475	0.3786302267904025	0.3786302267904025	0.03234476850897469	0.3335858053305045	-0.3215091895850338	-0.1974552349640524
145.55168	-0.2804192771764241	-0.1446698539997537	-0.1899629744290471	1.117974717443547	0.9572363840866003	-0.3453101240388846	0.6953105498012014	0.218762082769307	-0.1183447473949804	0.01279611311143534	-0.08578794290892154	0.2165026175434364	1.229193175659944	1.229193175659944	0.2517568943562075	0.2517568943562075	0.02864230742593683	0.3013582503529069	-0.3489854888731333	-0.1809013524553434
145.56912	-0.2967201683165027	-0.1568053382073668	-0.1924673913380645	1.120748487033536	0.9711861475884337	-0.3429365410397545	0.7004954276589569	0.2206910677403963	-0.1460303046680715	-0.07515943688331782	-0.111657349705976	0.1939267063911342	1.030270588060951	1.030270588060951	0.1367731347215064	0.1367731347215064	0.01567049254955276	0.2133179967680143	-0.3754489421858922	-0.1772386210286612
145.58656	-0.3057164095012147	-0.1627833463424598	-0.1884013352627516	1.123797851297358	0.9834860881464257	-0.3407899830618619	0.6880046626389599	0.2207345556972858	-0.1471241016749037	-0.1564267238089827	-0.1292390008723636	0.1725601322466173	0.8192117103225879	0.8192117103225879	0.05180290494897206	0.05180290494897206	-0.0008702180974016005	0.08456387293641701	-0.3888657423775628	-0.186662910007953
145.604	-0.3124891687109406	-0.1568208313639428	-0.1825178170512903	1.126662125964507	0.9928021050181075	-0.3385523284635111	0.6702328740524547	0.2152670334673792	-0.1207462965246295	-0.2190860987764625	-0.1318065533133447	0.1579114859213651	0.6119957055505525	0.6119957055505525	0.01047946519142999	0.01047946519142999	-0.01651440400467426	-0.06066514112013836	-0.3862818910833262	-0.1973604400278996
145.62144	-0.3208702294480462	-0.1357249630010008	-0.1781063016188695	1.129020925026138	0.9984559290121795	-0.3360765922279006	0.65737299013677	0.1995852945664504	-0.07200282257876274	-0.2544990463787241	-0.1158698367020606	0.156491984171079	0.4276093650413336	0.4276093650413336	0.01983308192780926	0.01983308192780926	-0.02920332126744231	-0.1944179551021443	-0.375860115988254	-0.1924726054448587
145.63888	-0.3308216480522158	-0.1013368695637762	-0.1751267099680683	1.13075255735264	1.000562048263956	-0.3334992259822712	0.6535059300399878	0.1719073703259645	-0.01059387503086432	-0.2614943791828092	-0.08320546793453495	0.1701353262707584	0.2837903245257452	0.2837903245257452	0.07806823751957398	0.07806823751957398	-0.03986912383146157	-0.2936629341589966	-0.3727904371899335	-0.1615305463288557
145.65632	-0.3387338808499239	-0.06010517554178321	-0.1714429095346048	1.131920339802106	0.9998047255329425	-0.3311015110093489	0.6559020945477105	0.135365558409231	0.0517874166743989	-0.2466014948612721	-0.04025002001239275	0.1943931069566489	0.191850856595054	0.191850856595054	0.1745724084641862	0.1745724084641862	-0.05242311457316324	-0.3507871967734532	-0.3908922280270681	-0.1061861466462031
145.67376	-0.3397425740186356	-0.02049704077363135	-0.164927907880784	1.132704638981437	0.9969696676808616	-0.3291162100468676	0.6574358774661242	0.09674502555367327	0.1041908544105763	-0.2204080252736955	0.00438702906279571	0.2209950701684599	0.1541000539030192	0.1541000539030192	0.2940258470992579	0.2940258470992579	-0.07313603450656839	-0.376714218558046	-0.435119419816054	-0.03945270078570965
145.6912	-0.3306406688407647	0.009806080504173241	-0.154770392766601	1.133302102511532	0.9924469662597144	-0.3276174680368469	0.6512705291246612	0.06383886249377588	0.1392479892044359	-0.192240698178732	0.04253717860081177	0.2418614998488418	0.1656738912443816	0.1656738912443816	0.4230431228727849	0.4230431228727849	-0.1091466947453254	-0.3912698078433947	-0.4996292747197356	0.01759958161453273
145.70864	-0.3122546386763457	0.0258295209785663	-0.1419465240896147	1.133815177556595	0.9859702298502342	-0.326495705672693	0.6359142639517542	0.0433700964852874	0.1553356586131983	-0.1657891284840836	0.06825236986717964	0.2522757756285328	0.2187885451336468	0.2187885451336468	0.5551377431869274	0.5551377431869274	-0.1651771799166911	-0.4091592694227639	-0.5714816792612247	0.04144810421310802
145.72608	-0.2901494340808194	0.02647335946029815	-0.1292872779099078	1.134168038549838	0.9768267032339428	-0.325481474978312	0.6175986854313648	0.03953124619603812	0.1563242608865035	-0.1376119436477291	0.07891195924023829	0.2517014474390316	0.3055227315432588	0.3055227315432588	0.6907202761361947	0.6907202761361947	-0.237745922226251	-0.4337010822736435	-0.6360970882958107	0.01469456797807955
145.74352	-0.2727360765992946	0.01504527472671422	-0.1207614886068521	1.134097571141143	0.9645236024271593	-0.3242369428638057	0.607576387866221	0.05248378337185031	0.1489697280824579	-0.09927161384253444	0.07591674786844413	0.2422273649602817	0.4174137127211734	0.4174137127211734	0.8324773804787192	0.8324773804787192	-0.3096605424616663	-0.4605214916833741	-0.681148362597667	-0.0658406315084781
145.76096	-0.2672809720829455	-0.001604903254887092	-0.11890695111259	1.133257807312554	0.9494930292882477	-0.3225754723381439	0.6150909253609009	0.07734502557726494	0.140627634772401	-0.04205952599433493	0.06454456767385379	0.2266098238868041	0.5435679201682793	0.5435679201682793	0.9798116539321574	0.9798116539321574	-0.3523771127997967	-0.4842249234063454	-0.698738911082414	-0.1866872125316167
145.7784	-0.276062823785636	-0.01604068224074262	-0.1209390066044577	1.131414259942697	0.933300749466091	-0.3207575538342199	0.6402493472689467	0.1052292806300601	0.138685613070391	0.03822154781619593	0.05241136300124576	0.2082219923738975	0.6700794140906957	0.6700794140906957	1.126351018909418	1.126351018909418	-0.3406403459206376	-0.5013270362440415	-0.6872876541074889	-0.3226885947521147
145.79584	-0.2951458503772835	-0.02409788138150065	-0.1175317872448405	1.128611353222047	0.9182188996508471	-0.3195725035886643	0.6718563048014775	0.1269987590325788	0.1493708175661864	0.1388765103526822	0.04685493048988573	0.19212676029001	0.7820450958004318	0.7820450958004318	1.261621207300794	1.261621207300794	-0.2698697298460044	-0.5088910219084628	-0.6530745935563238	-0.4464239289301791
145.81328	-0.3166245067384584	-0.02667638187483994	-0.09808660268660885	1.12518485152051	0.9064974610831071	-0.3199300047956991	0.6922192152296183	0.1378398288339246	0.1741872809862273	0.2513783835238371	0.05240628551941211	0.1836551362837449	0.8667203757021152	0.8667203757021152	1.374677541424264	1.374677541424264	-0.1591647794949536	-0.5029865870063286	-0.6091748670996141	-0.5373710751408762
145.83072	-0.3329370495714277	-0.02781777711538602	-0.05939049979982228	1.121621974181989	0.899748242346172	-0.322187835685894	0.6858284987790184	0.1391790935159071	0.2071290538406311	0.3651101615585888	0.06929755009559038	0.1839441708065079	0.9152775554545874	0.9152775554545874	1.45695709454009	1.45695709454009	-0.03665551934770298	-0.4801271811725586	-0.5702211199240733	-0.5873979491952475
145.84816	-0.3404652411553308	-0.03107757698392198	-0.008959605414867941	1.118403673590076	0.8986421845181066	-0.3258647004106241	0.645980037296606	0.136295231592622	0.2371951549349446	0.4714626559535818	0.09328794256362613	0.1874006170054212	0.9230712982004871	0.9230712982004871	1.503420801020979	1.503420801020979	0.07675298046759006	-0.4404586384159195	-0.5452735341750281	-0.6013904139358833
145.8656	-0.3403405814383407	-0.03741254389675275	0.04075429736161545	1.115933192778125	0.9029303001059817	-0.3300390439725486	0.5755841668860787	0.1337623977310337	0.2556989482766172	0.5657568603900162	0.1171485324933521	0.1848721932382898	0.8900960786488826	0.8900960786488826	1.512339497414781	1.512339497414781	0.1702829179520218	-0.3892982015071407	-0.533532562584575	-0.5936253246190113
145.88304	-0.336638430811208	-0.04527194560161188	0.08118882240167136	1.114527506888853	0.9116939233897703	-0.334000309134862	0.4832329214345837	0.1322757493003271	0.2621758730145395	0.6462887798011342	0.1340151159965652	0.1696236798011504	0.8212113474683075	0.8212113474683075	1.484098839772016	1.484098839772016	0.2356662573980715	-0.3354618113249678	-0.525763395078976	-0.5815334024609203
145.90048	-0.3336656096392527	-0.05159284855504022	0.1111107317772222	1.114401280569574	0.9236755443849258	-0.3375378594556104	0.3783123155402012	0.1285468617037702	0.2629723741446381	0.7120014948879437	0.1410355256927547	0.1407806185117295	0.7243790232312743	0.7243790232312743	1.419645336340852	1.419645336340852	0.261964983476241	-0.2875391051183614	-0.509984158221897	-0.5788047123786234
145.91792	-0.3338030284994549	-0.053142829390298	0.132962025023452	1.115629370310047	0.9375560984706746	-0.3407234406768539	0.2680209079318623	0.117788356708113	0.2633707445443373	0.7608702982431761	0.1401431340033832	0.1025539178008388	0.6077250273866263	0.6077250273866263	1.319821735893436	1.319821735893436	0.2392439759591441	-0.2503243098805563	-0.4772326459422159	-0.5900110903102889
145.93536	-0.3366158697626404	-0.04841696155566006	0.1471839869951327	1.118118687553837	0.952107327018743	-0.3435191194122874	0.1569622487729641	0.09729932851722166	0.260849980178383	0.7901912279059451	0.1346713763634343	0.0610615690904275	0.4784223762956129	0.4784223762956129	1.186621133113749	1.186621133113749	0.1663318708279526	-0.2232463787983775	-0.4246524878777911	-0.6091463619594946
145.9528	-0.3394834345878847	-0.03941528960538306	0.150308345040203	1.12160465271411	0.9662146433224003	-0.3456192825258543	0.04857233440520738	0.06911820354174497	0.2467363316088814	0.7985865798701408	0.1248180013727755	0.02132212771297996	0.3448480063893294	0.3448480063893294	1.02610533675512	1.02610533675512	0.05457471094301193	-0.2015474463104941	-0.3561702960192867	-0.6235707765903384
145.97024	-0.3393300068963536	-0.03190258733637311	0.1380665085824727	1.125671669779712	0.9788360304274438	-0.3466560106483715	-0.05306614151750534	0.03997130207675515	0.2155558004025949	0.7882351514244524	0.1063386755262806	-0.01372247106928476	0.2199912172054539	0.2199912172054539	0.8511546270366275	0.8511546270366275	-0.07531401686149122	-0.179386355446489	-0.2812915219771576	-0.6221009231943262
145.98768	-0.3343267776662081	-0.03350898742873411	0.1096884280715353	1.129818720174435	0.9890266860852656	-0.3465254494551883	-0.1427232756215743	0.0183726281499672	0.1727493416294842	0.7653745896759609	0.0733235393320649	-0.04226165306486683	0.1217000109490761	0.1217000109490761	0.6810674624831998	0.6810674624831998	-0.2002317889368966	-0.152857680592116	-0.2115114872037873	-0.6025164278763828
146.00512	-0.3245300035275926	-0.05029630066213421	0.06891004568911252	1.133600013724802	0.99615995313226	-0.3454869000427806	-0.2158540509682208	0.01051780876532396	0.131869211002107	0.7381056402805829	0.02220971167386103	-0.06285804118236657	0.06637075505228873	0.06637075505228873	0.5354428749709533	0.5354428749709533	-0.3020204789396148	-0.1211655859018659	-0.1552701740382357	-0.5725302350204332
146.02256	-0.3113323844614525	-0.08325829812269554	0.02128561316245845	1.136811534015326	1.000328381408469	-0.3439599814445556	-0.2720110521732115	0.01716746004681404	0.1033676686316845	0.7125066519751083	-0.04564966248861305	-0.07540677819219983	0.05800897684291899	0.05800897684291899	0.4234713784666793	0.4234713784666793	-0.3741660711247999	-0.08573523637787643	-0.1142834070228701	-0.542525676235282
146.04	-0.2964982004899291	-0.1267136379344668	-0.02886673547140439	1.139603860666865	1.002629083560417	-0.3422661100068274	-0.3171803469920183	0.0330271028964182	0.08602532191158524	0.6897953566457546	-0.1236144156928015	-0.08265501351198401	0.08082992150176212	0.08082992150176212	0.3358555905130898	0.3358555905130898	-0.4256371489643344	-0.04857051324916132	-0.08314752900209199	-0.5164466906060109
