DataType=double
version=3
OpenSimVersion=4.5.2-2025-05-03-6a4c6ec41
endheader
time	/jointset/patellofemoral_r|reaction_on_child_1	/jointset/patellofemoral_r|reaction_on_child_2	/jointset/patellofemoral_r|reaction_on_child_3	/jointset/patellofemoral_r|reaction_on_child_4	/jointset/patellofemoral_r|reaction_on_child_5	/jointset/patellofemoral_r|reaction_on_child_6
14.83332732999724	-6.606728843237475	11.7507715550851	-64.97826528043798	2056.311612663043	-1061.605535949002	4.670496213368086
14.84799398199723	-5.303652262266688	8.493126567395331	-47.09496260705556	1493.390775671828	-924.3181616567922	-13.86993676342646
14.86266063399723	-3.348790502974037	4.289346387886605	-23.4322088063762	759.7633791637912	-542.1244685595856	-22.17199671508348
14.87732728599722	-2.367473391176881	2.426893017764312	-11.41405068701468	383.4701737263294	-305.8118949911072	-29.70631672136514
14.89199393799721	-2.442772221109885	2.574259117429639	-9.53409950297242	320.2412076266857	-281.1208729483523	-45.24795662276121
14.90666058999721	-2.777812258839421	3.076782999357974	-10.48842412924742	329.607071926637	-318.5054398525616	-60.76398331300398
14.9213272419972	-3.283789693576686	3.838624058505793	-13.51799606915635	377.1205110230849	-399.889509144145	-75.29396373596896
14.93599389399719	-4.330828305752051	5.194623713720639	-20.81650825465389	501.2580080988528	-582.6820902919619	-93.0989714596372
14.95066054599719	-5.88268856407692	7.205238235467821	-33.06472384327687	695.4898196760181	-878.9868527748499	-111.0547321581903
14.96532719799718	-7.582561056188445	9.729309108937406	-48.89353612490432	926.5205793463526	-1260.536954420916	-127.0616734489128
14.97999384999717	-9.336746178884212	12.80530625636537	-67.69681833430997	1193.434543549704	-1730.57167336478	-146.9494404738853
14.99466050199717	-10.45229142993087	15.87801222333616	-83.21922899871763	1412.381584102311	-2142.423768703492	-173.9411830500125
15.00932715399716	-10.97249505679271	18.82291728945917	-93.82227210999795	1585.213981606097	-2454.961588079328	-212.2272210861958
15.02399380599715	-11.57314649045916	21.31359307530062	-102.9195437008217	1764.225508690671	-2738.616269904325	-255.1099671662986
15.03866045799715	-11.69047319363725	22.73951390416862	-108.6977940845845	1925.909986583363	-2920.229791782266	-276.0276356656281
15.05332710999714	-10.60334302003838	22.20348960721355	-108.4739455528575	1961.330470252315	-2901.824204403854	-231.1184155000815
15.06799376199713	-8.669693687788337	20.12440848189024	-104.2092857515021	1979.680975696688	-2714.49858078523	-144.6215532737647
15.08266041399713	-6.334684442252131	17.41833606785451	-97.36461961539121	2024.463837909883	-2395.80375755576	-43.63853672186959
15.09732706599712	-4.00697303074914	14.64016655275584	-88.79111758824378	2062.087253869323	-1979.242959183569	55.12934002082286
15.11199371799711	-1.980023045996165	12.17315548812276	-79.78033203933626	2066.498909945553	-1520.315878189606	141.9351592602597
15.1266603699971	-0.3393092438831351	10.20438302823638	-71.38999181637294	2028.566341113457	-1070.969354994212	213.9506176451974
15.1413270219971	0.9291271009433378	8.60110658366861	-63.03686977024514	1905.247551475694	-663.4383981931765	265.7668814066515
15.15599367399709	1.571338773937715	7.475969201681241	-53.37566442103855	1655.195603869161	-343.7071622880411	288.5569897505564
15.17066032599708	1.911889737607208	6.201658059390797	-43.46979217886098	1351.140242861208	-135.1787863695004	283.0275022497831
15.18532697799708	1.855624938184374	4.765089472341358	-33.92735351832831	1053.675453190201	-13.56689566384207	252.2728594742022
15.19999362999707	1.175231707545636	3.379259585372065	-24.5475475589785	771.6737948365621	51.56203246018427	196.7443844834702
15.21466028199706	0.2271290215129349	2.159213770497862	-16.73164986971592	545.3495858140888	75.40892568066927	134.2771498201596
15.22932693399706	-0.6087670576730171	1.188660959733373	-11.1822830270978	390.4252294760368	77.0879857992891	80.77531606852483
15.24399358599705	-1.197251846293836	0.5207711711764055	-7.679392690859292	297.2357982361554	71.82902809713303	41.99442301873172
15.25866023799704	-1.597445780164755	0.1282459526177017	-5.634982652243155	245.4078869045802	66.26981846152142	14.50007410885705
15.27332688999704	-1.916670018201601	-0.05164368911931576	-4.735023687775342	224.3782292347538	63.8148993540942	-4.875855564701491
15.28799354199703	-2.242930639642859	-0.1035647696036086	-4.673746331180943	230.0905489812981	64.97043922364163	-18.16483527696702
15.30266019399702	-2.516107343316337	-0.02173944349425585	-5.307887639582348	258.7551367893818	68.55965280389064	-22.64074091651234
15.31732684599702	-4.861613292774468	1.393101226480426	-12.22572039146007	546.1619252785172	133.9612719843124	-39.79458231990824
15.33199349799701	-9.273786241589931	5.342628841398111	-28.81490332510097	1177.09932996048	249.5284657840322	-56.41257975649776
15.346660149997	-17.7543235889494	16.10483458108801	-67.05853864908494	2537.245696757455	425.4186542343935	-75.31791209635784
15.361326801997	-28.50794203149669	36.15746452994207	-127.7815986443359	4613.891509747158	524.1912684762053	-72.5514755749638
15.37599345399699	-38.25138462016049	58.72932280294517	-187.4335114733748	6612.439624848538	353.7793286478623	-131.6272615786897
15.39066010599698	-49.61904322697021	81.69163341966001	-240.4135973711158	8404.890723409027	-97.25824895109145	-381.4863582412463
15.40532675799698	-57.61581879214825	94.81322921018948	-258.6263911551302	9025.701889618358	-748.0201577040882	-783.0631696948416
15.41999340999697	-59.80112462178136	95.11325313345719	-242.1810370747341	8446.732594040697	-1360.352084116016	-1168.366645391519
15.43466006199696	-55.38272172531695	84.19599346369807	-202.4892687220198	7044.027881417609	-1738.076532718653	-1376.086235540395
15.44932671399696	-43.02431178155341	62.91439910988358	-147.7862063493191	5102.937466962981	-1742.490381017389	-1251.558492374945
15.46399336599695	-27.21923022847557	39.66848460961617	-94.53405246612236	3239.052872504448	-1434.75011710684	-882.1282669745038
15.47866001799694	-12.51435082674716	18.6924527027366	-48.81898791746102	1665.376852994731	-912.5407768542184	-429.1634452936441
15.49332666999693	-4.707598819162746	6.614912792815661	-22.00358125230469	760.0889500509065	-496.4690514503054	-145.4933818014223
15.50799332199693	-2.470599150800037	2.980600631762619	-11.40829577842882	414.2314121563768	-304.4023990005394	-56.22146927321841
15.52265997399692	-1.65060567141715	1.910950226735413	-7.613105960218296	282.5416425693469	-225.4469973799826	-21.00959221762017
15.53732662599691	-1.210936833874146	1.566274862808064	-7.977513297581829	281.241174867851	-242.6612440614465	10.91700957184148
15.55199327799691	-0.4610730619999105	0.9164083747436982	-9.695179560822647	308.4278516147966	-285.4566932885925	64.22128118962813
15.5666599299969	0.8521160104978484	-0.3816677220675044	-12.79831729346762	353.7915572188585	-349.9572696395518	147.5853938341322
