TendonPower
version=1
nRows=51
nColumns=5
inDegrees=no

This analysis gathers basic information about muscles during a simulation (e.g., forces, tendon lengths, moment arms, etc).
Units are S.I. units (second, meters, Newtons, ...)
If the header above contains a line with 'inDegrees', this indicates whether rotational values are in degrees (yes) or radians (no).

endheader
time	recfem_r	vaslat_r	vasint_r	vasmed_r
     14.65999401	     -0.00000000	     -0.00000000	     -0.00000000	     -0.00000000
     14.67506066	     -0.00000000	     -0.00000000	     -0.00000000	     -0.00000000
     14.69012731	     -0.00000000	     -0.00000000	     -0.00000000	     -0.00000000
     14.70519396	     -0.00000000	     -0.00000000	     -0.00000000	     -0.00000000
     14.72026062	     -0.00000000	     -0.00000000	     -0.00000000	     -0.00000000
     14.73532727	     -0.00000000	     -0.00000000	     -0.00000000	     -0.00000000
     14.75039392	     -0.00000000	     -0.00000000	     -0.00000000	     -0.00000000
     14.76546057	     -0.00000000	     -0.00000000	     -0.00000000	     -0.00000000
     14.78052722	     -0.00000000	     -0.00000000	     -0.00000000	     -0.00000000
     14.79559387	     -0.00000000	     -0.00000000	     -0.00000000	     -0.00000000
     14.81066053	     -0.00000000	     -0.00000000	     -0.00000000	     -0.00000000
     14.82572718	     -0.00000000	     -0.00000000	     -0.00000000	     -0.00000000
     14.84079383	     -0.00000000	     -0.00000000	     -0.00000000	     -0.00000000
     14.85586048	     -0.00000000	     -0.00000000	     -0.00000000	     -0.00000000
     14.87092713	     -0.00000000	     -0.00000000	     -0.00000000	     -0.00000000
     14.88599378	     -0.00000000	     -0.00000000	     -0.00000000	     -0.00000000
     14.90106044	     -0.00000000	     -0.00000000	     -0.00000000	     -0.00000000
     14.91612709	     -0.00000000	     -0.00000000	     -0.00000000	     -0.00000000
     14.93119374	     -0.00000000	     -0.00000000	     -0.00000000	     -0.00000000
     14.94626039	     -0.00000000	     -0.00000000	     -0.00000000	     -0.00000000
     14.96132704	     -0.00000000	     -0.00000000	     -0.00000000	     -0.00000000
     14.97639369	     -0.00000000	     -0.00000000	     -0.00000000	     -0.00000000
     14.99146035	     -0.00000000	     -0.00000000	     -0.00000000	     -0.00000000
     15.00652700	     -0.00000000	     -0.00000000	     -0.00000000	     -0.00000000
     15.02159365	     -0.00000000	     -0.00000000	     -0.00000000	     -0.00000000
     15.03666030	     -0.00000000	     -0.00000000	     -0.00000000	     -0.00000000
     15.05172695	     -0.00000000	     -0.00000000	     -0.00000000	     -0.00000000
     15.06679360	     -0.00000000	     -0.00000000	     -0.00000000	     -0.00000000
     15.08186025	     -0.00000000	     -0.00000000	     -0.00000000	     -0.00000000
     15.09692691	     -0.00000000	     -0.00000000	     -0.00000000	     -0.00000000
     15.11199356	     -0.00000000	     -0.00000000	     -0.00000000	     -0.00000000
     15.12706021	     -0.00000000	     -0.00000000	     -0.00000000	     -0.00000000
     15.14212686	     -0.00000000	      0.00000000	     -0.00000000	     -0.00000000
     15.15719351	     -0.00000000	     -0.00000000	     -0.00000000	     -0.00000000
     15.17226016	     -0.00000000	     -0.00000000	     -0.00000000	     -0.00000000
     15.18732682	     -0.00000000	     -0.00000000	     -0.00000000	     -0.00000000
     15.20239347	     -0.00000000	     -0.00000000	     -0.00000000	     -0.00000000
     15.21746012	     -0.00000000	     -0.00000000	     -0.00000000	     -0.00000000
     15.23252677	     -0.00000000	     -0.00000000	     -0.00000000	     -0.00000000
     15.24759342	     -0.00000000	     -0.00000000	     -0.00000000	     -0.00000000
     15.26266007	     -0.00000000	     -0.00000000	     -0.00000000	     -0.00000000
     15.27772673	     -0.00000000	     -0.00000000	     -0.00000000	     -0.00000000
     15.29279338	     -0.00000000	     -0.00000000	     -0.00000000	     -0.00000000
     15.30786003	     -0.00000000	     -0.00000000	     -0.00000000	     -0.00000000
     15.32292668	     -0.00000000	     -0.00000000	     -0.00000000	     -0.00000000
     15.33799333	     -0.00000000	     -0.00000000	     -0.00000000	     -0.00000000
     15.35305998	     -0.00000000	     -0.00000000	     -0.00000000	     -0.00000000
     15.36812664	     -0.00000000	     -0.00000000	     -0.00000000	     -0.00000000
     15.38319329	     -0.00000000	     -0.00000000	     -0.00000000	     -0.00000000
     15.39825994	     -0.00000000	     -0.00000000	     -0.00000000	     -0.00000000
     15.41332659	     -0.00000000	     -0.00000000	     -0.00000000	     -0.00000000
