NormalizedFiberLength
version=1
nRows=51
nColumns=5
inDegrees=no

This analysis gathers basic information about muscles during a simulation (e.g., forces, tendon lengths, moment arms, etc).
Units are S.I. units (second, meters, Newtons, ...)
If the header above contains a line with 'inDegrees', this indicates whether rotational values are in degrees (yes) or radians (no).

endheader
time	recfem_r	vaslat_r	vasint_r	vasmed_r
    145.69600000	      1.02173356	      0.82116427	      0.83745304	      0.86035303
    145.71272000	      1.03341971	      0.81806164	      0.83380959	      0.85714024
    145.72944000	      1.04945409	      0.82246842	      0.83897679	      0.86169913
    145.74616000	      1.07604696	      0.84034179	      0.85943975	      0.87990531
    145.76288000	      1.11750222	      0.87487273	      0.89718647	      0.91399966
    145.77960000	      1.17366279	      0.92435838	      0.94864756	      0.96111113
    145.79632000	      1.23896807	      0.98086169	      1.00589107	      1.01360660
    145.81304000	      1.30845576	      1.03692535	      1.06319794	      1.06577286
    145.82976000	      1.37440628	      1.08631458	      1.11490401	      1.11232517
    145.84648000	      1.43468096	      1.13008729	      1.16198322	      1.15446604
    145.86320000	      1.48150365	      1.16716737	      1.20316617	      1.19112781
    145.87992000	      1.50592297	      1.19588041	      1.23646082	      1.22051054
    145.89664000	      1.50628259	      1.21865810	      1.26290572	      1.24372751
    145.91336000	      1.48672507	      1.23925259	      1.28310889	      1.26182645
    145.93008000	      1.45876066	      1.25547159	      1.29862944	      1.27618136
    145.94680000	      1.43397963	      1.26561041	      1.30844599	      1.28531110
    145.96352000	      1.41496399	      1.26856607	      1.31132515	      1.28799561
    145.98024000	      1.39772951	      1.26422158	      1.30709584	      1.28405325
    145.99696000	      1.37595640	      1.25346388	      1.29669634	      1.27438800
    146.01368000	      1.34516578	      1.23743641	      1.28138433	      1.26023764
    146.03040000	      1.30108003	      1.21716866	      1.26131300	      1.24233181
    146.04712000	      1.24397188	      1.19361317	      1.23377166	      1.21814448
    146.06384000	      1.17503999	      1.16130151	      1.19653860	      1.18525233
    146.08056000	      1.09503794	      1.11725384	      1.14804440	      1.14199693
    146.09728000	      1.01168890	      1.06631159	      1.09379490	      1.09338518
    146.11400000	      0.92641430	      1.01005472	      1.03557886	      1.04068966
    146.13072000	      0.84597736	      0.95436260	      0.97909952	      0.98907101
    146.14744000	      0.77922561	      0.90683056	      0.93066361	      0.94460207
    146.16416000	      0.73444053	      0.87361852	      0.89584856	      0.91278229
    146.18088000	      0.71811063	      0.85802773	      0.87902535	      0.89752556
    146.19760000	      0.73243730	      0.86089185	      0.88214426	      0.90034639
    146.21432000	      0.77464413	      0.88203588	      0.90478831	      0.92092639
    146.23104000	      0.83594795	      0.91869621	      0.94285945	      0.95579529
    146.24776000	      0.90241676	      0.96316750	      0.98799920	      0.99723040
    146.26448000	      0.96164256	      1.00623985	      1.03168178	      1.03714102
    146.28120000	      1.00650588	      1.04067620	      1.06707865	      1.06928654
    146.29792000	      1.03631678	      1.06265128	      1.08995815	      1.08993428
    146.31464000	      1.05663064	      1.07265898	      1.10046693	      1.09937928
    146.33136000	      1.07358168	      1.07278202	      1.10059650	      1.09949561
    146.34808000	      1.09084555	      1.06517930	      1.09260720	      1.09231725
    146.36480000	      1.10872988	      1.05126411	      1.07807039	      1.07922129
    146.38152000	      1.12426161	      1.03118291	      1.05726933	      1.06039939
    146.39824000	      1.13289272	      1.00446028	      1.02986578	      1.03548668
    146.41496000	      1.13076311	      0.97109511	      0.99601144	      1.00456875
    146.43168000	      1.11669502	      0.93264027	      0.95708426	      0.96886065
    146.44840000	      1.09442646	      0.89361781	      0.91695124	      0.93203931
    146.46512000	      1.07511894	      0.86257505	      0.88397094	      0.90200021
    146.48184000	      1.07213395	      0.84736455	      0.86728788	      0.88694536
    146.49856000	      1.09488261	      0.85201362	      0.87243060	      0.89157385
    146.51528000	      1.14374599	      0.87552373	      0.89788007	      0.91463099
    146.53200000	      1.20806268	      0.91051724	      0.93446355	      0.94808811
