PassiveFiberForceAlongTendon
version=1
nRows=51
nColumns=5
inDegrees=no

This analysis gathers basic information about muscles during a simulation (e.g., forces, tendon lengths, moment arms, etc).
Units are S.I. units (second, meters, Newtons, ...)
If the header above contains a line with 'inDegrees', this indicates whether rotational values are in degrees (yes) or radians (no).

endheader
time	recfem_r	vaslat_r	vasint_r	vasmed_r
    145.69600000	     51.28262489	     43.67060968	     15.92370821	     25.46031650
    145.71272000	     54.14507394	     43.82023193	     15.96746818	     25.44639196
    145.72944000	     58.54179081	     45.93651756	     16.85031593	     26.65450579
    145.74616000	     66.62792246	     51.65528842	     19.20852541	     30.06309164
    145.76288000	     80.96993524	     62.39602250	     23.51224800	     36.44837709
    145.77960000	    104.45823604	     79.15275493	     30.10538187	     46.31099334
    145.79632000	    139.60750766	    101.79010530	     39.09018387	     59.55877141
    145.81304000	    189.68818149	    129.84920772	     50.62624842	     76.11076449
    145.82976000	    253.54085652	    160.72229293	     63.91245628	     94.55884102
    145.84648000	    330.81349476	    194.90253490	     79.32887343	    115.40258455
    145.86320000	    406.25943689	    229.16368656	     95.75765457	    137.02295176
    145.87992000	    451.65947091	    259.89569775	    111.57792778	    157.28514812
    145.89664000	    451.18538222	    287.71416100	    126.04722685	    175.43561218
    145.91336000	    412.53210305	    315.42385108	    138.37820660	    191.09350987
    145.93008000	    363.82519958	    338.80379691	    148.66213144	    204.43536502
    145.94680000	    325.79001976	    353.93130969	    155.43913463	    213.22376046
    145.96352000	    299.34182379	    357.83299772	    157.27564551	    215.57876110
    145.98024000	    276.93887309	    350.00466799	    153.89328601	    211.14204245
    145.99696000	    250.68784427	    332.55235389	    146.27881343	    201.21375983
    146.01368000	    217.55268827	    308.45998401	    135.85263362	    187.66196134
    146.03040000	    177.35629652	    280.62662041	    123.24089633	    171.77034047
    146.04712000	    135.89116437	    251.14318316	    107.72728423	    152.22769626
    146.06384000	     98.02057310	    214.87352135	     89.65279576	    128.94015261
    146.08056000	     66.51100406	    173.45161262	     70.46098981	    103.47409320
    146.09728000	     44.00667197	    135.39627444	     53.80779075	     80.77939330
    146.11400000	     28.16110832	    102.33261030	     40.06907281	     61.40655279
    146.13072000	     18.40612284	     77.87632299	     30.20693684	     47.05020258
    146.14744000	     13.17891464	     62.27033898	     23.87221777	     37.59746221
    146.16416000	     11.29625919	     54.34252727	     20.53080927	     32.49986630
    146.18088000	     11.78905595	     52.28018977	     19.58522520	     30.94046177
    146.19760000	     14.17240247	     55.12771223	     20.68524002	     32.43445240
    146.21432000	     18.37461598	     62.90636468	     23.76843674	     36.94535383
    146.23104000	     24.49663192	     75.78254281	     28.83518915	     44.48651033
    146.24776000	     32.30746876	     92.78261232	     35.56078367	     54.45068606
    146.26448000	     41.03112053	    111.80011592	     43.26338606	     65.66174102
    146.28120000	     49.07846179	    129.13007680	     50.51468671	     76.01351864
    146.29792000	     55.35308869	    141.12276261	     55.68868528	     83.27336899
    146.31464000	     60.31476514	    146.41940214	     58.05342585	     86.56163116
    146.33136000	     65.05389373	    145.46520991	     57.71704451	     86.10989319
    146.34808000	     70.38585098	    139.61817991	     55.26590359	     82.73144033
    146.36480000	     76.27945860	    130.11398368	     51.28133897	     77.19232296
    146.38152000	     81.57142175	    117.59981397	     46.10059411	     69.90738419
    146.39824000	     84.33268006	    102.70492394	     40.03734710	     61.26724048
    146.41496000	     82.90537775	     86.61951526	     33.60077528	     51.95516166
    146.43168000	     77.17774577	     71.18138465	     27.45272236	     42.91225949
    146.44840000	     69.48369901	     58.79844373	     22.42695077	     35.40886806
    146.46512000	     64.02843975	     51.52591920	     19.35045073	     30.72890855
    146.48184000	     64.19423125	     49.68099487	     18.49413563	     29.30071901
    146.49856000	     72.44963798	     52.91884326	     19.77364227	     31.05506784
    146.51528000	     91.27474125	     60.98476578	     22.99884075	     35.78719467
    146.53200000	    122.17487568	     73.02693581	     27.74531428	     42.85284404
