PassiveFiberForceAlongTendon
version=1
nRows=51
nColumns=5
inDegrees=no

This analysis gathers basic information about muscles during a simulation (e.g., forces, tendon lengths, moment arms, etc).
Units are S.I. units (second, meters, Newtons, ...)
If the header above contains a line with 'inDegrees', this indicates whether rotational values are in degrees (yes) or radians (no).

endheader
time	recfem_r	vaslat_r	vasint_r	vasmed_r
    145.16800000	     51.23206182	     59.67479173	     22.44317292	     35.23145985
    145.18544000	     49.85524556	     53.98597680	     20.21677456	     31.87317254
    145.20288000	     49.25494944	     50.71480516	     18.89909269	     29.84571828
    145.22032000	     51.10147998	     51.00876637	     18.96666220	     29.85784571
    145.23776000	     57.13546842	     55.62478529	     20.71334643	     32.38083515
    145.25520000	     69.27709070	     65.21564772	     24.34057060	     37.76027804
    145.27264000	     89.80085085	     80.18526374	     29.99250590	     46.17040181
    145.29008000	    122.03683475	    100.86347969	     37.91217903	     57.79464262
    145.30752000	    170.83449623	    127.26299114	     48.33665713	     72.76705537
    145.32496000	    240.46751244	    158.56719089	     61.15943559	     90.68493759
    145.34240000	    338.55414347	    196.62754965	     77.41507069	    112.84776616
    145.35984000	    460.85831905	    239.87881823	     96.92232533	    138.71346268
    145.37728000	    578.45781302	    283.31010246	    117.85685105	    165.56747305
    145.39472000	    654.81301841	    322.82326240	    138.37452541	    191.05418853
    145.41216000	    665.78691446	    357.72261045	    156.22792916	    212.52657776
    145.42960000	    616.50384804	    386.62051851	    169.45475078	    228.41266604
    145.44704000	    535.37095307	    406.29931586	    178.27727009	    239.22412276
    145.46448000	    442.93133059	    413.47374117	    181.57052531	    243.22959238
    145.48192000	    348.77116246	    406.14310047	    178.39167612	    239.28235412
    145.49936000	    262.56420615	    385.10942048	    169.13414549	    227.86901528
    145.51680000	    189.59075276	    352.75439998	    154.37368828	    210.12236649
    145.53424000	    131.81607582	    311.69498371	    133.17986184	    184.42274921
    145.55168000	     88.70424367	    260.49674980	    107.51707120	    152.17972064
    145.56912000	     56.70777492	    201.24255239	     80.30098267	    116.60734933
    145.58656000	     34.60284101	    146.06278712	     56.70513554	     84.60593688
    145.60400000	     20.13169183	    102.61602629	     39.21713325	     60.02216546
    145.62144000	     11.51318259	     72.54252283	     27.56873877	     43.05248075
    145.63888000	      7.20032571	     55.26813193	     20.84467389	     32.97995973
    145.65632000	      5.80697864	     47.62225080	     17.72649854	     28.18633369
    145.67376000	      6.21554500	     46.18963472	     17.07126897	     27.05565885
    145.69120000	      7.83541414	     49.07318809	     18.16561648	     28.56774135
    145.70864000	     10.49486674	     55.84784953	     20.76858145	     32.39971684
    145.72608000	     14.24579017	     66.85854105	     24.94821657	     38.64797625
    145.74352000	     19.14290815	     82.39996385	     30.83448521	     47.41885773
    145.76096000	     25.12091825	    102.45373539	     38.54964269	     58.73287975
    145.77840000	     31.50498038	    125.49841060	     47.67974595	     71.85190547
    145.79584000	     37.42095402	    147.89358094	     56.83615041	     84.71338887
    145.81328000	     43.05320663	    166.24142967	     64.55759608	     95.36641532
    145.83072000	     48.94540328	    177.11426634	     69.26190590	    101.78882293
    145.84816000	     55.18836363	    177.80824189	     69.65229654	    102.31586415
    145.86560000	     61.16624535	    168.15656217	     65.62559699	     96.82970856
    145.88304000	     65.74108231	    150.66198535	     58.35433115	     86.85781947
    145.90048000	     67.50902952	    128.60062285	     49.37400704	     74.37315002
    145.91792000	     65.20543976	    104.54854486	     39.83927746	     60.84962353
    145.93536000	     59.37667379	     81.69337291	     31.00591751	     48.05478499
    145.95280000	     51.68274940	     62.43800914	     23.63834735	     37.16654296
    145.97024000	     44.31585759	     48.49757228	     18.16052947	     28.95710257
    145.98768000	     39.77246167	     40.68968841	     14.91320123	     24.03416631
    146.00512000	     39.24913187	     38.02435273	     13.72627168	     22.13968756
    146.02256000	     42.89335747	     39.09787837	     14.13774339	     22.59566074
    146.04000000	     49.85708683	     42.47262852	     15.50231681	     24.48634422
