TendonForce
version=1
nRows=51
nColumns=5
inDegrees=no

This analysis gathers basic information about muscles during a simulation (e.g., forces, tendon lengths, moment arms, etc).
Units are S.I. units (second, meters, Newtons, ...)
If the header above contains a line with 'inDegrees', this indicates whether rotational values are in degrees (yes) or radians (no).

endheader
time	recfem_r	vaslat_r	vasint_r	vasmed_r
     16.17999153	    741.78065598	    190.22686459	     68.86400108	    104.41792280
     16.19679151	    514.81251897	    188.09605883	     67.87565178	    103.00198192
     16.21359150	    326.23215893	    187.61215742	     67.53469554	    102.50070125
     16.23039148	    217.79227943	    189.88662810	     68.26549752	    103.52759010
     16.24719146	    233.01665642	    195.46946235	     70.24773316	    106.37076409
     16.26399145	    357.05051092	    204.70209234	     73.57097994	    111.19489465
     16.28079143	    487.27157427	    218.31590439	     78.50612298	    118.39581347
     16.29759141	    523.75175215	    237.70943426	     85.65011448	    128.78618379
     16.31439140	    467.67038056	    264.48172210	     95.77982684	    143.36595389
     16.33119138	    402.54535939	    300.13649437	    109.74283490	    163.13866783
     16.34799136	    405.91607554	    346.75126147	    128.73662726	    189.53380756
     16.36479135	    489.14102519	    402.61423218	    152.66810509	    221.96225109
     16.38159133	    603.76959229	    460.62302553	    178.97440649	    256.49118559
     16.39839131	    694.01290490	    512.69121299	    203.98736793	    288.31514257
     16.41519129	    727.74149495	    551.65973904	    223.76041512	    312.78850690
     16.43199128	    701.63536776	    572.83637243	    235.13075119	    326.51040114
     16.44879126	    631.49184966	    574.36837041	    236.47177182	    327.91385939
     16.46559124	    536.92877665	    556.53001610	    227.78028888	    317.09051003
     16.48239123	    433.40012126	    520.91053869	    210.29908001	    295.29106866
     16.49919121	    332.65478177	    470.16623943	    186.13917570	    264.63391130
     16.51599119	    243.60545399	    408.04949068	    157.96410139	    227.95646229
     16.53279118	    171.93909596	    340.52755168	    129.06057905	    189.22927918
     16.54959116	    120.45252083	    277.45242311	    103.56872522	    154.27626612
     16.56639114	     86.14429087	    224.78555965	     83.32138727	    126.10418830
     16.58319113	     63.58167581	    184.70848500	     67.88486916	    104.43541746
     16.59999111	     50.41929591	    161.20673374	     57.60058620	     89.65394616
     16.61679109	     44.10024588	    150.63904076	     51.30328698	     79.26502074
     16.63359108	     43.04213481	    141.34933181	     47.66955683	     70.82276719
     16.65039106	     45.80350552	    119.78781657	     46.06801050	     65.41826740
     16.66719104	     50.76861786	     98.62743553	     48.87161137	     73.07746004
     16.68399103	     57.00094479	    157.05717625	     63.64031229	    113.10205756
     16.70079101	     64.55334535	    444.17263930	    101.11701071	    203.32489174
     16.71759099	     74.35060466	   1099.64704559	    170.02202139	    349.65465978
     16.73439098	     86.79083097	   2114.69382290	    271.30399587	    547.42765032
     16.75119096	     99.44367465	   3259.97145446	    392.45226544	    781.34141333
     16.76799094	    107.02077935	   4201.27460970	    507.28262783	   1015.34076212
     16.78479093	    105.44894486	   4691.00122183	    583.57242137	   1187.87838238
     16.80159091	     99.60007630	   4658.24360303	    597.49508731	   1237.87543974
     16.81839089	    110.01580772	   4197.98838396	    547.99126680	   1148.41213330
     16.83519087	    164.59743218	   3459.95257125	    452.22103294	    949.65729280
     16.85199086	    270.76520222	   2577.61110806	    333.83511594	    694.78463959
     16.86879084	    393.17977663	   1685.81493830	    217.84970768	    442.61581872
     16.88559082	    467.59758335	    918.28874323	    124.77926835	    240.29072437
     16.90239081	    447.66851220	    387.56399716	     66.62242902	    114.28210240
     16.91919079	    343.64844371	    125.57791193	     42.34247272	     61.94712040
     16.93599077	    214.29275542	     66.48885404	     39.77471699	     56.56266113
     16.95279076	    119.68930393	     99.73944309	     44.61844849	     67.06168284
     16.96959074	     83.93426745	    139.45140042	     48.31719832	     74.85275184
     16.98639072	     90.63703173	    154.16857598	     49.37875924	     76.55557547
     17.00319071	    109.96422953	    150.45514236	     49.71307121	     76.16405050
     17.01999069	    126.83233704	    141.17802431	     50.57574634	     76.49879605
