TendonPower
version=1
nRows=51
nColumns=5
inDegrees=no

This analysis gathers basic information about muscles during a simulation (e.g., forces, tendon lengths, moment arms, etc).
Units are S.I. units (second, meters, Newtons, ...)
If the header above contains a line with 'inDegrees', this indicates whether rotational values are in degrees (yes) or radians (no).

endheader
time	recfem_r	vaslat_r	vasint_r	vasmed_r
     16.17999153	     -0.00000000	     -0.00000000	     -0.00000000	     -0.00000000
     16.19679151	     -0.00000000	     -0.00000000	     -0.00000000	     -0.00000000
     16.21359150	     -0.00000000	     -0.00000000	     -0.00000000	     -0.00000000
     16.23039148	     -0.00000000	     -0.00000000	     -0.00000000	     -0.00000000
     16.24719146	     -0.00000000	     -0.00000000	     -0.00000000	     -0.00000000
     16.26399145	     -0.00000000	     -0.00000000	     -0.00000000	     -0.00000000
     16.28079143	     -0.00000000	     -0.00000000	     -0.00000000	     -0.00000000
     16.29759141	     -0.00000000	     -0.00000000	     -0.00000000	     -0.00000000
     16.31439140	     -0.00000000	     -0.00000000	     -0.00000000	     -0.00000000
     16.33119138	     -0.00000000	     -0.00000000	     -0.00000000	     -0.00000000
     16.34799136	     -0.00000000	     -0.00000000	     -0.00000000	     -0.00000000
     16.36479135	     -0.00000000	     -0.00000000	     -0.00000000	     -0.00000000
     16.38159133	     -0.00000000	     -0.00000000	     -0.00000000	     -0.00000000
     16.39839131	     -0.00000000	     -0.00000000	     -0.00000000	     -0.00000000
     16.41519129	     -0.00000000	     -0.00000000	     -0.00000000	     -0.00000000
     16.43199128	     -0.00000000	     -0.00000000	     -0.00000000	     -0.00000000
     16.44879126	     -0.00000000	     -0.00000000	     -0.00000000	     -0.00000000
     16.46559124	     -0.00000000	     -0.00000000	     -0.00000000	     -0.00000000
     16.48239123	     -0.00000000	     -0.00000000	     -0.00000000	     -0.00000000
     16.49919121	     -0.00000000	     -0.00000000	     -0.00000000	     -0.00000000
     16.51599119	     -0.00000000	     -0.00000000	     -0.00000000	     -0.00000000
     16.53279118	     -0.00000000	     -0.00000000	     -0.00000000	     -0.00000000
     16.54959116	     -0.00000000	     -0.00000000	     -0.00000000	     -0.00000000
     16.56639114	     -0.00000000	     -0.00000000	     -0.00000000	     -0.00000000
     16.58319113	     -0.00000000	     -0.00000000	     -0.00000000	     -0.00000000
     16.59999111	     -0.00000000	     -0.00000000	     -0.00000000	     -0.00000000
     16.61679109	     -0.00000000	     -0.00000000	     -0.00000000	     -0.00000000
     16.63359108	     -0.00000000	     -0.00000000	     -0.00000000	     -0.00000000
     16.65039106	     -0.00000000	     -0.00000000	     -0.00000000	     -0.00000000
     16.66719104	     -0.00000000	     -0.00000000	     -0.00000000	     -0.00000000
     16.68399103	     -0.00000000	     -0.00000000	     -0.00000000	     -0.00000000
     16.70079101	     -0.00000000	     -0.00000000	     -0.00000000	     -0.00000000
     16.71759099	     -0.00000000	     -0.00000000	     -0.00000000	     -0.00000000
     16.73439098	     -0.00000000	     -0.00000000	     -0.00000000	     -0.00000000
     16.75119096	     -0.00000000	     -0.00000000	     -0.00000000	     -0.00000000
     16.76799094	     -0.00000000	     -0.00000000	     -0.00000000	     -0.00000000
     16.78479093	     -0.00000000	     -0.00000000	     -0.00000000	     -0.00000000
     16.80159091	     -0.00000000	     -0.00000000	     -0.00000000	     -0.00000000
     16.81839089	     -0.00000000	     -0.00000000	     -0.00000000	     -0.00000000
     16.83519087	     -0.00000000	     -0.00000000	     -0.00000000	     -0.00000000
     16.85199086	     -0.00000000	     -0.00000000	     -0.00000000	     -0.00000000
     16.86879084	     -0.00000000	     -0.00000000	     -0.00000000	     -0.00000000
     16.88559082	     -0.00000000	     -0.00000000	     -0.00000000	     -0.00000000
     16.90239081	     -0.00000000	     -0.00000000	     -0.00000000	     -0.00000000
     16.91919079	     -0.00000000	     -0.00000000	     -0.00000000	     -0.00000000
     16.93599077	     -0.00000000	     -0.00000000	     -0.00000000	     -0.00000000
     16.95279076	     -0.00000000	     -0.00000000	     -0.00000000	     -0.00000000
     16.96959074	     -0.00000000	     -0.00000000	     -0.00000000	     -0.00000000
     16.98639072	     -0.00000000	     -0.00000000	     -0.00000000	     -0.00000000
     17.00319071	     -0.00000000	     -0.00000000	     -0.00000000	     -0.00000000
     17.01999069	     -0.00000000	     -0.00000000	     -0.00000000	     -0.00000000
