Moment_knee_angle_r
version=1
nRows=51
nColumns=5
inDegrees=no

This analysis gathers basic information about muscles during a simulation (e.g., forces, tendon lengths, moment arms, etc).
Units are S.I. units (second, meters, Newtons, ...)
If the header above contains a line with 'inDegrees', this indicates whether rotational values are in degrees (yes) or radians (no).

endheader
time	recfem_r	vaslat_r	vasint_r	vasmed_r
     16.17999153	    -39.37144158	     -9.50777136	     -3.28905489	     -4.86028821
     16.19679151	    -27.33435996	     -9.43083638	     -3.24546735	     -4.80562375
     16.21359150	    -17.32321161	     -9.42369465	     -3.23134056	     -4.78912426
     16.23039148	    -11.56314037	     -9.53615898	     -3.26607654	     -4.83637208
     16.24719146	    -12.36463986	     -9.78917546	     -3.35748948	     -4.95841507
     16.26399145	    -18.91613351	    -10.18639327	     -3.50843656	     -5.15983385
     16.28079143	    -25.70557315	    -10.73671154	     -3.72519825	     -5.44745864
     16.29759141	    -27.33712096	    -11.44300244	     -4.01673625	     -5.82643555
     16.31439140	    -23.78442830	    -12.21988218	     -4.36820842	     -6.26077591
     16.33119138	    -19.88669383	    -13.22928344	     -4.85730270	     -6.85583526
     16.34799136	    -19.89122576	    -14.90821933	     -5.67127959	     -7.87738386
     16.36479135	    -22.79613434	    -16.09514972	     -6.40550091	     -8.70071615
     16.38159133	    -25.69423947	    -16.33770550	     -6.85183581	     -9.05802671
     16.39839131	    -26.87385477	    -16.07354879	     -7.10287705	     -9.15186892
     16.41519129	    -26.10344287	    -15.63723546	     -7.21549040	     -9.10701939
     16.43199128	    -24.01882286	    -15.23228837	     -7.22320929	     -9.00017885
     16.44879126	    -21.46709205	    -15.05766944	     -7.18634839	     -8.92924980
     16.46559124	    -18.89202088	    -15.17160367	     -7.13097571	     -8.92913098
     16.48239123	    -16.25800019	    -15.36136008	     -6.98837840	     -8.89364176
     16.49919121	    -13.57075366	    -15.43402114	     -6.71394577	     -8.73951861
     16.51599119	    -10.90218857	    -15.14000791	     -6.26067620	     -8.37248796
     16.53279118	     -8.34977423	    -14.13605768	     -5.56757231	     -7.66105261
     16.54959116	     -5.98851815	    -12.07181540	     -4.56784202	     -6.43970203
     16.56639114	     -4.39534947	    -10.31537454	     -3.78183755	     -5.47437729
     16.58319113	     -3.35952954	     -9.05326604	     -3.21588755	     -4.79286889
     16.59999111	     -2.67744835	     -8.14871313	     -2.76363677	     -4.21295582
     16.61679109	     -2.35132748	     -7.73855305	     -2.50206329	     -3.81647977
     16.63359108	     -2.30209271	     -7.26529421	     -2.35686696	     -3.46498180
     16.65039106	     -2.45094271	     -6.12555076	     -2.28996620	     -3.21670359
     16.66719104	     -2.71629935	     -5.05177063	     -2.42584617	     -3.58883036
     16.68399103	     -3.04735083	     -8.08689822	     -3.13409798	     -5.50996161
     16.70079101	     -3.43354464	    -22.71189603	     -4.89839441	     -9.70425404
     16.71759099	     -3.94802803	    -55.31996854	     -8.13993612	    -16.35776441
     16.73439098	     -4.58315052	   -103.49607325	    -12.84275165	    -25.09473851
     16.75119096	     -5.14219418	   -152.99135154	    -18.09902262	    -34.59360483
     16.76799094	     -5.39661184	   -189.20233290	    -22.73453117	    -43.38083938
     16.78479093	     -5.26132503	   -207.40793540	    -25.86950538	    -50.02918990
     16.80159091	     -4.95834350	   -205.38545734	    -26.44941995	    -52.03196135
     16.81839089	     -5.49931639	   -186.90142956	    -24.38595859	    -48.61900249
     16.83519087	     -8.34799382	   -158.09583315	    -20.46456096	    -41.07351719
     16.85199086	    -14.07402617	   -122.65017996	    -15.54094272	    -31.12944000
     16.86879084	    -20.76114730	    -82.88024739	    -10.33555377	    -20.35991423
     16.88559082	    -24.83193624	    -46.15356389	     -5.97172744	    -11.23269423
     16.90239081	    -23.81528677	    -19.75439768	     -3.21589979	     -5.42640046
     16.91919079	    -18.36078672	     -6.46470372	     -2.07481214	     -3.00007120
     16.93599077	    -11.43807571	     -3.41361087	     -1.96949362	     -2.77147016
     16.95279076	     -6.37090045	     -5.07863597	     -2.22501779	     -3.30594694
     16.96959074	     -4.45934108	     -7.05376850	     -2.41951544	     -3.70065873
     16.98639072	     -4.81325737	     -7.78696694	     -2.47469446	     -3.78676851
     17.00319071	     -5.84427578	     -7.62681924	     -2.48623860	     -3.76235982
     17.01999069	     -6.75081596	     -7.19681401	     -2.52008373	     -3.76887763
