inDegrees=no
DataType=double
version=3
OpenSimVersion=4.5.2-2025-05-03-6a4c6ec41
endheader
time	/jointset/ground_pelvis/pelvis_tilt/value	/jointset/ground_pelvis/pelvis_list/value	/jointset/ground_pelvis/pelvis_rotation/value	/jointset/ground_pelvis/pelvis_tx/value	/jointset/ground_pelvis/pelvis_ty/value	/jointset/ground_pelvis/pelvis_tz/value	/jointset/hip_r/hip_flexion_r/value	/jointset/hip_r/hip_adduction_r/value	/jointset/hip_r/hip_rotation_r/value	/jointset/hip_l/hip_flexion_l/value	/jointset/hip_l/hip_adduction_l/value	/jointset/hip_l/hip_rotation_l/value	/jointset/walker_knee_r/knee_angle_r/value	/jointset/patellofemoral_r/knee_angle_r_beta/value	/jointset/walker_knee_l/knee_angle_l/value	/jointset/patellofemoral_l/knee_angle_l_beta/value	/jointset/ankle_r/ankle_angle_r/value	/jointset/ankle_l/ankle_angle_l/value	/jointset/subtalar_r/subtalar_angle_r/value	/jointset/subtalar_l/subtalar_angle_l/value	/jointset/ground_pelvis/pelvis_tilt/speed	/jointset/ground_pelvis/pelvis_list/speed	/jointset/ground_pelvis/pelvis_rotation/speed	/jointset/ground_pelvis/pelvis_tx/speed	/jointset/ground_pelvis/pelvis_ty/speed	/jointset/ground_pelvis/pelvis_tz/speed	/jointset/hip_r/hip_flexion_r/speed	/jointset/hip_r/hip_adduction_r/speed	/jointset/hip_r/hip_rotation_r/speed	/jointset/hip_l/hip_flexion_l/speed	/jointset/hip_l/hip_adduction_l/speed	/jointset/hip_l/hip_rotation_l/speed	/jointset/walker_knee_r/knee_angle_r/speed	/jointset/patellofemoral_r/knee_angle_r_beta/speed	/jointset/walker_knee_l/knee_angle_l/speed	/jointset/patellofemoral_l/knee_angle_l_beta/speed	/jointset/ankle_r/ankle_angle_r/speed	/jointset/ankle_l/ankle_angle_l/speed	/jointset/subtalar_r/subtalar_angle_r/speed	/jointset/subtalar_l/subtalar_angle_l/speed	/forceset/addbrev_r/activation	/forceset/addlong_r/activation	/forceset/addmagDist_r/activation	/forceset/addmagIsch_r/activation	/forceset/addmagMid_r/activation	/forceset/addmagProx_r/activation	/forceset/bflh_r/activation	/forceset/bfsh_r/activation	/forceset/edl_r/activation	/forceset/ehl_r/activation	/forceset/fdl_r/activation	/forceset/fhl_r/activation	/forceset/gaslat_r/activation	/forceset/gasmed_r/activation	/forceset/glmax1_r/activation	/forceset/glmax2_r/activation	/forceset/glmax3_r/activation	/forceset/glmed1_r/activation	/forceset/glmed2_r/activation	/forceset/glmed3_r/activation	/forceset/glmin1_r/activation	/forceset/glmin2_r/activation	/forceset/glmin3_r/activation	/forceset/grac_r/activation	/forceset/iliacus_r/activation	/forceset/perbrev_r/activation	/forceset/perlong_r/activation	/forceset/piri_r/activation	/forceset/psoas_r/activation	/forceset/recfem_r/activation	/forceset/sart_r/activation	/forceset/semimem_r/activation	/forceset/semiten_r/activation	/forceset/soleus_r/activation	/forceset/tfl_r/activation	/forceset/tibant_r/activation	/forceset/tibpost_r/activation	/forceset/vasint_r/activation	/forceset/vaslat_r/activation	/forceset/vasmed_r/activation
16.17999152999611	-0.0443640319782657	0.08120939382444119	0.01970619753711404	2.153672226921721	1.062097089742679	1.011565471678097	-0.003828016684447285	-0.0448804569844317	-0.06785010007270724	0.5082507989758813	-0.1679046995790262	-0.1550223454543072	0.5102157935699652	0.5102157935699652	1.08939534309755	1.08939534309755	-0.006003563462341328	-0.1624911625562102	-0.1392779751374635	-0.3804626848293106	-0.8507851030293392	1.702423960419247	0.7808691783081894	0.1667068054593192	0.5891275852925771	-0.1517909820128063	-2.923859796157188	-1.535029836198299	2.743809328728233	0.828628177320583	1.932541678645489	-6.072637755617108	-1.218120997592229	-1.218120997592229	-6.727138146771328	-6.727138146771328	-5.723681576910014	8.232646355699563	-6.308469555126204	4.772558386922753	0.01114459139034871	0.01707632305109835	0.01104069975535291	0.01090386524798963	0.01112897552883801	0.0130219374879864	0.01102579197695861	0.06248685254722573	0.01133118595581119	0.03495744891238767	0.02875949066656124	0.02587837032706075	0.03370200862642084	0.1746466146562319	0.01083923488438695	0.01039524555026362	0.01061950165059359	0.2811571695964761	0.1154111902043047	0.09566859503758977	0.1400766307925585	0.1392425667441129	0.1100480476176619	0.01555189362749203	0.5161489109238658	0.1284801528125688	0.010155352214097	0.1424599339304081	0.3880542049837279	0.2188337452834998	0.1151642256817248	0.0108417879988955	0.01171518570137439	0.01010175274773918	0.2780689756018395	0.112367565073869	0.04935161476511608	0.01030248102912102	0.01010069615041689	0.01020687299687286
16.1967915131961	-0.06356699406243496	0.1042867374390907	0.02130437338814721	2.156626216690462	1.070489824399776	1.009340087811976	-0.03801875843725244	-0.07399177816925825	-0.03194601034650158	0.5154955233590826	-0.1358233287891026	-0.2384485890231345	0.4959453032725792	0.4959453032725792	0.9583276169465806	0.9583276169465806	-0.0869651723863101	-0.02371251662750842	-0.1913660124944331	-0.2788260637593405	-1.218400108193542	1.118272406469956	0.05594148543146439	0.1766026519366313	0.4508871475556888	-0.1375619308614469	-1.82987117871281	-1.450400735841361	2.278023680116773	0.3437415663857067	1.916287660148429	-3.95915579252893	-0.7436538975577552	-0.7436538975577552	-8.506426432939005	-8.506426432939005	-4.830006805559016	8.602360297852128	-3.52581869330279	6.393834360612693	0.01941998087247754	0.06602501389656806	0.01306210132957849	0.01143847079003005	0.01411718738662034	0.01790941527400461	0.01271651893298866	0.07880001839967499	0.04878505238115779	0.03072138437845909	0.02149900056168393	0.01977281250893661	0.04694154076466511	0.1605727153448857	0.01050485073050822	0.01022675024750556	0.01271285077858611	0.1878620526989239	0.08217303070208723	0.06340425553817623	0.1100098170777504	0.1058536102548463	0.08056088004013438	0.02227480875618849	0.408885052425702	0.1276664600084856	0.09977143196880572	0.09067921877332913	0.3132652738781754	0.1424543346475278	0.1128471775532877	0.01339959739504351	0.01313158987876653	0.01018515266475937	0.2112023475956787	0.2223248555423879	0.03442396206494808	0.01019098872852302	0.01006335291384409	0.01013082998388304
16.21359149639609	-0.08487235105550171	0.1193744820232897	0.02086985485480557	2.159623298788719	1.07722718805613	1.006947423992418	-0.06434013209088631	-0.09581935195805798	0.004220131078628831	0.5181365081271276	-0.1036694041636559	-0.2944283463285323	0.4871172938498221	0.4871172938498221	0.8077054369957258	0.8077054369957258	-0.166054524168912	0.1174940114553093	-0.2374891051245509	-0.1695896547559334	-1.459450427878356	0.4371247283341616	-0.2585302374653207	0.182332522861637	0.2985246081205942	-0.1465561001044599	-0.9834931125932453	-0.9680089568464856	2.068698493871778	-0.1028112745726617	1.909393887069606	-1.712691713725671	-0.2014553660229743	-0.2014553660229743	-10.17459839833385	-10.17459839833385	-4.353272141692665	8.662982924141128	-1.942952363526689	7.207155720217457	0.0605314378338957	0.1489290452379163	0.03089600752966279	0.01779291133896932	0.04527009611944478	0.05428103992483062	0.02964295415850174	0.084168690461507	0.08460547762547899	0.03223443510184121	0.01563917744194229	0.01469869590898351	0.05114211598809933	0.1346416830156624	0.01026284128666125	0.01012245982154021	0.02911302588631086	0.1042547651463538	0.05130872417632489	0.03593101803314567	0.07719694192882216	0.07212420963518251	0.052858506106688	0.04740533106546325	0.2933981806958877	0.1156442849101093	0.1565501070202535	0.05127204915865465	0.2465040312831404	0.07565448471955227	0.09938551288524815	0.03319055964988235	0.02868867529716901	0.01022247886087881	0.1422634038214147	0.2802735127553719	0.0217547095695137	0.01011630918454289	0.01003827116804287	0.01008001879852432
16.23039147959609	-0.108026434045592	0.1206607806788262	0.02095240933388014	2.16264088764649	1.081172269985311	1.00408291016372	-0.0804604202858783	-0.1023681220077195	0.04162649503681713	0.5138342599452012	-0.07246772917649383	-0.3091344849359428	0.4880442642060849	0.4880442642060849	0.6303459750902003	0.6303459750902003	-0.2427940879514807	0.2561532418607639	-0.2791711299134561	-0.05785694534914655	-1.470868643928589	-0.3967691262168884	-0.0073470586377926	0.1805005911270305	0.128657761441598	-0.1855794748273047	-0.5330777725343434	0.09570408408317577	2.151650272990385	-0.4834380332753974	1.796664646806488	0.4627179853611242	0.4445295863804424	0.4445295863804424	-11.3819339023057	-11.3819339023057	-4.278507754977941	7.909084891137772	-1.859946297995291	6.568547648437508	0.1346174955920483	0.2692639215932729	0.06341814561970301	0.02956446534033889	0.103548085693997	0.1199163362341009	0.06063825327985172	0.07898240795521225	0.1155475502543513	0.03984132913417687	0.01208696951789127	0.01143808324894501	0.0435455715182537	0.09513685637469323	0.01015498825623386	0.01010314628676	0.05866742559159108	0.05730421015724683	0.02938257719223698	0.01828524700058522	0.05482790449115423	0.04957246815765573	0.03637074491154091	0.09089441770487333	0.2036895622772104	0.09195629678133591	0.1661678264898316	0.03422428580478269	0.2137254361909515	0.03551215705259784	0.07949345553165277	0.06833909523346428	0.05693114946546567	0.01019537104111964	0.08922060709291943	0.264459317453565	0.0132689653373125	0.01009209257271221	0.01003004196174749	0.01006375132024076
16.24719146279608	-0.1301499302800707	0.1056175002601853	0.02662317561050179	2.165573490498739	1.081884352696786	1.000483227954297	-0.08970812476556261	-0.08710011269621631	0.08064642868635401	0.5031061776991415	-0.04571654295979295	-0.2862007194142114	0.5013511758209857	0.5013511758209857	0.436198034266031	0.436198034266031	-0.3156845100845227	0.3775147045136861	-0.3234446045874835	0.03700712594106181	-1.224632930847056	-1.318822180031061	0.5454502310808709	0.1692971774183803	-0.05008936999756854	-0.2347566043422061	-0.4286649296464645	1.525584206865021	2.294089226047114	-0.7698787411085742	1.383103381587307	2.158560312129976	1.186149297516658	1.186149297516658	-11.58017899956676	-11.58017899956676	-4.142303656613779	5.980465959904259	-2.637188111982421	4.367207328352369	0.2070561967833104	0.3958705963363506	0.09094632166313797	0.03953687532987402	0.15522889152856	0.1772343206614931	0.08630761297209116	0.07705206856715831	0.138832314061716	0.04801626243884771	0.01075004493222073	0.01008580266162759	0.02987003863712904	0.05252345233230094	0.01014443149068421	0.01013026329609098	0.08339045620710306	0.07540269484703407	0.02328637020960055	0.01263642694038808	0.06629763616497415	0.05584428446448799	0.04273325441064148	0.1332909203013368	0.2022629182692164	0.06735197620598729	0.1430568836527395	0.04025291318313389	0.2471204324364658	0.036321397587544	0.07345796403949233	0.0961909019935126	0.07919041309190394	0.01012526990214347	0.08189117838203791	0.2000288507143509	0.00948882052511265	0.01009894808261173	0.01003229347410578	0.01006866215552613
16.26399144599607	-0.1476826918885811	0.07597917943376314	0.03870412710213401	2.168265838520183	1.079436738358369	0.996294181632849	-0.09615463800690974	-0.05016424246231106	0.1186442353863663	0.4886300995569917	-0.02869398076465499	-0.2392766636008716	0.5283678619323994	0.5283678619323994	0.2487691092886127	0.2487691092886127	-0.3791283683371874	0.4643630407291475	-0.3751293486973316	0.09400189050763191	-0.8073044126063503	-2.05621775250413	0.8651178315338653	0.1487600970092012	-0.2252567927560049	-0.2577957970918863	-0.4157070579799669	2.690307814775887	2.152078472789721	-0.893660621125701	0.654685021878388	3.173349789351136	2.011810547894044	2.011810547894044	-10.25881916339093	-10.25881916339093	-3.46309460590801	3.327707388261949	-3.40065164725491	1.421502588640834	0.2426788237572793	0.4900102315597542	0.09274225639807467	0.0400650155084992	0.1631785852638851	0.1901664005722385	0.08596500679472296	0.09430121255414084	0.1552599236429776	0.05110985339160103	0.01068901016616658	0.009977161595836906	0.019489137249902	0.02147781237472767	0.01014956844744838	0.01014120369971183	0.08457813939449252	0.1505370301553053	0.03168829708180164	0.01537754002955246	0.1189212461676395	0.09425138763051613	0.07087059205994543	0.155598206061544	0.3155613688232588	0.05251882889131425	0.1191508212473774	0.05716381977120637	0.350520691203045	0.07055089363746248	0.09806079212514426	0.0939721198458031	0.07624036293766166	0.01005548716279812	0.1301671620397137	0.1411358555232886	0.00907232260111482	0.01010201351813832	0.01003348268216215	0.01007081419998005
16.28079142919606	-0.1585147680466251	0.03896608288861535	0.05093567481629529	2.170551333791532	1.074126161816499	0.9921472092990644	-0.1001356618221388	-0.002154546778761268	0.149656209510128	0.4746460609753319	-0.0239268831204026	-0.1811175984241039	0.5704000307097724	0.5704000307097724	0.09824018156380102	0.09824018156380102	-0.424917244587096	0.5101574882199096	-0.4329258713271713	0.1083141416280496	-0.3613847977767782	-2.216646193411966	0.6117489545246735	0.1193480527926584	-0.3873317124862729	-0.2331124603570712	-0.2109248108712859	2.904469046714206	1.547008162384424	-0.741578925485965	-0.0308564791330927	3.652929906283838	2.962173026087919	2.962173026087919	-7.159888331323988	-7.159888331323988	-2.184665008721645	1.130871966088563	-3.683488869552316	-0.7708651373292752	0.2407902803782903	0.5370078589165956	0.06714700371705801	0.03035890016949659	0.1218767394176794	0.1625920036026039	0.05841001512899623	0.1337963690461882	0.1688196760110988	0.0494571241361587	0.01095805784832795	0.01024859215430782	0.01726952982549509	0.01025343119668748	0.01012061390260415	0.01010804022719061	0.06113115594871388	0.2262660994757325	0.04312408105506375	0.01949380174288696	0.1855856517186055	0.1426953503096971	0.101874524698944	0.1598276221006869	0.4882915857564086	0.0480362812206513	0.1169247581191558	0.06849066105289904	0.4810996637885227	0.1066574687853775	0.1479087110161686	0.06351283088676553	0.04918312409982558	0.01001627206974459	0.2046790455273794	0.1274432630623828	0.009917456111084244	0.01008293490529879	0.01002746645412621	0.01005764400832234
16.29759141239606	-0.1622032939381208	0.006040213800236586	0.05532041294575072	2.172256395282408	1.066320979916372	0.9887304649524458	-0.09854482370697105	0.03970829990300138	0.1679405345285346	0.4663677821481262	-0.02650925120314988	-0.1184662884786522	0.6298539941288794	0.6298539941288794	0.01433971491657061	0.01433971491657061	-0.447720276793393	0.5236124806741594	-0.4917407153810423	0.09730076659781738	0.04319306600260324	-1.629499967561363	-0.0366069776170428	0.0800365475962635	-0.5277756292402758	-0.1756133288273433	0.267000739800013	2.032165502174253	0.6694747110399386	-0.2564263280578373	-0.1733252300581553	3.829910286452924	4.100783230896283	4.100783230896283	-2.486625876606892	-2.486625876606892	-0.71251797690635	0.1195838574003398	-3.509403700049375	-1.195910353510203	0.2292886195472643	0.5495389784406537	0.03235522061527937	0.01687167676413106	0.06081340927465728	0.1322405115588613	0.02502698543902488	0.1833334013137257	0.1830238580077193	0.04848514123282768	0.01113649702174043	0.0104046958034894	0.0204006854054817	0.0171912127084584	0.0100752828150464	0.01005540738809183	0.02989616076261049	0.2389161653408063	0.04543127128283274	0.0206820123563646	0.2210443640748846	0.1696521109899787	0.1148272715730125	0.1656100393745583	0.6167567761860421	0.04862790505872028	0.1343491972159079	0.06859476334192016	0.5745716657409488	0.1127545336391853	0.1993619019095423	0.0330568654977989	0.02301783502485978	0.01000773063285518	0.2563484128760821	0.1587445463084361	0.01058569909937202	0.01005131386276892	0.01001726566567546	0.01003577316641309
16.31439139559605	-0.1586771567342103	-0.0126926022516	0.04947740020036746	2.173193196226023	1.056487163590171	0.9862694536282778	-0.08841393591596138	0.06238470504459199	0.1729005778688223	0.4681843184267506	-0.02544798623616631	-0.05468159317173789	0.7096916422907633	0.7096916422907633	0.01728780924600138	0.01728780924600138	-0.4491840914070955	0.5186397683031647	-0.5467327775489429	0.08633849989357469	0.4374531762527782	-0.596803947107884	-0.6006595669067902	0.02969820736389509	-0.6353503754655792	-0.1218905797073179	0.8750193461103305	0.6957305876445613	-0.02877658642803627	0.4365316423771555	0.3927845172536618	3.746924048943554	5.394413009967984	5.394413009967984	2.895280890933783	2.895280890933783	0.4324844386860395	-0.1456466499992849	-3.104553419896572	-0.2537756891327871	0.2284621419974867	0.5441256808243293	0.008409211164463103	0.007355931681055692	0.01568333813224056	0.1272294517144993	0.01296806669775548	0.2272488495855401	0.1981618899928909	0.05241016001747187	0.01114894988222014	0.01037444310888082	0.02277325091543514	0.03541632489409538	0.0100585979689012	0.01002296623098023	0.008791352117745347	0.1759464825301115	0.03662484882140406	0.02032897119602911	0.2012285450935894	0.1612968071515387	0.1065789823221996	0.1866646633131414	0.6331638751239471	0.05378801406959639	0.1550395557025805	0.06680698922987396	0.5917058963762277	0.08347950151500047	0.231591962215522	0.03241772672577637	0.02849438264330266	0.01001243859678493	0.2556641386692647	0.2091451503953257	0.01069551182965307	0.01002675486945193	0.01000911963771836	0.01001868167897576
16.33119137879604	-0.147761803811579	-0.01462339184532453	0.03763645104051047	2.173198711821991	1.045249778556585	0.9844674173900526	-0.06907901355627592	0.06546037674561141	0.1702846014186619	0.4810221874880848	-0.0111205595040713	0.005431264648622551	0.8109490155687783	0.8109490155687783	0.1077014390460709	0.1077014390460709	-0.4367999460939705	0.5041578756274951	-0.5951540216977951	0.08875117598561416	0.8362644144022018	0.3087391394754627	-0.7911695431634056	-0.02853988887952514	-0.6987691858723929	-0.09516902384940711	1.446218164305145	-0.2436342040788323	-0.226975844763751	1.047862497932206	1.325915446337177	3.285666172245728	6.631951151041432	6.631951151041432	7.612753841296246	7.612753841296246	1.003578133332736	-0.395073390751486	-2.635623430812154	0.8009457889629735	0.2337832054232308	0.5231591741083557	0.002070219850451964	0.006031781297701204	0.00239371084379929	0.1390144928443452	0.03668754208382092	0.2578720119631103	0.212104129568604	0.06072414068141457	0.01101177243461079	0.01026476007121688	0.02106929340857558	0.05819544945319059	0.01008328930920273	0.01002361447950233	0.00296212403264781	0.08765383292718854	0.02431317881884956	0.02171125123848814	0.144857007320227	0.1282259231769388	0.09008568592136147	0.2156767657170204	0.5529252121006885	0.06657387840949085	0.1670204654326075	0.07313585137470224	0.5381930170631999	0.04086395264037509	0.2389424959145037	0.06632125898570648	0.07935890742073012	0.01001599692798969	0.2092784371386296	0.2550220773908561	0.01047695445891267	0.01001804884494061	0.01000575753393861	0.01001250226292284
16.34799136199603	-0.1303538683068282	-0.00544750987800918	0.02533759490373312	2.17221796801865	1.033375856775899	0.9829058460469466	-0.04114745862397678	0.05944315842554839	0.1679661558575519	0.5011706846566161	0.0181221735010713	0.05464284796756946	0.9301103256456362	0.9301103256456362	0.2632801656830909	0.2632801656830909	-0.4187236002056412	0.4861762178260804	-0.6356678701909311	0.1009027654997776	1.14773478593004	0.6949894759515096	-0.7072560645318907	-0.08597726234580184	-0.711535941914996	-0.08915582773490198	1.953297408989341	-0.3708750971919422	0.0004676388358619693	1.305341276908621	2.075532526763054	2.414184297742048	7.490741111045589	7.490741111045589	10.4586781017254	10.4586781017254	1.148057974513639	-0.622924195989404	-2.126870310104452	1.185010538480747	0.2322423230325052	0.4796565667616033	0.007598915797848606	0.01329387272906887	0.01533459037731189	0.139090418685012	0.09221451055989897	0.2758863253689883	0.222536821967712	0.06996100898852096	0.01084727107551498	0.01017879770722159	0.01657434744886165	0.07976600296061141	0.01011747707973078	0.01004003134927751	0.006173836036116764	0.04010077329511316	0.0155914855010827	0.02447996521607142	0.09536383292665478	0.08832597012241704	0.07538364741787658	0.2328915162802603	0.4435825556587454	0.083006359635184	0.1696102350697081	0.08251891086406836	0.4444647746838283	0.01041484449462981	0.2255582160970001	0.1111314734961628	0.1633480065715821	0.01001486735569176	0.1431446332949034	0.2863313626964963	0.01026170062120686	0.01002071823073356	0.01000599151796068	0.01001440222023445
16.36479134519602	-0.1095775965621863	0.005678838734542065	0.01457363860129957	2.170357010967286	1.021705736134375	0.9814348529601759	-0.004525335797697011	0.05688727586750725	0.1704983156069344	0.5219174389791382	0.0556590104514736	0.08689018855946944	1.058544017344196	1.058544017344196	0.4476018948096677	0.4476018948096677	-0.3990364751563696	0.4732625586719378	-0.6666257582863447	0.1132245471397052	1.226409146230804	0.552411428838829	-0.6237488109135816	-0.1325305361157435	-0.6722773113574301	-0.08225383144638808	2.481965739398174	0.1375167256129821	0.3211556894404304	1.120241400125702	2.270714080004687	1.338013973947927	7.70168464709693	7.70168464709693	11.03282752022765	11.03282752022765	1.211748147001534	-0.3880950196347795	-1.491677301643318	1.009390795668027	0.2190157896008126	0.4103369471516599	0.01604683300429437	0.02701108855160327	0.03885438967999787	0.1120334356424906	0.1622937869302292	0.2834347341166258	0.2272732862572057	0.07618353462899514	0.01082073136493763	0.01016096441286047	0.0125175106640236	0.09394228162185064	0.01012345856192631	0.01005000109673473	0.01035525998068389	0.06261931182812355	0.01111658683330639	0.02488687901624088	0.08318469203616581	0.05200237828219892	0.06071424306558973	0.2250558541553057	0.3596695417999748	0.09177786542682254	0.1668096586659716	0.0796504370983363	0.3375840699488226	0.0007330408952836731	0.1970469815318832	0.1363665344058888	0.2507505689166464	0.01001214833395575	0.08000673070730921	0.3008660529724186	0.01021584468852746	0.01002733408261662	0.01000843124997318	0.01001950032057809
16.38159132839602	-0.09023876067246908	0.01145505657334715	0.003671414461793014	2.167860163172164	1.011113341606976	0.9802108962411777	0.04191428363774398	0.0650892900382139	0.1770424221614412	0.5364733197794469	0.09121783476367462	0.1012707594348524	1.184336684260783	1.184336684260783	0.6248934746397844	0.6248934746397844	-0.3767980874807403	0.473932951210755	-0.6848189116870179	0.1204086896456842	1.005527718784783	0.09392814097827321	-0.6957524149555432	-0.1614501038100712	-0.5804917746711953	-0.06098146324383062	3.082778714718007	0.8533663537976761	0.4302905086998601	0.5723274579799745	1.85822735350634	0.3968768804048908	7.157197264633994	7.157197264633994	9.748687810707027	9.748687810707027	1.456262564899647	0.3592323389351066	-0.6158035349201894	0.6507735897676659	0.1946580282449329	0.3211671537446276	0.02159238943715721	0.04334738233205687	0.05682091300597827	0.06799109953620022	0.224555370557563	0.2797713926622436	0.2237265716194482	0.07621832279186257	0.01091996730754095	0.01019345051390836	0.01072402878900906	0.09499285778780987	0.01009677587321173	0.01004642448561299	0.01178141246412908	0.1405480446293217	0.009084106216281803	0.02091022351605189	0.1064568442566475	0.02484500580381586	0.0422300918309701	0.1945613410939107	0.3100276363065637	0.0873447455860429	0.1595433782577587	0.05859631132682002	0.2338121262898785	0.004232500313427247	0.1597269573636363	0.1302648324345271	0.3117714382213667	0.01001129807059539	0.03362124057296072	0.2979265266001581	0.01029067535372014	0.01003550671535234	0.01001350729195715	0.0100258894758607
16.39839131159601	-0.07661390224910264	0.008347809548559262	-0.009490215727606739	2.165046115660397	1.002521950691697	0.9794461172617603	0.09851163052241224	0.0844167219170919	0.1825337592133875	0.5395181185810792	0.1158558176422639	0.1025657987005484	1.294905758866615	1.294905758866615	0.7700089962336947	0.7700089962336947	-0.3485137617694869	0.4895385384007195	-0.6857766848257387	0.1212352318282356	0.5862732493884227	-0.4718217252160021	-0.8531158340099406	-0.1701954673207034	-0.4328908318883669	-0.03043166607121814	3.643423486916202	1.410371046038681	0.1547752851000327	-0.2431304765600001	1.016467972066074	-0.1528160563250672	5.892250123995623	5.892250123995623	7.348938472548061	7.348938472548061	1.925495385202293	1.086454081019486	0.5352968015582064	0.1901235559566218	0.1602344529490304	0.2272862389744127	0.02251367625238298	0.05810783605375958	0.05923843791137268	0.0289451189217392	0.2591838324667569	0.2635762266455862	0.2110847297402362	0.06973971973152758	0.01095879624018715	0.01022772123846541	0.01070435932366414	0.08128855773626081	0.01006218685021607	0.01003503845241197	0.01096244495178172	0.2468804052557636	0.01096412002116049	0.01478801771000008	0.145776457051726	0.01509241544082553	0.0233089815445081	0.1537457200498175	0.2771052243240194	0.07747355341837264	0.1462920752005404	0.03047924282450964	0.1461279825790285	0.009927613700292652	0.1216816000602196	0.1069951369960057	0.3311599995188343	0.01001316436142562	0.01332421040323814	0.2796806976121226	0.01034462811501844	0.01004758661135343	0.01002145894315236	0.0100341103714703
16.415191294796	-0.07013977856157212	-0.004146586786583873	-0.02461629184648769	2.16225491674227	0.9969022333239299	0.9791565899046053	0.1624775094947019	0.1100389351811665	0.1797662868705042	0.5267841764199135	0.1247159223433544	0.0983022395036398	1.378999186115157	1.378999186115157	0.8698918573903762	0.8698918573903762	-0.311380957380637	0.5110743099043275	-0.6657244523203869	0.1133719164115875	0.1874180840034086	-1.004594902359842	-0.9096664471782916	-0.1587877528608994	-0.2280679409201068	-0.006320740607871547	3.925273968879698	1.576366172962282	-0.5579260717010811	-1.296373086183797	0.02093551008280495	-0.2656578363986338	4.030606372286957	4.030606372286957	4.477075545000721	4.477075545000721	2.491822915961539	1.090321438275314	1.843376978271113	-0.5594547433203459	0.1227999272942978	0.1514016607583826	0.0198803462143994	0.06820585998527726	0.04681862885843061	0.008592958818275986	0.2553991127160909	0.2374998511793953	0.1937822982813819	0.06096839973018157	0.01084419935825358	0.01023600978906102	0.01105504347392275	0.05779153681097136	0.0100402655691686	0.01002223545807418	0.009842745193071213	0.3668604437711151	0.02033050863327606	0.01019076586057243	0.1893318539028116	0.03050187030141048	0.0107756190795282	0.1143801524221429	0.2526255517360943	0.07413743795218176	0.1293449280730167	0.01076653804281369	0.08737031499844472	0.01232892413803428	0.08988505281002258	0.09173992175682105	0.3126776420701332	0.01001619700017071	0.02399846453210899	0.2547427939225251	0.01031093033201699	0.01006595758968697	0.01002908031033905	0.01004461731983137
16.43199127799599	-0.06902318480688217	-0.02435788264116685	-0.03886025242984627	2.159816301990173	0.9951231189073717	0.9791350016782019	0.2276531610427283	0.1342012169830247	0.1620450962839093	0.4946891776562355	0.1176404403388835	0.09491562198210057	1.428202936514386	1.428202936514386	0.9203779671344845	0.9203779671344845	-0.2652356814486754	0.5225414535080469	-0.6241158804669952	0.09073036473393568	-0.02964064289558068	-1.379969383461694	-0.7550414292912994	-0.1287305495545419	0.0206564768666693	0.001648305722730192	3.77089945937508	1.240109952808167	-1.585524037332677	-2.535041940902571	-0.8517104668148533	-0.09230812268259828	1.77998153544062	1.77998153544062	1.551985420131475	1.551985420131475	2.973090891982832	0.0309162743610899	3.052278216005888	-1.792230234626601	0.09703897671521762	0.1156500196109494	0.01597250750380378	0.07143987422086988	0.02897589143152118	0.004952586755565414	0.2150254881579415	0.2086134828164504	0.1805292354637179	0.05601936861480991	0.01068730287891874	0.01022827817958281	0.01097906383118014	0.03371660275195482	0.01003143583938161	0.01001315648745997	0.009726239278817099	0.4875307000749354	0.03640463378081886	0.008634481742814084	0.2355347054326413	0.06763209110829607	0.006947857519458048	0.08335076106063111	0.2454365642741471	0.07944884795249091	0.1168622474143794	0.004652515988489821	0.06417900354058814	0.01171296483269917	0.0676338340950432	0.09935310954990893	0.2723646101516808	0.01001808516288462	0.06001690999989337	0.2356756610324315	0.0102348461003548	0.01008972522618903	0.01003057494408342	0.01005754058024003
16.44879126119599	-0.07028853049440774	-0.04862337949190376	-0.04909495754739024	2.158020042913983	0.9976460756218052	0.9791455655211366	0.2872361023513084	0.1487287662870525	0.1266591857429895	0.441555085136708	0.09845485564030264	0.09527362855377876	1.438298496627689	1.438298496627689	0.9228860071211398	0.9228860071211398	-0.2127530095043603	0.5085852289258767	-0.5651917056302261	0.04506838050451425	-0.08657050496550073	-1.477351453757313	-0.4530283617245282	-0.08338179529694023	0.2789475202018157	-0.0008289720521238728	3.260012216181543	0.4554950104908831	-2.598306431964344	-3.782768995937918	-1.397285614145582	0.129018748153045	-0.5797076376517752	-0.5797076376517752	-1.169163186750231	-1.169163186750231	3.224890953512066	-1.832087050612695	3.8663730215282	-3.518873040581729	0.09285273894860246	0.1260982754042873	0.01279301566427439	0.06585720706994029	0.01533536065947092	0.007719734460914097	0.15146889127409	0.1847541263362193	0.1779145420789656	0.05761019047031976	0.01061651530725349	0.01022099308413255	0.01055336508109283	0.01676619453583543	0.01003177892660824	0.01001918536875686	0.01063350967327201	0.5754114737015705	0.05114656023717379	0.00912732789690446	0.2755471663470344	0.1079587000589081	0.008553008576554005	0.06465668370033986	0.2599334405527333	0.08399608873062769	0.11672126057584	0.006312880202225428	0.07177876202100389	0.01035741357202149	0.05648148675804744	0.1249825434761184	0.2265324492887185	0.01001723203769295	0.1030625721065654	0.230870627803677	0.01017678847629369	0.01011487014913096	0.01002522277191499	0.01007447739966628
16.46559124439598	-0.07234238905584653	-0.07193109928167726	-0.05426081090915152	2.157076639873248	1.004268290383893	0.9791403873341507	0.337088003163715	0.1482024921372352	0.07719861099302941	0.3692562016489683	0.07318954853425075	0.09844512893251267	1.409762336765378	1.409762336765378	0.8825149392354406	0.8825149392354406	-0.1584701340062968	0.4613123652312841	-0.4974957648391073	-0.02973280646896748	-0.1286769252129543	-1.259309357941199	-0.1688688918946242	-0.02855597589272465	0.5032551479163525	0.001419537520877303	2.629752356501074	-0.5175599507246865	-3.215275692952688	-4.791476924805544	-1.558551173633039	0.2071118253702706	-2.781915491557072	-2.781915491557072	-3.509265845833276	-3.509265845833276	3.181536750243291	-3.887673337717729	4.087297833424667	-5.459066551051727	0.1030319733089076	0.1631216831846448	0.01105108724507483	0.05150814517309444	0.008963979089365392	0.009386262593478445	0.08460328936382684	0.1714633421711916	0.1849757181554131	0.06345101738569869	0.01061497222505455	0.01021033500870953	0.01015496671309911	0.009114876115110887	0.01004993318606415	0.01005398485431773	0.01141515590569931	0.5842661167684476	0.05499022651163891	0.0100401166340595	0.2871909534711096	0.1282941134318216	0.01114187246685463	0.06038708604089738	0.2804356056182908	0.07939550700942384	0.1284809731704233	0.008088899090410679	0.09758775660682095	0.009702562059322737	0.05889991007890553	0.1519908010726719	0.1838468013261899	0.0100136712184564	0.130431682029767	0.2391464524774025	0.01014423521037264	0.01013621689613055	0.01002622071710906	0.01009752570625646
16.48239122759597	-0.0757535994592507	-0.08977353514595386	-0.05570273631032215	2.157080068425818	1.014138940784014	0.979296790406895	0.3766761995269495	0.1325640231938736	0.02208259829317166	0.2832396723765462	0.04749785905669155	0.101335231807321	1.346678342176014	1.346678342176014	0.8069864866444504	0.8069864866444504	-0.1073393027660125	0.3819588859845333	-0.4311778317403399	-0.133012748985138	-0.2661843437972872	-0.8311901205076722	-0.014880657184581	0.02809659933846395	0.6613320440964415	0.01887695130180566	2.068479666803412	-1.316328387358872	-3.269172218330801	-5.387505171259375	-1.446521190372903	0.08449631877581658	-4.670348061291363	-4.670348061291363	-5.339325544648681	-5.339325544648681	2.862301857586953	-5.60889787320556	3.732467124994075	-7.079147934660931	0.1086345292001781	0.1920164108298992	0.01015140882003671	0.03282087070808187	0.007279804380147302	0.01055129860374962	0.03385431953180142	0.1705224683967405	0.1944888794801783	0.06929055571025941	0.01059455557560469	0.01018981608091659	0.009983909482872167	0.008053076308116231	0.01009696677333278	0.01010820219527769	0.01041013452770023	0.4934965464480528	0.04555833724139401	0.0105167531947238	0.2527678596236249	0.1172285226552446	0.01244578495001832	0.06856185060314721	0.2816794278568847	0.06922951030264922	0.1424300052108072	0.008199921505350968	0.1295864574507657	0.009833595795390643	0.07621243052315481	0.1668081444421459	0.1460820685163287	0.01001027326125486	0.1286263451956877	0.2523882984265739	0.0101296198452514	0.01014881163705877	0.01005603996715418	0.01012192197791145
16.49919121079596	-0.0820151633902292	-0.1000305959967953	-0.05547683056744903	2.157993766196163	1.026044156256122	0.9798574302763057	0.4074210018306993	0.1068615614139159	-0.03028156217678135	0.190699546156754	0.02456281345592222	0.1009652787823174	1.254758120851556	1.254758120851556	0.7057703112350845	0.7057703112350845	-0.06333537899263653	0.2778365556877498	-0.3739053311875406	-0.2551689255956432	-0.4875872772920701	-0.3715609683808317	0.03436152864244364	0.07892605731925705	0.7433217249580792	0.04875612029212265	1.607735224937539	-1.705547513971475	-2.921291661786098	-5.547364043976857	-1.244066228508597	-0.1669571896488296	-6.205518433208371	-6.205518433208371	-6.572579887852172	-6.572579887852172	2.356437362357815	-6.767300366391193	3.074852846152739	-7.822545441466835	0.0985330072550691	0.1898414576327546	0.009247820678427356	0.0169469295266394	0.007882667464408008	0.01801452672228799	0.01201172303830548	0.177642499184659	0.1995119404974769	0.07177270697276521	0.0105453334193559	0.01018511013779006	0.01002047368820215	0.009446395296679264	0.01015824873761792	0.01012826355513682	0.007096729660588118	0.3334465972977422	0.02942875814726688	0.01053815729281373	0.1789040342317697	0.08241280047994089	0.01241877412780214	0.08277765143761216	0.2493162259938726	0.06417363792369338	0.1474168420702089	0.01156841158125652	0.1603133052585	0.01022732996128927	0.10318510802813	0.1665746283945621	0.1136126977767283	0.01001324182855456	0.1007872839325752	0.2628649751623484	0.01015960954888623	0.01014758504946005	0.01011669306325625	0.01012730074222701
16.51599119399595	-0.09185275663415576	-0.1031478615929249	-0.05444898661872032	2.159667465393252	1.03875208404436	0.980935938275037	0.4305669721155387	0.07786686818318315	-0.07584579904271432	0.0984502041576923	0.00500685211329601	0.09606780701959239	1.139976224318458	1.139976224318458	0.5894536589379038	0.5894536589379038	-0.02855955340788934	0.1581122442414051	-0.3271556510792154	-0.3796431740334534	-0.6992579108684038	0.00268830338391926	0.08637066944623828	0.1180709793631821	0.7572991053726291	0.07934934330230423	1.179981436483135	-1.714527755872933	-2.496883505711926	-5.351365717466082	-1.060246569073749	-0.4247410175448085	-7.389272275612392	-7.389272275612392	-7.147278110110478	-7.147278110110478	1.78652560803635	-7.380375133133091	2.554025437456214	-7.381349560105109	0.08154411252180678	0.1639537271149686	0.008626522864264852	0.008604378827812582	0.01250359373135917	0.03874502025923802	0.02144961823751362	0.1815761302499448	0.198669576966505	0.06943500124010712	0.01054838229334915	0.01024450429889814	0.01018146747902084	0.01057542301930997	0.01018518168708811	0.01004859540173166	0.004334478500123141	0.1678229510524402	0.01559909435102931	0.01036468895373037	0.09497371205762446	0.04302185274105747	0.01179323483879805	0.09569138774451963	0.1884605692705663	0.0682773012865639	0.1396847417707308	0.02468041827149368	0.1847258938034504	0.0104742367588128	0.1267325697240684	0.15636178863328	0.08852197930567937	0.01002746866169256	0.06243931000727737	0.2683290373632759	0.01025494603449187	0.01012722515781681	0.01015114111843025	0.01008393734135427
16.53279117719595	-0.1045795743543828	-0.1006513233066972	-0.05203684881233712	2.161875555319713	1.051221278990518	0.9824674265969959	0.4464759612047713	0.05041507389854648	-0.1152180933212151	0.01189399589910804	-0.01142458202165063	0.08718592936285274	1.008419326580668	1.008419326580668	0.4694777329291355	0.4694777329291355	-0.003117644612177211	0.03103828312613864	-0.2850682611996864	-0.4880254716750028	-0.8234734026719143	0.288094228498827	0.1981235491411197	0.1423927483131027	0.717211682984792	0.1021206184737081	0.7436232340125828	-1.534659414794161	-2.198549013339329	-4.889064349338703	-0.8800812525207453	-0.6160298189964323	-8.202078666727791	-8.202078666727791	-7.017895540039544	-7.017895540039544	1.262593473125826	-7.565269432982658	2.566522130521859	-5.83246403866113	0.07633017068540679	0.1413909535182929	0.01009818424193425	0.007211031390926088	0.0252379185920666	0.07350810025003038	0.05382593258439218	0.1699484615496323	0.1956141568102961	0.06401505814411579	0.01065528091220626	0.0103653100130732	0.010392208341779	0.01075817808963351	0.01014165566020111	0.009897372289989652	0.008629823401715199	0.05114900965421629	0.008622013961223907	0.01017649464277247	0.03212852290640056	0.01556453379466461	0.01110856794649336	0.1024234029747132	0.1175932703088096	0.0749771170316418	0.1238809413152927	0.0486119953926611	0.1977869953775407	0.01049375238653923	0.1330844527119365	0.1434895909233197	0.07270202198602049	0.01004601764877004	0.03019304948230504	0.2716142382380642	0.01033553403189866	0.01008922165390021	0.01005395324570116	0.009990214338404736
16.54959116039594	-0.11870587181445	-0.09368008605362831	-0.04769012507717192	2.164363969351394	1.062636182839249	0.9843275219235612	0.4554050037994787	0.02639128404331377	-0.1503502426463643	-0.06487222392851981	-0.02428468582140319	0.07537473457864474	0.8666379777445988	0.8666379777445988	0.3576901615264823	0.3576901615264823	0.01437421799869135	-0.09670551723664386	-0.2371365829929838	-0.5658847523704752	-0.852064295458451	0.5337424449123298	0.3085590152183474	0.151611606764378	0.6347657251917468	0.1188204898499302	0.3379298132998384	-1.315932800506453	-1.984306764159834	-4.215262689219347	-0.6373892065685747	-0.7700166463356266	-8.606201543209876	-8.606201543209876	-6.188006196901648	-6.188006196901648	0.8536003598713043	-7.412547533372315	3.238469789347545	-3.60799789758818	0.0903297737301082	0.139790193099305	0.01546035739697503	0.00899374052391076	0.04694227132315226	0.114212995413404	0.09429790236539255	0.1390480817405894	0.1945620965925555	0.06068694661631819	0.01078586797026288	0.01042860086194825	0.0105518126175457	0.01043330355936222	0.01009367014868726	0.009896761452926076	0.02545329395241952	-0.0002576590053074447	0.007556495202156724	0.01009532807671054	0.00334555889081996	0.004934611713333143	0.0106054804874014	0.1012844804709809	0.05681299944484789	0.07592100526817333	0.1068146659344316	0.07620663149892622	0.1954998056529091	0.01039910324205612	0.1175371531408064	0.1349220087520657	0.06499001124658557	0.01004552842098705	0.01239115911329942	0.2767872210175308	0.01021682200785603	0.01006099474985539	0.009790429963932526	0.009926551839715889
16.56639114359593	-0.1327941855766869	-0.0827206018695224	-0.04235799658674842	2.166893454110034	1.072372062339893	0.9864736661221265	0.4583409333510782	0.00615935620200551	-0.1814577600804987	-0.1287838221960959	-0.03229796215478716	0.06072503862221515	0.721695982603301	0.721695982603301	0.2651531172902407	0.2651531172902407	0.02612489423328569	-0.2191291371849234	-0.1738411065017257	-0.6072490724828112	-0.8110062398869518	0.7633280975664756	0.3085956000166216	0.147658291478884	0.5199475263815558	0.1368061591343557	0.0238137088434073	-1.088075601446029	-1.710654114868192	-3.382930740040914	-0.3079428174727641	-0.9679414605324157	-8.574842653937068	-8.574842653937068	-4.752237695114112	-4.752237695114112	0.5878336593565121	-6.928272215125677	4.326247731548621	-1.34507360657559	0.1120779175370792	0.151945078094557	0.02392227151774879	0.01075245292896553	0.07129779446029134	0.1475045265264099	0.1293364062869631	0.09761482090281091	0.1972024762994239	0.06398891357726733	0.01077447747627682	0.01026286378025766	0.01053049762914678	0.01012606513734313	0.01025032261839474	0.01037454567931593	0.05157503359798365	-0.00500312720430432	0.009240901506956537	0.01028806379101213	0.0006779039932719652	0.005747019130896514	0.01041125249009782	0.09348748287278742	0.01801633324039037	0.06859317826189573	0.0919724896517876	0.09694332157338581	0.1776256543802629	0.01030546141004362	0.08710273450634345	0.1368954484720236	0.06226868018037787	0.01000450556946375	0.007435494338052469	0.2856502553880539	0.009814848159374258	0.01010870343305165	0.009576308346175301	0.01005263413691053
16.58319112679592	-0.1455914155310769	-0.06820399980072696	-0.03828299529054845	2.169265766152233	1.0799913561779	0.9889596157230891	0.4568084228899484	-0.009978316855689529	-0.2071503317113143	-0.1780424588534374	-0.03434342170194027	0.04229833227038601	0.5810553804072898	0.5810553804072898	0.2005867864685872	0.2005867864685872	0.03468995296279014	-0.3298700676461213	-0.09229832386445644	-0.6163039163069902	-0.6995917821212109	0.956286881136388	0.1621938405056718	0.1333137553326589	0.3846941944065035	0.1593111604126254	-0.1908333925796028	-0.8334972669593439	-1.347713941906564	-2.48275946694653	0.06215503020978703	-1.227662829650737	-8.084275010997949	-8.084275010997949	-2.891500847581797	-2.891500847581797	0.4691773367127116	-6.067276161321482	5.319010094724312	0.3338319241906589	0.1233096338595589	0.1574315328729051	0.03135298596799799	0.01145393287744832	0.08699031069291775	0.1622347411608524	0.1530239141256292	0.06125327426506922	0.2028844945473859	0.07300617674069135	0.01056291165443586	0.009869777275246907	0.01025532664683879	0.01002972713608676	0.01081737517266717	0.01135886308617081	0.07327318167106263	0.007177347098249198	0.01124724365748294	0.01083466369525953	0.007623475753304521	0.009779143617037757	0.01054290936995294	0.08295908085752052	0.001699856085836501	0.055300172957272	0.07896178337186092	0.1052560865428499	0.1497990064755425	0.01024550055490089	0.05532142176266971	0.1543307309330316	0.06321698163421911	0.009942269826423756	0.008649458935319479	0.2961572376138965	0.009460379066207733	0.01029500919050629	0.009882863144150624	0.01045497374076285
16.59999110999591	-0.1556065813279088	-0.05102930753143247	-0.03738882827641293	2.171326691808194	1.085268513390213	0.9918295817814512	0.452143187306568	-0.02172625265524881	-0.2269230861528845	-0.2125236669505354	-0.03041514245328738	0.01979511327086938	0.4528767300027433	0.4528767300027433	0.1692822502173452	0.1692822502173452	0.04259498534129835	-0.422206940146132	0.001218837934393334	-0.6055176189789321	-0.4852899711592225	1.076850815891361	-0.05718721528801628	0.1109638164723119	0.2424010170530171	0.1817714479414872	-0.3419457213713188	-0.5727233764821978	-1.02674697674902	-1.628503875189974	0.3902921203818147	-1.437846579889666	-7.079256845298921	-7.079256845298921	-0.828450659429264	-0.828450659429264	0.4819681191644677	-4.817314028266515	5.685882966803837	1.052790130323583	0.1145773877168133	0.1435007365507309	0.03316479610498681	0.01139599954758884	0.08535291997535968	0.1550279408166796	0.1665532796604547	0.04386429005792122	0.2098832094544187	0.0825420635684161	0.01037155719905017	0.009638697345771023	0.009836685917137006	0.01007085484856449	0.01163097087904929	0.01207909301192512	0.07632486029517886	0.01577670738965939	0.01229679384143166	0.01138707378054779	0.01231236038445481	0.01192271220372212	0.01076766090114998	0.07479626329644087	0.001799032030569507	0.04008467322321067	0.06564327330303447	0.1036942350323015	0.1237073480152621	0.01020070592580169	0.03611647418163426	0.1894564253838628	0.06918515115490358	0.009940461978223052	0.01020853595422225	0.3028135842748251	0.009912146304236247	0.01055442151716098	0.01098390598059262	0.01087582324760078
16.61679109319591	-0.160934809807689	-0.03259277543934499	-0.03994989766945851	2.172957063118798	1.088173300879761	0.9950186798286639	0.4452610676604267	-0.02951388296728671	-0.2428276543586748	-0.2337769851884159	-0.02182231005912142	-0.00447923289221045	0.3464929851041259	0.3464929851041259	0.1727573776890352	0.1727573776890352	0.0516379186684162	-0.4902443026068667	0.09318214223734914	-0.5904836136330289	-0.1448515537575917	1.103488629357587	-0.2358840760957211	0.08245223375222374	0.1030000037619417	0.1963775209638981	-0.4528059987097688	-0.3684372766302073	-0.8990461561367797	-0.9153670429217889	0.6100320031706246	-1.407536321379556	-5.488404266104784	-5.488404266104784	1.213912204100803	1.213912204100803	0.5664973518022923	-3.258181117468606	5.120085613736939	0.8368839345098347	0.08961870088244621	0.1134715689816696	0.02834200739581994	0.01088438425821048	0.06716348526252386	0.1305181112455491	0.1725648990997153	0.05130298833922815	0.216368720890982	0.08815325677472642	0.01059590716366185	0.0102005107544502	0.009676744345010499	0.01010588991086379	0.01186401647316156	0.01109410867818104	0.05910395059533691	0.01456687478414828	0.01136144691557741	0.01108198126279052	0.01186333261345458	0.01126944084545205	0.01063566043221512	0.07198506807982374	0.01323393388800469	0.02856783164744485	0.05124616460043938	0.09806511311173151	0.1124228189942659	0.01016287506650675	0.0388358045670645	0.2392291551528896	0.08090595698789563	0.01009026407946047	0.01009500435684143	0.3004255533174123	0.0116154551822663	0.01058137633081895	0.01215695448923631	0.01062769319344238
16.6335910763959	-0.1596616608760313	-0.01445440378986914	-0.04463543160289758	2.17407049519902	1.088772784674448	0.9983504666956445	0.4370205079595454	-0.03481422900724485	-0.2583592229572999	-0.2445262261241941	-0.01055751045358393	-0.02517492198618001	0.2718712764765941	0.2718712764765941	0.2090204557234684	0.2090204557234684	0.0617469645676705	-0.5304566040154431	0.1677258103960438	-0.5834718005686189	0.301570846357862	1.041938785510038	-0.3043293561446918	0.04987632329961837	-0.0319032708970055	0.1983722111449092	-0.5114150594566242	-0.2788649252505001	-0.9669490548894797	-0.390065642495186	0.7115629505873817	-0.9922645925837226	-3.320122693750659	-3.320122693750659	3.048183717815	3.048183717815	0.5963807289487417	-1.566528491644393	3.637745713727442	0.08498912258180599	0.05935354927911066	0.07959678884133234	0.02018591547297286	0.009916574820441174	0.04205930877848496	0.09756655327788943	0.1711201038089347	0.07752384155380693	0.2213294460962063	0.08759600043871472	0.01134204869755958	0.01168709699753995	0.01037660083160884	0.01008596942223989	0.01043337700898021	0.007788164107634034	0.03369710356594074	0.007101704063148112	0.007913482633229055	0.009306297829347261	0.009520674094779517	0.009420742624288134	0.009921396851958995	0.07292851188840101	0.03389602208525373	0.02688029356092612	0.03996630296533298	0.09056261938156626	0.1203666538637118	0.01014224340229506	0.06214639464114818	0.2919359074810627	0.09536846405288574	0.01035138858121224	0.009771746141577361	0.2913365071001496	0.01343137925654815	0.009982214657060239	0.01146842100175377	0.009160694059652232
16.65039105959589	-0.1506558681369372	0.002209333885266175	-0.04951150145210511	2.174622969854337	1.087081680442827	1.001613111111421	0.4286558667374673	-0.03979072072492698	-0.2753216579646887	-0.2477103178885927	0.001830170789140849	-0.03568745692833855	0.2373369229871334	0.2373369229871334	0.2735536864785594	0.2735536864785594	0.07030281538311245	-0.5428112167063112	0.2115966614188014	-0.5889193118504075	0.7767152486835416	0.9340789279298736	-0.2608168792147635	0.01607527118626718	-0.1698805758120138	0.1885046594542785	-0.4804608837960613	-0.3264298912131457	-1.029438052519449	-0.02272393490034239	0.755652680325741	-0.2096489062735322	-0.7617481838610402	-0.7617481838610402	4.570383528475459	4.570383528475459	0.4296231840264615	0.02515018874501534	1.505038932385262	-0.6566637957428669	0.0339123195250718	0.05182680099965033	0.01318564950287599	0.008907069594815053	0.02117553925099627	0.06488079162139766	0.1603511806896912	0.1054648111506982	0.2239873242856262	0.08007416365342193	0.01195400730933041	0.01280451809807971	0.01212960574897408	0.01014749452308066	0.007510856602161929	0.004754287068058583	0.01411655077902884	0.002521985976148059	0.004131258855791459	0.00726183732541859	0.01030060397486055	0.008989387263899229	0.009342852454031826	0.07239275910658677	0.05993717710179836	0.03685854252815148	0.04052643143549463	0.07858036782998207	0.1364600274152725	0.01012415985879566	0.09114783625009999	0.3272643346966533	0.1061584943898503	0.01043713379206703	0.01204650624594369	0.2898377078599935	0.01235798021754602	0.008887462844934501	0.007514130935293102	0.007340320867501962
16.66719104279588	-0.1344869533907448	0.01724025040604002	-0.05298449542151698	2.174619565373603	1.082953053715623	1.004643729067149	0.4221102767641405	-0.04663163820230243	-0.2910250313182129	-0.2450347774507502	0.01526937954689377	-0.03131418536033068	0.2464997618365434	0.2464997618365434	0.3610253882694727	0.3610253882694727	0.07357915613083191	-0.5309803448512583	0.2170901590571789	-0.6033550360955714	1.14853220756497	0.8558742523132762	-0.1442140918016287	-0.01613317485566456	-0.3217154313876043	0.1715799958908902	-0.3028435116331755	-0.4896120866788553	-0.775151663787883	0.3148905550443056	0.8491885423759298	0.733274738862983	1.826395725891613	1.826395725891613	5.788149048764966	5.788149048764966	0.06586050775108779	1.301599428704187	-0.8928277088319578	-0.9984913940160601	0.0181475399154213	0.03301181060274954	0.009697150202381231	0.009375450492877444	0.01012278659608926	0.03843262763967427	0.1390536718844712	0.1161975881529824	0.2206714401912522	0.06940289657836292	0.01124385153719575	0.01104895956249887	0.01379487916074693	0.01058790836197986	0.006310997360142516	0.008445382995731365	0.005757293362962803	0.0132868276816885	0.006608770032196553	0.008857186417014804	0.01793220123552433	0.01280686905798967	0.01085531089944074	0.06550403813016681	0.08183701440448952	0.05213765607200884	0.05784534048295852	0.06018799603336853	0.140819557164178	0.01005296832418883	0.105574956811689	0.3247609676090187	0.1064815731232408	0.009980615256671052	0.01853966330948861	0.3149620463197367	0.006365800021658399	0.008742782635699987	0.003283771685647587	0.008415519973476315
16.68399102599588	-0.1140645177226516	0.03178085092410177	-0.05425221813790682	2.174099669672681	1.076127548894109	1.007375632434879	0.4202689582161915	-0.05668168669558689	-0.2979594111025776	-0.2355403603291452	0.03141902858276928	-0.01190462559179037	0.2964193130986981	0.2964193130986981	0.4669035141517903	0.4669035141517903	0.07108485403397732	-0.5014747290525632	0.1831821279596452	-0.6195346565674258	1.267519283277324	0.8802183089288916	-0.007763620014527554	-0.04555263214450406	-0.4890592137781722	0.1538533692705898	0.08190025626550934	-0.6890116079018256	0.03223276008183862	0.8141779287455155	1.083998878757106	1.526691140477864	4.040333657779309	4.040333657779309	6.776833151739831	6.776833151739831	-0.1787263220748277	2.13255211810472	-3.132093415855488	-0.8899280156816789	0.01141480886485845	0.02140094343786156	0.009322893367032336	0.01343967807397644	0.007675838797652018	0.02087307731477999	0.1086358585655655	0.1016597281986956	0.2038260090836206	0.0657786945309099	0.008921625214535829	0.005467109614086654	0.01293668458253416	0.01168034863175571	0.01289529609335254	0.02514212446718166	0.005722534293881752	0.04986989954716864	0.02360072406900966	0.01884701298619217	0.033006100788101	0.02272761864635238	0.01662753464690338	0.05157701485845588	0.08795908764627089	0.06110780969076451	0.0841131299137569	0.03909074901483905	0.1211564024196734	0.009906903500154333	0.09492051414500598	0.2776007522165973	0.09292117563454853	0.009177241257822337	0.02807184387581436	0.373042230965856	0.0005098508059503994	0.01247864037489159	0.009531353433942839	0.01709706428888623
16.70079100919587	-0.09436031566778094	0.0477011431163032	-0.05349782709245891	2.173100888485525	1.066484607878475	1.009844045915238	0.4266093989872496	-0.06934759086645934	-0.2865642867336698	-0.2153232659314892	0.052840210101115	0.0176422567263814	0.3782137257441709	0.3782137257441709	0.5877856013495344	0.5877856013495344	0.07050119221533158	-0.4620189121896496	0.1157758976509719	-0.6317214565879806	1.043654757546199	1.018909513990154	0.08594466986103165	-0.07339782254982674	-0.6536973362893334	0.1408668161447107	0.676455037594085	-0.7807190346190274	1.387996810273361	1.622752239813898	1.47648518665176	1.909013895784147	5.581684172997963	5.581684172997963	7.579838248967337	7.579838248967337	0.2715530154524941	2.500330477030904	-4.807158947597705	-0.5572450166843327	0.01007270909665021	0.01461446844957743	0.01046096060993553	0.02223531462694797	0.009261959639245322	0.01191630579976522	0.07419666860641451	0.06957072594112342	0.1683696200680493	0.07653911864310081	0.007781613094961025	0.001262488308556201	0.008219452198630394	0.01323098556402336	0.03235810538093904	0.0540621704195362	0.009693690523303808	0.1120221600853165	0.05787518237487245	0.03868501060557853	0.05229378013240907	0.03790583297358081	0.02694583852242897	0.0345744475786565	0.0736633029830982	0.05586980572776388	0.1016825300762593	0.02218549966464857	0.0826116492256293	0.009828416043805067	0.06565386667916781	0.2001588610946139	0.06828828735957504	0.009701869386694593	0.03699888946629008	0.4455338347762636	0.01188876386956373	0.02365530043930953	0.04341406483374904	0.0369773980654023
16.71759099239586	-0.08092987093985153	0.06632859321857627	-0.05195921661801253	2.171629926302154	1.054367365783635	1.012155122815856	0.4436754484575587	-0.08138854912141245	-0.2497313863641651	-0.1790567890574848	0.08158220082776604	0.04938183699943979	0.4793000269109924	0.4793000269109924	0.7202197532789221	0.7202197532789221	0.08738009309493031	-0.4197143998556396	0.02673323979134692	-0.63849135729665	0.5107598336014518	1.198866543306533	0.07925597771687884	-0.1017461020908879	-0.779650489291476	0.1351484220646005	1.351134940388618	-0.6081944276024207	3.010402438826817	2.742027814664124	1.954833716610935	1.794597976697142	6.307238695750676	6.307238695750676	8.14056750716011	8.14056750716011	1.764873154047563	2.493977724647102	-5.640984929149186	-0.2698793903327642	0.01047518070501466	0.01104656643898357	0.01198571581670977	0.03499301947019638	0.01103132397913235	0.009150510257509469	0.04368699239973296	0.03613668468971162	0.1198779073695619	0.0944160535635379	0.01488034482609241	0.01206011435526395	0.003275695654370686	0.01394704384905038	0.06339159369184248	0.08583372774593456	0.01646245181264472	0.1863581953861449	0.1025188835279909	0.06473977513331523	0.07024766218041405	0.0544908618625376	0.03922436989627671	0.02005647241809096	0.04670476913878004	0.03893427667423961	0.0971128755663862	0.01285757301655995	0.04212706874433982	0.01014924518799083	0.03403680408510328	0.1207847076386928	0.04115494752184298	0.01549705543265556	0.04133455460085229	0.4984577207404021	0.06595081524995677	0.04530211415549084	0.1204071284101419	0.06933257846399878
16.73439097559585	-0.07784768206088778	0.0873192582827659	-0.05145552520792197	2.169676536073591	1.04074923557136	1.014410933197907	0.4707156818732634	-0.08763412672794176	-0.1866122491047938	-0.122617747146188	0.1180334573663586	0.07578401567405661	0.5855464429450213	0.5855464429450213	0.8591225321647997	0.8591225321647997	0.1357673614315517	-0.3794428630649	-0.06939259009014515	-0.6416679227384486	-0.1771751986817176	1.297358478035214	-0.0305202023076549	-0.1302494685951734	-0.8291581975444596	0.1333343072059602	1.834664924580512	-0.1088370244245552	4.452999189059224	4.011156183043368	2.393155903142509	1.311483512143249	6.182629012701787	6.182629012701787	8.326854916836515	8.326854916836515	3.860180888576226	2.282472220159185	-5.631148012667166	-0.1279904864449012	0.01067166256609583	0.00952092778072873	0.01377767779861236	0.0499453489397457	0.01156553498175819	0.009391647900450485	0.02384466181200924	0.0140837887661214	0.07292241595420039	0.102165132257681	0.0393394436206678	0.05489993990525883	0.007876830924579588	0.01153286257609996	0.09668159742035852	0.1111099915637188	0.02680261512238971	0.2582021264111221	0.1468704495178297	0.09255316219229455	0.08317793967961407	0.06858243516193291	0.05022141946768996	0.01146962070023464	0.02188416852233091	0.02048221847314956	0.07190941148002303	0.009217726699263492	0.01473436337422528	0.0111025820920534	0.01319069955686072	0.06394205261766318	0.02082920993022106	0.03380340739362379	0.03945292737994793	0.5116478129040475	0.1818039232896116	0.07906061809263111	0.2427886705083984	0.1148067486453791
16.75119095879585	-0.08610857949587555	0.1083724346140415	-0.05299610733645065	2.167274651094199	1.027114599346552	1.016597296166522	0.5019182300983975	-0.08330534733510715	-0.1039340767324467	-0.04542105151252426	0.1604290390151408	0.09285760555139946	0.6827350484344331	0.6827350484344331	0.9971721199618084	0.9971721199618084	0.2158185119120293	-0.3430002520306057	-0.1606886803835724	-0.6429281151668992	-0.8084631238126283	1.203826604198309	-0.1417854511680049	-0.1541082692956539	-0.7801543534320711	0.1251552537242887	1.807249676936405	0.6139457791587293	5.282984147941454	5.171101949475238	2.653081550641312	0.7277925203679331	5.245316665729346	5.245316665729346	8.018422529010865	8.018422529010865	5.456809254480045	2.056625706033885	-5.109481406698773	-0.01354294149032209	0.01042520359199563	0.00921179754470125	0.01605466840296154	0.06546393220473587	0.01121729353983895	0.01021016449764542	0.01567937248120515	0.00612000152044154	0.03970278017062111	0.09124277438171678	0.08610434569814446	0.1381285144083952	0.03226813812667724	0.005134654428494782	0.1210058875591574	0.1300108967643166	0.03962181372252361	0.3278748929217568	0.1882645352226538	0.1230362482882065	0.09398018975170563	0.08089182132456671	0.06019093499448261	0.008666648832665344	0.009287134772591008	0.009177701028168572	0.03995564862360904	0.009071329593200573	0.004587343113455689	0.0122365250181575	0.006031738886107442	0.03622719439945989	0.01131360913947084	0.07686071923221978	0.03414583621852395	0.5020329356543687	0.3562638521717545	0.1237603503003219	0.3926314717835036	0.1737569345659671
16.76799094199584	-0.1032000860831012	0.1258820806205872	-0.05513023250693742	2.16456586219379	1.015128627592761	1.018498480035585	0.5267973860108585	-0.06659899371750459	-0.01443390487106551	0.04856402886952611	0.2048927379055092	0.1012160354006364	0.758032244451708	0.758032244451708	1.12563070613591	1.12563070613591	0.3107955397072762	-0.3094404647882478	-0.2426606469832503	-0.6410068985323631	-1.193412562765183	0.8719287806319003	-0.07675906349738726	-0.1658374721338949	-0.6338787898378989	0.09806355041278381	1.059891781639542	1.331334901054278	5.241806758551552	5.960327804526422	2.614763189195489	0.2941632015668642	3.625826886902306	3.625826886902306	7.180984958806758	7.180984958806758	5.671569942453621	1.948787127935074	-4.596224106801227	0.2859053970032195	0.01031653135051471	0.009912383390562699	0.01835694777965691	0.07927829136111922	0.01073426456343777	0.01066588484443452	0.01453542646189866	0.007072748148382773	0.02213583284774901	0.07115656444461771	0.1492395205119647	0.250127476816795	0.07741819939431477	2.893179257313673e-05	0.1330045852493728	0.1488919678371626	0.05012633755516221	0.4122830622606568	0.2364213117171137	0.1622688003739564	0.1130282877673754	0.09847151129597706	0.07456020280632507	0.009198599041469295	0.007740981101852261	0.006366021583532323	0.01591226932316353	0.01386707377436757	0.006126619960974182	0.01211427101716011	0.007390333816909024	0.02769517523214591	0.009953304666795068	0.1608056027955862	0.03292045670838047	0.5133604164339006	0.5606091170183009	0.1730389195314619	0.536149613480045	0.2412480975023997
16.78479092519583	-0.1240296975122017	0.1362599379857731	-0.05364871590966648	2.16180633381297	1.006261263527342	1.019738047341191	0.5332661688072619	-0.03972937555818581	0.06703756366108554	0.1515457699954634	0.2459046496835164	0.1042936701077983	0.8019249253950955	0.8019249253950955	1.23596705891942	1.23596705891942	0.3971434166672712	-0.2765345880397486	-0.3188853674739469	-0.6316383324789127	-1.235387316097873	0.3506533136726355	0.2921546617212585	-0.1598454011369033	-0.4126218213509598	0.04697001271838544	-0.3663556297945172	1.816143394824425	4.351964172805276	6.213402361087495	2.205914191249736	0.08141724800977612	1.573723105506635	1.573723105506635	5.879468633519053	5.879468633519053	4.507652143394403	1.981365405141614	-4.481638429456518	0.887453155287879	0.01075841504542941	0.01161049152624429	0.01938620492458397	0.08714605914127045	0.01047110036706761	0.01085563142168658	0.01476729902783112	0.01031107631341327	0.01476257599336582	0.05877893619806869	0.2116860066851453	0.3600243213489227	0.1321076999159518	0.01023460784594362	0.1391748563676671	0.167582938317904	0.05232895768488267	0.5284365359228842	0.3036702698557239	0.2133263858882848	0.1522229320347064	0.1302016807465576	0.09993383742831616	0.0105995965070233	0.008843231619407747	0.008049130236866653	0.005717779818948217	0.02582237037993454	0.01096339974770481	0.009337104904386316	0.0104867014288316	0.02475400975570644	0.01144942258216416	0.2947886547344438	0.04532696385827685	0.5769087959661983	0.7526011190791896	0.2147929881341113	0.6378476338603685	0.3021260923823617
16.80159090839582	-0.1428967471654508	0.1374882994497541	-0.04366586610602431	2.159302093673469	1.001486854331899	1.019978192712235	0.5122197438556879	-0.007804534047675032	0.1285603234761613	0.2541906933650117	0.2771924391161207	0.1046129678857807	0.8100415278061489	0.8100415278061489	1.321279772015983	1.321279772015983	0.4576860551318852	-0.2424919468717847	-0.3963437317903582	-0.6101976070436871	-0.9677320204274886	-0.2196929091074182	0.9062276425332181	-0.1359069382061154	-0.1525383637288876	-0.0180776920176241	-2.161114367279623	1.954447748146886	2.932633597367308	5.925497929499248	1.424393118428039	-0.07589680279155958	-0.5719649926048695	-0.5719649926048695	4.237797080025034	4.237797080025034	2.648024287589025	2.082657914673635	-4.758019799393611	1.700718067465892	0.01133068046842014	0.01322799089733053	0.01812260192208212	0.08433897450993133	0.01037427297151264	0.01091517311733937	0.01374685305769144	0.01215004778223052	0.01197580728491459	0.06188933257194482	0.254536106011755	0.4339125706989543	0.1826028751782948	0.05292341250335787	0.1447819751902841	0.1744501824552017	0.04401685907039442	0.6746200988098411	0.3885126700707571	0.2677841612637402	0.2145923536504669	0.1780352439185433	0.1363842312098294	0.01153696890595144	0.006473862315660074	0.01009475340998225	0.005919034891060845	0.04178900371654187	0.01319727442270218	0.005234411572953073	0.01153650054915894	0.02058761099769	0.01231306487388988	0.4624183955069809	0.07734386696808748	0.6797330243113426	0.8935570267699252	0.2355856217902569	0.6749032370221041	0.3355860396492
16.81839089159581	-0.1556393563342205	0.1301386352824445	-0.02311443348671748	2.157319888486679	1.001123023508072	1.019169594426107	0.4611261917382745	0.02346563057693026	0.16532709465895	0.3483859280101111	0.2928408060222259	0.1006066435514536	0.7838339317122162	0.7838339317122162	1.376960474349725	1.376960474349725	0.4869109682788102	-0.2069676128414941	-0.4784179999950376	-0.5750101326327107	-0.5311942660085953	-0.6696817489642654	1.502844537405397	-0.09855107910574964	0.1059426711112777	-0.07430670943978995	-3.881316071673425	1.770249235615513	1.478071605285047	5.23607470278211	0.334869746809552	-0.4638737913011537	-2.474259292295952	-2.474259292295952	2.391546120506157	2.391546120506157	0.7864333692985559	2.152989148772545	-5.021474402517761	2.47360409605015	0.01079547472146752	0.01203374494893571	0.01503325127138102	0.06968204017526519	0.01028415995874612	0.01045721452335733	0.01188385530739764	0.01198069661990622	0.01122107520000552	0.07412938771821244	0.2683271673492737	0.4544756005523752	0.2228150080766878	0.1340329210825284	0.1430297009854182	0.1567352480455089	0.0293404652636053	0.8235105372925881	0.4677821801042508	0.3055292287503082	0.2874836854827839	0.2311238978034786	0.1729281083724718	0.01142400120696727	0.003997308889792352	0.01099778233784249	0.009548551375834826	0.05220519362649926	0.01078483636519257	0.00630301615231168	0.01042667742357508	0.01547696100629651	0.01192778119065107	0.6158332815342337	0.1258306937547656	0.7694652113344058	0.9595222332736912	0.2277832567896014	0.642925925241688	0.3276423742359977
16.83519087479581	-0.1609013601566755	0.1170189873570653	0.00488581123752191	2.15603648042405	1.004839179091961	1.017663830639364	0.3845371135073275	0.04970495848967187	0.1806836619983515	0.4290152895920167	0.2882485017592521	0.08650501067631497	0.7295378502817879	0.7295378502817879	1.400815760028121	1.400815760028121	0.4872568242361516	-0.1709735093316541	-0.5604222984372008	-0.5288617466499953	-0.1009578498557477	-0.9034695592555158	1.759942666298757	-0.05349526932416385	0.3282418058137433	-0.09927999958106254	-5.158054045266654	1.375482464315497	0.4232644372932929	4.338870475560514	-0.9568693895971653	-1.266137560776762	-3.905555928678208	-3.905555928678208	0.4768129107985343	0.4768129107985343	-0.7943244684457493	2.131553631787546	-4.741031404620914	2.959092559981631	0.008263467217638345	0.005883849411645948	0.01181506882121304	0.04780670800429924	0.01014445974563939	0.009036130690864761	0.01040392308356162	0.01044858029272401	0.0116175678336443	0.08291471847702861	0.2552537769777335	0.4263471484161458	0.2502904084311334	0.2350524286932623	0.1218145127880499	0.1145993554262853	0.01583595009748143	0.9294935159014905	0.5069062008196048	0.3051570036093338	0.346531365619993	0.2694057386176686	0.1923184831119256	0.009882442231307997	0.01422746992846489	0.01117613951731166	0.01167488094094527	0.04855793116646172	0.005727831345172321	0.02238802879209808	0.009320463977149113	0.01155631155292462	0.01099167205369537	0.6998714183171046	0.1776702304747668	0.7894894640245591	0.9429087275106502	0.1933714613642559	0.5522167684095198	0.2794931045742124
16.8519908579958	-0.1600064999115908	0.101413071540711	0.03287380907415971	2.155542775612949	1.011816323319285	1.016074337734011	0.2915610780928599	0.06865263513180844	0.1831536447989377	0.4940545198650186	0.2608506785141025	0.05565727259331843	0.6558324019616828	0.6558324019616828	1.393198584405464	1.393198584405464	0.4624920765084862	-0.1360358935960668	-0.6304710997608267	-0.477579299686189	0.1907973981157557	-0.9624663962714881	1.509381827069388	-0.005049826039325517	0.4924957397705159	-0.08582830838633512	-5.828630888969898	0.9025689949629937	-0.0693164886508827	3.392530178669167	-2.316706180185338	-2.403919555279498	-4.797183867334285	-4.797183867334285	-1.351556180563539	-1.351556180563539	-2.195138478270733	2.022937777313012	-3.596685766695571	3.08019689336578	0.005315503039051543	-0.001632724970223908	0.009908749030824095	0.0267719043071916	0.01002784648598676	0.007421311672087663	0.009816533638831393	0.008677884647805034	0.01186551291177202	0.07993329908354527	0.2223211926070057	0.3652713602220226	0.256758204890231	0.3166110163036228	0.08134528682102123	0.06371882312717407	0.008588389637825562	0.9470571476438412	0.4818978274142067	0.2592013741548398	0.3685481496834845	0.2755436435293316	0.1832552668933018	0.007398734517973835	0.05058198845881957	0.01104496654976318	0.01093916200744572	0.03272329277064691	0.00511489019715641	0.05831487992032801	0.0112011292309003	0.009355288344740545	0.01000001479186436	0.6887957698923813	0.2156076939856711	0.7144631683295284	0.8486851859721339	0.1422346125330506	0.4215103128272278	0.2055849830743876
16.86879084119579	-0.1558136301751812	0.08506144586479931	0.0528943493095428	2.155865935066764	1.020979495041061	1.014954525938327	0.1923241567977748	0.0800531449599767	0.1811928866379396	0.5436336440985723	0.2108297969004238	0.004968236565130429	0.5714763347160774	0.5714763347160774	1.357192714934575	1.357192714934575	0.4137078609176331	-0.1032542847654876	-0.6747764782952133	-0.4265593762072576	0.2918398806964542	-0.989284563800893	0.8584607115570542	0.04339685653139375	0.5902007076033718	-0.04747477186955945	-5.922560265491756	0.4688129365073865	-0.150447384741042	2.49903726297437	-3.574519633543613	-3.56681908445614	-5.197063400687705	-5.197063400687705	-2.922214026994421	-2.922214026994421	-3.63215583195512	1.879951463194347	-1.672500561230938	2.980376060658107	0.007146656189843927	0.002155770406111163	0.009506431434969898	0.01298731801666689	0.01006759373272739	0.008395703619757736	0.009859270807677121	0.009082189371531654	0.01009011953898962	0.06516300802133185	0.1759403321068487	0.2862148862522881	0.2336326206799733	0.3434606546315276	0.03826255155489379	0.02390590830207547	0.00742288931148539	0.8546525093528153	0.3956068785422405	0.1829618363524584	0.3439485270158542	0.2464300251030438	0.1501056334625565	0.006727708042501462	0.114058372833087	0.01012597671292189	0.008572470968645291	0.01778178114256	0.02068271108337835	0.1040844289042902	0.01870655822559293	0.008228913187363181	0.00911199400935301	0.597369030516494	0.2276415844641797	0.5611940535125962	0.6920923246291769	0.08792452932695524	0.2756850416572755	0.1263069627493768
16.88559082439578	-0.15141147814579	0.06727199755975251	0.06081863959622455	2.156971232837407	1.031208271705541	1.014504365101942	0.09553925280254762	0.08544115283312882	0.1790394142027621	0.5792467892269221	0.1416714178469934	-0.06269649233418857	0.4840478619011309	0.4840478619011309	1.298197685509385	1.298197685509385	0.3395862325166599	-0.07268253679719634	-0.6838375783178606	-0.377380453276519	0.2206119886950163	-1.127760575220185	0.1249957366096617	0.08764042156810523	0.6222996882533616	-0.01008447645164798	-5.561105400366299	0.1815605269430089	-0.1321709357478977	1.734661299488089	-4.541413914222589	-4.398223531692165	-5.183803606407949	-5.183803606407949	-4.103395754611696	-4.103395754611696	-5.178904942177212	1.772588446001346	0.6067466984701498	2.936124997203815	0.01988887827240998	0.0332237247051809	0.009888871544004113	0.007781258404916596	0.01035369280095886	0.01537177397095738	0.01007839995458729	0.01581095061264493	0.006029063080230498	0.04426628320455488	0.1231160621746769	0.2012488236169962	0.1877261783531441	0.3110684831494999	0.01039892527972882	0.005035056325220589	0.009008263162378505	0.6712475819959957	0.2763675187895024	0.1074303452784468	0.281414565491532	0.1955096072368736	0.1108955362066354	0.01281089629719749	0.1882329466324059	0.008027554687619402	0.007355909802819249	0.01815772550744027	0.06303397155829149	0.1357632611978886	0.03299217353379484	0.008317643386826945	0.008889071472625455	0.4597204535623606	0.2132834800703511	0.3737614432436498	0.499598491973989	0.04330141008792301	0.1441527771050408	0.06075764326699861
16.90239080759577	-0.1492173225827204	0.04555667914310255	0.05827658069158979	2.158747067469359	1.041477973236636	1.014493477370048	0.007731634902015568	0.08815114723282064	0.1758736932049391	0.6034818794436774	0.05989403539755905	-0.1394762534300938	0.3998641312328158	0.3998641312328158	1.222374523450053	1.222374523450053	0.2395040441791593	-0.04312971890678498	-0.655760926465848	-0.3265732428274395	0.04121259280136089	-1.44367993199428	-0.3604314171319886	0.1225508041393194	0.5954395255923719	0.003614632661060898	-4.879071874719458	0.1414899205696208	-0.2835291616305369	1.160625506906622	-5.072132333804396	-4.674738283251989	-4.813836099856911	-4.813836099856911	-4.887122917572032	-4.887122917572032	-6.6702251663759	1.762281321095334	2.740013092517533	3.190610353014796	0.04432402829320244	0.09575133737994904	0.01030902283037591	0.008097809869142887	0.01082322960795479	0.02887984539388696	0.01022055828881028	0.0326341096588567	0.003989018286920335	0.02470923772089768	0.0734741719960188	0.1225331120415612	0.1411025194454522	0.246451138977733	0.002105066453813577	0.00314394467343026	0.01042712724877665	0.4509705028445348	0.1617803821766012	0.05863341298437837	0.2036876110004887	0.1441050645407431	0.08397945508574729	0.02953008076386217	0.2503703099214693	0.006482375668066493	0.01050963241324054	0.03772379283389542	0.1316862986621244	0.1326393138456164	0.05270980247349127	0.01106994442047983	0.01052419432622058	0.3078621877630497	0.18191351449287	0.2003231100045428	0.3072246393258681	0.01608411759489179	0.05205996595960916	0.02031483568696632
16.91919079079577	-0.1504273247722341	0.01712133363978439	0.05116190301362493	2.161004245569803	1.050934244984987	1.01442725521596	-0.0667783953899368	0.09293221218163972	0.1677152422578675	0.6196289050409252	-0.02644022875681569	-0.2155775229084727	0.3243458914596916	0.3243458914596916	1.134555250611876	1.134555250611876	0.1166988460924006	-0.01251891404662307	-0.5953476646130581	-0.2676149795192669	-0.1548693562951136	-1.909190672058078	-0.4399084092194037	0.1439608355254004	0.5205440903640887	-0.01432451147899082	-4.010076118369567	0.4022455443352089	-0.7232066510703952	0.7866886645823106	-5.129735684446235	-4.360856310824385	-4.126442671736352	-4.126442671736352	-5.41989272292375	-5.41989272292375	-7.806022098835962	1.87362471435381	4.405846982293438	3.798332134493013	0.07188369218017356	0.1713664047089077	0.01046046685563527	0.00989581098600714	0.01124961357664121	0.04419106999683343	0.01024882222397547	0.05861093945593891	0.01300322525125036	0.01341216299363609	0.03643982391784751	0.0616140003164119	0.1108289651488143	0.1833597482346501	0.00534685951824656	0.00784447259121193	0.01074283082605825	0.2560568920989919	0.07950990100035597	0.04047064078481012	0.1366007927498336	0.108170083172627	0.07472995853016343	0.05498340445501126	0.2883643110786505	0.01022262191503549	0.01920410908845803	0.06617848220704095	0.2097382568534202	0.09618160331855924	0.07347336811457933	0.01725957225865696	0.01468777090988089	0.169136206976197	0.1456316790301751	0.07688432181678674	0.1507568921863661	0.005962136269479081	0.007555897044643822	0.00474354520561867
16.93599077399576	-0.1545813670376041	-0.0197091096603684	0.04592864146118569	2.163506046633726	1.058905301719964	1.013833183581929	-0.1260750637176854	0.1044073743219302	0.149974263052556	0.6306881973850851	-0.110027575100571	-0.2823046557875235	0.2622061288641606	0.2622061288641606	1.037452904223878	1.037452904223878	-0.02074743092692867	0.02099422454802261	-0.5108122068894229	-0.1956364920963091	-0.2672087715778299	-2.43364899992871	-0.1895146760589669	0.150656307141265	0.4116010960092177	-0.05519580046624361	-3.099571164514264	0.9090111331745155	-1.425934646866034	0.5450443437859703	-4.808626872328589	-3.568814375961119	-3.176305120396913	-3.176305120396913	-5.899118185755378	-5.899118185755378	-8.354739513518682	2.064304986832828	5.53009240004732	4.562560340628992	0.08899029978725073	0.2274763296169398	0.01040256117928282	0.01086848679570913	0.0114091917019431	0.05357136942561042	0.01020292467120655	0.08540516673813864	0.04119599438693075	0.0145288271025626	0.01602475850223055	0.02453320435773177	0.09470819577628255	0.1397289289778896	0.01024066322054855	0.01142021673057687	0.0103928435394905	0.1267170131607325	0.0367008199649733	0.03759787685001981	0.09603073144185199	0.09031389143611884	0.07439808859387143	0.07989476244681314	0.3046911627321358	0.02446354101419801	0.02994496751389429	0.08653102216647693	0.271046488785024	0.04923339799295493	0.08858467884967493	0.02463394537899145	0.01996423522004514	0.06728550509824495	0.1134608259109532	0.02007433035070581	0.0513327967142936	0.006271515494606546	-0.001194542007286205	0.004615438773161225
16.95279075719575	-0.1593439927724523	-0.06468568895232439	0.04604506456967618	2.166016498274205	1.064855572881793	1.012501139614202	-0.1710742597618962	0.1247439731285075	0.1192565390845721	0.6383286624108837	-0.1865089008073103	-0.3340231629179859	0.2173262223013943	0.2173262223013943	0.9336099731049121	0.9336099731049121	-0.161386626377461	0.05745377859957557	-0.4110821825329035	-0.112479267846176	-0.2156973219334538	-2.904048398028285	0.1612249017749921	0.144891198007416	0.2824386021577211	-0.1004363549749221	-2.30498432433354	1.481705097662225	-2.272458057991416	0.335677789797447	-4.308723123045746	-2.516447154045335	-2.058521720699715	-2.058521720699715	-6.356818004736341	-6.356818004736341	-8.267475588330255	2.221361630575692	6.176215063784495	5.101272386660593	0.08714612684222851	0.2397871819911441	0.01030579393384465	0.01078339274844839	0.01128241861837497	0.0519996200200382	0.01013959487724636	0.1008540498327097	0.08642826314681726	0.02660539612387369	0.009203443891842968	0.008940072948116946	0.07956467431197575	0.1152914664695379	0.01212844964491395	0.01189603443109625	0.01002865427058219	0.06744267894509148	0.02275732074926502	0.03369849189158657	0.08093954218525981	0.0821352140124708	0.07077478897311822	0.09241897857489455	0.305304479974572	0.04929462507499049	0.03632980564394893	0.0873297698921527	0.2953034489937013	0.015680410425822	0.09195545432426896	0.02933386927410678	0.0234196380223196	0.01351331359391476	0.08970889113443796	0.02430355913066571	0.007431531584162527	0.009411332427781626	0.005279691309546163	0.008970319208388748
16.96959074039574	-0.1609693765966831	-0.1156675326033726	0.05068964606305375	2.168346510247504	1.068345859684718	1.010554576463543	-0.2054819506053458	0.1521837931704268	0.07423777086046225	0.6427592160435014	-0.2554980759960342	-0.3690525092470986	0.1922984745337383	0.1922984745337383	0.8286697294928541	0.8286697294928541	-0.2931606312860007	0.09425497789477982	-0.3047776298284933	-0.02844194889354833	0.02803199698689721	-3.21685480624957	0.3847246735973857	0.1313279837794808	0.1425787540614136	-0.132084889378063	-1.769677673655975	1.877993185830349	-3.101893368227064	0.1194732507728112	-3.870357513980292	-1.501061330631557	-0.9076596766324682	-0.9076596766324682	-6.504319968444999	-6.504319968444999	-7.619205093880393	2.206610672888984	6.410001238928405	5.012775913212623	0.06918561905498725	0.2078351765104688	0.01028672263860462	0.01034496852693685	0.01105427103726638	0.04107060268973481	0.01018664552256685	0.09816651966800237	0.1310476708321425	0.04156954789462484	0.009576077520962642	0.007068650404088703	0.05832163427238682	0.1006409635974904	0.01142043162429594	0.01075077449305623	0.009919231390292705	0.05456262548664188	0.02110172224470442	0.02446373181019995	0.07833685893437577	0.07319998413083639	0.0587397086190018	0.08686018943100805	0.2896591780393095	0.0752801005092464	0.03633566672581012	0.06986027309706314	0.2776182513622833	0.003191775514150087	0.08233851477375058	0.03163705595187132	0.02401043057774103	-0.000793295710574923	0.07401271159000529	0.06271486139146491	0.0007332842191292892	0.01120261641496633	0.01182494341513547	0.01160568245890062
16.98639072359574	-0.1558357307823457	-0.1695343138420236	0.05633167473864235	2.17038966113478	1.069130916829403	1.008322978913177	-0.2345430716163477	0.1820500474532103	0.01589147268804507	0.6436753787769609	-0.3197169591791042	-0.3894876753220841	0.1875007831995905	0.1875007831995905	0.7316006784006741	0.7316006784006741	-0.4067661282812403	0.12729058854614	-0.1994530822244986	0.04222592707781711	0.4300507945846003	-3.304892938173003	0.375293643908527	0.1150758721505646	-0.004452622774429274	-0.1408416329705233	-1.575907834370762	1.90631842179369	-3.771635081823866	-0.0397964635216216	-3.684932823647782	-0.8284487297277923	0.1393000107549718	0.1393000107549718	-5.850177864873285	-5.850177864873285	-6.495475244002185	1.929693222193007	6.2703042318947	4.06415454184125	0.04604608959048311	0.1506492146040244	0.01037358374347255	0.01014378290147101	0.01092291724922252	0.02744351319097872	0.01055766308840539	0.08203269196541853	0.1487174270058259	0.0482889774427013	0.01231422312661105	0.01155740847355046	0.035614391590834	0.08477106083597276	0.01020634864985134	0.00976495123499465	0.009988474459351851	0.05604422486152849	0.02010675412691384	0.01500969804762999	0.07530763724047698	0.05842576967397194	0.04161808931964531	0.06823460388700101	0.2527480323707815	0.08635172246088268	0.03712140373748625	0.04526914732409276	0.2262518057749907	0.004171723373244972	0.06491186317494901	0.03908429251619883	0.0249669222420041	0.003515509593948518	0.06203526182653273	0.09747626017355253	0.0105546538651793	0.01123194294444798	0.01364259908412586	0.01172965991256914
17.00319070679573	-0.1426660226552128	-0.2236795009530318	0.0599134543198221	2.172146085844061	1.067439856305789	1.00610437041098	-0.2627011949772781	0.2100604193431118	-0.05270521339731905	0.6413838783987886	-0.3825349424701611	-0.3998778794198332	0.1998629954596068	0.1998629954596068	0.6491167275178538	0.6491167275178538	-0.4995851098550275	0.1539324791685731	-0.09959469360203685	0.09097794446659765	0.9208905914729136	-3.166012960467669	0.1614254375143818	0.09962584350077269	-0.1583694759074395	-0.1280455184866573	-1.702636386968643	1.525441583667185	-4.223330272530564	-0.05191287094180744	-3.812727846190652	-0.660572977528735	1.008771147117602	1.008771147117602	-4.103701248443611	-4.103701248443611	-4.978197759223277	1.39712824621589	5.827475183679931	2.307980827952354	0.02753471964844557	0.08925223406616616	0.010540021515653	0.01032870579950064	0.01095151278788571	0.01724747041351471	0.01140380620210269	0.06341259038813037	0.1229146222553473	0.0398811689655373	0.01577141171652995	0.01849789746764155	0.019394311738889	0.06026792942237978	0.009780257304954163	0.009624996782576681	0.01008088541610877	0.05023307785594099	0.01617429202974333	0.01035155875950959	0.06668160470289927	0.03870549795047019	0.0250653707170065	0.04681097639338009	0.1935917618706225	0.07136946072626171	0.04863413572498738	0.02462066057517492	0.1542262504389111	0.007975157686505805	0.04708099126018982	0.06013746482597564	0.03089158776837558	0.008907743876477563	0.04863747261507578	0.1011498986953721	0.02422585421146801	0.01062607817696644	0.01228806990693449	0.01087172813052711
17.01999068999572	-0.1239897309142059	-0.2771958898004101	0.06119485775786131	2.173723766912694	1.064222203623022	1.003987923324423	-0.2916528344334638	0.2354308893624962	-0.1268668305978827	0.6371803892607879	-0.4456259454265931	-0.4054110738799796	0.222251515324956	0.222251515324956	0.5785674271070554	0.5785674271070554	-0.5783722166053977	0.1755946506350826	-0.004586414156097656	0.1228902845920181	1.441848986496547	-2.881870890296401	-0.1602091653364265	0.08567158174177711	-0.3173230978923633	-0.1027249160904759	-2.022091256005395	0.8772142605939892	-4.52031145992931	0.07211098608336021	-4.152775184155552	-0.8708590706072048	1.742036695727551	1.742036695727551	-1.550989910635839	-1.550989910635839	-3.219092242744039	0.7097558420135568	5.21497781597614	0.06983699273382249	0.01515366043970101	0.03211578379883381	0.01074492649573367	0.01075426671204287	0.01108197064410436	0.01129806050195564	0.01261608233498617	0.047976869013634	0.06356662508045892	0.0195679380067512	0.01970990042762385	0.02639924988616705	0.01055294977481689	0.02773751156034872	0.01012630030670394	0.01009108882660502	0.01013532657124654	0.03398119907266867	0.01030688636626973	0.01018059994066506	0.05399969996978873	0.01689765577277798	0.01099042649208815	0.02789690397438586	0.1200264548830396	0.03568680712515006	0.07141619439802056	0.0102524114101738	0.07310394580790602	0.01008586979921079	0.03190758947568511	0.09357170990079938	0.04205016774940573	0.01005740097363073	0.03232491344905494	0.07591412752341073	0.03771542388496781	0.01009817812177184	0.01003146854575046	0.0100680990076204
