Inverse Dynamics Generalized Forces
inDegrees=no
nColumns=21
nRows=51
DataType=double
version=3
OpenSimVersion=4.5.2-2025-05-03-6a4c6ec41
endheader
time	pelvis_tilt_moment	pelvis_list_moment	pelvis_rotation_moment	pelvis_tx_force	pelvis_ty_force	pelvis_tz_force	hip_flexion_r_moment	hip_adduction_r_moment	hip_rotation_r_moment	hip_flexion_l_moment	hip_adduction_l_moment	hip_rotation_l_moment	knee_angle_r_moment	knee_angle_r_beta_force	knee_angle_l_moment	knee_angle_l_beta_force	ankle_angle_r_moment	ankle_angle_l_moment	subtalar_angle_r_moment	subtalar_angle_l_moment
14.82012794	23.15994303755874	-24.97349908921506	7.039978955548746	4.402994491264635	-58.00046580373655	71.89156417279746	5.814253734985368	-76.26004587310335	6.621717822497351	22.2886514185684	-12.85984774795378	20.14576005229397	4.413482711425718	-0.09381059655601345	-4.130755969023753	0.03686794020552922	-82.97646950262067	4.558756182349271	12.16642678887371	-3.023476570846021
14.83359459	6.062716967493178	-3.995670414660101	5.148072819325863	11.90243684934682	14.05051029431199	17.47741641749698	20.49974592776174	-32.46890348760924	2.993689546474438	-11.21836849046549	-10.90051410336783	24.51861151131152	13.97933703199472	-0.08329659264188932	2.650917686455744	0.06267983443556294	-49.17999401550695	4.070392052649442	4.306451688117704	-2.822960116949417
14.84706124	-3.047107495935773	10.40114803082497	-0.3608604915467006	9.755451973807931	42.13403709313751	-18.32946851234383	41.97507148377169	5.840717918274824	-0.2408557268358043	-45.69873820046318	-2.900955111897801	24.72686030210611	14.91181892032463	-0.07129582724892992	16.8468410852707	0.0754402293382128	-21.80293103514698	3.085462187050014	-0.6435923621290238	-2.21052769520088
14.86052789	-5.763203308148373	15.31986242014757	-6.91829159207789	0.7455501372071126	34.29230415775517	-30.83315779915065	66.47272200310647	33.51403012603148	-2.59134145995786	-78.12458799814902	10.31064852213831	20.54117377619522	9.029352000639483	-0.05958716908130487	37.15985647201998	0.07235815398352939	-3.36191513418228	1.470155205985586	-2.672701068386683	-1.174544535427968
14.87399454	-5.039922327027516	10.73280359608657	-10.52400441875701	-8.06268801540603	8.478091619415443	-22.75630198682578	88.92894276674559	46.77683513856761	-3.622073365323506	-104.8462239632857	25.0175840517863	13.4035969650288	-0.1326636142699522	-0.0506193019815675	59.38393016191914	0.05581317639575504	5.962457923224227	-0.6532849540599069	-2.770154361975943	0.06377187421718011
14.88746119	-2.855989649683652	0.710048959458037	-8.640140850104569	-9.918269056934861	-18.28437991395742	-4.001313775956033	106.1800076407714	46.17171883701192	-3.413375704493108	-123.1642739172382	36.3237966539533	5.734956689553542	-9.860425268551145	-0.04581944375033032	78.49157344158225	0.03266477765636991	8.483757315231589	-2.708185098437978	-2.214550056273974	1.040306551027788
14.90092784	-0.04009020168811617	-8.459990801719819	-2.102161218925509	-3.437001752396197	-33.93373023029793	13.43009464047449	117.194263929854	36.88999282413565	-2.77593051509445	-131.7799106021503	40.82512002020853	-0.3295499259954832	-18.87018030294576	-0.04460389992431019	90.47919863226616	0.01089569666271584	7.538919589698681	-3.62818808800327	-1.834157621682371	1.181001422028503
14.91439449	2.681758758857448	-12.14922545326437	5.396948770549269	6.196410646292077	-31.78916014588667	21.69701716002097	121.5980533966901	25.97468734485865	-2.880735472075925	-130.6512054808132	38.22609217943436	-3.816759593514647	-26.58443377392448	-0.04483507143375048	92.933998926652	-0.004120335100739564	5.803618503843829	-2.27254111812656	-1.789510360695471	0.113593330322416
14.92786114	4.325169179098451	-9.79812495793886	9.806442924049511	11.514998780506	-12.50326284544246	19.61181495732414	119.1005237261141	18.47415410752193	-4.492829670468565	-121.116325993969	30.29804762396022	-4.749509241804616	-32.53953756770895	-0.04444893634899054	84.58880458876571	-0.01134241337828743	4.580465227448614	1.58780027675643	-1.849973019382046	-1.893736687124109
14.94132779	4.263073763466884	-3.993130260412725	9.269370589835818	8.912380314153587	13.51413124728745	10.4105029206562	110.5106616274442	15.26615806127183	-7.37003246957166	-106.374648152859	18.16518831898875	-3.298559593845134	-36.47640506023413	-0.0430904166470381	65.04650661345443	-0.01306871681766768	4.071229519604022	6.063559370503011	-1.779321825001439	-3.545340260716253
14.95479444	2.696068862463695	2.163885240071719	4.889851335747036	1.042336518601134	29.90546715226306	-1.677864872712564	98.78124164326613	13.71410115153607	-10.28803101199055	-91.4030152690038	0.9244820036007848	0.74953021511097	-38.65771969953024	-0.042453165901555	35.41846832057681	-0.01238620800423598	4.011277157983056	6.669649137434176	-1.538793411929036	-2.516974346325546
14.96826109	0.4250461023337643	6.625702787521902	-0.5389049846373255	-6.197263131797201	25.98945752343039	-12.68464176548359	88.35387725373975	10.18346996246792	-11.68106557345995	-81.25495249909892	-22.73280908008465	7.617295894864322	-39.80476251914834	-0.04489609987014519	-0.9435983741465179	-0.01103824309606509	4.140303460769927	-2.325748675728615	-1.261344126750539	3.815620443702919
14.98172774	-1.563794920451475	8.208111775145401	-4.496409709210005	-8.474426358998278	6.022171932307989	-18.52448610711044	82.84581611090279	2.455360434033397	-10.42962503090925	-78.21077246700811	-51.72943019480972	16.70217468905448	-40.57014432083437	-0.0512355466831182	-39.13651783359303	-0.009107717640513834	4.348930209061113	-24.73293357532743	-1.114064726847194	17.01506921701562
14.99519439	-2.463184847263969	6.187363566546908	-5.877993420087011	-5.412565019526936	-14.65762684577602	-15.83162330923996	82.83944875757929	-9.292078358523082	-6.298478479967716	-80.14572680416507	-81.88179630216851	26.29566802087838	-40.9976952983012	-0.05932629712336271	-74.64260718593377	-0.006476246983181375	4.614373044364456	-59.43211843555375	-1.185869439821609	36.39380107592154
15.00866104	-2.126866996001424	0.8598055053198044	-4.943255797021571	0.1795821081002796	-22.9858275452911	-4.593958122272713	85.5322653234138	-22.92477287924322	0.07550068507968666	-81.87643977460201	-107.983537181143	34.24507645028116	-40.46265446737581	-0.06452554472830789	-104.5109661475373	-0.004686344492914431	4.902747187130671	-100.0593636889964	-1.460060999727438	58.92149832156254
15.02212769	-1.174312417403449	-5.770008163235129	-2.698695661417312	4.589535643318174	-17.46602696111237	10.26626105340692	86.4296504297332	-35.39845418515414	7.390104603281131	-78.29933216201701	-126.2939900664695	38.88593829848887	-38.14878357812273	-0.06178857309900609	-126.751906865758	-0.00749993831388379	5.135136867135172	-137.8143658754769	-1.84735887335818	80.33760970241779
15.03559434	-0.2601040852855294	-10.54559100280274	-0.3392743122664597	5.423790580924027	-6.241145855743468	20.94117719110721	81.71542509705377	-43.71670265719546	13.88379552365321	-66.75445563475635	-135.1595100807	39.44597097516667	-33.65091114949924	-0.04805982891713962	-139.1706582000833	-0.01937568659412375	5.214181921397858	-165.2801873164766	-2.228389065611637	96.70757066456856
15.04906099	0.6434370740632421	-10.83661453970253	1.161946734161415	2.789248448281115	1.506791862535982	21.36453519592856	69.74172776457078	-45.66168504122452	17.66363436650114	-47.60088241285512	-134.1068673474269	35.90713816086226	-27.22159681449863	-0.02357752004058573	-139.2508381937568	-0.04263305157752416	5.067845611290993	-178.8270609305334	-2.483549728795985	105.5550596026208
15.06252764	1.892588068052151	-5.991587463301028	1.410347857180268	-1.034291830147391	2.393550234655238	10.89318250475253	51.10111490098306	-40.44195337883185	17.36404226286613	-23.63674576696172	-123.2178020761772	28.82242839558722	-19.5251441659542	0.008400817975678519	-125.3705206867354	-0.07513464855520413	4.683837178335334	-178.7125392200544	-2.522937148689519	106.1806195824394
15.07599429	3.212675294631927	2.326034180110744	0.74084598810558	-3.158783169153298	-0.4468432256224986	-5.40178542800536	27.79466531346454	-29.19596800734784	12.98325358856753	1.080557013378353	-103.5631792784745	19.33005738382358	-11.1578042044163	0.04290361487894261	-98.52391219223767	-0.1101533345055408	4.129878116108251	-167.5055315027992	-2.326886207505409	99.29744971905144
15.08946094	3.55811553881941	10.72392223498604	-0.05539270326240114	-1.982591729662837	-1.451062624923975	-19.48903526186467	2.235736553121942	-14.951661873385	6.292539282627717	23.00265123178952	-77.81211396998253	9.151148761824384	-2.303090147687921	0.07463692576214154	-63.43107033424982	-0.1387761317684633	3.54868371109357	-148.1200939460518	-1.974945359180554	86.41017577697137
15.10292758999999	2.197111056931038	15.14723434916643	-0.295349690069608	1.684845420535638	2.518303033777129	-24.21214868983691	-23.54284732857251	-1.685181517098397	0.2532513152833483	40.97853393559176	-49.91590137730466	0.2822344727685551	7.288273673062607	0.0989157117339943	-28.05623278411199	-0.1536081933082453	3.101906918436728	-122.7064108110687	-1.623380539485654	69.37388661371136
15.11639423999999	-0.2246407816618695	12.43555913126325	0.1810038131270985	5.055385158883311	9.824723316471541	-16.49219022701212	-48.36455106867848	7.322257883383705	-2.443151063307799	56.86724646791047	-23.94235796294608	-5.603590777584089	18.04546807955892	0.1122393694963031	-1.115071221202451	-0.1517824499522287	2.856061388456587	-93.00694280536959	-1.421133561584121	50.30740110739701
15.12986088999999	-2.059395936083352	2.29086671677217	1.033116088633601	5.264313743343236	15.15718766475889	1.019387725159322	-71.8991577984126	10.98576387358506	-0.8239554842614583	73.77307990652147	-3.078515809656585	-7.742783143340946	30.23618692406106	0.1128697188295435	11.62281920291694	-0.1358068247389243	2.663985111824108	-61.60574819070455	-1.411414922203672	31.63288944756135
15.14332753999999	-2.240815209747079	-11.3997935878616	1.74052165827524	1.585259315404575	13.09893824826235	20.45899121464657	-94.06988301375799	10.81611737375283	3.924880196261632	92.86163809966254	10.52262169350839	-6.520869477567317	43.73251275554697	0.1014223464423901	10.07766581643126	-0.1120758146873807	2.153810956022557	-32.52568057006664	-1.495671800951855	15.80644771810692
15.15679418999999	-1.194561346405591	-21.53508605831876	1.853374055849913	-3.582607882857452	2.123485347732991	31.8341682218289	-114.2260335173691	9.881919724715543	9.302701359420457	111.6915360767074	15.43376835757957	-3.193729820120223	57.9954299538703	0.08097766294640449	-0.5408764241208406	-0.08804347511782583	0.9281706159129022	-10.05873858507931	-1.504051539926585	4.59532655668013
15.17026083999999	0.08795476790319534	-21.5341798555019	1.051594758385918	-5.988939394162713	-13.37273088913605	27.98773881697895	-130.8062520423396	10.91279140382052	12.97873348717211	126.0162846584075	11.11710144250236	0.7836817347726959	72.20219783011719	0.05625277737403873	-13.29154285347354	-0.06949405559975985	-1.040130637478528	3.430750994553571	-1.340210857801065	-1.634833517954824
15.18372748999999	1.347614957694611	-9.834338877089166	-0.706452710457509	-2.896301498324667	-24.53665807964783	9.086677771871104	-141.9351661788161	14.59666479350781	13.94918023407927	133.2859501047175	-1.084034961493167	4.3437946890212	85.22478865334899	0.0320334034723315	-23.46295376314742	-0.05900162829896249	-3.029457829076404	8.696915286997195	-1.100771202260707	-3.946721199157745
15.19719413999999	2.725116970149021	8.210310955752394	-2.871278978791784	3.799894855761764	-22.765458779995	-16.32130172262535	-146.5652031293183	18.87839708690025	12.82034768813558	134.2377343402038	-17.06986067105195	6.876590295215564	95.17294138266975	0.01169534386098364	-30.01581720277414	-0.05594718760687908	-3.594531888009867	8.74365154863275	-1.056439993846877	-4.072399082308591
15.21066078999999	3.549185734863709	22.85753567082998	-4.355418198172957	8.255693761893021	-5.798713201920576	-34.99501546838575	-145.2036502608581	19.5155429629004	11.31401284749307	131.5148177919897	-30.74341422958755	7.947349103651375	98.67321163694301	-0.003317924613930601	-34.28683126657492	-0.0577823586250571	-1.348325125191058	6.87123898841749	-1.439088001410824	-3.490976817028237
15.22412743999999	2.508692707226154	25.53748489532382	-4.252601519330871	5.720379602898088	18.43073737397343	-35.87873236226804	-139.5749601268441	11.80895784786356	11.40057694550848	127.3797479983133	-36.648100716105	7.20602337292018	90.7630586524925	-0.0128217628494254	-37.90160399145464	-0.06174997391478499	3.550180659420969	5.24261853240839	-2.095106563643728	-2.977588044246145
15.23759408999999	-0.6721174153644178	14.02104237849946	-2.558968949397869	-2.611742068957973	34.96323575517531	-16.67093608595581	-131.4638607926498	-6.84107055182649	14.39077563411999	122.5756580659303	-32.7867608375798	4.660371580165382	66.39080741623275	-0.01670902977705085	-41.50490946260427	-0.06608141409684642	8.006139897323568	4.598963089187009	-2.201337239216706	-2.701188996168409
15.25106073999999	-4.169325478619262	-5.790972326505884	-0.09465619752898002	-10.05126100461813	32.36539194302144	13.52003752132378	-121.6255240148594	-34.66132961959048	20.22121042662751	116.5351444430128	-21.5935657907475	0.9385855458547157	23.28951008857811	-0.0144496082519484	-44.56081032394271	-0.06999341443347497	6.12056033972382	4.738463561974745	-0.3063033961866326	-2.550313953898778
15.26452738999999	-5.13336062926165	-22.60151395884067	2.188831750567411	-10.08408502646399	12.10221867913978	37.69672297031324	-109.6398922762939	-65.46555600044923	27.29119495514358	108.1051560447794	-8.550798481680406	-2.841209032866946	-35.61112098496996	-0.005967776741723233	-45.78780462260722	-0.07267597191483842	-8.255881053510947	5.138537644495798	5.167287362983426	-2.389892990760111
15.27799403999999	-2.270981785394749	-26.01207107303592	3.68864240345937	-2.212080493865204	-12.79670020371291	40.24963112268362	-94.93440226593968	-91.94803659208625	33.20378071286459	96.2324985576973	0.4882316573237464	-5.558067004012637	-101.9900495615551	0.006643999982612782	-43.84247719878956	-0.07235852604419857	-37.63942158740758	5.365042551179622	15.13086036630799	-2.159267637589681
15.29146068999999	2.384865858282129	-13.23515662274229	4.125212868643067	7.179920374584741	-28.08652135606513	17.53126841515212	-78.02454723504651	-110.3851722704261	36.14347776063293	80.58800632771141	1.838573259700567	-6.597666287021317	-164.2189497426278	0.01812167243297276	-38.04574843144439	-0.06653269494517991	-78.46423657028713	5.219257510139357	29.1595441094303	-1.865962875335367
15.30492733999999	4.68777828042743	8.23412434045817	3.451701311278454	9.994466261797834	-27.30723826010999	-17.72419777393072	-60.49242665942806	-122.6579124914427	35.85009465412418	62.08770370201916	-4.613389926310782	-6.080846256192181	-210.6276627672562	0.02110495055147004	-28.93042878971561	-0.05331896045103321	-122.0208037554094	4.721861986303647	45.30826867964904	-1.552748917382058
15.31839398999999	2.077754499059604	24.80642492877496	1.982951081986863	3.516704618922246	-13.13544366650933	-43.2554532610672	-43.59164566663066	-133.4206509409251	33.33840347088878	42.93992791335134	-15.65957141427047	-4.671709471163069	-232.8229043112807	0.009262483884865967	-18.30211051961608	-0.03284637524950899	-158.114287395644	4.034398739641747	60.53423349551482	-1.276098611678691
15.33186063999999	-3.696958181010312	25.83946402490383	0.4189222330423661	-6.933399660276189	6.675526480403167	-42.2654964781671	-27.21040579240031	-144.7879210002121	29.70207512535947	25.90628043283114	-26.62571408957006	-3.007838428121482	-228.0222173897675	-0.01911740091075114	-8.629681639350284	-0.007498933956103028	-179.0173321559937	3.368471389720949	71.58632475373761	-1.097896040385166
15.34532728999999	-7.81747930554498	11.06777754698986	-0.5494053342863844	-12.54758146720515	23.61915317377107	-15.57566750374381	-10.62854000141242	-153.4023381362077	25.21929936592226	13.03720748050083	-33.90986716867953	-1.067762493540801	-199.5175654292578	-0.05918735881554363	-1.967158396056065	0.01911468798201781	-181.6513809033667	2.90160974177958	76.02574986003981	-1.07850454053501
15.35879393999999	-6.624875048699444	-9.560156019122829	-0.7212025935883966	-8.702110559906675	30.48031570284559	19.20386647814922	5.699010538732602	-152.6534836064182	19.57701215953386	4.64960016503221	-36.63266358010798	1.980534155241116	-155.1453997155635	-0.1006234723433075	1.024482554023376	0.04363047610566499	-167.4900627150861	2.716387623698468	72.96564070150518	-1.259586198164963
15.37226058999999	-0.7654839833525164	-23.59631366279059	-0.367820533300717	1.392932039227614	22.0480881446292	41.14594561545642	19.47548528958966	-138.1363913069936	12.82721368100728	-0.7798251813260242	-36.30294434020854	7.113972671159186	-104.6545426235108	-0.1315814695186048	1.37626337825227	0.06383746543409211	-141.0022559175868	2.781515402984764	63.24441878967204	-1.634793360096557
15.38572723999999	5.670263981981368	-24.85610299674349	0.2425650049668235	10.11549411923054	-3.166878092118267	40.78106523475977	28.07217307064366	-111.524084637201	5.969783091757472	-5.714854157811983	-34.93354952413259	14.34708221814751	-57.21173871343892	-0.143741714082988	1.240318009532034	0.07862944049562015	-107.8279426175863	2.982077537996651	49.04307309572953	-2.124689177383991
15.39919388999999	8.812074391594937	-16.09212238779773	1.05859713340586	12.04167616403729	-39.29126466502068	24.0999334027072	30.88408516847426	-79.54610412614728	0.5106267097239859	-12.12830222139978	-33.31499152517986	22.14854989590974	-19.69305536174402	-0.1357628939809406	2.75420709579069	0.08735951120398547	-73.4558876574187	3.184941163310261	33.2060931667792	-2.584619017317796
15.41266053999999	7.605062023371256	-4.331144218837932	1.80703855842391	7.34741025503755	-69.79363770507675	3.983951237669393	30.03581317407199	-49.20200657559977	-2.603064559674232	-20.27461766397513	-30.90093108163127	28.07219008358733	4.38186483986108	-0.1132230863032498	6.931303717280654	0.08930442478620043	-42.51964467144562	3.307898177843882	18.54033972431825	-2.85917674345983
15.42612718999999	3.039301080366404	5.884168103829572	1.502327371916027	-0.3353431464787713	-69.13015072526983	-11.76432874963017	28.4625665314852	-23.46592366279216	-3.710451902610156	-28.38373965534374	-27.14965736907879	30.23458242093342	15.42802152185144	-0.08532707244925261	13.15131186359269	0.08375560297748903	-18.4145669101096	3.356076708321627	7.21679561267442	-2.856566337497084
15.43959383999999	-4.264571423658196	15.23943138829532	-1.271676492009767	-8.152678881830152	-12.1993693893648	-25.21984969936485	27.34305974006726	-0.7824100213117084	-4.227976334986506	-33.63175800305042	-22.74087699934284	28.43142438941337	17.32653440201123	-0.06058011852914102	19.55634325446277	0.07069209458410168	-2.932408802803602	3.402839637857225	0.3312645994105278	-2.588173530466131
15.45306048999999	-14.80492204966971	27.10739807979184	-7.433624203138527	-15.73513213677749	112.2726264715579	-43.57687700092077	25.72466639599561	22.09575592866776	-5.703737650020874	-33.91990054793879	-19.30428000684531	23.97093720707381	15.35590093362292	-0.04376330374796414	24.18591076241339	0.0513648207178373	4.040453724707668	3.527419196845508	-2.242630545457032	-2.141075504428529
15.46652713999999	-28.81626138981932	43.44695551201542	-16.74125046622522	-23.81130410571549	294.605242183419	-71.1978313260114	22.41926235768674	47.06680911906381	-8.860840675070925	-29.2048668900872	-17.97699755344918	18.4899110315824	13.43136103356076	-0.03516844297053972	26.18373290733833	0.02802447672657166	4.408415712934966	3.757423730710067	-1.596447180583596	-1.611205131038291
15.47999378999999	-45.10925041779854	63.07432946221839	-27.88936681230271	-32.52816647251731	509.0310708524935	-105.8168733658845	17.63811648434454	73.76834330812929	-13.25419231454687	-21.46451260596954	-18.34069487594413	12.89636240998382	12.60856032273349	-0.03158406063539681	26.30232395409307	0.002935217326863079	1.242804296477817	4.05775081345564	0.710118886453824	-1.057152769122244
