Length
version=1
nRows=51
nColumns=5
inDegrees=no

This analysis gathers basic information about muscles during a simulation (e.g., forces, tendon lengths, moment arms, etc).
Units are S.I. units (second, meters, Newtons, ...)
If the header above contains a line with 'inDegrees', this indicates whether rotational values are in degrees (yes) or radians (no).

endheader
time	recfem_r	vaslat_r	vasint_r	vasmed_r
    144.48800000	      0.58273811	      0.34908416	      0.33381674	      0.32003817
    144.50352000	      0.58180535	      0.34662229	      0.33147214	      0.31774649
    144.51904000	      0.58097262	      0.34474160	      0.32968620	      0.31599337
    144.53456000	      0.58083284	      0.34404829	      0.32902796	      0.31534569
    144.55008000	      0.58201431	      0.34501615	      0.32994684	      0.31624961
    144.56560000	      0.58488548	      0.34782204	      0.33261329	      0.31886331
    144.58112000	      0.58941833	      0.35226960	      0.33687433	      0.32300998
    144.59664000	      0.59517227	      0.35781276	      0.34227718	      0.32821468
    144.61216000	      0.60138262	      0.36370361	      0.34814702	      0.33379594
    144.62768000	      0.60757839	      0.36961679	      0.35419058	      0.33948696
    144.64320000	      0.61299289	      0.37501277	      0.35986485	      0.34477206
    144.65872000	      0.61688637	      0.37939157	      0.36462910	      0.34914320
    144.67424000	      0.61905086	      0.38272075	      0.36838825	      0.35254256
    144.68976000	      0.61951942	      0.38510189	      0.37116232	      0.35501564
    144.70528000	      0.61848353	      0.38673747	      0.37298130	      0.35661275
    144.72080000	      0.61632181	      0.38764961	      0.37393848	      0.35744224
    144.73632000	      0.61343619	      0.38782889	      0.37412130	      0.35759974
    144.75184000	      0.61007722	      0.38727567	      0.37355143	      0.35710782
    144.76736000	      0.60630088	      0.38600593	      0.37218307	      0.35591491
    144.78288000	      0.60202703	      0.38403058	      0.36991044	      0.35390418
    144.79840000	      0.59717752	      0.38118538	      0.36663709	      0.35096496
    144.81392000	      0.59167523	      0.37724201	      0.36226859	      0.34698569
    144.82944000	      0.58540229	      0.37205603	      0.35673349	      0.34186497
    144.84496000	      0.57850042	      0.36587354	      0.35034644	      0.33587199
    144.86048000	      0.57158310	      0.35953182	      0.34397551	      0.32983715
    144.87600000	      0.56491431	      0.35351810	      0.33808187	      0.32417853
    144.89152000	      0.55934009	      0.34880200	      0.33354737	      0.31977546
    144.90704000	      0.55572706	      0.34622417	      0.33109388	      0.31737571
    144.92256000	      0.55459948	      0.34612661	      0.33100122	      0.31728484
    144.93808000	      0.55598919	      0.34829944	      0.33306808	      0.31930764
    144.95360000	      0.55935737	      0.35203041	      0.33664358	      0.32278635
    144.96912000	      0.56372709	      0.35631623	      0.34080777	      0.32680539
    144.98464000	      0.56801406	      0.36019832	      0.34463710	      0.33046737
    145.00016000	      0.57150017	      0.36314003	      0.34757915	      0.33325889
    145.01568000	      0.57392846	      0.36499951	      0.34945806	      0.33503409
    145.03120000	      0.57538805	      0.36583093	      0.35030306	      0.33583110
    145.04672000	      0.57628290	      0.36585129	      0.35032379	      0.33585064
    145.06224000	      0.57717377	      0.36538352	      0.34984796	      0.33540194
    145.07776000	      0.57848898	      0.36470928	      0.34916379	      0.33475637
    145.09328000	      0.58029831	      0.36391086	      0.34835620	      0.33399363
    145.10880000	      0.58230746	      0.36282858	      0.34726592	      0.33296245
    145.12432000	      0.58404321	      0.36117883	      0.34561369	      0.33139587
    145.13984000	      0.58507795	      0.35874294	      0.34319472	      0.32909210
    145.15536000	      0.58519272	      0.35551076	      0.34002027	      0.32604811
    145.17088000	      0.58451834	      0.35179764	      0.33641922	      0.32256881
    145.18640000	      0.58350218	      0.34818910	      0.33296293	      0.31920495
    145.20192000	      0.58275850	      0.34537376	      0.33028633	      0.31658317
    145.21744000	      0.58291913	      0.34397137	      0.32895492	      0.31527377
    145.23296000	      0.58442334	      0.34432575	      0.32929141	      0.31560501
    145.24848000	      0.58726676	      0.34629591	      0.33116204	      0.31744254
    145.26400000	      0.59092206	      0.34921033	      0.33393725	      0.32015566
