FiberPassivePower
version=1
nRows=51
nColumns=5
inDegrees=no

This analysis gathers basic information about muscles during a simulation (e.g., forces, tendon lengths, moment arms, etc).
Units are S.I. units (second, meters, Newtons, ...)
If the header above contains a line with 'inDegrees', this indicates whether rotational values are in degrees (yes) or radians (no).

endheader
time	recfem_r	vaslat_r	vasint_r	vasmed_r
     14.65332664	      0.42938899	      4.24304194	      1.54515119	      2.29551163
     14.66959329	      3.13577002	      6.27094720	      2.27343621	      3.39324583
     14.68585994	      2.87791401	      6.00088628	      2.16818489	      3.25004956
     14.70212659	     -0.96117255	      2.57727640	      0.92952894	      1.39719173
     14.71839324	     -8.18054144	     -3.59872546	     -1.29832211	     -1.95054989
     14.73465989	    -18.77574163	    -11.64360211	     -4.21706928	     -6.30151349
     14.75092654	    -32.34570918	    -20.65877714	     -7.56383691	    -11.18030491
     14.76719319	    -45.62404282	    -29.56592945	    -11.02287406	    -16.03172835
     14.78345984	    -52.21793432	    -37.09901938	    -14.18025381	    -20.19446616
     14.79972649	    -52.62504285	    -44.58740513	    -17.57523744	    -24.50326286
     14.81599314	    -52.41488968	    -52.96780657	    -21.64124130	    -29.58031148
     14.83225979	    -46.57063790	    -56.25542202	    -24.00096761	    -32.02200595
     14.84852644	    -35.93605465	    -52.02444383	    -23.28735566	    -30.31662018
     14.86479310	    -26.11182590	    -41.26438346	    -19.34183976	    -24.66330565
     14.88105975	    -17.96897440	    -27.65478943	    -13.44679576	    -16.88556216
     14.89732640	     -4.95271084	    -14.59210068	     -7.26694365	     -9.03746304
     14.91359305	     16.76102382	     -3.42006922	     -1.72177679	     -2.13201362
     14.92985970	     41.96865360	      6.52069334	      3.27670297	      4.06039622
     14.94612635	     61.30091820	     16.40754071	      8.13379197	     10.13409836
     14.96239300	     69.58034218	     26.53432396	     12.84097695	     16.15614399
     14.97865965	     68.23765053	     36.21240258	     16.95062300	     21.62691945
     14.99492630	     61.18405672	     44.26269974	     19.90762452	     25.85837894
     15.01119295	     50.95786213	     49.29110022	     21.25225845	     28.19437382
     15.02745960	     38.94624298	     50.20993927	     20.78754677	     28.20558731
     15.04372625	     26.66380154	     45.88052147	     18.32670270	     25.36223996
     15.05999290	     16.79764074	     39.36252262	     15.23451062	     21.49373073
     15.07625955	     10.06599581	     32.82566116	     12.36320197	     17.82427635
     15.09252620	      5.54837972	     24.75284822	      9.12796671	     13.40459491
     15.10879285	      2.63782384	     16.01585713	      5.82057148	      8.66448729
     15.12505950	      0.74955685	      7.47535248	      2.69831601	      4.05048399
     15.14132615	     -0.58451688	     -0.62848856	     -0.22652672	     -0.34088212
     15.15759280	     -1.71563249	     -8.26403816	     -2.98481482	     -4.47646626
     15.17385945	     -2.93498920	    -15.05828092	     -5.47787714	     -8.14637666
     15.19012610	     -4.41043555	    -19.77410097	     -7.28540541	    -10.70743804
     15.20639275	     -6.03626289	    -20.48544821	     -7.66080054	    -11.11247183
     15.22265940	     -7.42271003	    -16.07987113	     -6.09656797	     -8.73989942
     15.23892605	     -8.18062978	     -7.86909203	     -3.01065506	     -4.28433003
     15.25519270	     -8.27636530	      1.25970456	      0.48309217	      0.68620889
     15.27145936	     -8.29636820	      8.48521935	      3.24131842	      4.61825969
     15.28772601	     -8.95551293	     12.55813908	      4.75834577	      6.82506612
     15.30399266	    -10.26554536	     13.88638868	      5.20964504	      7.53609250
     15.32025931	    -11.20287192	     13.62777478	      5.06138852	      7.38590685
     15.33652596	    -10.12642099	     12.88814576	      4.74122079	      6.97774994
     15.35279261	     -6.25234408	     12.04802896	      4.39294302	      6.51848504
     15.36905926	     -1.21045578	     10.58820796	      3.83216559	      5.73126122
     15.38532591	      1.63141896	      7.56463091	      2.72572143	      4.10399495
     15.40159256	      0.25210825	      2.57822228	      0.92738269	      1.40194372
     15.41785921	     -4.37267324	     -3.62246004	     -1.30300950	     -1.96971546
     15.43412586	     -9.60912360	     -9.43718788	     -3.40172850	     -5.11823979
     15.45039251	    -13.15141754	    -13.38011694	     -4.85394813	     -7.23944664
     15.46665916	    -14.50317048	    -15.37586115	     -5.64204340	     -8.32272325
