Moment_knee_angle_r
version=1
nRows=51
nColumns=5
inDegrees=no

This analysis gathers basic information about muscles during a simulation (e.g., forces, tendon lengths, moment arms, etc).
Units are S.I. units (second, meters, Newtons, ...)
If the header above contains a line with 'inDegrees', this indicates whether rotational values are in degrees (yes) or radians (no).

endheader
time	recfem_r	vaslat_r	vasint_r	vasmed_r
     14.65332664	    -77.41865301	     -6.79158809	     -2.47375635	     -3.63900064
     14.66959329	    -60.30537623	     -6.56074115	     -2.35171576	     -3.47612988
     14.68585994	    -43.53971405	     -6.40431071	     -2.26345751	     -3.35758348
     14.70212659	    -27.01734033	     -6.39494189	     -2.23697383	     -3.32095284
     14.71839324	    -13.32844343	     -6.57196493	     -2.28751049	     -3.38679728
     14.73465989	     -7.98764323	     -6.92343245	     -2.41387683	     -3.55262293
     14.75092654	    -14.29659724	     -7.39022521	     -2.60376779	     -3.79897562
     14.76719319	    -26.92277355	     -7.86711936	     -2.82313512	     -4.07136452
     14.78345984	    -34.94945109	     -8.20468652	     -3.01990492	     -4.28786559
     14.79972649	    -34.67366976	     -8.71291112	     -3.30901809	     -4.62362506
     14.81599314	    -28.79548050	     -9.48371052	     -3.73621372	     -5.14056225
     14.83225979	    -20.56598785	     -9.69985308	     -3.99595490	     -5.38342870
     14.84852644	    -15.00059829	     -9.49514576	     -4.11057625	     -5.41419275
     14.86479310	    -12.72899739	     -9.13587659	     -4.14719404	     -5.35605676
     14.88105975	    -12.36488390	     -8.81407156	     -4.15456606	     -5.28667500
     14.89732640	    -12.62411336	     -8.57981271	     -4.14482501	     -5.22456442
     14.91359305	    -12.82704928	     -8.44376677	     -4.12584378	     -5.17837267
     14.92985970	    -12.79665835	     -8.42769239	     -4.11218631	     -5.16492367
     14.94612635	    -12.52518505	     -8.51323185	     -4.09801160	     -5.17539477
     14.96239300	    -11.97558857	     -8.65950479	     -4.06622767	     -5.18674815
     14.97865965	    -11.01506731	     -8.84427460	     -4.01211893	     -5.19104553
     14.99492630	     -9.44582262	     -9.00854890	     -3.92660941	     -5.17118726
     15.01119295	     -7.27784489	     -9.00198092	     -3.77637310	     -5.07239321
     15.02745960	     -4.95936142	     -8.67805647	     -3.52688126	     -4.83122076
     15.04372625	     -3.07181348	     -7.90374383	     -3.11984618	     -4.34795107
     15.05999290	     -2.04413037	     -7.28220835	     -2.74430648	     -3.90843007
     15.07625955	     -1.72525235	     -7.29266236	     -2.54356759	     -3.73840085
     15.09252620	     -1.73825578	     -7.46500619	     -2.42057186	     -3.64811753
     15.10879285	     -1.85194419	     -7.06141856	     -2.35571734	     -3.51797293
     15.12505950	     -1.91006013	     -5.19376108	     -2.26456929	     -3.16777325
     15.14132615	     -1.83837181	     -2.43454121	     -2.04048506	     -2.59718668
     15.15759280	     -1.72343346	     -3.05452691	     -1.83569619	     -2.53190785
     15.17385945	     -1.89826711	    -14.26372545	     -2.30173969	     -4.50262451
     15.19012610	     -2.87287768	    -40.23276558	     -4.32639444	     -9.81347924
     15.20639275	     -4.88888301	    -75.96304266	     -8.16294375	    -17.98181618
     15.22265940	     -7.29971108	   -109.63871424	    -12.79623161	    -26.53829419
     15.23892605	     -8.75696593	   -132.70598661	    -16.65079203	    -33.01663779
     15.25519270	     -8.34160720	   -142.04526194	    -18.52208441	    -35.95713302
     15.27145936	     -6.96583873	   -138.00723673	    -18.10927721	    -35.08640994
     15.28772601	     -7.67835857	   -122.60907475	    -15.90011495	    -31.04741929
     15.30399266	    -14.03618999	    -97.90454569	    -12.56262795	    -24.68356852
     15.32025931	    -26.62080090	    -67.61820852	     -8.79087920	    -17.14987910
     15.33652596	    -40.53195414	    -38.46479413	     -5.39931954	    -10.15771231
     15.35279261	    -48.28083677	    -17.01959929	     -3.05663666	     -5.22929526
     15.36905926	    -46.11832455	     -5.99628572	     -1.95962805	     -2.87549640
     15.38532591	    -36.31431214	     -3.30960199	     -1.78584737	     -2.46304901
     15.40159256	    -23.59593934	     -4.72180158	     -2.02584385	     -2.92262960
     15.41785921	    -12.25793709	     -6.75695828	     -2.30128723	     -3.44704119
     15.43412586	     -5.74677198	     -7.78606379	     -2.46224505	     -3.71457715
     15.45039251	     -4.92551867	     -7.78268431	     -2.53711468	     -3.77883993
     15.46665916	     -7.40686103	     -7.33092037	     -2.59153011	     -3.78130856
