TendonLength
version=1
nRows=51
nColumns=5
inDegrees=no

This analysis gathers basic information about muscles during a simulation (e.g., forces, tendon lengths, moment arms, etc).
Units are S.I. units (second, meters, Newtons, ...)
If the header above contains a line with 'inDegrees', this indicates whether rotational values are in degrees (yes) or radians (no).

endheader
time	recfem_r	vaslat_r	vasint_r	vasmed_r
     14.65332664	      0.45864840	      0.23120940	      0.21185227	      0.20983979
     14.66959329	      0.45864840	      0.23120940	      0.21185227	      0.20983979
     14.68585994	      0.45864840	      0.23120940	      0.21185227	      0.20983979
     14.70212659	      0.45864840	      0.23120940	      0.21185227	      0.20983979
     14.71839324	      0.45864840	      0.23120940	      0.21185227	      0.20983979
     14.73465989	      0.45864840	      0.23120940	      0.21185227	      0.20983979
     14.75092654	      0.45864840	      0.23120940	      0.21185227	      0.20983979
     14.76719319	      0.45864840	      0.23120940	      0.21185227	      0.20983979
     14.78345984	      0.45864840	      0.23120940	      0.21185227	      0.20983979
     14.79972649	      0.45864840	      0.23120940	      0.21185227	      0.20983979
     14.81599314	      0.45864840	      0.23120940	      0.21185227	      0.20983979
     14.83225979	      0.45864840	      0.23120940	      0.21185227	      0.20983979
     14.84852644	      0.45864840	      0.23120940	      0.21185227	      0.20983979
     14.86479310	      0.45864840	      0.23120940	      0.21185227	      0.20983979
     14.88105975	      0.45864840	      0.23120940	      0.21185227	      0.20983979
     14.89732640	      0.45864840	      0.23120940	      0.21185227	      0.20983979
     14.91359305	      0.45864840	      0.23120940	      0.21185227	      0.20983979
     14.92985970	      0.45864840	      0.23120940	      0.21185227	      0.20983979
     14.94612635	      0.45864840	      0.23120940	      0.21185227	      0.20983979
     14.96239300	      0.45864840	      0.23120940	      0.21185227	      0.20983979
     14.97865965	      0.45864840	      0.23120940	      0.21185227	      0.20983979
     14.99492630	      0.45864840	      0.23120940	      0.21185227	      0.20983979
     15.01119295	      0.45864840	      0.23120940	      0.21185227	      0.20983979
     15.02745960	      0.45864840	      0.23120940	      0.21185227	      0.20983979
     15.04372625	      0.45864840	      0.23120940	      0.21185227	      0.20983979
     15.05999290	      0.45864840	      0.23120940	      0.21185227	      0.20983979
     15.07625955	      0.45864840	      0.23120940	      0.21185227	      0.20983979
     15.09252620	      0.45864840	      0.23120940	      0.21185227	      0.20983979
     15.10879285	      0.45864840	      0.23120940	      0.21185227	      0.20983979
     15.12505950	      0.45864840	      0.23120940	      0.21185227	      0.20983979
     15.14132615	      0.45864840	      0.23120940	      0.21185227	      0.20983979
     15.15759280	      0.45864840	      0.23120940	      0.21185227	      0.20983979
     15.17385945	      0.45864840	      0.23120940	      0.21185227	      0.20983979
     15.19012610	      0.45864840	      0.23120940	      0.21185227	      0.20983979
     15.20639275	      0.45864840	      0.23120940	      0.21185227	      0.20983979
     15.22265940	      0.45864840	      0.23120940	      0.21185227	      0.20983979
     15.23892605	      0.45864840	      0.23120940	      0.21185227	      0.20983979
     15.25519270	      0.45864840	      0.23120940	      0.21185227	      0.20983979
     15.27145936	      0.45864840	      0.23120940	      0.21185227	      0.20983979
     15.28772601	      0.45864840	      0.23120940	      0.21185227	      0.20983979
     15.30399266	      0.45864840	      0.23120940	      0.21185227	      0.20983979
     15.32025931	      0.45864840	      0.23120940	      0.21185227	      0.20983979
     15.33652596	      0.45864840	      0.23120940	      0.21185227	      0.20983979
     15.35279261	      0.45864840	      0.23120940	      0.21185227	      0.20983979
     15.36905926	      0.45864840	      0.23120940	      0.21185227	      0.20983979
     15.38532591	      0.45864840	      0.23120940	      0.21185227	      0.20983979
     15.40159256	      0.45864840	      0.23120940	      0.21185227	      0.20983979
     15.41785921	      0.45864840	      0.23120940	      0.21185227	      0.20983979
     15.43412586	      0.45864840	      0.23120940	      0.21185227	      0.20983979
     15.45039251	      0.45864840	      0.23120940	      0.21185227	      0.20983979
     15.46665916	      0.45864840	      0.23120940	      0.21185227	      0.20983979
