Inverse Dynamics Generalized Forces
inDegrees=no
nColumns=21
nRows=51
DataType=double
version=3
OpenSimVersion=4.5.2-2025-05-03-6a4c6ec41
endheader
time	pelvis_tilt_moment	pelvis_list_moment	pelvis_rotation_moment	pelvis_tx_force	pelvis_ty_force	pelvis_tz_force	hip_flexion_r_moment	hip_adduction_r_moment	hip_rotation_r_moment	hip_flexion_l_moment	hip_adduction_l_moment	hip_rotation_l_moment	knee_angle_r_moment	knee_angle_r_beta_force	knee_angle_l_moment	knee_angle_l_beta_force	ankle_angle_r_moment	ankle_angle_l_moment	subtalar_angle_r_moment	subtalar_angle_l_moment
13.03519577	72.26950862715223	-24.23886801419325	8.62056933061433	138.0961745218243	6.062014696996748	46.77267881894048	22.52019678521719	-77.53986118071734	15.59634491196274	45.20601576107101	-14.30272404848662	12.1776250193355	-2.91668923516316	-0.130752856253507	7.974042755364134	0.04430969832515498	-88.06763317105886	5.515337457648291	13.3844909481708	-3.254705216239803
13.05039575	15.96318885967623	-11.2333812892662	3.87215875256941	48.83791819691266	24.57426022981509	19.2630401135863	29.88820586452918	-21.54138783592935	7.220817071437891	-18.99997054668114	4.700051394860217	13.55286093570247	20.76992834531676	-0.1115933995668786	19.09212296345292	0.0940980174778884	-47.34144478087845	3.40268267957222	3.790486796060249	-2.246490287008621
13.06559572999999	-15.26932303059148	2.99828171650316	-5.071486081661317	-14.73241410799696	15.54140710593206	-5.180688101991026	46.27945881599443	26.69163193396917	1.549645056363853	-67.61456569675161	23.53659173937337	9.337425101261884	28.66909779989668	-0.0879558440580091	37.10073348904957	0.1130632766348177	-15.7578016955932	1.397410588940149	-1.534411612917327	-0.9471157815556759
13.08079570999999	-23.8064263867835	14.31759705664289	-12.76235626442232	-44.13189173613339	0.3769618936488279	-20.72686052020754	63.57139172242313	56.66251912815817	-0.1019705078625155	-94.84299543253442	38.53010294591576	1.72865238065705	25.26287885884449	-0.06371149430987109	58.70173837313777	0.09690940826369519	2.726600817836678	-0.8687922329749642	-2.918828011668926	0.5739669651173909
13.09599568999999	-17.8288161945601	16.28625376525101	-12.66721696729334	-40.78195952900744	-5.856450010501497	-21.05453223833765	76.22322720480896	59.97664519034039	2.70708700055784	-103.9250920767005	45.782527101276	-5.262531644249793	16.38235581179178	-0.04435375301730859	78.90762133859371	0.05621190801035574	9.016436274346677	-3.907881742663651	-2.32125370154678	2.065125915673685
13.11119566999999	-6.12155025668749	6.747737909475219	-3.516919454230284	-16.76806970042018	-6.828099429943201	-6.30969391510946	85.91015026499095	38.03801376220817	8.188272916751899	-105.6195179354782	43.00977832133257	-8.158143329858037	4.978514885047577	-0.03329766880051184	94.22095920590721	0.0121138967145821	8.3238196759355	-7.50500597192738	-1.78501252910646	2.965348659378789
13.12639564999999	3.978586031540863	-7.875591869614177	8.495624527967403	9.895537392572768	-12.01688707029688	13.34714205782373	96.65025297228019	3.395442424535761	12.21620813756862	-109.6331957507249	30.35262139803948	-5.420711596971394	-7.697540275078462	-0.03021162465309325	103.0810070583551	-0.01512679449237943	6.139546754271188	-9.787236251902755	-2.073178414862829	2.426656576539816
13.14159562999999	7.917855384576686	-16.84952203625717	14.41739424490742	23.36393705473834	-19.24848253412907	23.57448171973547	108.5532079146243	-27.66886791163119	10.67052547866898	-117.3183604627079	10.48561793839253	2.395381183712174	-19.80392248792376	-0.03226000606478886	103.9015431425032	-0.01603917321495458	5.246767655731863	-7.639379864082168	-2.703061570425252	-0.1015210074331202
13.15679560999999	6.114045364747273	-14.20067683706753	9.886268284196113	17.90088317267677	-15.19600236492766	17.00408714439572	117.567452525692	-45.00932203353825	2.74765477128919	-122.1973229569989	-12.07592099220425	13.21685671907054	-28.98527243036095	-0.03655623356204873	93.54685976400265	0.005346103988340397	5.732052033942159	0.5088250720595557	-2.933606882931071	-3.69420923827917
13.17199558999998	3.55058404034802	-3.474450377821805	-1.531037897277684	0.7484529338776478	6.714494206706878	-0.5077774404077885	119.9506061107019	-48.43211405389395	-7.825224754905857	-117.7992305419142	-32.84937227451172	24.20611779767055	-33.97631580106346	-0.04157958904370875	68.70687984852121	0.03538357295216309	6.56689159692509	10.51980821624744	-2.538787664757667	-4.995350769475161
13.18719556999998	4.356168576029901	6.022551946655025	-11.53875315735235	-13.6580021223815	33.19557058075852	-14.59817939802083	115.6095987437725	-43.4761886614582	-15.21473294307363	-105.7999798616521	-49.71456919037319	32.58737913915805	-35.46585451165948	-0.04686197666773934	29.58421873969779	0.05772179788868288	6.923795829198883	10.89710473946939	-1.835811145872146	1.08038685119252
13.20239554999998	6.81663739072018	7.340230855436058	-13.76671202370937	-15.20780259675723	41.66975147513636	-14.33817015572369	107.4096309371007	-34.84004806835306	-15.71123660838489	-95.71624994531851	-63.49883300642325	36.61124738118177	-35.48302169698059	-0.05197237172573594	-18.13211793945585	0.06011932590283926	6.585531199114607	-11.97847735023074	-1.245713411891039	18.35806520581461
13.21759552999998	6.062133975479292	1.186662335375394	-8.324347467018455	-5.443630939379138	24.77869136610059	-1.417261883661461	98.48050929668399	-23.99579936275991	-10.09801333680003	-94.83484429778869	-76.13337944289064	36.41045274542902	-36.09844120998022	-0.05599578730354134	-66.2895990499627	0.03902630136007473	5.758886493166449	-63.30002963172578	-0.9292839407047838	45.92072936935485
13.23279550999998	1.15978793277451	-5.094303139382473	-0.6229510379395228	6.105971755371885	-1.761485783140621	10.96216628511584	90.54610628374918	-11.68338675772318	-2.321701894897669	-99.2454584863595	-89.10221947551283	34.11127512095756	-38.3029379693368	-0.05762660022737345	-109.5413482667278	0.0002812475782928321	4.788293358548353	-133.4490577342479	-0.7799261120783334	77.44437622009552
13.24799548999998	-3.384206676163571	-3.792441883587359	3.880732002121772	11.21369388265041	-18.03449657252868	9.198629720875989	83.79732217079699	-0.6623650912510619	3.816819377485026	-96.97248116248207	-103.330626926433	32.58299016164573	-41.37002550932183	-0.05533944317353147	-146.7451240197499	-0.0445077822697264	3.985649806971968	-202.8344337302782	-0.6506851624578019	104.4774357937769
13.26319546999997	-3.221809114028866	5.484010272678756	3.710831879401993	7.892567767181989	-19.52620820740852	-7.347139158057057	77.10990068401132	5.01006132140791	6.875007304193058	-79.46433817684736	-117.6915330434531	33.11926168398899	-42.89040163835393	-0.04747572294589716	-177.2251946560135	-0.08415754047259666	3.542453607594628	-253.2389166429982	-0.5308681224231655	120.9088603188011
13.27839544999997	0.9859238314665628	13.23789067754766	1.171530664231369	-0.6575142355499051	-14.28835701745038	-22.54920886799157	68.18668531914375	3.132785792318697	7.646764488244456	-48.72913334542283	-126.6865023427566	33.91225249773444	-39.77704825340118	-0.03256521894560443	-196.6942478012995	-0.1132859214394395	3.468458356051556	-275.7640025683158	-0.5312191172460298	125.1218827317801
13.29359542999997	4.755001125263507	7.960762849569681	-0.6114245841995731	-8.616053512227856	-8.096281554884088	-16.70287895301673	54.3843375615803	-4.504225373152187	7.723569843294881	-14.53968206846471	-123.0406876595162	31.32636540713639	-30.14937806687124	-0.01011125242650187	-197.491523829106	-0.1336496056350848	3.587014869735215	-271.4255103644607	-0.750037995539567	119.1398236195254
13.30879540999997	4.60250583739397	-10.39175520106712	-0.5226526294385205	-10.3719260421667	0.1109400099305824	11.82561536473645	34.49883862152666	-12.72656274069608	8.10442237274577	13.22516664503118	-105.4662767823577	23.32366578180199	-15.10537907019007	0.01844451332161069	-173.3799425357595	-0.1505260740587388	3.631963973012757	-247.0892318462516	-1.160486709470852	106.4481571866096
13.32399538999997	0.9752144304072874	-26.29498737300595	0.002323507892755899	-4.404469106991871	10.47471041051969	39.4104117899578	10.28130362014378	-15.62747892640348	8.470802067913626	29.71642620466992	-82.10633264337987	11.68310467210791	1.113325780790618	0.04940206881764385	-125.3312024345659	-0.1667582158060614	3.407862011027502	-210.7463439576472	-1.594294283730203	90.14504083518001
13.33919536999997	-3.186626956567284	-22.41300622327328	-0.7138977056068847	4.666434973113762	17.39686235348897	37.72813566317766	-13.96070915437176	-9.851467032771183	7.468280753134988	35.45023426373608	-62.87686890449769	0.7344898061420562	13.229233123343	0.07788875990769206	-63.88773160282271	-0.1792245720104098	2.904297756955477	-168.5363170531213	-1.824224838760959	72.12355334574961
13.35439534999997	-5.662587131993612	1.196842724238359	-1.848064653393362	9.4010735623839	15.18681996652066	4.001453512932517	-33.86894967940553	3.052462397055563	4.100161856390612	34.59129231881538	-48.45391830508399	-5.880679603828868	18.13394874992284	0.1000301585837365	-5.8603957690222	-0.1807912244759343	2.283388631694306	-124.2945888875438	-1.703349242195809	53.39370344519962
13.36959532999996	-6.175716537390455	24.69205207816115	-0.623020242435339	5.924029254944221	5.172220332481703	-33.24235168797038	-47.90893202703792	17.0201516038757	-0.7686016595756606	33.47877114911731	-30.21359106969616	-7.250671275033488	16.88079767227618	0.1145882590107742	33.21616715941667	-0.1662697569099705	1.755737542447515	-81.10986033268709	-1.272050804428592	35.08673303009143
13.38479530999996	-5.362405307722966	27.58797102064816	3.828398595044994	-2.964175839833286	-5.361978900291049	-41.86922777356561	-58.36715776616671	25.14200645897871	-4.501634836955999	38.52660373320676	-2.621294105707094	-4.897146994030105	14.00641999068142	0.1224882816774786	46.377653266177	-0.1375104224117178	1.430596951986458	-42.99799097238591	-0.7356002460467677	19.07018135413425
13.39999528999996	-3.683660166596964	8.799717735960122	8.076296681926911	-10.48152784889291	-9.699820462585427	-17.32038420108747	-69.63240180057724	24.30642951594719	-4.69900565345449	53.12107301994905	26.99999484624394	-1.335444594895752	14.77152342199064	0.124472222985059	37.38567990823385	-0.1034201549710632	1.223961686542846	-14.43516176041831	-0.3096823707673714	7.338045693432666
13.41519526999996	-1.227200766267196	-14.01410192723214	7.319788383792964	-11.04144023008082	-6.210043529186765	16.10473174207115	-85.05401727481251	17.27023337748996	-1.294050656314936	75.97506294021753	44.11922427211154	1.189808794604329	22.27859270951053	0.1191731394520652	16.51516394952064	-0.07481916263212519	0.8702497378837502	2.234841704624133	-0.05838030579864248	0.6884159511663897
13.43039524999996	1.792100927037684	-23.00503020163077	1.021068861933998	-3.970440175519272	0.8435727110719036	31.56571969178955	-104.7428683074377	10.73695171853834	3.262587979886612	102.3314880885176	41.96713695086842	1.394180462778058	36.22228717651508	0.1039348444504216	-5.962763227583185	-0.05819226318479322	0.06799444754874751	8.580769511335301	0.1291706184120406	-1.835757618818853
13.44559522999996	4.200873574639951	-15.11967939233663	-5.576851836053618	5.921090413388908	3.342233554641919	22.53482264425656	-125.7384006814248	11.08575582172904	5.813618841349677	126.3257623299445	28.33169516759031	-0.7592302465501292	53.75496867865958	0.07807626772332309	-23.59335207123487	-0.05303524327229556	-1.224554208614953	8.852601861791927	0.3840880183371843	-2.135251389775033
13.46079520999995	4.009767580999037	-0.133851249420573	-6.771732562275338	11.28415725814549	-4.40943358227265	1.5659145002442	-143.8735143604843	20.51805209558324	4.683632776696031	143.1244788005237	16.86305803793689	-3.915709813890092	71.51741168094992	0.04543259738319279	-34.03521308043933	-0.05418430316929869	-2.458011478055152	7.16544413328993	0.6379991090234598	-1.836925088847053
13.47599518999995	0.2421980429946025	11.03309460326535	-2.673634318065262	7.150066229200172	-17.31100242191175	-15.79025776394511	-155.5466049693064	35.60117900955356	0.6213837056133599	150.7080903021523	13.88647619460771	-5.634203208175557	87.08947562453461	0.01327762800495278	-38.01527010061071	-0.05647338886020517	-2.507011481742071	5.807884995256638	0.5625378345599623	-1.755920588203664
13.49119516999995	-5.334538155924522	13.7726738920934	1.310231638717045	-5.331966525611683	-18.97355604148171	-21.86889441156008	-158.5478913639353	48.69246271198296	-3.899871197550195	150.3718804948346	15.19543838516036	-3.824384290420059	98.56761366855741	-0.01179062653414949	-38.19718139632406	-0.05784021590634224	-0.5277730704702837	5.364557938514156	-0.1360612051843695	-2.047442716930632
13.50639514999995	-8.904299382615831	9.351741907044385	1.067624551026569	-18.63669368334212	3.351046936155829	-16.73011439029327	-152.6247635405671	51.06855352153674	-6.178058987850135	145.0228457124549	13.57732464124428	1.268709366301004	102.6729134375847	-0.02743391499965642	-37.85962784370517	-0.05895612163919382	2.362874688696451	5.5856458184504	-1.130635264224579	-2.516240789245002
13.52159512999995	-7.841162352444535	1.868709096641462	-1.914912808508948	-23.13568961168413	39.42365768959023	-4.694776813997769	-140.2353655190765	35.80015831224192	-4.441703588058724	136.4258051434801	6.373470781117661	6.697989658805287	93.62798450763901	-0.0356734342574678	-39.36392876103973	-0.06049484876156713	1.786500633451313	6.035647454235876	-1.05635092770116	-2.842768199236748
13.53679510999995	-3.689739854106673	-4.10523708990092	-3.403470197867195	-14.77444344940545	58.19212668702303	7.542542415210613	-125.912232761407	-0.3259137589673102	1.765974250505122	123.9332689516676	-4.057571528818821	9.116173752485892	64.96864324235263	-0.03996612641943155	-42.9202088561204	-0.06099313980871625	-8.877298946016108	6.335897889317526	2.139164226047077	-2.772155813876934
13.55199508999995	-0.8779222897350548	-6.032992668932843	-1.834108375142623	0.4036545468553823	38.12311383641521	13.94131636581931	-112.4757004099786	-55.00274209653458	11.71448974463953	105.9684800597491	-14.17450162666154	7.647950950470119	13.62373784652729	-0.04234552306002139	-46.35987851648507	-0.05737716592362896	-34.5815876208344	6.228282762691919	9.998188392916221	-2.26733510719779
13.56719506999994	-1.407609544072385	-5.334613665238813	0.6837208973011362	11.63247105649874	-7.587494892683566	13.74999044117502	-97.00764865255901	-119.1275583923434	23.77616045335202	82.74333217267019	-21.76104358725035	4.327933092006904	-56.79788067713998	-0.04308105602464497	-46.25553718605567	-0.04738458448840568	-74.35711262281086	5.631560846946489	22.26523272550478	-1.531253734458573
13.58239504999994	-2.429048447183769	-5.644193900208577	1.814256962540397	13.48100369215433	-43.48144238798036	11.63953455653893	-73.07359632729157	-178.4054671714179	35.65661752366593	57.34302103280434	-26.00191144821873	1.918371060855697	-135.3114646270293	-0.04255756009124791	-39.92183552540126	-0.03135294791657324	-120.5426268388647	4.66832556681485	36.50920591246425	-0.8711472364112577
13.59759502999994	-0.7364308613523294	-7.708319252659894	1.512499648322944	8.36086546811428	-46.05731900529314	10.57647624730819	-38.98323897263335	-218.2889534806579	44.5208405800873	34.09313827422287	-27.1622623210074	1.682965835645847	-205.4056367366169	-0.04316649077530151	-27.22497264473214	-0.0119034244960436	-162.4889482523865	3.595314764596643	49.03585357300857	-0.5131536740329582
13.61279500999994	2.436016806026275	-6.841112378834358	1.019655189700818	0.8836921089953997	-19.93740128809752	6.036162723939424	-2.303532051071676	-229.3665783750281	47.44505476397915	16.06145752378161	-26.38374841634698	2.989831920069375	-249.6891203991347	-0.04926398661765161	-11.1863577179856	0.007762301487322183	-191.7108090061396	2.670653164033586	56.59621464878431	-0.4988298334257463
13.62799498999994	3.421233065139468	2.133266595171679	0.7648002252016783	-5.993817662833776	13.92969934311733	-8.283367387653534	25.45005911921762	-210.6820824152593	42.71333643228741	4.059702311630268	-24.57922609914852	4.160669802458102	-256.5073808004197	-0.06480408627873478	3.091112755926496	0.0253789388898435	-204.6657886101179	2.053720440919149	57.83995564352903	-0.6992880118650453
13.64319496999994	1.274848962339556	16.45632099809577	0.1280752987149233	-9.94185254494959	36.71159442031019	-27.9850575204008	37.65706567639631	-170.400338159567	31.41661529431511	-2.764132691127659	-21.02327636016829	3.341468959052933	-224.9358736748156	-0.08991911472955093	10.88260715806039	0.04020814829347934	-202.003694559631	1.775656902871997	53.58074609893934	-0.8998121126471694
13.65839494999993	-1.558101780241466	24.04010444089288	-0.9644048515739921	-9.024426485785897	39.02494564310093	-35.87080966274902	35.80115199830308	-122.9873757542444	17.69587827480472	-6.320611488756684	-13.8453740573025	-0.6232342876116508	-165.0175087666566	-0.1188463333454498	10.50283880888431	0.05296424562362879	-186.0572266063938	1.749639118675635	45.81431347332445	-0.9082392266027371
13.67359492999993	-3.090906206113495	13.52256459497235	-1.068529489920061	-4.390978861345046	18.72839105703633	-17.29709786911807	26.20108154886552	-82.4790687141826	6.663160217249345	-9.439407003622598	-2.749458886571844	-6.997979062929423	-93.73052361694464	-0.1413718430050294	4.445813392728315	0.06524396924772742	-159.0748610217355	1.807348121961111	36.40957983266055	-0.6614731498094265
13.68879490999993	-3.934962585350047	-13.11091045498685	1.293466398948127	-0.9453848534186533	-20.3173316217999	22.01245210220123	15.75368578094095	-55.05669975698068	1.272847890535852	-14.9408482963511	8.908457161083518	-12.57827687072275	-29.21288007868376	-0.1477932090513181	-2.077236413261506	0.07810602601599943	-123.3855204134858	1.787269811825535	26.53619291533038	-0.2832533746115615
13.70399488999993	-5.071624675397629	-38.56475077276272	5.018536495448223	-2.735997783372228	-63.7577694478954	55.819417755243	9.804310007434417	-36.6233604965899	0.7068116642135095	-23.32368427712408	15.38553875871842	-13.11914281790099	15.01428837624876	-0.1345188086956957	-4.459910272398164	0.09006910539555316	-82.86599814175422	1.659184412698758	17.03360304168139	-0.03222039930587056
13.71919486999993	-5.365791116633901	-41.75601793281536	6.025327267215976	-7.448041611454615	-82.7675312991858	56.20349499463662	10.65041444534603	-17.69419320319931	1.558315846331529	-30.92842685240498	12.22479922190352	-6.325491401318572	34.61683387680417	-0.1064387417732251	-1.572254049457591	0.09627778316079233	-43.85353857607601	1.587088762504945	8.952078901698982	-0.1452715157677258
13.73439484999993	-2.433399269745008	-12.48621329396157	0.1841096901479693	-6.363946234172122	-41.45951929221627	13.41911251576385	16.26149284043834	8.542855963305625	0.5416463194390251	-31.23191533594559	-1.091004158004557	6.158779204683619	35.33816283495243	-0.07426127749596319	3.905749243760152	0.09056692443237449	-13.69702656264775	1.842282819840865	3.442817277598853	-0.6824550108785983
13.74959482999992	5.160773715954189	43.40874172982889	-13.44751155673284	9.785400812329794	83.05192969373631	-60.45645255490559	21.84760909912622	41.9078397736652	-3.670387115121366	-19.19938471014441	-21.55567134113855	19.85961891020211	28.25726702713586	-0.04847190161735242	7.830117100156862	0.06951632282874312	2.783880003567853	2.611891678750605	1.079808650377565	-1.500838762889519
13.76479480999992	17.1688885640241	111.8755347770053	-32.53545036170139	44.0446034030456	284.1784020035063	-145.2040357617589	24.01722698031235	77.84795597920518	-10.53950329307597	5.056268313502107	-45.22821911059776	30.95591833847866	22.19282280952752	-0.0337601739263216	7.724001036839291	0.03496782340864819	6.040851419147977	3.868768907079136	1.427297154379857	-2.388085533690658
13.77999478999992	31.8876624233669	182.8037839659862	-53.95792011307303	90.47611158899258	529.1482231254879	-229.3034113447795	23.16135845768609	113.2801559512752	-18.75724234339923	36.52896228420237	-69.62343993492378	39.14254744827531	19.25691682916062	-0.02716225869898783	4.38176216176645	-0.007095250065782594	1.438608964888591	5.40496151568345	3.27626417041493	-3.238247206146746
