Moment_knee_angle_r
version=1
nRows=51
nColumns=5
inDegrees=no

This analysis gathers basic information about muscles during a simulation (e.g., forces, tendon lengths, moment arms, etc).
Units are S.I. units (second, meters, Newtons, ...)
If the header above contains a line with 'inDegrees', this indicates whether rotational values are in degrees (yes) or radians (no).

endheader
time	recfem_r	vaslat_r	vasint_r	vasmed_r
     17.22665784	    -28.03834371	    -34.46554828	     -9.74533837	    -14.88669750
     17.24292449	    -21.19598878	    -25.40399637	     -7.18416811	    -11.01556154
     17.25919114	    -15.71481302	    -17.28586098	     -4.98988951	     -7.67743671
     17.27545779	    -11.16502303	    -10.46088510	     -3.22131713	     -4.92256522
     17.29172444	     -8.17647222	     -6.42179301	     -2.23906349	     -3.36032165
     17.30799109	     -7.24650701	     -5.43390930	     -2.06802892	     -3.05498292
     17.32425774	     -8.14104245	     -6.42163525	     -2.39053268	     -3.51363333
     17.34052439	    -10.01357704	     -7.81211587	     -2.80901742	     -4.10870514
     17.35679104	    -12.30587535	     -8.63487316	     -3.11613399	     -4.50550738
     17.37305769	    -14.75043572	     -8.64906377	     -3.24047686	     -4.58531313
     17.38932434	    -18.49823748	     -8.94442503	     -3.54292716	     -4.90123951
     17.40559099	    -22.24522819	     -8.97572032	     -3.80830219	     -5.13083518
     17.42185764	    -23.37884122	     -8.14864461	     -3.76135982	     -4.91824561
     17.43812430	    -22.79232303	     -8.11192437	     -3.68446159	     -4.69781868
     17.45439095	    -20.44426314	     -9.43887828	     -3.75008622	     -4.94607343
     17.47065760	    -22.34694511	    -11.18254174	     -4.56162898	     -6.01808175
     17.48692425	    -24.03753550	    -13.75981490	     -5.77684612	     -7.59340352
     17.50319090	    -23.47575654	    -16.41801733	     -7.06293234	     -9.21211424
     17.51945755	    -19.54492942	    -17.84270355	     -7.77878177	    -10.08949157
     17.53572420	    -13.82023072	    -17.22394773	     -7.50305120	     -9.73954553
     17.55199085	     -8.67358277	    -14.86855453	     -6.37902855	     -8.33330403
     17.56825750	     -5.26722690	    -11.98687224	     -5.00749335	     -6.58521680
     17.58452415	     -3.48965445	     -9.76689514	     -3.95995437	     -5.22133936
     17.60079080	     -3.24527226	     -8.37948848	     -3.45408088	     -4.37257831
     17.61705745	     -3.39228923	     -7.33121746	     -3.51624166	     -4.57915368
     17.63332410	     -3.73098847	     -7.85925332	     -3.50537500	     -4.71404999
     17.64959075	     -3.87391660	     -7.77771130	     -3.28726476	     -4.58047035
     17.66585740	     -3.46556025	     -7.04577850	     -2.78451881	     -3.99736653
     17.68212405	     -2.82727464	     -7.15975489	     -2.45968401	     -3.64446725
     17.69839070	     -2.06657781	     -7.28227243	     -2.04992673	     -3.07115986
     17.71465735	     -1.60908281	     -6.62710920	     -1.80740985	     -2.64392295
     17.73092400	     -1.74382414	     -3.80513561	     -2.17327574	     -3.11599910
     17.74719065	     -2.60476679	     -0.50418692	     -3.79926869	     -5.76169252
     17.76345730	     -4.03522739	     -5.33745040	     -6.75466551	    -11.06577456
     17.77972395	     -5.79848642	    -28.56427459	    -10.33572463	    -18.09258397
     17.79599060	     -7.63797021	    -68.43856151	    -13.48900282	    -24.89646891
     17.81225725	     -9.53538667	   -109.33728623	    -15.95040393	    -30.41482709
     17.82852390	    -12.11658358	   -146.61803198	    -19.17249671	    -37.13825309
     17.84479056	    -14.65156896	   -169.27151221	    -22.03895880	    -42.76916127
     17.86105721	    -16.70246980	   -175.42700808	    -23.54261932	    -45.57979210
     17.87732386	    -18.53298067	   -168.80644741	    -23.23494192	    -44.98625696
     17.89359051	    -20.43389353	   -149.80225951	    -20.80833986	    -40.42278394
     17.90985716	    -22.16526074	   -119.07751606	    -16.49836548	    -32.20092552
     17.92612381	    -23.03964932	    -82.84847935	    -11.46225273	    -22.43941065
     17.94239046	    -22.37216462	    -49.07945190	     -7.00129045	    -13.58476106
     17.95865711	    -19.72925738	    -23.08329071	     -3.85849234	     -7.07040210
     17.97492376	    -15.68273678	     -8.12811238	     -2.30735573	     -3.59740733
     17.99119041	    -11.96143764	     -3.61327484	     -2.07132883	     -2.81491429
     18.00745706	     -9.98203778	     -4.82536350	     -2.41985635	     -3.34791423
     18.02372371	    -10.25311677	     -6.82177303	     -2.71356583	     -3.89894876
     18.03999036	    -12.06715784	     -7.64656084	     -2.76875129	     -4.04273093
