Joint Reaction Loads
version=1
nRows=51
nColumns=10
inDegrees=no

This file contains the reaction forces and moments
applied to the specified body of a joint pair and expressed  in the specified reference frame.

Units are S.I. units (seconds, meters, Newtons, ...)
endheader
time	patellofemoral_r_on_patella_r_in_patella_r_fx	patellofemoral_r_on_patella_r_in_patella_r_fy	patellofemoral_r_on_patella_r_in_patella_r_fz	patellofemoral_r_on_patella_r_in_patella_r_mx	patellofemoral_r_on_patella_r_in_patella_r_my	patellofemoral_r_on_patella_r_in_patella_r_mz	patellofemoral_r_on_patella_r_in_patella_r_px	patellofemoral_r_on_patella_r_in_patella_r_py	patellofemoral_r_on_patella_r_in_patella_r_pz
     17.22665784	   2980.35893030	    185.78600072	    126.48357471	    -12.65743842	      7.66461775	    -83.50426367	      0.00000000	      0.00000000	      0.00000000
     17.24292449	   1980.94003601	     13.02375052	     56.69334928	     -8.89340834	      5.11838209	    -53.02342731	      0.00000000	      0.00000000	      0.00000000
     17.25919114	   1199.36634273	    -56.23971099	     16.50984776	     -5.73457359	      3.02578997	    -30.35074133	      0.00000000	      0.00000000	      0.00000000
     17.27545779	    690.49026231	    -65.20788034	      0.05958972	     -3.51821197	      1.60644297	    -16.39705812	      0.00000000	      0.00000000	      0.00000000
     17.29172444	    429.75675451	    -56.53639429	     -4.85707318	     -2.34099809	      0.86071745	     -9.60196929	      0.00000000	      0.00000000	      0.00000000
     17.30799109	    363.87081032	    -54.67127562	     -6.97854193	     -2.08648504	      0.67139575	     -7.84400843	      0.00000000	      0.00000000	      0.00000000
     17.32425774	    423.52246115	    -62.05692159	     -7.74304338	     -2.40549346	      0.81627283	     -9.21432353	      0.00000000	      0.00000000	      0.00000000
     17.34052439	    546.66809376	    -65.65760911	     -2.55523266	     -2.88116447	      1.05359489	    -12.56146197	      0.00000000	      0.00000000	      0.00000000
     17.35679104	    709.49468877	    -50.86482039	     13.05141353	     -3.30249543	      1.24365163	    -17.68561733	      0.00000000	      0.00000000	      0.00000000
     17.37305769	    927.87194915	     -3.93446640	     41.26486781	     -3.70003354	      1.37083589	    -25.16961391	      0.00000000	      0.00000000	      0.00000000
     17.38932434	   1237.78461321	     96.29788065	     83.26434153	     -4.22490920	      1.49022742	    -36.06834107	      0.00000000	      0.00000000	      0.00000000
     17.40559099	   1662.75799115	    277.64633414	    140.99703541	     -4.92420881	      1.62094073	    -50.90086114	      0.00000000	      0.00000000	      0.00000000
     17.42185764	   2125.67877993	    551.94312967	    208.61631478	     -5.64910577	      1.70384960	    -67.06602267	      0.00000000	      0.00000000	      0.00000000
     17.43812430	   2525.41521220	    870.07296518	    278.11736188	     -5.91986046	      1.57187802	    -80.88286125	      0.00000000	      0.00000000	      0.00000000
     17.45439095	   2772.83744810	   1107.72460238	    344.69829807	     -5.49877089	      1.36920810	    -89.40330117	      0.00000000	      0.00000000	      0.00000000
     17.47065760	   2865.19705846	   1147.46288455	    406.70919162	     -4.76258551	      1.20796553	    -93.09637654	      0.00000000	      0.00000000	      0.00000000
     17.48692425	   2881.65999407	   1156.56264547	    441.80682597	     -4.44928403	      1.16022647	    -93.83332750	      0.00000000	      0.00000000	      0.00000000
     17.50319090	   2800.04358564	   1125.69921481	    440.99056076	     -4.54925824	      1.23122109	    -90.91283444	      0.00000000	      0.00000000	      0.00000000
     17.51945755	   2599.67266830	   1038.88043549	    403.72944408	     -4.81441904	      1.35987912	    -83.89239075	      0.00000000	      0.00000000	      0.00000000
     17.53572420	   2307.07057565	    903.45733245	    342.03830256	     -4.97492975	      1.46498036	    -73.88198051	      0.00000000	      0.00000000	      0.00000000
     17.55199085	   1992.10005649	    757.38520966	    272.99926591	     -4.97631942	      1.51474915	    -63.26118492	      0.00000000	      0.00000000	      0.00000000
     17.56825750	   1719.85008844	    636.80763962	    208.60200963	     -4.95301081	      1.53326427	    -54.09004023	      0.00000000	      0.00000000	      0.00000000
     17.58452415	   1512.49462200	    550.44649060	    153.21643490	     -5.01171813	      1.54498850	    -47.00256850	      0.00000000	      0.00000000	      0.00000000
     17.60079080	   1344.56824488	    467.79406618	    107.58172679	     -5.05047437	      1.52329792	    -41.24699349	      0.00000000	      0.00000000	      0.00000000
     17.61705745	   1160.44066713	    334.27825567	     74.99823793	     -5.14721508	      1.73235489	    -35.00899313	      0.00000000	      0.00000000	      0.00000000
     17.63332410	    946.70344245	    186.76595424	     50.09620351	     -4.37049502	      1.49334029	    -27.90973482	      0.00000000	      0.00000000	      0.00000000
     17.64959075	    730.70508043	     76.93980415	     27.41180206	     -3.62613151	      1.21402710	    -20.68111288	      0.00000000	      0.00000000	      0.00000000
     17.66585740	    552.01158532	      8.31417595	      8.11714704	     -3.04482972	      1.06197749	    -14.59655554	      0.00000000	      0.00000000	      0.00000000
     17.68212405	    409.86469925	    -27.02868076	     -7.58395080	     -2.54627404	      1.07505601	     -9.83470721	      0.00000000	      0.00000000	      0.00000000
     17.69839070	    311.64399893	    -40.31886136	    -18.09819112	     -2.11393889	      1.15107572	     -6.69258634	      0.00000000	      0.00000000	      0.00000000
     17.71465735	    241.96552172	    -40.49362282	    -22.24668302	     -1.79426893	      1.01383138	     -4.72853617	      0.00000000	      0.00000000	      0.00000000
     17.73092400	    192.57323417	    -37.17477111	    -20.12411090	     -1.89169502	      0.30598601	     -3.40586075	      0.00000000	      0.00000000	      0.00000000
     17.74719065	    224.52069154	    -47.47690107	    -21.46298147	     -3.12424294	     -0.88572877	     -3.58946460	      0.00000000	      0.00000000	      0.00000000
     17.76345730	    545.03712658	    -91.89362491	    -41.95792457	     -6.23014784	     -1.01670776	    -10.16498849	      0.00000000	      0.00000000	      0.00000000
     17.77972395	   1480.60731063	   -144.01645424	    -73.45124273	    -11.39317533	      3.15068570	    -33.02492139	      0.00000000	      0.00000000	      0.00000000
     17.79599060	   3215.65055701	    -87.70574469	    -68.52082923	    -18.47434376	     14.24792791	    -80.01701849	      0.00000000	      0.00000000	      0.00000000
     17.81225725	   5505.77580131	    194.42799652	      5.68430987	    -27.28679243	     30.42236351	   -146.16472396	      0.00000000	      0.00000000	      0.00000000
     17.82852390	   7818.66401603	    656.68309535	    125.10908413	    -36.81573683	     46.17502321	   -215.26107554	      0.00000000	      0.00000000	      0.00000000
     17.84479056	   9523.73575888	   1087.41362906	    232.35042924	    -44.37433108	     56.27994281	   -266.90973713	      0.00000000	      0.00000000	      0.00000000
     17.86105721	  10240.61116892	   1285.63356747	    283.66897158	    -47.72521528	     59.13874481	   -288.78752431	      0.00000000	      0.00000000	      0.00000000
     17.87732386	   9901.20732663	   1191.78059351	    271.28832132	    -46.08931686	     55.71646806	   -278.74470358	      0.00000000	      0.00000000	      0.00000000
     17.89359051	   8646.18983691	    885.55527105	    214.86973544	    -39.95623689	     47.49184103	   -241.54027484	      0.00000000	      0.00000000	      0.00000000
     17.90985716	   6770.89009867	    509.76736908	    145.03071004	    -30.74346452	     36.11276388	   -186.71431808	      0.00000000	      0.00000000	      0.00000000
     17.92612381	   4670.36512406	    193.20944785	     87.58484908	    -20.47283180	     23.67877634	   -126.47053409	      0.00000000	      0.00000000	      0.00000000
     17.94239046	   2777.08465063	      6.61599533	     53.90025102	    -11.42398726	     12.67807997	    -73.49096121	      0.00000000	      0.00000000	      0.00000000
     17.95865711	   1428.82409296	    -57.12839103	     39.56676805	     -5.29361685	      5.08279771	    -36.81281926	      0.00000000	      0.00000000	      0.00000000
     17.97492376	    705.67328517	    -58.28065719	     31.85563145	     -2.35354476	      1.25944316	    -17.61550824	      0.00000000	      0.00000000	      0.00000000
     17.99119041	    455.19015649	    -50.70519468	     22.27405626	     -1.68298395	      0.17351060	    -10.90429860	      0.00000000	      0.00000000	      0.00000000
     18.00745706	    453.36060609	    -53.43962501	      9.51055423	     -2.10137595	      0.39224361	    -10.54290048	      0.00000000	      0.00000000	      0.00000000
     18.02372371	    530.21419189	    -58.91417884	      7.23080990	     -2.48235486	      0.79287892	    -12.38628488	      0.00000000	      0.00000000	      0.00000000
     18.03999036	    609.27109243	    -60.59171024	     14.78660055	     -2.56298461	      0.97664597	    -14.60439844	      0.00000000	      0.00000000	      0.00000000
