TendonLength
version=1
nRows=51
nColumns=5
inDegrees=no

This analysis gathers basic information about muscles during a simulation (e.g., forces, tendon lengths, moment arms, etc).
Units are S.I. units (second, meters, Newtons, ...)
If the header above contains a line with 'inDegrees', this indicates whether rotational values are in degrees (yes) or radians (no).

endheader
time	recfem_r	vaslat_r	vasint_r	vasmed_r
    144.34800000	      0.47612855	      0.23843647	      0.21686771	      0.21577605
    144.36520000	      0.47612855	      0.23843647	      0.21686771	      0.21577605
    144.38240000	      0.47612855	      0.23843647	      0.21686771	      0.21577605
    144.39960000	      0.47612855	      0.23843647	      0.21686771	      0.21577605
    144.41680000	      0.47612855	      0.23843647	      0.21686771	      0.21577605
    144.43400000	      0.47612855	      0.23843647	      0.21686771	      0.21577605
    144.45120000	      0.47612855	      0.23843647	      0.21686771	      0.21577605
    144.46840000	      0.47612855	      0.23843647	      0.21686771	      0.21577605
    144.48560000	      0.47612855	      0.23843647	      0.21686771	      0.21577605
    144.50280000	      0.47612855	      0.23843647	      0.21686771	      0.21577605
    144.52000000	      0.47612855	      0.23843647	      0.21686771	      0.21577605
    144.53720000	      0.47612855	      0.23843647	      0.21686771	      0.21577605
    144.55440000	      0.47612855	      0.23843647	      0.21686771	      0.21577605
    144.57160000	      0.47612855	      0.23843647	      0.21686771	      0.21577605
    144.58880000	      0.47612855	      0.23843647	      0.21686771	      0.21577605
    144.60600000	      0.47612855	      0.23843647	      0.21686771	      0.21577605
    144.62320000	      0.47612855	      0.23843647	      0.21686771	      0.21577605
    144.64040000	      0.47612855	      0.23843647	      0.21686771	      0.21577605
    144.65760000	      0.47612855	      0.23843647	      0.21686771	      0.21577605
    144.67480000	      0.47612855	      0.23843647	      0.21686771	      0.21577605
    144.69200000	      0.47612855	      0.23843647	      0.21686771	      0.21577605
    144.70920000	      0.47612855	      0.23843647	      0.21686771	      0.21577605
    144.72640000	      0.47612855	      0.23843647	      0.21686771	      0.21577605
    144.74360000	      0.47612855	      0.23843647	      0.21686771	      0.21577605
    144.76080000	      0.47612855	      0.23843647	      0.21686771	      0.21577605
    144.77800000	      0.47612855	      0.23843647	      0.21686771	      0.21577605
    144.79520000	      0.47612855	      0.23843647	      0.21686771	      0.21577605
    144.81240000	      0.47612855	      0.23843647	      0.21686771	      0.21577605
    144.82960000	      0.47612855	      0.23843647	      0.21686771	      0.21577605
    144.84680000	      0.47612855	      0.23843647	      0.21686771	      0.21577605
    144.86400000	      0.47612855	      0.23843647	      0.21686771	      0.21577605
    144.88120000	      0.47612855	      0.23843647	      0.21686771	      0.21577605
    144.89840000	      0.47612855	      0.23843647	      0.21686771	      0.21577605
    144.91560000	      0.47612855	      0.23843647	      0.21686771	      0.21577605
    144.93280000	      0.47612855	      0.23843647	      0.21686771	      0.21577605
    144.95000000	      0.47612855	      0.23843647	      0.21686771	      0.21577605
    144.96720000	      0.47612855	      0.23843647	      0.21686771	      0.21577605
    144.98440000	      0.47612855	      0.23843647	      0.21686771	      0.21577605
    145.00160000	      0.47612855	      0.23843647	      0.21686771	      0.21577605
    145.01880000	      0.47612855	      0.23843647	      0.21686771	      0.21577605
    145.03600000	      0.47612855	      0.23843647	      0.21686771	      0.21577605
    145.05320000	      0.47612855	      0.23843647	      0.21686771	      0.21577605
    145.07040000	      0.47612855	      0.23843647	      0.21686771	      0.21577605
    145.08760000	      0.47612855	      0.23843647	      0.21686771	      0.21577605
    145.10480000	      0.47612855	      0.23843647	      0.21686771	      0.21577605
    145.12200000	      0.47612855	      0.23843647	      0.21686771	      0.21577605
    145.13920000	      0.47612855	      0.23843647	      0.21686771	      0.21577605
    145.15640000	      0.47612855	      0.23843647	      0.21686771	      0.21577605
    145.17360000	      0.47612855	      0.23843647	      0.21686771	      0.21577605
    145.19080000	      0.47612855	      0.23843647	      0.21686771	      0.21577605
    145.20800000	      0.47612855	      0.23843647	      0.21686771	      0.21577605
