ModelForces
version=1
nRows=51
nColumns=77
inDegrees=no

This file contains the forces exerted on a model during a simulation.

A force is a generalized force, meaning that it can be either a force (N) or a torque (Nm).

Units are S.I. units (second, meters, Newtons, ...)
If the header above contains a line with 'inDegrees', this indicates whether rotational values are in degrees (yes) or radians (no).

endheader
time	addbrev_r	addlong_r	addmagDist_r	addmagIsch_r	addmagMid_r	addmagProx_r	bflh_r	bfsh_r	edl_r	ehl_r	fdl_r	fhl_r	gaslat_r	gasmed_r	glmax1_r	glmax2_r	glmax3_r	glmed1_r	glmed2_r	glmed3_r	glmin1_r	glmin2_r	glmin3_r	grac_r	iliacus_r	perbrev_r	perlong_r	piri_r	psoas_r	recfem_r	sart_r	semimem_r	semiten_r	soleus_r	tfl_r	tibant_r	tibpost_r	vasint_r	vaslat_r	vasmed_r	pelvis_tx_residual	pelvis_ty_residual	pelvis_tz_residual	pelvis_tilt_residual	pelvis_list_residual	pelvis_rotation_residual	hip_flexion_r_reserve	hip_adduction_r_reserve	hip_rotation_r_reserve	knee_angle_r_reserve	ankle_angle_r_reserve	subtalar_angle_r_reserve	hip_flexion_l_torque	hip_adduction_l_torque	hip_rotation_l_torque	knee_angle_l_torque	ankle_angle_l_torque	subtalar_angle_l_torque	calcn_r_RightGRF_Fx	calcn_r_RightGRF_Fy	calcn_r_RightGRF_Fz	calcn_r_RightGRF_px	calcn_r_RightGRF_py	calcn_r_RightGRF_pz	calcn_r_RightGRF_Tx	calcn_r_RightGRF_Ty	calcn_r_RightGRF_Tz	calcn_l_LeftGRF_Fx	calcn_l_LeftGRF_Fy	calcn_l_LeftGRF_Fz	calcn_l_LeftGRF_px	calcn_l_LeftGRF_py	calcn_l_LeftGRF_pz	calcn_l_LeftGRF_Tx	calcn_l_LeftGRF_Ty	calcn_l_LeftGRF_Tz
     12.73332811	     10.80677751	     94.86430925	      7.39445901	      7.13280736	      7.69167085	      8.71152387	     15.32992883	     10.24805134	      8.99698415	      4.59960645	      9.14631453	     39.37042775	    251.72198194	   1020.45225486	     11.86424611	     16.61608615	     11.82947457	    238.54388455	     68.76943432	     50.50208577	     73.41209517	     57.85111542	     30.17212605	      4.38575484	    654.42888980	      8.15406970	     21.01769893	     49.12953930	    722.79426396	   1412.05660337	     27.24089556	     24.79980793	      8.46686607	   2121.52539674	    100.83330604	     18.05680945	     71.72335393	     34.63795793	    211.95205511	     68.00681792	     -6.92959047	   -195.60648357	     14.13160097	     42.18711435	     -7.94454918	     -5.30816738	      0.05655861	     -0.01660797	     -0.00276188	     -0.00111186	     -0.01021743	      0.00056544	    -30.93139055	      2.31510546	     17.60692493	      1.58332263	      1.91402032	     -1.67012111	    224.39277054	    773.05744281	     43.21189204	      0.19990956	      0.00637333	     -0.00087373	      0.00000000	     -1.69165169	      0.00000000	      0.00000000	     -0.00000000	     -0.00000000	     -0.19105666	     -2.00077155	     -0.65915242	      0.00000000	     -0.00000000	      0.00000000
     12.74959476	     12.24841069	    135.88723895	      7.48835480	      7.28026460	      7.76372184	     12.49893099	     15.76226730	     35.61811603	      9.88400840	      5.00188017	      7.63650007	     22.95350491	    207.27337775	    876.37415845	     11.95533815	     16.91720535	     12.07242857	    109.37667636	     46.84838728	     53.23057674	     44.62437846	     41.32394920	     22.21606199	     11.74228900	    465.61919296	      7.83055813	     18.97680824	     40.64096795	    585.75733780	    570.95620962	     26.25037454	     25.91456254	      8.57580587	   1007.51999419	     63.30608195	     19.92222543	     41.56355530	     20.39179367	     61.37324481	     33.35676561	     -8.18508337	     -6.04752547	      2.73109542	     -4.32873593	     -0.28083535	     -2.03875403	      0.04729687	     -0.01153244	     -0.00366575	      0.01618896	     -0.00514402	      0.00019498	    -38.18667317	      2.24071464	     18.91411295	      5.44838338	      1.63184019	     -1.59176316	    185.43726953	    440.13556214	     43.61628291	      0.21810138	      0.00722692	     -0.00906611	      0.00000000	     -2.08283551	      0.00000000	      0.00000000	     -0.00000000	     -0.00000000	     -0.57250288	     -1.92213958	     -0.77688857	      0.00000000	     -0.00000000	      0.00000000
     12.76586141	     14.27427596	     91.07377267	      7.55223418	      7.39704403	      7.79935188	     11.59895008	     15.88655332	     32.25140839	     80.76789734	     14.89224417	      5.93151120	     11.94684722	     13.42825784	   1274.03313260	     12.26458093	     17.46676603	     12.30719782	     27.65769405	      9.80712192	      9.35369057	     22.59734318	     18.17939337	      8.00809745	     11.71886141	    268.80583149	     16.86056959	     59.69641872	      9.36212324	    332.89492370	     71.71226712	     15.92232961	     26.19812895	      8.59305168	     44.29285819	     30.45376157	    223.16826606	     21.82010048	     21.16628335	     63.57373421	     34.53391651	     -7.43060450	     68.26585239	     -2.78311913	    -32.20895685	      2.51805674	      0.04918864	      0.02763753	     -0.00622460	     -0.00137130	      0.01634896	      0.00510381	     -0.00154041	    -43.94238039	      2.69429032	     20.52733914	      9.62654991	      1.42617365	     -1.52031897	    121.72684926	    179.91634911	     30.53526247	      0.24306179	      0.01547215	     -0.02241884	      0.00000000	     -2.23090721	      0.00000000	      0.00000000	     -0.00000000	     -0.00000000	     -0.93526334	     -1.76392325	     -0.90904445	      0.00000000	     -0.00000000	      0.00000000
     12.78212806	     41.28233381	    267.96689960	      7.52569322	      7.44120436	      7.66775162	      8.16853880	     15.51772759	     98.12740856	    160.82715348	     18.78738980	      5.65637658	     11.49131391	     59.06223186	     24.38933398	     12.84721013	     18.31597754	     12.54460242	     14.73229356	      8.40789890	      8.39065951	     73.89440928	      4.93215639	      3.45271307	     17.59746091	    867.88364373	     55.50269227	    221.98512911	      2.91396032	    653.85431481	     27.74112832	     34.21286035	    108.47464298	     11.14638013	     45.17227833	     47.60311666	    220.54525641	     21.04197362	     22.69147513	     68.18478120	     36.83227082	     24.88606045	     52.50005750	     -4.05766995	     10.63067840	     -4.77187992	     11.46909988	      0.05730415	     -0.01388918	      0.01296414	      0.05540990	      0.00687494	     -0.00477280	    -47.15348167	      7.68012088	     18.16778466	     16.40221227	      1.13160754	     -1.22378315	     25.29086601	     12.01307427	      5.96096399	     -0.62738773	     -0.73254068	     -0.52264032	      0.00000000	     -0.79888191	      0.00000000	     -0.00000000	      0.00000000	      0.00000000	     -1.27178994	     -1.52244832	     -1.03936975	      0.00000000	      0.00000000	      0.00000000
     12.79839471	    136.75086256	    391.43578473	      7.50810631	      7.45464335	     50.15269097	    141.64523664	     14.93601457	     97.10626628	    111.51786619	     18.33394120	      5.61996491	     11.46675444	     92.97472721	    221.51215188	     13.66857528	     19.33629065	     12.84491896	     14.95979036	      9.37069654	     38.81767144	      5.76357458	     23.57365499	     29.06277352	     62.30245862	    449.23017885	     18.65897375	     65.15294478	      6.08164596	    844.89896955	     30.72144673	     37.25840481	    161.75198243	     46.41075988	     49.08525821	     15.97768151	    309.06574953	     20.95090528	     24.64417645	     74.09865458	     39.73648637	     10.04444092	    -20.31530203	    -17.67262493	     11.41547791	     16.99222542	     -9.35995193	      0.07179566	     -0.00451792	     -0.00779067	      0.05942748	      0.00801013	     -0.00192318	    -50.76138316	     19.62426118	     10.44303567	     27.80663350	      0.63418325	     -0.65378105	     -0.00000000	     -0.00000000	     -0.00000000	     -0.86943705	     -1.33215431	     -0.82423542	      0.00000000	      0.00000000	      0.00000000	     -0.00000000	      0.00000000	      0.00000000	     -1.56977643	     -1.20707885	     -1.14183045	      0.00000000	      0.00000000	      0.00000000
     12.81466136	    146.04252548	    386.63913956	      7.56701666	      7.43464270	     72.38059100	    141.00765025	     15.19617623	     82.41079035	    116.75682250	     18.38068325	      5.73103669	     11.82710615	     31.81543453	    247.77419240	     14.48984576	     20.28807799	     13.16170951	     15.99206018	     10.50852805	     11.06900833	      5.92702137	      6.76160258	     20.22852911	     57.26100095	    391.22860503	     19.92014072	     70.10440016	      3.20007080	    753.16015678	     32.47040629	     31.70877376	    172.54453890	     51.03372638	     56.38499690	      6.26999241	    315.97278925	     21.62596156	     26.34230719	     79.39753743	     42.24921062	     -9.69293670	    -16.38906838	    -11.65373800	      0.80783287	     13.63671926	    -14.58823749	      0.06512567	     -0.00078593	     -0.00556531	      0.05271068	      0.00997497	     -0.00221491	    -56.47188386	     32.73165256	      2.81362637	     40.72009430	      0.09851779	     -0.14609234	     -0.00000000	     -0.00000000	     -0.00000000	     -0.56927307	     -1.44797036	     -0.86132315	      0.00000000	      0.00000000	      0.00000000	     -0.00000000	      0.00000000	      0.00000000	     -1.81511094	     -0.84581658	     -1.19372682	      0.00000000	      0.00000000	      0.00000000
     12.83092801	    111.22788478	    334.15007675	      7.32562421	      7.37078656	     33.18203434	     59.85091515	     13.04719624	     81.34245498	    111.78211987	     16.55355048	      5.98736679	     12.46643422	     20.02972991	    171.65377024	     15.25688641	     21.14469928	     13.43535628	     16.96079706	     11.65481961	     12.45313012	      8.48338561	      6.70649484	      6.57371544	     41.23830159	    538.64889780	     23.95401884	     90.63469692	      2.58910892	    702.45374740	     32.33262130	     33.57285004	     91.60220393	     28.99788197	     66.14046160	     20.73144290	    278.94379813	     22.87069865	     27.45212473	     83.01269566	     43.86322631	    -19.73978611	     14.65444979	      2.76424592	    -12.23308604	      0.00990199	     -7.52417583	      0.06496632	     -0.00455470	      0.00278950	      0.05239363	      0.01104181	     -0.00271272	    -68.13847331	     34.58516582	      1.36191696	     51.84665460	     -0.35546954	     -0.12392907	     -0.00000000	     -0.00000000	     -0.00000000	     -0.26159666	     -1.49301901	     -0.91401188	      0.00000000	      0.00000000	      0.00000000	     -0.00000000	      0.00000000	      0.00000000	     -1.99635593	     -0.47977101	     -1.19249998	      0.00000000	      0.00000000	      0.00000000
     12.84719466	     84.41940487	    304.19468461	      7.18948466	      7.27204269	      7.00029595	     33.11425486	     12.04556629	     82.99982506	    102.50033924	     14.63336877	      6.22491468	     13.08364015	     23.29938677	     88.79520135	     15.99825191	     21.97436221	     13.62733320	     17.96151520	     12.74091777	     13.86336411	     57.87751351	     11.25894635	      7.81530126	     33.42741035	    727.26040045	     27.28711414	    109.78237133	      7.58379560	    918.20089177	    123.88961763	     46.32751392	     14.49025293	      6.94352191	     74.58069895	    103.04079174	    240.13490491	     24.05876288	     27.87453415	     84.55054548	     44.44807443	    -12.27855823	      9.66905686	      6.55155220	    -11.73130308	     -5.55746278	      6.19826863	      0.08762463	     -0.01321898	      0.00289179	      0.05250842	      0.01124579	     -0.00310760	    -84.31300988	     23.43169054	      4.67983279	     59.63398332	     -0.74660616	     -0.54494461	      0.00000000	      0.00000000	      0.00000000	      0.03255635	     -1.46896845	     -0.98443668	      0.00000000	     -0.00000000	      0.00000000	      0.00000000	     -0.00000000	     -0.00000000	     -2.10905173	     -0.14882529	     -1.16127596	      0.00000000	     -0.00000000	      0.00000000
     12.86346131	    100.34275553	    362.31092725	      7.06284428	      7.18090542	      6.65696695	     63.65755742	     11.05101458	    108.07032731	    125.50584293	     18.30996085	      6.35767487	     13.44974457	     21.00749335	    152.31481573	     16.64682435	     22.72191288	     13.71183815	     18.97092298	     13.68626519	     15.05723282	     87.36459951	     82.01835692	     56.01375194	     46.88472037	    863.60651685	     32.47744550	    131.70125416	     15.56062506	   1190.26791795	    493.77469122	     64.08794209	     10.89704752	      6.58346527	     79.10775671	    155.65669867	    309.16090952	     24.70947908	     27.54888255	     83.87269338	     43.93889672	     12.77519701	    -33.03425321	      3.18886348	      4.24822775	     -4.10516356	     14.05428455	      0.11427082	     -0.01689337	     -0.00133436	      0.06674749	      0.01512748	     -0.00391885	    -99.96070477	     13.04718166	      7.46893176	     65.13239660	     -1.16935919	     -0.88692754	      0.00000000	      0.00000000	      0.00000000	      0.30651621	     -1.39032144	     -1.06236939	      0.00000000	     -0.00000000	      0.00000000	      0.00000000	     -0.00000000	     -0.00000000	     -2.15706029	      0.12029097	     -1.13720712	      0.00000000	     -0.00000000	      0.00000000
     12.87972796	    132.72807261	    454.10316336	      6.96897001	      7.12538475	      6.49200922	     92.57687122	      9.93639286	    106.05390974	    125.19060569	     18.53847447	      6.38661076	     13.56866321	     16.59372414	    156.98170825	     17.04634187	     23.21230162	     13.70187453	     19.80169154	     14.36640814	     15.92821547	    103.95561522	    116.13663083	    112.88565451	     54.64357366	    940.55675596	     31.20930190	    126.42897308	    138.64486706	   1327.76755536	    713.05937846	     68.44497642	      6.75815672	      6.25582169	     80.31498445	    169.56251915	    316.35364175	     24.81387735	     26.83505056	     82.07520014	     42.93231189	     25.45801669	    -56.30410558	      6.76404800	     13.24454574	     -6.78084702	      8.86223141	      0.12696886	     -0.01498829	     -0.00349778	      0.06460140	      0.01533417	     -0.00384975	   -112.94673522	     15.07209818	      7.81927110	     70.24952419	     -1.58731801	     -0.75303648	      0.00000000	      0.00000000	      0.00000000	      0.55945145	     -1.27573701	     -1.13069784	      0.00000000	     -0.00000000	      0.00000000	      0.00000000	     -0.00000000	     -0.00000000	     -2.15080565	      0.31399985	     -1.15037496	      0.00000000	     -0.00000000	      0.00000000
     12.89599461	    144.56301123	    492.96306807	      6.93044016	      7.12782107	      6.46848279	     99.05512009	      8.62667405	     83.62442297	    106.84949620	     15.80351522	      6.36211963	     13.56954282	     13.80324847	    103.37298565	     17.11861886	     23.36638718	     13.67406654	     20.31082559	     14.63690055	     16.28949034	    112.51280021	    127.84724381	    136.31386494	     50.82023874	    929.41165643	     26.04269766	    105.70690593	    314.74464785	   1310.90973078	    744.95100652	     63.08173478	      3.39898540	      5.99187000	     80.14172725	    160.37209753	    270.56057851	     24.64538929	     25.63046909	     78.89020387	     41.25234575	     -2.40245161	     10.43371985	     21.33955350	      0.48877937	    -16.11687444	     -1.74808410	      0.12425292	     -0.01239995	     -0.00477199	      0.05125001	      0.01283448	     -0.00321217	   -123.01770323	     24.77787158	      6.96695219	     74.65148245	     -1.64474387	     -0.32420892	      0.00000000	      0.00000000	      0.00000000	      0.78725259	     -1.14382764	     -1.17750222	      0.00000000	     -0.00000000	      0.00000000	      0.00000001	     -0.00000001	     -0.00000000	     -2.10623645	      0.42543464	     -1.20574981	      0.00000000	     -0.00000000	      0.00000000
     12.91226126	    141.09821522	    493.94928942	      6.95732044	      7.20198464	      6.51623563	     92.55381801	      7.12810609	     44.17451906	     81.34987846	     12.20250793	      6.37834851	     13.60172167	     12.12001530	     18.37173540	     16.98380888	     23.34893339	     13.76913678	     80.01515179	     14.56683361	     16.16794789	    115.93316460	    127.89937202	    134.28668613	     36.75117115	    892.47573665	     21.06264920	     84.35723267	    424.08816513	   1254.66713709	    753.41754001	     51.90988942	      1.90889504	      5.83103034	     80.59944211	    147.57123804	    201.91553143	     24.49362459	     23.93773253	     74.24814472	     38.83888783	    -20.90177230	    100.69444229	     15.67405865	      1.16252494	     -8.54367685	    -10.66567083	      0.11822716	     -0.01141795	     -0.00566600	      0.02781891	      0.00954105	     -0.00248532	   -112.63774781	     10.71632833	     16.69727349	     58.97598360	     -7.70859468	      9.83234322	     -0.00000000	     -0.00000000	     -0.00000000	      0.98138175	     -1.01194196	     -1.20300018	      0.00000000	      0.00000000	      0.00000000	    -43.96070434	    106.57160628	     18.91927226	      0.10526387	     -0.02472302	     -0.04593398	      0.00000000	      7.61631828	      0.00000000
     12.92852791	    139.44803007	    499.92235385	      7.04788279	      7.35571569	      6.31643929	     88.09909692	      5.66451913	      6.01141051	     81.03319474	     12.16800848	      6.34234205	     13.68871863	     11.35697272	     12.83688250	     16.89395699	     23.47073548	     14.12526172	    186.82827055	     14.95930940	     15.99410617	    115.68727837	    123.50612811	    122.05779479	     18.11758945	    883.90249368	     20.37532382	     81.75979261	    454.65835182	   1256.91371097	    720.42669052	     39.41240286	      1.61994424	      5.81291302	     82.43712887	    139.27615443	    205.12516751	     24.40931662	     40.47983306	    241.34538932	     79.51145396	     -7.36226314	    -22.00343862	    -17.81981127	     -8.72926820	      9.11738648	     -5.23071549	      0.11878284	     -0.01174549	     -0.00657321	     -0.00184685	      0.00972504	     -0.00243208	   -130.22477298	    -43.34835314	     25.22061023	     25.87135118	    -34.33568432	     27.43818991	     -0.00000000	     -0.00000000	     -0.00000000	      1.13357336	     -0.89632858	     -1.21710798	      0.00000000	      0.00000000	      0.00000000	   -127.56635712	    550.60841420	     44.57468110	      0.11032240	     -0.01399985	     -0.03734764	      0.00000000	      8.00471245	      0.00000000
     12.94479457	    131.83452444	    480.64456116	      7.19519268	      7.59092543	      6.33955872	     82.06940515	      4.62687129	      5.34577969	     78.10720436	     11.76321743	      6.31319001	     13.77434828	     10.83524532	      7.62399142	     17.01883805	     23.90293337	     14.76976273	    225.56825612	     22.77662259	     17.72770358	    108.33032966	    115.51579363	    108.77634448	     12.66796943	    854.24830742	     18.93783116	     76.85577670	    462.43826939	   1255.96766118	    553.99269734	     41.60042126	      1.70633151	      5.96290372	     84.88166411	    127.47849485	    202.13218420	     24.24266198	     67.58019444	    636.72633429	    165.47851620	      1.50415958	    -46.22863274	    -39.55938104	     -6.22862998	     26.23506085	     -0.56758126	      0.12067770	     -0.01244197	     -0.00745753	     -0.00600803	      0.00963961	     -0.00228993	   -121.63388348	    -91.69650398	     32.12608920	    -24.92859168	    -70.02392328	     45.07061265	     -0.00000000	     -0.00000000	     -0.00000000	      1.24045206	     -0.81222932	     -1.23095963	      0.00000000	      0.00000000	      0.00000000	   -191.21217359	    968.94881991	     40.29871578	      0.12387740	     -0.00613570	     -0.03105526	      0.00000000	      6.87951460	      0.00000000
     12.96106122	    103.53269420	    381.81454416	      7.39101787	      7.89755784	      6.38854737	     65.28128041	      4.30620904	      5.51663321	     69.99671417	     11.05001859	      6.26368631	     13.74880183	     10.12385675	      3.92617902	     17.27968929	     24.47671977	     15.56661372	    178.35796190	     23.17930157	     20.03253259	     83.83102483	     93.15756639	     86.43479413	      6.29015602	    705.03121363	     17.20356504	     64.66312173	    421.62416262	   1094.83167922	    402.69090156	     40.22415204	      1.82674748	      6.27540117	     86.59766427	    104.35009049	    185.14534847	     23.80761556	     74.95868898	    834.19969963	    195.74674108	      7.83725702	    -23.14167884	    -23.53740496	     -1.02483287	     16.18811089	      0.08209493	      0.10785633	     -0.01144592	     -0.00738467	     -0.00889396	      0.00877404	     -0.00192351	    -92.09147466	   -113.51381794	     35.65303641	    -94.73901227	   -108.99352563	     65.45322730	      0.00000000	      0.00000000	      0.00000000	      1.30418353	     -0.77325316	     -1.24911475	      0.00000000	     -0.00000000	      0.00000000	   -223.37195485	   1334.38532322	     14.49599657	      0.13523736	     -0.00148062	     -0.02965441	      0.00000000	      5.30062526	      0.00000000
     12.97732787	     58.56538542	    229.09718382	      7.61912749	      8.24243846	      6.46434240	     35.40537507	      4.86432729	      5.72619246	     60.36518101	      9.59509827	      6.10237427	     13.56735059	      9.34212521	      2.37332995	     17.40713813	     24.78547245	     16.26751368	    149.56180102	     18.91556665	     16.83801004	     57.52436549	     64.21493950	     56.61233257	      3.32288815	    485.15403244	     14.73895146	     52.15091992	    269.51641196	    783.99078912	    289.97998462	     33.55556192	      1.82228581	      6.69942191	     86.85082990	     75.19713523	    160.02926529	     23.05719703	     63.09479483	    697.10300868	    168.63621797	      9.97074187	      4.87849180	     20.34641583	      2.32835420	    -13.85938514	      1.47572032	      0.07896902	     -0.00933959	     -0.00536608	     -0.00786266	      0.00745052	     -0.00151206	    -52.86475275	   -116.86158730	     37.72166593	   -172.83497769	   -143.46594654	     85.85676067	      0.00000000	      0.00000000	      0.00000000	      1.32882982	     -0.79042630	     -1.26785353	      0.00000000	     -0.00000000	      0.00000000	   -217.13714141	   1618.75360006	     -5.99593395	      0.14310041	     -0.00023892	     -0.03187900	      0.00000000	      4.64386866	      0.00000000
     12.99359452	     23.22956846	    106.20351441	      7.84625433	      8.56646688	      6.58048543	     10.10181527	      6.48205850	      6.05076486	     53.81359360	      8.46090173	      5.91152849	     13.26974366	      8.72617697	      1.92688823	     17.16543016	     24.48605213	     16.61621625	    177.32620601	     17.80207321	     15.45240716	     41.10629627	     40.36787669	     29.19031738	      3.24356238	    290.07498252	     13.52907190	     45.84259575	     72.19701666	    459.10330838	    185.96419831	     21.78095254	      1.71171347	      7.13960197	     86.04719237	     49.09259686	    138.93336267	     22.12851903	     51.78666321	    564.13629493	    140.83139182	      4.50560950	     17.89224811	     42.03977977	      3.27979570	    -27.40550154	      3.07287734	      0.04626371	     -0.00655896	     -0.00211656	     -0.00641522	      0.00637328	     -0.00124619	    -17.70557923	   -124.49766007	     43.53665276	   -233.82110084	   -171.28213874	    102.34168446	      0.00000000	      0.00000000	      0.00000000	      1.31486270	     -0.87060133	     -1.27893678	      0.00000000	     -0.00000000	      0.00000000	   -171.53078364	   1803.40138653	     -2.53068048	      0.14990777	     -0.00099645	     -0.03657205	      0.00000000	      5.62630411	      0.00000000
     13.00986117	     30.08171058	     76.80728030	      8.04504382	      8.82366092	      6.79223681	      7.66240610	      9.09016147	      6.33374738	     52.99694803	      8.09485164	      5.73342127	     12.95896487	      8.50210340	      1.85489724	     16.51299876	     23.52981050	     16.47424763	    246.72476358	     13.15902671	     14.62517684	     39.39851390	     21.16805252	      6.74520394	      3.41254445	    168.95601281	     14.02816938	     48.33829592	     15.02146044	    205.90360955	     79.85109796	      5.06874868	      1.69569664	      7.51971218	     85.48494983	     24.26787748	    130.27125411	     21.28192752	     48.52941615	    525.10853576	    133.96350704	     -4.69487402	     12.41359838	     17.34973035	      2.18951250	     -9.42877967	      1.68663885	      0.01685378	     -0.00032690	      0.00311965	     -0.00613845	      0.00601168	     -0.00119346	      3.93530833	   -141.01197814	     51.64635176	   -256.50004406	   -193.47548615	    112.73982890	      0.00000000	      0.00000000	      0.00000000	      1.25550267	     -1.01293049	     -1.27447947	      0.00000000	     -0.00000000	      0.00000000	    -91.88948055	   1885.32440635	     18.80686095	      0.15799284	     -0.00162075	     -0.04267074	      0.00000000	      7.47470994	      0.00000000
     13.02612782	     34.67165877	     68.92308741	     10.41568706	     15.90074298	     12.79709453	     10.06419245	     12.08828066	      6.92117172	     56.49535758	      8.55011659	      5.75118404	     12.75940200	      8.89320054	      2.01280874	     15.67016721	     22.20020641	     15.95946567	    233.47325863	     13.71072995	     13.72174237	     33.90152943	     15.17651729	      6.36539246	      3.96633594	    102.69012922	     16.83498273	     57.02512981	     13.14651809	     95.78774755	     30.61913193	      3.48093177	      2.10763062	      8.16472484	     86.29873248	     11.95807312	    132.38794744	     20.80986446	     45.08682307	    482.54311986	    124.60546785	     -7.97202465	     -2.43073111	    -17.73267776	     -0.89800205	     13.53226652	     -1.30210510	      0.00460661	      0.00254529	      0.00395985	     -0.00605998	      0.00630435	     -0.00129458	     12.11719689	   -147.75000537	     52.35677990	   -239.79353744	   -207.74599733	    116.11131825	     -0.00000000	     -0.00000000	     -0.00000000	      1.13753247	     -1.20381015	     -1.25154935	      0.00000000	      0.00000000	      0.00000000	     11.88220510	   1866.41446079	     38.00284230	      0.16704884	     -0.00096902	     -0.04837083	      0.00000000	      8.77068498	      0.00000000
     13.04239447	     29.15109493	     56.35115183	     11.80660605	     19.42709789	     13.32409361	      9.83510395	     14.50456576	      7.20910285	     60.42740958	      8.92323043	      5.70944051	     12.75576549	     10.13403903	      2.32509453	     14.82549779	     20.85676555	     15.31621692	    178.58972124	     15.66515698	     12.87474073	     26.35167695	     13.14756946	      6.50705962	      4.23571728	     71.41019584	     19.37154965	     68.61203328	     11.49462543	     65.73281757	     21.34964360	      3.57332898	      2.64069760	      8.70986109	     88.45702601	      9.25868445	    137.34659684	     20.96376430	     33.32081519	    339.51323253	     88.57729389	     -4.51548157	    -13.27206592	    -19.49907738	     -4.26109967	     11.98564310	     -1.50803743	      0.00213120	      0.00245107	      0.00285250	     -0.00470173	      0.00682180	     -0.00147237	     15.79930137	   -129.14427526	     40.69634219	   -197.89038485	   -208.17728300	    112.16978612	      0.00000000	     -0.00000000	     -0.00000000	      0.94714544	     -1.41420808	     -1.21686518	      0.00000000	      0.00000000	      0.00000000	    123.62693762	   1746.45889940	     41.12983064	      0.17485775	      0.00010767	     -0.05166163	      0.00000000	      8.77182534	      0.00000000
     13.05866112	     18.84703079	     36.67029066	     10.28670895	     14.81024259	     10.08350664	      7.98057567	     15.81751747	      7.58868304	     61.04776862	      9.01429906	      5.78322226	     12.94920681	     12.34520123	      3.17208369	     14.07511698	     19.67253676	     14.44842277	    124.61721716	     16.14709216	     12.19412514	     18.75437830	     11.00879690	      6.44686288	      4.37908484	     46.29583231	     20.98082523	     77.31276241	     10.26513219	     45.51745972	     16.26092066	      3.76294035	      3.68209744	      8.93020099	     90.84687241	      8.27457032	    139.08713863	     21.72220391	     19.01044401	     98.82900554	     36.65679905	     -1.44309369	    -11.03874937	      5.86801782	     -3.90858837	     -7.89708524	      2.19437247	      0.00107000	      0.00158362	      0.00175053	     -0.00149849	      0.00707593	     -0.00162599	     23.51636638	    -93.60233521	     23.09822606	   -144.39859981	   -191.21852102	    101.48206479	      0.00000000	     -0.00000000	     -0.00000000	      0.67893074	     -1.60417902	     -1.18762625	      0.00000000	      0.00000000	      0.00000000	    220.24210170	   1524.67747459	     27.93638238	      0.18045687	     -0.00022520	     -0.05208878	      0.00000000	      7.59612145	      0.00000000
     13.07492777	      6.93804335	      9.77862911	      7.95161264	      8.57676707	      6.78136107	      5.86449745	     64.88366706	     49.22200415	     58.81267542	      8.93725550	      6.00334054	     13.28051573	     15.33973316	      6.88928683	     15.07770314	     18.96251312	     13.72420007	     63.33355761	     28.06941717	     31.24051085	      9.79816734	     12.47043296	      9.60070299	     11.31466298	     39.85439446	     21.27835890	     80.70362253	     24.14124857	     61.91010692	     14.79933575	     25.21968407	     13.00486869	     35.13189837	     92.28455004	     21.02422042	    138.91881172	     22.85392869	     14.61849818	     47.89273901	     25.26550875	      1.79547909	     -1.33963202	     17.93873719	      2.85478956	    -15.71899765	      3.66620717	      0.00657683	     -0.00381760	     -0.00090090	      0.02374265	      0.00695206	     -0.00172625	     34.30613727	    -65.14073556	      9.08520811	    -86.25573861	   -161.53313868	     86.11758125	      0.00000000	     -0.00000000	     -0.00000000	      0.34211163	     -1.73486586	     -1.18254603	      0.00000000	      0.00000000	      0.00000000	    276.01212033	   1215.55952100	      6.87172292	      0.18729525	     -0.00231393	     -0.05141687	      0.00000000	      5.54999675	      0.00000000
     13.09119442	      7.05925414	      9.96020861	      7.92234274	      8.51771466	      6.78516180	      5.85417731	     78.81506791	     61.16558558	     57.28496133	      9.15280330	      6.23618329	     13.63219153	     18.28127420	     18.68325854	     51.67740255	     38.77250890	     13.35838760	     25.63185119	     32.96223465	     54.71367329	      6.40291943	     10.41346263	     10.66205169	      9.07699975	     17.46799563	     20.68507876	     80.80370036	     37.93670251	     31.59813607	     16.97390411	     27.60696610	     42.43726753	     34.97842950	     92.34726054	     22.26551491	    143.34366644	     23.99492906	     15.02892385	     48.94537559	     25.85826994	      7.37593535	      3.31024848	     -2.37747048	      9.65962696	      2.48471463	     -3.36092315	      0.00609802	     -0.00605345	     -0.00187110	      0.02316469	      0.00677629	     -0.00182375	     37.74964849	    -54.75776618	      1.41381497	    -29.39686912	   -128.36477477	     68.19513044	     -0.00000000	      0.00000000	      0.00000000	     -0.04230358	     -1.78094056	     -1.20671414	      0.00000000	     -0.00000000	      0.00000000	    273.79397037	    858.25840246	    -12.50558699	      0.20341537	     -0.00243061	     -0.05176034	      0.00000000	      2.65293425	      0.00000000
     13.10746107	      7.33326201	     10.29525339	      8.33347953	      9.00934265	      6.96546652	      5.96447213	     82.38672711	     17.14911100	     54.99028107	      9.37563266	      6.45228858	     13.93046448	     20.53308153	     27.42162739	     74.62593964	    130.07573420	     19.80338661	     18.93956112	     19.00322028	     40.84042221	      6.49494410	      7.29697259	      7.14715249	      4.61608014	     14.65842331	     19.29447047	     76.75221846	     22.73984971	     21.84393817	     17.28750618	      6.10591048	     66.85799196	     19.45083870	     91.46153276	      6.20103383	    145.26990200	     24.81981305	     16.05618107	     50.77465271	     27.18769476	      5.94473394	      1.61398116	    -28.79337071	      4.62202540	     24.93679447	    -11.78944077	     -0.00218004	     -0.00333311	     -0.00108854	      0.00480570	      0.00636908	     -0.00184796	     28.27822181	    -44.37347614	     -2.56846432	     14.89193771	    -95.17905105	     48.18455169	     -0.00000000	      0.00000000	      0.00000000	     -0.45090701	     -1.73592191	     -1.24324218	      0.00000000	     -0.00000000	      0.00000000	    217.26708937	    511.93413973	    -23.93057915	      0.23608470	      0.00839676	     -0.05270597	      0.00000000	     -1.13138379	      0.00000000
     13.12372772	      7.82186991	     10.82016719	     16.52626798	     12.84090081	     10.20469931	      7.28526805	    108.69840737	      8.79052972	     53.14544314	      9.39932782	      6.48427458	     14.00936591	     22.31105717	     38.60465786	     80.23476748	    171.64983140	    106.80799158	     16.89670813	     10.54585988	     17.91657215	      5.97647472	      6.03874415	      5.01103389	      4.64563484	     14.69009749	     17.23803424	     69.46444642	     14.60936323	     21.93501222	     17.87938020	      3.84966396	     74.15350255	     14.44263549	     90.21757448	      5.38242716	    148.41704481	     24.97828920	     23.16995337	    176.14890053	     50.34128280	     -4.93527570	      4.39508116	    -22.63149007	     -9.40970591	     19.82972242	     -6.29946371	     -0.00480254	     -0.00054380	     -0.00171195	     -0.00274577	      0.00604414	     -0.00176498	     21.22375433	    -10.00060269	     -3.94831257	     34.12393609	    -58.58617329	     27.76928047	     -0.00000000	      0.00000000	      0.00000000	     -0.86344070	     -1.60977181	     -1.25942328	      0.00000000	     -0.00000000	      0.00000000	    132.60486837	    234.10669269	    -26.16688009	      0.28336182	      0.04063943	     -0.05117953	      0.00000000	     -5.39863560	      0.00000000
     13.13999437	     11.66061118	     12.56873620	     32.38186655	     18.60354585	     27.85098358	     24.85281639	    178.16132343	      9.34023852	     49.79869715	      9.22476993	      6.44574687	     13.88810503	     23.94235974	     45.16026103	     77.66191433	    185.14434369	    163.43420488	     16.33608555	     10.06257362	     10.69245188	      5.82675880	      5.79235168	      4.64984810	      6.47805293	     14.88330450	     15.42822777	     59.00683870	     11.81474854	     22.36439732	     18.18690775	      3.92448562	    140.75143041	     21.29400167	     88.87466147	      5.16568695	    145.25222037	     24.42216371	     30.61722021	    264.77966128	     75.05337621	     -8.62211406	     15.40466961	     13.62572069	    -14.56441092	    -10.89435987	     12.47662667	     -0.00478787	      0.00160551	     -0.00292350	     -0.00371134	      0.00561795	     -0.00150329	     36.10841220	     38.87113428	     -2.60203560	     27.17075203	    -20.66399236	     12.42792078	     -0.00000000	      0.00000000	      0.00000000	     -1.25988119	     -1.42291728	     -1.22391674	      0.00000000	     -0.00000000	      0.00000000	     55.38841896	     55.18230570	    -22.72334566	      0.33145491	      0.09651670	     -0.04566245	      0.00000000	     -9.19426043	      0.00000000
     13.15626102	     14.24178861	     13.44188445	     43.43536741	     44.24614520	     32.87394473	     19.63427279	    243.90376764	      9.60360378	     47.51552062	      8.78175086	      6.13645670	     13.49454774	     25.49912226	     49.29137047	     60.74555980	    154.38444861	    157.46169088	     15.96689327	      9.88819615	     10.85820464	      5.75140213	      5.65631137	      4.52066622	      6.64856829	     15.18202172	     14.16671709	     51.19093677	      8.22176501	     22.63132433	     18.27719075	      3.86629940	    385.33143016	     40.36718877	     87.11565583	      5.00591866	    138.11865842	     23.17612399	     37.24956136	    350.10901905	     97.03895655	     10.53619180	     -1.17471174	     21.32404496	     12.34387477	    -14.58117926	      6.59149982	     -0.00762507	      0.00199029	     -0.00114328	     -0.00418826	      0.00526859	     -0.00122998	     76.30539338	     39.32204471	      5.01873164	      1.61662573	      1.15363455	      1.48744850	      0.00000000	     -0.00000000	     -0.00000000	     -1.61637817	     -1.19931747	     -1.12661641	      0.00000000	      0.00000000	      0.00000000	      0.00000416	      0.00000297	     -0.00000211	     -0.56421674	     -1.47747729	     -0.83130523	      0.00000000	     -0.00000095	      0.00000000
     13.17252767	     13.07280058	     14.56411076	     46.91131678	     66.16059278	     29.35598515	      8.65135826	    285.26551468	      9.78095458	     48.07852121	      8.52335166	      5.78493417	     12.89437840	     26.63613141	     52.57756679	     49.02935618	    123.51505192	    127.54265078	     55.18603522	     20.02554314	     15.61451438	      7.70619421	      6.49768281	      4.94305581	      6.46854288	     15.59004589	     14.54289910	     49.03543225	      7.48376235	     23.03383556	     18.33203143	      3.87310298	    711.28473007	     59.15653997	     84.84608210	      4.94431243	    130.99662635	     21.44553739	     38.51811555	    363.61209107	    100.81932893	      3.20653669	     -9.23496516	     18.23780728	      8.01357729	    -15.84555112	      5.01738554	     -0.00994525	      0.00176183	      0.00113118	     -0.00378479	      0.00510151	     -0.00106585	     90.04828975	     36.10997625	      5.15481297	     -5.80701004	      2.36556973	      1.03129883	      0.00000000	     -0.00000000	     -0.00000000	     -1.90911135	     -0.95977386	     -0.99068174	      0.00000000	      0.00000000	      0.00000000	      0.00000000	      0.00000000	     -0.00000000	     -0.31327616	     -1.51986876	     -0.85309644	      0.00000000	     -0.00000000	      0.00000000
     13.18879432	     11.15579816	     13.88781706	     46.13077100	     68.69339520	     26.35568273	      7.87081034	    320.86236884	      9.82685685	     49.79283920	      8.38177385	      5.39379783	     12.22712857	     26.94448233	     54.29917694	     56.21739349	    133.22903121	    120.31128936	    115.99948563	     35.83185702	     23.33832818	     13.81113277	      8.87868951	      5.71836569	      6.94003461	     15.95807982	     15.79764260	     49.22918206	      8.37641343	     23.40563329	     19.09014492	      3.87783451	    964.06294332	     68.69137746	     82.76387117	      4.96487590	    123.12669621	     19.80136042	     32.12366054	    290.86177947	     81.26865621	      0.74381403	      6.19068298	     -0.08101899	      3.98467415	     -2.04873227	     -7.34367213	     -0.01078576	      0.00145266	      0.00157488	     -0.00272048	      0.00500979	     -0.00098741	    101.21031010	     15.74069860	      3.93509915	    -14.32250449	      3.42796722	     -0.09498865	      0.00000000	     -0.00000000	     -0.00000000	     -2.12373011	     -0.72036255	     -0.86501750	      0.00000000	      0.00000000	      0.00000000	      0.00000000	      0.00000000	     -0.00000000	     -0.13456381	     -1.52403494	     -0.86638573	      0.00000000	     -0.00000000	      0.00000000
     13.20506097	     10.25292361	     13.77559110	     45.99165605	     69.11015209	     24.34375596	      7.73571626	    352.50187311	      9.51468599	     48.48486390	      7.74554494	      5.14300903	     11.77314382	     26.40651599	     53.76146864	     68.97822448	    157.33621811	    124.39287724	    138.84071976	     45.83227681	     32.29872739	     16.05889917	     10.20649620	      6.25293380	      7.29007614	     16.23370186	     15.53178128	     46.55446978	      9.33705950	     23.65268133	     19.81250451	      3.86768071	   1149.68171832	     76.41912025	     81.88895635	      5.06149929	    110.22393928	     18.95182007	     23.92311024	    171.07328965	     50.85465711	     -1.53277644	      6.37014197	     -8.91199983	      0.22014094	      6.18473269	    -12.77211811	     -0.01179776	      0.00117324	      0.00163373	     -0.00133445	      0.00476059	     -0.00091392	    111.48766273	      5.73731225	      1.79800600	    -19.76768994	      3.79374964	     -0.98491460	     -0.00000000	      0.00000000	      0.00000000	     -2.26005199	     -0.49853566	     -0.79565333	      0.00000000	     -0.00000000	      0.00000000	     -0.00000000	     -0.00000000	      0.00000000	     -0.01890693	     -1.51384241	     -0.87620445	      0.00000000	      0.00000000	      0.00000000
     13.22132762	     12.23371216	     14.59609351	     50.02446626	     71.51635283	     29.41620823	      7.94709818	    385.93418811	      9.63470766	     41.04178263	      7.05157568	      5.27795593	     11.71035974	     25.32075347	     51.60654634	     69.24303136	    163.18780341	    134.60462088	    125.43521161	     42.15911293	     30.13225533	     14.19278000	      9.30834492	      6.72756892	     10.45157128	     16.39705170	     14.02885145	     38.15183625	     10.68359207	     23.75417066	     21.32240721	      3.83653352	   1273.23474104	     87.43785139	     82.39223910	      5.24253247	     90.83702822	     19.31639923	     19.84498291	     56.09502523	     32.20697139	      0.97896545	    -26.35724910	     -5.54628596	     -3.00851667	      6.43292035	     -4.16625817	     -0.01219548	      0.00193064	      0.00167740	      0.00143207	      0.00405990	     -0.00079638	    116.43964616	     11.82863186	     -1.81143433	    -21.22483369	      3.70721352	     -1.38841234	     -0.00000000	      0.00000000	      0.00000000	     -2.32978631	     -0.31575149	     -0.79391381	      0.00000000	     -0.00000000	      0.00000000	     -0.00000000	     -0.00000000	      0.00000000	      0.06629773	     -1.50378899	     -0.88386678	      0.00000000	      0.00000000	      0.00000000
     13.23759427	     11.20386191	     13.90160729	     40.31841846	     56.29009685	     24.63890946	      7.67817474	    413.23853346	     25.88861058	     33.09848389	      5.56932670	      5.57585864	     12.26268403	     24.23339915	     51.11775554	     53.02308206	    129.82925695	    110.42778192	     95.93994695	     31.95013810	     20.80321271	     10.42073548	      6.52293870	      6.03207530	     15.46776916	     16.46440371	     10.48304449	     32.50373969	     12.74027573	     23.72686159	     24.24401273	      3.82394946	   1387.97386364	    103.06841153	     83.60727576	      5.52179667	     74.40744954	     21.13950039	     19.22540385	     57.76087481	     31.61511348	      5.37782147	    -64.25556611	     -6.03358222	     -5.55256732	      8.05914346	      6.99905180	     -0.00975342	      0.00187704	      0.00139177	      0.01143103	      0.00341651	     -0.00074799	    112.47192641	     16.94976445	     -4.98702670	    -20.33291025	      3.62549453	     -1.59271412	     -0.00000000	      0.00000000	      0.00000000	     -2.35322095	     -0.18652557	     -0.82868433	      0.00000000	     -0.00000000	      0.00000000	     -0.00000000	     -0.00000000	      0.00000000	      0.15707253	     -1.50129509	     -0.88491086	      0.00000000	      0.00000000	      0.00000000
     13.25386092	     10.59431933	     13.26195636	     37.48675978	     53.07803302	     21.16694691	      7.69723671	    397.80044005	     29.57539916	    119.05388883	     21.35675273	      6.09296525	     13.06490715	     22.46533525	    414.31792108	     57.35448937	    142.63791931	    112.78085842	    100.49807768	     36.08654825	     25.46836913	     10.40359622	      7.72960382	      7.23362002	     15.32456755	     16.37045652	     23.63993382	     79.33036472	     16.07602719	     23.50076288	     28.06909831	      3.79083458	   1225.34287319	    103.67755185	     85.21106100	      5.86352501	    332.70506037	     23.60711129	     21.32860837	     64.02199764	     34.78684843	     -0.81073707	    -29.72313011	    -19.02446950	     -4.70032612	     13.27035724	      6.11050321	     -0.01000717	      0.00160485	      0.00137093	      0.01552286	      0.01421546	     -0.00268537	    105.98397181	      6.46866744	     -3.54480058	    -20.48552848	      3.90187137	     -1.90884801	     -0.00000000	      0.00000000	      0.00000000	     -2.35415607	     -0.10712161	     -0.85125975	      0.00000000	     -0.00000000	      0.00000000	     -0.00000000	     -0.00000000	      0.00000000	      0.27677177	     -1.51026311	     -0.86747015	      0.00000000	      0.00000000	      0.00000000
     13.27012757	      8.35398951	     12.15571975	      7.50426400	      7.68425476	      6.85255491	      7.00939492	    352.84420857	     63.86577408	     89.05700394	     16.66703639	      6.68104423	     14.07638986	     21.60530762	    269.42877636	     52.76963455	     79.45842222	     12.35163333	     95.36200807	     59.74214854	     73.51294235	      8.70966470	     15.40645560	     19.57231547	     14.64606696	     16.32703583	     22.24291715	     87.51140422	    102.51134305	     23.28990724	     31.81054332	     16.11205168	   1125.05844520	    105.02048660	     88.33138521	      6.25788722	    257.44720677	     26.13764044	     23.65440521	     71.04712830	     38.26788572	    -31.21248932	    167.20129709	    -25.74839647	     -1.11217015	     10.20854021	     -4.14701248	     -0.00066860	     -0.00361786	     -0.00038661	      0.03803011	      0.01141468	     -0.00290314	    104.08991000	    -11.52005887	      2.22934617	    -24.01440721	      4.59409854	     -2.25824206	      0.01108050	     -0.01593993	     -0.00052873	     -2.35030959	     -0.06083228	     -0.82960143	      0.00000000	      0.00121385	      0.00000000	      0.00000000	      0.00000000	     -0.00000000	      0.42833923	     -1.53095317	     -0.81586004	      0.00000000	     -0.00000000	      0.00000000
     13.28639422	      7.84470625	     11.38345662	     10.40599779	     32.34241227	      6.68838709	      6.68705593	    252.96434821	     17.19976141	      7.37193406	      5.42058243	     24.09582657	     89.88558765	    167.63788650	     42.52597773	    183.30012333	    353.75069702	     86.17495870	    439.38585029	    206.01462465	    198.06159883	     39.32188828	     43.80668137	     45.38124992	      3.94901419	     15.78155424	      5.58604500	     12.70304428	    135.70646416	     22.59449236	     34.90890629	      3.87782107	    639.05644220	     63.70148574	    620.30387536	      8.57367654	     76.34533668	    372.55282602	     25.70886029	     77.23486965	     41.29835322	     17.10966669	     40.87827360	      7.10660806	      8.47349014	     -2.00558971	     -1.88674714	     -0.01511741	     -0.00561567	      0.00173469	      0.00975253	      0.00037363	      0.00283836	    103.68802951	    -17.64218146	      5.12386682	    -29.37145063	      5.30183397	     -2.24146052	   -107.94080167	    511.28172391	     -4.33476864	      0.12051081	      0.00980297	      0.01538978	      0.00000000	     -2.43950033	      0.00000000	      0.00000000	      0.00000000	     -0.00000000	      0.59480422	     -1.55931998	     -0.72174871	      0.00000000	     -0.00000000	      0.00000000
     13.30266087	      7.44905511	     10.76261630	      7.49813540	     23.63602300	      6.54185600	      6.42977837	    154.12892667	      7.46635022	      6.58815025	      4.63499980	     33.03561199	    126.76835428	     60.99017127	    148.54648692	    337.00288493	    613.36959708	     72.28606461	    874.80013652	    414.75953726	    405.44205705	     77.12145071	     91.57350762	     97.81437091	      3.44168618	     15.42638765	      5.35979321	     12.42715651	    311.23842873	     22.15011574	     37.11422353	      3.56895683	    351.78711417	     28.65584571	   1288.79970223	     39.10886852	     91.14450772	    530.16038886	     89.02531120	    835.73405526	    221.63273864	     26.39748865	   -112.36891051	     54.66175351	      1.44508634	    -30.92368233	     -0.02629165	     -0.02279105	     -0.01323316	      0.00242400	     -0.00240321	      0.00102168	      0.00400025	     94.44803705	     -8.29259631	      0.67059977	    -31.99549948	      5.38799111	     -1.65972332	   -197.36178839	   1156.47531489	      1.20399460	      0.10753492	      0.02137233	      0.00954804	      0.00000000	      2.76976477	      0.00000000	      0.00000000	      0.00000000	     -0.00000000	      0.74773142	     -1.59031316	     -0.59542721	      0.00000000	     -0.00000000	      0.00000000
     13.31892752	      7.31140699	     10.53735285	      7.48805791	      8.14167473	      6.52029406	      6.31714935	     41.57403379	      6.84580206	      6.26822382	      4.31884910	     35.16294174	    137.81843740	     33.43973779	    582.93595994	    369.07422718	    625.70991832	     13.37837412	   1093.20359524	    500.15742480	    477.77314219	     99.16624744	    117.06663924	    119.06625002	      3.43189952	     15.26955147	      5.59829041	     13.04284253	    352.88246354	     21.96763205	     38.27628965	      3.53608160	    115.88993592	      7.41875960	   1534.78707496	     71.35489116	    100.00302639	    566.21756245	    230.51519327	   2175.00649730	    571.04941077	      5.50184096	    -85.17869190	     48.45619951	      2.10522775	    -29.43206231	      4.84859947	     -0.02166401	     -0.01798679	      0.00247594	     -0.00628719	      0.00216061	      0.00478668	     70.52906889	      0.30264213	     -5.25450422	    -28.88082609	      4.60409570	     -0.81122128	   -249.49575209	   1583.52878093	     24.62128183	      0.10906983	      0.02746150	      0.00644599	      0.00000000	      8.41278673	      0.00000000	      0.00000000	      0.00000000	     -0.00000000	      0.85999769	     -1.62414854	     -0.46475795	      0.00000000	     -0.00000000	      0.00000000
     13.33519417	      7.50009637	     10.83618432	      7.49049536	      8.27674129	      6.56230374	      6.37891466	     15.37229752	      7.03635528	      6.22492635	      4.31297346	     32.07122759	    136.84091286	     83.89726827	     87.14048777	    337.93485030	    531.97820405	     13.10480561	   1146.91019738	    491.74208709	    447.59039098	    110.02298020	    123.19699138	    113.36554001	      3.50057213	     15.46428961	      6.21584828	     14.34200673	    291.75676190	     22.18239793	    256.58848603	      3.61887914	     21.82662014	      7.24512144	   2929.23639210	     88.50737173	     59.41661590	    511.93022708	    328.51232730	   3074.54884896	    807.12555077	    -14.18592376	      3.09398209	    -16.71840744	     -0.81423624	     10.11924550	      4.70774818	     -0.01901563	     -0.01967478	      0.00256424	     -0.00970220	      0.00089629	      0.00515759	     39.13199738	     -4.95387523	     -4.81464147	    -22.10634884	      3.40302153	     -0.19919172	   -257.38826071	   1792.16892338	     38.64953688	      0.12102303	      0.02803949	      0.00516443	      0.00000000	     11.62231164	      0.00000000	     -0.00000000	     -0.00000000	      0.00000000	      0.91396877	     -1.66786845	     -0.36047180	      0.00000000	      0.00000000	      0.00000000
     13.35146083	      7.96235499	     11.59029450	      7.41237698	      8.06566144	      6.61056801	      6.58019634	     14.82526477	      7.13421848	      6.36696978	      3.90713361	     37.77712248	    170.32185621	    144.58209203	    210.60866035	    290.93351512	    439.63086178	     12.69383142	   1228.65042759	    475.60311246	    396.80423943	    128.63241796	    130.40170284	    103.74749212	      3.62174518	     16.05377530	      6.97443302	     15.76912068	    210.48947088	     22.78454847	    549.78301530	      3.59999279	     21.07722251	      7.28748548	   3842.53242370	    103.57413591	     66.07192272	    591.57504857	    419.59988356	   3903.27591123	   1028.22633087	    -14.35949416	     51.74702497	    -67.04523874	     -3.11081271	     40.52532499	      1.53265936	     -0.01882742	     -0.02062543	      0.00330666	     -0.01425795	      0.00063433	      0.00735553	     14.14855317	    -17.93879628	      0.91651288	    -16.04233041	      2.47242916	     -0.08524545	   -223.24665422	   1850.11741225	     23.38653345	      0.13730036	      0.02454476	      0.00611595	      0.00000000	     10.74095194	      0.00000000	     -0.00000000	     -0.00000000	      0.00000000	      0.90042447	     -1.72924868	     -0.30051066	      0.00000000	      0.00000000	      0.00000000
     13.36772748	      8.54109544	     12.56674022	      7.24244801	      7.69380291	      6.62768003	      6.84772100	     14.41840445	      7.52447745	      6.63235328	      3.80322336	     47.35385845	    219.31914706	    246.10791354	    461.74150394	    244.53789316	    346.71956691	     12.06723511	   1464.61960208	    499.87424811	    371.38063724	    171.82619277	    155.14501086	    104.94257180	      3.77144149	     16.90752438	      7.57186331	     16.78527002	    153.83921605	     23.56995158	    793.26029234	      3.67661798	     21.04495488	      7.40190339	   4476.08187371	    140.03784562	     91.56276427	    725.45290442	    460.82029849	   4279.74899546	   1134.53365140	     -1.23772980	     40.88095287	    -43.31128199	     -2.91408354	     24.69132971	     -1.36794455	     -0.01934013	     -0.02365763	      0.00467315	     -0.01811033	      0.00029235	      0.01066583	      1.96472889	    -24.77765031	      5.27243519	    -12.03447154	      2.09409531	     -0.35061307	   -156.15077346	   1826.35624519	    -11.34269662	      0.15259168	      0.01898085	      0.00933645	      0.00000000	      6.88308346	      0.00000000	     -0.00000000	     -0.00000000	      0.00000000	      0.81385600	     -1.80950132	     -0.28421844	      0.00000000	      0.00000000	      0.00000000
     13.38399413	      9.09701982	     13.55214026	      7.03015784	      7.61114868	      6.62399045	      7.12292179	     13.98634607	      7.96202195	      6.98047148	      3.92367948	     52.07468179	    243.98753319	    349.30493705	    799.49132838	    178.16986956	    221.83585567	     11.37647392	   1708.83696455	    508.01376879	    326.62214921	    225.92999266	    180.07344857	    103.44847229	      3.92481862	     18.15505766	      7.87642061	     17.18933416	     97.96228716	     24.25611437	    928.27205753	      3.78285770	     21.16501770	      7.52279190	   4650.82233883	    183.25529017	     85.17090834	    788.83761710	    451.35251890	   4205.05185509	   1122.93412930	     11.12939899	      6.75977111	     20.98563621	     -0.50457672	    -15.44611375	     -1.75881535	     -0.01927994	     -0.02648821	      0.00660133	     -0.02020504	     -0.00198309	      0.01264440	     -2.31749854	    -22.07102079	      5.18423146	     -7.98898799	      2.03404695	     -0.68843607	    -68.19105608	   1752.42224980	    -38.74050855	      0.16439961	      0.01303660	      0.01270897	      0.00000000	      2.54707423	      0.00000000	     -0.00000000	     -0.00000000	      0.00000000	      0.65182503	     -1.90033245	     -0.29663776	      0.00000000	      0.00000000	      0.00000000
     13.40026078	      9.56943764	     14.43962669	      6.84649611	      6.83446943	      6.63972801	      7.38085067	     13.70549934	      8.31184265	      7.44821362	      3.66418375	     46.67380107	    221.34056478	    405.20773387	   1110.02137344	     85.11275951	     67.61595735	     10.78649402	   1677.07335215	    435.57930053	    235.26718254	    247.68347340	    174.64099056	     85.78791937	      4.06458491	     35.20047593	      7.89798680	     17.02568904	     37.70296208	     24.68957089	    948.66328899	      3.81875938	     21.59048017	      7.66509309	   4340.75480661	    197.86579713	     14.88365003	    708.86131057	    396.89649314	   3719.34779747	   1001.27746510	     11.54065200	    -17.91151615	     51.28699265	      2.63347748	    -32.64815716	      0.13836943	     -0.01661315	     -0.02609102	      0.00794325	     -0.01975288	     -0.00643038	      0.01148586	     -5.64978972	    -16.33354217	      2.61235996	     -2.47486792	      1.95331630	     -0.88268173	     27.44460970	   1623.90924956	    -40.49860541	      0.17286683	      0.00736588	      0.01326688	      0.00000000	     -0.45128277	      0.00000000	     -0.00000000	      0.00000000	      0.00000000	      0.41905294	     -1.98541165	     -0.31887910	      0.00000000	     -0.00000000	      0.00000000
     13.41652743	      9.94348434	     15.16694084	      6.74898376	      6.61807733	      6.71122391	      7.61867579	     13.70364543	      8.55895654	      8.07699287	      4.02300780	     27.18904083	    141.45819647	    404.25504185	   1340.06144244	     12.96745406	     16.19657407	     10.38070873	   1290.17409640	    286.85583576	    111.99481108	    213.25284315	    132.75322071	     54.44839469	      4.17748048	    162.51705630	      7.72994853	     16.49201860	      9.58932193	     24.81220674	    935.29388521	      4.04124937	     22.40351113	      7.84398404	   3710.48731812	    171.37480204	     15.27151284	    423.67843988	    300.22164688	   2829.32573924	    769.57184498	      0.48834702	    -23.53415366	     25.40235019	      4.05819228	    -13.83098496	     -0.09248997	     -0.00853085	     -0.02170272	      0.00764187	     -0.01603633	     -0.01232765	      0.00658086	     -9.26964183	    -12.85290393	      0.93884732	      2.92186544	      1.80085786	     -0.94127236	    115.52983315	   1423.57045131	    -18.49154499	      0.17957047	      0.00201634	      0.00986559	      0.00000000	     -1.73649888	      0.00000000	     -0.00000000	      0.00000000	      0.00000000	      0.13037775	     -2.04505986	     -0.34038107	      0.00000000	     -0.00000000	      0.00000000
     13.43279408	     10.20846373	     15.66057261	      6.75024167	      6.52120827	      6.84416075	      7.83403241	     13.94190760	      8.64425034	      8.85835747	      4.44523759	     11.43910179	     74.59987510	    360.04456901	   1297.34160949	     11.42276083	     15.60669036	     10.15093095	    749.66364564	    145.32000003	     33.62304090	    140.13487963	     82.05671657	     30.11983463	      4.25456898	    257.34959008	      7.52515345	     15.89567119	      8.38481336	     24.81198426	    910.55235118	      5.09727817	     23.40001547	      8.03034218	   2895.28056365	    124.61827636	     17.15651487	    180.27090343	    174.89004150	   1652.98879241	    455.32185510	     -8.99873461	    -13.90702819	    -15.41539482	      3.20693795	     12.96583096	     -3.75859714	      0.00421750	     -0.01603288	      0.00467534	     -0.00970898	     -0.01470406	      0.00246483	    -10.74898478	    -11.05301406	      1.55136166	      5.38676244	      1.73838162	     -0.94501266	    178.25310998	   1149.63607356	     11.38680333	      0.18697287	     -0.00240512	      0.00401308	      0.00000000	     -1.91957774	      0.00000000	     -0.00000000	      0.00000000	      0.00000000	     -0.19232390	     -2.06222430	     -0.36661905	      0.00000000	     -0.00000000	      0.00000000
     13.44906073	     10.33899465	     15.83725336	      6.82740391	      6.54895593	      7.00985839	      8.01055752	     14.25495797	      8.70747067	      9.72265864	      4.86193323	      7.26878767	     45.08927212	    297.13114167	    852.08746088	     11.31120500	     15.48277645	     10.06398148	    359.01930480	     75.34560901	     27.78077334	     75.38942136	     48.84552368	     21.19456305	      4.27904660	    242.81280215	      7.81947042	     23.86929398	      9.24054363	    110.32542021	    705.61593833	      9.00015257	     24.23401066	      8.17914654	   2249.29483975	     78.12914259	     19.09394409	     77.06416976	     61.22170441	    575.24130288	    160.61736555	     -7.56314751	      0.84252369	    -27.87613723	      0.94900703	     19.17599436	     -5.31414509	      0.01218802	     -0.01107351	      0.00107623	     -0.00339181	     -0.01391966	      0.00064258	     -9.65163631	     -8.30110766	      3.38137792	      4.18493701	      1.82487504	     -0.90012922	    200.06257113	    827.71829740	     33.27716174	      0.19838111	     -0.00409125	     -0.00184942	      0.00000000	     -1.97790676	      0.00000000	      0.00000000	     -0.00000000	     -0.00000000	     -0.52712447	     -2.02577038	     -0.41625277	      0.00000000	      0.00000000	      0.00000000
     13.46532738	     10.30217720	     15.64933797	      6.93324014	      6.64515933	      7.15683060	      8.11302660	     14.46262184	     16.62689601	     10.52395958	      5.17466894	      8.25056170	     37.53035962	    194.97066954	    730.10313119	     11.20428965	     15.40828945	     10.08786595	    208.67219003	     38.77009371	     12.90257730	     51.56763227	     33.55126586	     14.29873432	      4.27991725	    247.19847590	      7.64937792	     16.14523682	      8.49794553	    189.96600796	    281.14686642	     11.92927569	     24.68426942	      8.27932399	   1290.91108073	     51.45810585	     20.77604499	     91.65908288	     19.27962480	     57.83770305	     31.68424813	      0.28046433	      9.26829631	    -10.62056411	     -1.83936965	      5.34914690	     -0.75800685	      0.01568171	     -0.00871098	      0.00018879	      0.00688220	     -0.00768429	      0.00087627	     -8.79096485	     -3.72946489	      4.74447184	      2.04460103	      1.94158312	     -0.78912081	    177.34705561	    506.00165936	     40.13104894	      0.21704475	      0.00010143	     -0.00661358	      0.00000000	     -2.92010532	      0.00000000	      0.00000000	     -0.00000000	     -0.00000000	     -0.85680948	     -1.92872275	     -0.50839430	      0.00000000	      0.00000000	      0.00000000
     13.48159403	     10.18461337	     17.12036317	      7.02836924	      6.78084006	      7.24713871	      8.07253126	     14.55908404	     44.71258805	     11.01721386	      5.71186389	      9.31383818	     29.91012952	    173.00622986	    712.17339467	     11.08916008	     15.43854877	     10.19626236	    110.18898263	      8.44293773	      8.25752305	     63.00126104	      5.58319375	      4.40615259	      4.30914962	    452.95145482	      7.27671223	     15.11150983	      5.64429113	    150.39978898	     27.28556914	     10.77400545	    313.54466842	     29.76140119	    327.52842649	     28.15568376	     25.32608048	    109.00874727	     20.00301363	     60.04201445	     32.83723738	      3.67832045	     13.16186452	      8.52467008	     -5.87367726	     -7.78179712	      5.99446515	      0.01178466	     -0.00774323	      0.00983813	      0.02306280	     -0.00096879	      0.00153217	    -11.36345574	      2.03248892	      4.51101543	      3.53865271	      1.94855309	     -0.64524469	    124.08827503	    236.33062748	     34.68199517	      0.24417380	      0.01415355	     -0.01162566	      0.00000000	     -5.22850729	      0.00000000	      0.00000000	     -0.00000000	     -0.00000000	     -1.16905803	     -1.76470072	     -0.64738998	      0.00000000	      0.00000000	      0.00000000
     13.49786068	     13.44216266	    116.39333621	     21.32835330	    117.00734856	      7.58490067	      7.94524249	     32.01572640	      8.97649739	     79.47322412	     14.91235580	      5.45411667	     10.51963675	     13.03371040	    737.45835352	     11.14342591	     15.69560381	     10.37261804	     14.34577992	      8.21528198	      7.96036608	     51.53135539	      5.38199509	      4.10873003	      3.93843058	    794.46024921	     11.47427551	     25.26500643	      4.58906775	     22.21795025	     29.14193078	      3.51807868	    875.18517450	     83.84042047	     43.24856863	      5.35708867	    255.97129169	     18.82708768	     39.44366084	    280.52571623	     83.92265044	     -1.83402818	     22.98983619	      6.76996616	    -12.97218923	     -3.52910480	      7.13046515	     -0.03912949	      0.00124744	      0.04807914	     -0.00120843	      0.00594019	     -0.00086340	    -18.40991023	      7.54003111	      2.97772069	     10.72087356	      1.79417505	     -0.53520757	     67.20998338	     53.44983544	     25.01153805	      0.27924829	      0.04228988	     -0.01869167	      0.00000000	     -8.26574726	      0.00000000	      0.00000000	     -0.00000000	     -0.00000000	     -1.45474972	     -1.52885524	     -0.81422011	      0.00000000	      0.00000000	      0.00000000
     13.51412733	     55.66574430	    212.98977195	      7.11143000	      6.88295910	      9.02897675	     58.13857975	     13.73031601	     65.74806643	    125.49735658	     18.72511232	      5.11233853	     10.52561786	    255.89897753	     26.18946428	     11.38981079	     16.14757502	     10.60032487	     14.54682141	     12.93761300	     41.90681779	     22.04294034	     34.28860793	     22.97840060	     39.10160787	    428.74636581	     23.37643323	     82.10518210	     11.85117346	    697.99291272	     31.13623961	     22.05692391	    144.58769703	     33.56551780	     49.24808068	     26.99135793	    306.87851827	     18.94330625	     23.29625876	     69.81158778	     37.78477431	     16.52703612	      1.64425445	     10.12527232	     20.59843661	     -9.39765211	     -0.86099652	      0.05051592	     -0.00824184	     -0.00479991	      0.04190683	      0.00983946	     -0.00231925	    -27.73819441	     10.77952139	      1.49987659	     21.23577769	      1.47256046	     -0.49351557	     -0.00000026	     -0.00000016	     -0.00000010	     -0.77899896	     -1.50273301	     -0.80034421	      0.00000000	      0.00000004	      0.00000000	     -0.00000000	      0.00000000	      0.00000000	     -1.70732406	     -1.22451210	     -0.97127574	      0.00000000	     -0.00000000	      0.00000000
     13.53039398	     74.54569475	    222.76146817	      7.50427624	      6.92958285	     31.15408416	     67.20795257	     49.81216503	     57.35315358	     75.32969160	     12.15218831	      5.39614360	     11.15142125	     18.42686657	     99.26511805	     11.74961921	     16.61870699	     10.85761106	     14.77217348	      9.25351041	     12.91171857	      7.37323204	     14.31802887	     14.54981626	     38.57331640	    302.47510892	     13.78264867	     35.81994649	      2.30739271	    554.31622385	     32.25157256	     16.20370834	    268.08193791	     60.37305101	     61.26055263	      7.21158440	    199.16951390	     20.06347568	     25.11094074	     75.30883986	     40.47550321	     -3.99127031	    -17.57632227	     -4.03133225	      3.10929707	      2.49956589	     -4.25974459	      0.03991381	     -0.00372059	     -0.00350587	      0.03826761	      0.00797674	     -0.00140000	    -36.40723337	      9.88315600	      2.05126860	     28.51659048	      1.06315327	     -0.49213555	     -0.00000000	     -0.00000000	     -0.00000000	     -0.53558939	     -1.63877779	     -0.67824602	      0.00000000	      0.00000000	      0.00000000	     -0.00000000	      0.00000000	      0.00000000	     -1.92298266	     -0.86740415	     -1.07942229	      0.00000000	     -0.00000000	      0.00000000
     13.54666063	     48.64560813	    203.55048433	      8.91678101	      7.28532642	     22.98023653	      7.86551477	     68.96261610	     46.74633358	     91.82659424	     13.93660984	      5.68933072	     12.09992109	     18.11596057	     99.63493034	     12.11288068	     16.97301516	     11.10347280	     15.04032581	      9.18232224	      9.21871610	      5.90990439	      5.91693647	      5.01205326	     14.82361687	    401.91443946	     18.05630228	     57.43645111	      0.77847744	    266.65804395	     32.21000210	     10.29643672	    318.93209871	     69.97258891	     77.75264559	      5.40532762	    227.44284698	     21.81957856	     26.66643494	     80.19190971	     42.77595365	     -2.78363585	    -18.89479939	      2.14671915	    -11.46109361	     -1.87876958	      4.06480455	      0.02032494	     -0.00189647	      0.01170954	      0.03203720	      0.01285983	     -0.00231781	    -41.96898693	      6.26027134	      3.77422340	     30.75429399	      0.66731443	     -0.50330733	     -0.00000000	     -0.00000000	     -0.00000000	     -0.30612150	     -1.72729558	     -0.53690960	      0.00000000	      0.00000000	      0.00000000	     -0.00000000	      0.00000000	      0.00000000	     -2.09913748	     -0.48045652	     -1.11592343	      0.00000000	     -0.00000000	      0.00000000
