FiberActivePower
version=1
nRows=51
nColumns=5
inDegrees=no

This analysis gathers basic information about muscles during a simulation (e.g., forces, tendon lengths, moment arms, etc).
Units are S.I. units (second, meters, Newtons, ...)
If the header above contains a line with 'inDegrees', this indicates whether rotational values are in degrees (yes) or radians (no).

endheader
time	recfem_r	vaslat_r	vasint_r	vasmed_r
     12.73332811	     73.22676547	     67.31626378	     11.67231225	     19.86861929
     12.74959476	     61.44235063	     43.26752281	      8.09652583	     13.50612355
     12.76586141	     31.80215836	     20.09173734	      4.36848691	      6.99941989
     12.78212806	      5.31421325	      3.52595993	      0.97942411	      1.47510406
     12.79839471	     -3.24082567	     -5.78693500	     -2.02696306	     -2.89585024
     12.81466136	     -2.81553146	    -13.80183518	     -5.04274388	     -7.09420758
     12.83092801	     -5.15230507	    -22.93192407	     -7.87350303	    -11.11817533
     12.84719466	     -7.42103417	    -29.50743594	     -9.75560430	    -13.80914401
     12.86346131	     -7.78239649	    -30.47850191	    -10.11611134	    -14.24765444
     12.87972796	    -12.89755801	    -29.52292540	    -10.08304090	    -14.15282098
     12.89599461	    -23.73268548	    -26.76927707	     -9.46032791	    -13.26338536
     12.91226126	    -29.16370353	    -21.40098239	     -7.83932039	    -10.94949818
     12.92852791	    -23.48675857	    -16.38611131	     -6.22759583	     -8.69049535
     12.94479457	    -10.98721879	    -13.63346363	     -4.76645043	     -6.64117228
     12.96106122	     -0.39992709	    -11.69948311	     -3.49122062	     -5.15959043
     12.97732787	      1.85175921	     -9.87466734	     -2.97895204	     -4.47477096
     12.99359452	      1.05950274	     -7.63996563	     -2.33736855	     -3.56061469
     13.00986117	      0.22131195	     -4.43062396	     -1.36799224	     -2.10540380
     13.02612782	      0.69601546	     -0.77226903	     -0.23887109	     -0.37086195
     13.04239447	      1.93997844	      2.37141035	      0.73082295	      1.14255425
     13.05866112	      2.90121423	      4.53849252	      1.38789461	      2.17512023
     13.07492777	      3.34226999	      5.86675501	      1.77450801	      2.76861669
     13.09119442	      3.79979401	      6.78665545	      2.03641171	      3.14106997
     13.10746107	      4.93676403	      7.67626050	      2.31962028	      3.52317300
     13.12372772	      6.72880453	      8.57405978	      3.01421823	      4.38844177
     13.13999437	      8.03782450	      9.80513489	      3.77183934	      5.44805550
     13.15626102	      8.09852228	     12.00068933	      4.67663368	      6.71342583
     13.17252767	      7.06304881	     15.77125349	      5.73265307	      8.32373148
     13.18879432	      6.08734513	     21.26037371	      6.65110701	      9.90954489
     13.20506097	      5.88716931	     26.08755281	      7.31579667	     11.21215926
     13.22132762	      5.86578127	     22.00428593	      6.82893632	     10.24258447
     13.23759427	      4.25434651	      6.59708295	      4.58630776	      5.97663414
     13.25386092	      0.32494508	     -3.88330092	      1.67455248	      1.47038594
     13.27012757	     -3.04674638	      0.23639204	     -0.28389641	     -0.28588980
     13.28639422	     -3.93712691	    -43.07309617	     -4.95885315	    -10.07637511
     13.30266087	    -11.81347596	   -238.22086264	    -22.95682644	    -50.78060308
     13.31892752	    -40.43979466	   -547.05441062	    -55.86649212	   -120.25266109
     13.33519417	    -84.49287592	   -735.06200819	    -81.27982902	   -168.95689949
     13.35146083	   -122.63940724	   -629.34123543	    -73.74008446	   -149.65459935
     13.36772748	   -144.51787272	   -306.00012678	    -36.82238085	    -74.07017146
     13.38399413	   -143.79503573	     67.34214352	      8.11888629	     16.35506948
     13.40026078	   -113.66121423	    342.87705342	     41.06362459	     82.99577010
     13.41652743	    -58.73301650	    446.46013374	     53.46661921	    107.93204161
     13.43279408	     -5.19373064	    379.39405851	     46.10739142	     92.11997393
     13.44906073	     19.87947325	    217.79184430	     27.49414692	     53.52954618
     13.46532738	     17.48296177	     74.04017329	     10.60579889	     19.24649255
     13.48159403	      6.14968441	      7.62671147	      2.59616554	      3.50368467
     13.49786068	     -0.12432521	     -1.13638613	      1.00268591	      1.02000790
     13.51412733	     -0.94749034	     -0.44345405	     -0.25911230	     -0.34947665
     13.53039398	     -3.36914578	     -9.40895449	     -3.27878978	     -4.74715934
     13.54666063	    -10.38750979	    -19.28767604	     -6.40832555	     -9.17222659
