PennationAngle
version=1
nRows=51
nColumns=5
inDegrees=no

This analysis gathers basic information about muscles during a simulation (e.g., forces, tendon lengths, moment arms, etc).
Units are S.I. units (second, meters, Newtons, ...)
If the header above contains a line with 'inDegrees', this indicates whether rotational values are in degrees (yes) or radians (no).

endheader
time	recfem_r	vaslat_r	vasint_r	vasmed_r
     12.73332811	      0.17342364	      0.25142412	      0.06144214	      0.40802517
     12.74959476	      0.17763851	      0.25906170	      0.06322541	      0.41944528
     12.76586141	      0.18160125	      0.26559609	      0.06474269	      0.42917858
     12.78212806	      0.18388639	      0.26900480	      0.06553417	      0.43425894
     12.79839471	      0.18320940	      0.26784957	      0.06526581	      0.43253637
     12.81466136	      0.17927550	      0.26216176	      0.06394562	      0.42406397
     12.83092801	      0.17283959	      0.25330869	      0.06188382	      0.41085140
     12.84719466	      0.16506857	      0.24304255	      0.05946046	      0.39536408
     12.86346131	      0.15709541	      0.23284974	      0.05700810	      0.37975793
     12.87972796	      0.14959429	      0.22344652	      0.05469638	      0.36511278
     12.89599461	      0.14270601	      0.21477395	      0.05251574	      0.35130454
     12.91226126	      0.13704624	      0.20747048	      0.05062744	      0.33940541
     12.92852791	      0.13289098	      0.20171403	      0.04908465	      0.32975467
     12.94479457	      0.13026146	      0.19718073	      0.04784884	      0.32208268
     12.96106122	      0.12928595	      0.19322918	      0.04690957	      0.31621312
     12.97732787	      0.12973637	      0.18982685	      0.04613562	      0.31119789
     12.99359452	      0.13128827	      0.18697965	      0.04547692	      0.30689568
     13.00986117	      0.13388954	      0.18492863	      0.04499463	      0.30373347
     13.02612782	      0.13743299	      0.18400437	      0.04477513	      0.30229317
     13.04239447	      0.14166547	      0.18434691	      0.04485663	      0.30282798
     13.05866112	      0.14622498	      0.18580868	      0.04520239	      0.30509636
     13.07492777	      0.15079720	      0.18805672	      0.04572753	      0.30853552
     13.09119442	      0.15530699	      0.19078766	      0.04635542	      0.31262674
     13.10746107	      0.16008488	      0.19390932	      0.04706300	      0.31720261
     13.12372772	      0.16618067	      0.19753997	      0.04794189	      0.32265763
     13.13999437	      0.17424495	      0.20186462	      0.04912583	      0.33001137
     13.15626102	      0.18480223	      0.20773287	      0.05069642	      0.33983848
     13.17252767	      0.19844857	      0.21577292	      0.05276975	      0.35291121
     13.18879432	      0.21477006	      0.22586529	      0.05529593	      0.36890920
     13.20506097	      0.23217369	      0.23725892	      0.05807517	      0.38653750
     13.22132762	      0.24923250	      0.24951495	      0.06099329	      0.40515456
     13.23759427	      0.26216080	      0.26055176	      0.06357173	      0.42166584
     13.25386092	      0.26741946	      0.26796671	      0.06529302	      0.43271099
     13.27012757	      0.26363503	      0.26996777	      0.06575799	      0.43569567
     13.28639422	      0.25263105	      0.26633754	      0.06491477	      0.43028310
     13.30266087	      0.23827211	      0.25867015	      0.06313435	      0.41886154
     13.31892752	      0.22402687	      0.24947807	      0.06098460	      0.40509904
     13.33519417	      0.21181497	      0.24107023	      0.05898978	      0.39236240
     13.35146083	      0.20211309	      0.23489546	      0.05750444	      0.38290912
     13.36772748	      0.19446116	      0.23143373	      0.05666322	      0.37757039
     13.38399413	      0.18830478	      0.23063767	      0.05646885	      0.37633816
     13.40026078	      0.18351634	      0.23236189	      0.05688941	      0.37900489
     13.41652743	      0.18033013	      0.23649705	      0.05789150	      0.38536925
     13.43279408	      0.17907420	      0.24299759	      0.05944975	      0.39529575
     13.44906073	      0.17973266	      0.25156197	      0.06147449	      0.40823214
     13.46532738	      0.18173505	      0.26128298	      0.06374157	      0.42275512
     13.48159403	      0.18394707	      0.27043075	      0.06586566	      0.43638675
     13.49786068	      0.18479106	      0.27659489	      0.06730395	      0.44561340
     13.51412733	      0.18291521	      0.27775942	      0.06757703	      0.44736327
     13.53039398	      0.17824459	      0.27387464	      0.06666792	      0.44153499
     13.54666063	      0.17218867	      0.26719458	      0.06511373	      0.43156012
