MomentArm_knee_angle_r
version=1
nRows=51
nColumns=5
inDegrees=no

This analysis gathers basic information about muscles during a simulation (e.g., forces, tendon lengths, moment arms, etc).
Units are S.I. units (second, meters, Newtons, ...)
If the header above contains a line with 'inDegrees', this indicates whether rotational values are in degrees (yes) or radians (no).

endheader
time	recfem_r	vaslat_r	vasint_r	vasmed_r
     14.10666143	     -0.04645257	     -0.04300472	     -0.04166530	     -0.04081386
     14.12106142	     -0.04686282	     -0.04358152	     -0.04218519	     -0.04142935
     14.13546140	     -0.04720234	     -0.04404131	     -0.04263052	     -0.04194946
     14.14986139	     -0.04735560	     -0.04425054	     -0.04284291	     -0.04219490
     14.16426137	     -0.04719035	     -0.04405940	     -0.04264863	     -0.04197046
     14.17866136	     -0.04662112	     -0.04334093	     -0.04196336	     -0.04116770
     14.19306134	     -0.04560698	     -0.04199663	     -0.04084152	     -0.03982912
     14.20746133	     -0.04393162	     -0.03984299	     -0.03921395	     -0.03792549
     14.22186131	     -0.04109838	     -0.03650416	     -0.03653613	     -0.03494292
     14.23626130	     -0.03814680	     -0.03310011	     -0.03383090	     -0.03199230
     14.25066129	     -0.03662403	     -0.03118558	     -0.03261526	     -0.03064484
     14.26506127	     -0.03318592	     -0.02748463	     -0.02959858	     -0.02752603
     14.27946126	     -0.02930838	     -0.02348100	     -0.02618532	     -0.02410302
     14.29386124	     -0.02612979	     -0.02028620	     -0.02344404	     -0.02141448
     14.30826123	     -0.02380074	     -0.01971263	     -0.02146674	     -0.01948932
     14.32266121	     -0.02188442	     -0.02006156	     -0.01978717	     -0.01785856
     14.33706120	     -0.02053339	     -0.02017013	     -0.01896724	     -0.01793157
     14.35146119	     -0.01996675	     -0.02020029	     -0.01904109	     -0.01801984
     14.36586117	     -0.02026302	     -0.02019200	     -0.01902432	     -0.01800025
     14.38026116	     -0.02142352	     -0.02014935	     -0.01891931	     -0.01787538
     14.39466114	     -0.02330415	     -0.01997522	     -0.02034949	     -0.01840404
     14.40906113	     -0.02565131	     -0.01946399	     -0.02218015	     -0.02018345
     14.42346111	     -0.02852703	     -0.02151055	     -0.02449376	     -0.02243987
     14.43786110	     -0.03231746	     -0.02532034	     -0.02776031	     -0.02566961
     14.45226108	     -0.03646439	     -0.02972229	     -0.03147386	     -0.02945059
     14.46666107	     -0.03871771	     -0.03244674	     -0.03342106	     -0.03152997
     14.48106106	     -0.04134947	     -0.03577114	     -0.03592940	     -0.03428230
     14.49546104	     -0.04475815	     -0.04013746	     -0.03944006	     -0.03818492
     14.50986103	     -0.04671476	     -0.04302393	     -0.04168198	     -0.04083372
     14.52426101	     -0.04819842	     -0.04492831	     -0.04357450	     -0.04302717
     14.53866100	     -0.04899012	     -0.04576932	     -0.04459654	     -0.04415989
     14.55306098	     -0.04876340	     -0.04554408	     -0.04430241	     -0.04383675
     14.56746097	     -0.04762936	     -0.04425728	     -0.04284986	     -0.04220291
     14.58186095	     -0.04618310	     -0.04225455	     -0.04104378	     -0.04007099
     14.59626094	     -0.04441858	     -0.03969340	     -0.03909842	     -0.03779350
     14.61066093	     -0.04209805	     -0.03672151	     -0.03671630	     -0.03513949
     14.62506091	     -0.04010643	     -0.03432081	     -0.03475555	     -0.03300452
     14.63946090	     -0.03920337	     -0.03322802	     -0.03392221	     -0.03209304
     14.65386088	     -0.03892467	     -0.03292113	     -0.03370710	     -0.03185505
     14.66826087	     -0.03899256	     -0.03308497	     -0.03382023	     -0.03198051
     14.68266085	     -0.03940808	     -0.03369901	     -0.03427230	     -0.03247710
     14.69706084	     -0.04027699	     -0.03485356	     -0.03518114	     -0.03346798
     14.71146083	     -0.04166326	     -0.03659650	     -0.03661276	     -0.03502647
     14.72586081	     -0.04317224	     -0.03851109	     -0.03817000	     -0.03674513
     14.74026080	     -0.04445516	     -0.04021944	     -0.03950270	     -0.03825706
     14.75466078	     -0.04547152	     -0.04163990	     -0.04056921	     -0.03950459
     14.76906077	     -0.04618684	     -0.04266480	     -0.04137686	     -0.04046960
     14.78346075	     -0.04653187	     -0.04316647	     -0.04180702	     -0.04098240
     14.79786074	     -0.04640192	     -0.04303121	     -0.04168830	     -0.04084125
     14.81226072	     -0.04580360	     -0.04227355	     -0.04105888	     -0.04008907
     14.82666071	     -0.04485068	     -0.04107288	     -0.04014689	     -0.03900600
