ActiveFiberForce
version=1
nRows=51
nColumns=5
inDegrees=no

This analysis gathers basic information about muscles during a simulation (e.g., forces, tendon lengths, moment arms, etc).
Units are S.I. units (second, meters, Newtons, ...)
If the header above contains a line with 'inDegrees', this indicates whether rotational values are in degrees (yes) or radians (no).

endheader
time	recfem_r	vaslat_r	vasint_r	vasmed_r
     13.39332893	    588.16412032	   1109.65486141	    281.90508846	    503.87065813
     13.40732892	    376.35211816	    704.26964828	    178.22208752	    321.76618659
     13.42132890	    212.23617739	    394.95003555	     99.58439947	    181.23602653
     13.43532889	    101.61144564	    190.93668606	     48.57452359	     88.24225849
     13.44932887	     33.39567890	     77.02011575	     21.29958350	     37.29417451
     13.46332886	     -2.30989077	     32.09033331	     11.98838671	     18.77879066
     13.47732885	     -1.32526296	     35.44022034	     14.75688604	     22.27368248
     13.49132883	     48.52350670	     61.63205861	     22.58161922	     35.24859835
     13.50532882	    149.34992589	     85.99618338	     29.01734517	     46.22808495
     13.51932880	    276.24113580	     96.16851881	     31.31563643	     50.17178514
     13.53332879	    382.37602167	     93.29889207	     30.17869452	     48.23621085
     13.54732878	    432.92063178	     84.91605701	     27.66458521	     44.00849780
     13.56132876	    426.01047109	     78.11793115	     25.65333217	     40.77989832
     13.57532875	    366.97314354	     72.85278481	     23.94087702	     38.32955400
     13.58932873	    287.36662302	     69.38600386	     22.62994168	     36.79784329
     13.60332872	    206.24724880	     68.05201958	     21.52940748	     35.66323899
     13.61732871	    134.80653873	     66.16864216	     20.57555720	     34.60745398
     13.63132869	     79.82608667	     62.98087987	     19.46788062	     32.49989923
     13.64532868	     39.93949233	     58.77963688	     18.06089274	     29.24369983
     13.65932866	     17.86372036	     54.22611670	     16.56645691	     25.82394606
     13.67332865	     14.96003733	     50.72604649	     15.43956819	     24.26831542
     13.68732864	     29.90310102	     50.01362566	     15.23569974	     26.83901084
     13.70132862	     56.06190645	     53.40943556	     16.33756572	     34.81662618
     13.71532861	     80.66254281	     61.21821585	     18.67059269	     47.34650743
     13.72932859	     89.95257596	     72.77922368	     21.58002309	     60.97606501
     13.74332858	     74.37041510	     87.82671194	     23.81748682	     70.93668150
     13.75732857	     49.13577154	    104.87846940	     24.45354223	     72.64497117
     13.77132855	     27.60731828	    117.48451169	     24.03531821	     68.37631997
     13.78532854	     17.28748117	    126.43176911	     23.79127182	     61.26481547
     13.79932852	     17.12060022	    124.58309666	     24.79634970	     52.42140950
     13.81332851	     21.78296004	     95.51700235	     26.88305997	     39.60589369
     13.82732850	     26.33499265	     40.91566850	     32.66126707	     27.89974595
     13.84132848	     23.39265083	    -15.35749688	     44.34531172	     26.92674159
     13.85532847	      9.72125046	      6.41304217	     63.14271809	     55.08755167
     13.86932845	     -1.41376905	    235.56671478	     89.15990881	    131.87513959
     13.88332844	     23.16851455	    776.25179975	    125.69047302	    263.51160398
     13.89732843	    124.80059748	   1614.77119253	    181.49575120	    437.09138577
     13.91132841	    326.59672118	   2589.60433883	    261.78577778	    628.49526522
     13.92532840	    611.53406682	   3452.75911475	    355.19237305	    811.44501813
     13.93932838	    926.20108218	   3972.13528003	    433.39402305	    954.49652801
     13.95332837	   1198.39113110	   4007.85491112	    465.63984183	   1016.45275167
     13.96732836	   1352.09183462	   3549.95507273	    435.50903143	    960.86261701
     13.98132834	   1331.29446829	   2729.59339359	    350.02689969	    786.38894084
     13.99532833	   1134.19057641	   1783.65531457	    237.17744777	    541.86376028
     14.00932831	    827.95735671	    957.86579650	    131.78691274	    303.41499884
     14.02332830	    513.07741379	    390.86083066	     56.78402735	    127.95844652
     14.03732829	    261.35377910	     86.85033204	     16.62007759	     30.88930178
     14.05132827	     95.46192899	    -26.75132907	      3.33410867	     -3.66194174
     14.06532826	      9.48701787	    -32.27224182	      5.50570380	     -1.55082171
     14.07932824	     -3.16478981	     12.08826279	     14.41875934	     16.90350075
     14.09332823	     34.44861816	     74.45686993	     25.17462978	     40.43808846
