TendonPower
version=1
nRows=51
nColumns=5
inDegrees=no

This analysis gathers basic information about muscles during a simulation (e.g., forces, tendon lengths, moment arms, etc).
Units are S.I. units (second, meters, Newtons, ...)
If the header above contains a line with 'inDegrees', this indicates whether rotational values are in degrees (yes) or radians (no).

endheader
time	recfem_r	vaslat_r	vasint_r	vasmed_r
     13.39332893	     -0.00000000	     -0.00000000	     -0.00000000	     -0.00000000
     13.40732892	     -0.00000000	     -0.00000000	     -0.00000000	     -0.00000000
     13.42132890	     -0.00000000	     -0.00000000	     -0.00000000	     -0.00000000
     13.43532889	     -0.00000000	     -0.00000000	     -0.00000000	     -0.00000000
     13.44932887	     -0.00000000	     -0.00000000	     -0.00000000	     -0.00000000
     13.46332886	     -0.00000000	     -0.00000000	     -0.00000000	     -0.00000000
     13.47732885	     -0.00000000	     -0.00000000	     -0.00000000	     -0.00000000
     13.49132883	     -0.00000000	     -0.00000000	     -0.00000000	     -0.00000000
     13.50532882	     -0.00000000	     -0.00000000	     -0.00000000	     -0.00000000
     13.51932880	     -0.00000000	     -0.00000000	     -0.00000000	     -0.00000000
     13.53332879	     -0.00000000	     -0.00000000	     -0.00000000	     -0.00000000
     13.54732878	     -0.00000000	     -0.00000000	     -0.00000000	     -0.00000000
     13.56132876	     -0.00000000	     -0.00000000	     -0.00000000	     -0.00000000
     13.57532875	     -0.00000000	     -0.00000000	     -0.00000000	     -0.00000000
     13.58932873	     -0.00000000	     -0.00000000	     -0.00000000	     -0.00000000
     13.60332872	     -0.00000000	     -0.00000000	     -0.00000000	     -0.00000000
     13.61732871	     -0.00000000	     -0.00000000	     -0.00000000	     -0.00000000
     13.63132869	     -0.00000000	     -0.00000000	     -0.00000000	     -0.00000000
     13.64532868	     -0.00000000	     -0.00000000	     -0.00000000	     -0.00000000
     13.65932866	     -0.00000000	     -0.00000000	     -0.00000000	     -0.00000000
     13.67332865	     -0.00000000	     -0.00000000	     -0.00000000	     -0.00000000
     13.68732864	     -0.00000000	     -0.00000000	     -0.00000000	     -0.00000000
     13.70132862	     -0.00000000	     -0.00000000	     -0.00000000	     -0.00000000
     13.71532861	     -0.00000000	     -0.00000000	     -0.00000000	     -0.00000000
     13.72932859	     -0.00000000	     -0.00000000	     -0.00000000	     -0.00000000
     13.74332858	     -0.00000000	     -0.00000000	     -0.00000000	     -0.00000000
     13.75732857	     -0.00000000	     -0.00000000	     -0.00000000	     -0.00000000
     13.77132855	     -0.00000000	     -0.00000000	     -0.00000000	     -0.00000000
     13.78532854	     -0.00000000	     -0.00000000	     -0.00000000	     -0.00000000
     13.79932852	     -0.00000000	     -0.00000000	     -0.00000000	     -0.00000000
     13.81332851	     -0.00000000	     -0.00000000	     -0.00000000	     -0.00000000
     13.82732850	     -0.00000000	     -0.00000000	     -0.00000000	     -0.00000000
     13.84132848	     -0.00000000	     -0.00000000	     -0.00000000	     -0.00000000
     13.85532847	     -0.00000000	     -0.00000000	     -0.00000000	     -0.00000000
     13.86932845	     -0.00000000	     -0.00000000	     -0.00000000	     -0.00000000
     13.88332844	     -0.00000000	     -0.00000000	     -0.00000000	     -0.00000000
     13.89732843	     -0.00000000	     -0.00000000	     -0.00000000	     -0.00000000
     13.91132841	     -0.00000000	     -0.00000000	     -0.00000000	     -0.00000000
     13.92532840	     -0.00000000	     -0.00000000	     -0.00000000	     -0.00000000
     13.93932838	     -0.00000000	     -0.00000000	     -0.00000000	     -0.00000000
     13.95332837	     -0.00000000	     -0.00000000	     -0.00000000	     -0.00000000
     13.96732836	     -0.00000000	     -0.00000000	     -0.00000000	     -0.00000000
     13.98132834	     -0.00000000	     -0.00000000	     -0.00000000	     -0.00000000
     13.99532833	     -0.00000000	     -0.00000000	     -0.00000000	     -0.00000000
     14.00932831	     -0.00000000	     -0.00000000	     -0.00000000	     -0.00000000
     14.02332830	     -0.00000000	     -0.00000000	     -0.00000000	     -0.00000000
     14.03732829	     -0.00000000	     -0.00000000	     -0.00000000	     -0.00000000
     14.05132827	     -0.00000000	     -0.00000000	     -0.00000000	     -0.00000000
     14.06532826	     -0.00000000	     -0.00000000	     -0.00000000	     -0.00000000
     14.07932824	     -0.00000000	     -0.00000000	     -0.00000000	     -0.00000000
     14.09332823	     -0.00000000	     -0.00000000	     -0.00000000	     -0.00000000
