FiberLength
version=1
nRows=51
nColumns=5
inDegrees=no

This analysis gathers basic information about muscles during a simulation (e.g., forces, tendon lengths, moment arms, etc).
Units are S.I. units (second, meters, Newtons, ...)
If the header above contains a line with 'inDegrees', this indicates whether rotational values are in degrees (yes) or radians (no).

endheader
time	recfem_r	vaslat_r	vasint_r	vasmed_r
     14.28666014	      0.10327712	      0.11542739	      0.11751944	      0.11498147
     14.30266012	      0.10141001	      0.11120733	      0.11326850	      0.11118663
     14.31866011	      0.09942883	      0.10745067	      0.10952776	      0.10783663
     14.33466009	      0.09809174	      0.10493494	      0.10703293	      0.10559805
     14.35066008	      0.09817677	      0.10427353	      0.10637653	      0.10500872
     14.36666006	      0.10008925	      0.10567113	      0.10776306	      0.10625345
     14.38266004	      0.10373702	      0.10884606	      0.11091358	      0.10907872
     14.39866003	      0.10869435	      0.11320260	      0.11527121	      0.11297634
     14.41466001	      0.11435690	      0.11805919	      0.12020166	      0.11736649
     14.43066000	      0.12014163	      0.12290696	      0.12521691	      0.12180431
     14.44665998	      0.12579973	      0.12770053	      0.13028293	      0.12627439
     14.46265996	      0.13074835	      0.13214141	      0.13510027	      0.13050200
     14.47865995	      0.13440635	      0.13593266	      0.13935633	      0.13420255
     14.49465993	      0.13651892	      0.13902182	      0.14296743	      0.13731309
     14.51065992	      0.13699804	      0.14161322	      0.14587106	      0.13978748
     14.52665990	      0.13586686	      0.14377058	      0.14800844	      0.14164599
     14.54265988	      0.13350259	      0.14537431	      0.14957424	      0.14303856
     14.55865987	      0.13018927	      0.14626615	      0.15045062	      0.14382106
     14.57465985	      0.12610146	      0.14628322	      0.15046744	      0.14383610
     14.59065984	      0.12153039	      0.14539421	      0.14959374	      0.14305594
     14.60665982	      0.11679220	      0.14371526	      0.14795462	      0.14159823
     14.62265980	      0.11175479	      0.14137682	      0.14562271	      0.13957722
     14.63865979	      0.10613141	      0.13848373	      0.14232702	      0.13676364
     14.65465977	      0.09982846	      0.13481590	      0.13808526	      0.13310110
     14.67065976	      0.09275340	      0.13012904	      0.13289902	      0.12857482
     14.68665974	      0.08511956	      0.12460065	      0.12699394	      0.12337332
     14.70265972	      0.07766791	      0.11886268	      0.12102591	      0.11809758
     14.71865971	      0.07076844	      0.11310732	      0.11517529	      0.11289069
     14.73465969	      0.06514646	      0.10791827	      0.10999182	      0.10825269
     14.75065968	      0.06147119	      0.10398609	      0.10609107	      0.10475241
     14.76665966	      0.06004565	      0.10178996	      0.10390359	      0.10278853
     14.78265964	      0.06085440	      0.10156776	      0.10368141	      0.10258915
     14.79865963	      0.06354721	      0.10325956	      0.10536882	      0.10410390
     14.81465961	      0.06752230	      0.10650419	      0.10858904	      0.10699465
     14.83065960	      0.07209596	      0.11068775	      0.11274897	      0.11072190
     14.84665958	      0.07661348	      0.11502591	      0.11711249	      0.11461888
     14.86265956	      0.08055922	      0.11873803	      0.12089787	      0.11798407
     14.87865955	      0.08379720	      0.12133999	      0.12358447	      0.12036214
     14.89465953	      0.08651920	      0.12265800	      0.12495680	      0.12157460
     14.91065952	      0.08899531	      0.12266927	      0.12496857	      0.12158499
     14.92665950	      0.09143019	      0.12146689	      0.12371626	      0.12047863
     14.94265948	      0.09378546	      0.11917705	      0.12134914	      0.11838404
     14.95865947	      0.09567561	      0.11587688	      0.11797572	      0.11538781
     14.97465945	      0.09657794	      0.11169376	      0.11375561	      0.11162220
     14.99065944	      0.09626390	      0.10700931	      0.10908994	      0.10744399
     15.00665942	      0.09503617	      0.10248145	      0.10459386	      0.10340812
     15.02265940	      0.09379926	      0.09901305	      0.10110952	      0.10028449
     15.03865939	      0.09376572	      0.09750436	      0.09957077	      0.09891023
     15.05465937	      0.09576167	      0.09838548	      0.10047158	      0.09971422
     15.07065936	      0.09980263	      0.10141824	      0.10353178	      0.10245490
     15.08665934	      0.10502673	      0.10563977	      0.10773196	      0.10622554
