FiberLength
version=1
nRows=51
nColumns=5
inDegrees=no

This analysis gathers basic information about muscles during a simulation (e.g., forces, tendon lengths, moment arms, etc).
Units are S.I. units (second, meters, Newtons, ...)
If the header above contains a line with 'inDegrees', this indicates whether rotational values are in degrees (yes) or radians (no).

endheader
time	recfem_r	vaslat_r	vasint_r	vasmed_r
     16.33332565	      0.09538094	      0.10293018	      0.10501659	      0.10390231
     16.34892563	      0.09539975	      0.10114136	      0.10321565	      0.10228458
     16.36452562	      0.09527016	      0.09990882	      0.10196570	      0.10116330
     16.38012560	      0.09558000	      0.09981336	      0.10186852	      0.10107620
     16.39572559	      0.09704765	      0.10129861	      0.10337453	      0.10242721
     16.41132557	      0.10011719	      0.10447962	      0.10656788	      0.10529645
     16.42692556	      0.10474647	      0.10905190	      0.11113101	      0.10939282
     16.44252554	      0.11051283	      0.11445171	      0.11656623	      0.11425349
     16.45812553	      0.11668492	      0.11998457	      0.12223764	      0.11929249
     16.47372551	      0.12271492	      0.12527878	      0.12778946	      0.12419411
     16.48932549	      0.12826839	      0.13023276	      0.13312325	      0.12888691
     16.50492548	      0.13265037	      0.13439797	      0.13777216	      0.13294174
     16.52052546	      0.13562047	      0.13773657	      0.14166927	      0.13631122
     16.53612545	      0.13714576	      0.14071386	      0.14487956	      0.13906623
     16.55172543	      0.13727902	      0.14350094	      0.14757049	      0.14147738
     16.56732542	      0.13654116	      0.14606580	      0.15008250	      0.14374939
     16.58292540	      0.13498102	      0.14830268	      0.15231203	      0.14577581
     16.59852538	      0.13246294	      0.14991173	      0.15393910	      0.14725529
     16.61412537	      0.12885851	      0.15055435	      0.15459401	      0.14785023
     16.62972535	      0.12425949	      0.15007972	      0.15411003	      0.14741062
     16.64532534	      0.11902539	      0.14861592	      0.15262729	      0.14606255
     16.66092532	      0.11364939	      0.14648242	      0.15049485	      0.14412376
     16.67652531	      0.10850983	      0.14397767	      0.14803425	      0.14189549
     16.69212529	      0.10360502	      0.14120394	      0.14535276	      0.13948662
     16.70772528	      0.09827033	      0.13812841	      0.14212659	      0.13670480
     16.72332526	      0.09235739	      0.13456237	      0.13795998	      0.13310474
     16.73892524	      0.08577353	      0.12978061	      0.13262912	      0.12845369
     16.75452523	      0.07873554	      0.12373784	      0.12615978	      0.12275641
     16.77012521	      0.07203604	      0.11703020	      0.11919452	      0.11659401
     16.78572520	      0.06596951	      0.10990283	      0.11198216	      0.11015547
     16.80132518	      0.06144106	      0.10352649	      0.10561435	      0.10443951
     16.81692517	      0.05908517	      0.09909544	      0.10113565	      0.10041979
     16.83252515	      0.05925372	      0.09743083	      0.09942114	      0.09888780
     16.84812514	      0.06176078	      0.09862581	      0.10065422	      0.09998906
     16.86372512	      0.06590539	      0.10216743	      0.10425028	      0.10321375
     16.87932510	      0.07068591	      0.10702766	      0.10911059	      0.10758044
     16.89492509	      0.07526071	      0.11206187	      0.11415014	      0.11209568
     16.91052507	      0.07918586	      0.11636831	      0.11851756	      0.11599197
     16.92612506	      0.08248740	      0.11943264	      0.12166633	      0.11878681
     16.94172504	      0.08560978	      0.12115862	      0.12345747	      0.12037097
     16.95732503	      0.08896842	      0.12160664	      0.12392463	      0.12078364
     16.97292501	      0.09262356	      0.12086851	      0.12315547	      0.12010409
     16.98852499	      0.09616386	      0.11903724	      0.12125786	      0.11842503
     17.00412498	      0.09881977	      0.11617767	      0.11832288	      0.11581872
     17.01972496	      0.09992732	      0.11244270	      0.11453395	      0.11243881
     17.03532495	      0.09948711	      0.10829485	      0.11037485	      0.10871484
     17.05092493	      0.09828975	      0.10453251	      0.10662074	      0.10534395
     17.06652492	      0.09760967	      0.10211886	      0.10420141	      0.10316984
     17.08212490	      0.09858748	      0.10178265	      0.10386284	      0.10286572
     17.09772489	      0.10153076	      0.10353601	      0.10562388	      0.10444807
     17.11332487	      0.10569580	      0.10653072	      0.10861498	      0.10713548
