FiberPassivePower
version=1
nRows=51
nColumns=5
inDegrees=no

This analysis gathers basic information about muscles during a simulation (e.g., forces, tendon lengths, moment arms, etc).
Units are S.I. units (second, meters, Newtons, ...)
If the header above contains a line with 'inDegrees', this indicates whether rotational values are in degrees (yes) or radians (no).

endheader
time	recfem_r	vaslat_r	vasint_r	vasmed_r
    144.51200000	     25.53987275	     32.39903235	     11.75993036	     17.21320634
    144.52896000	     18.88122745	     21.69481698	      7.73859339	     11.50225091
    144.54592000	     10.08113157	     11.03424341	      3.89228641	      5.84692578
    144.56288000	     -1.11578631	     -0.29910955	     -0.10519088	     -0.15860139
    144.57984000	    -15.57010905	    -12.85939393	     -4.53859709	     -6.81368788
    144.59680000	    -35.68242150	    -27.16575207	     -9.71155143	    -14.40615303
    144.61376000	    -64.48966436	    -43.00466858	    -15.72045816	    -22.86922673
    144.63072000	   -103.07467015	    -59.35988835	    -22.41537480	    -31.77250592
    144.64768000	   -154.61769370	    -79.84944171	    -31.46356138	    -43.48640957
    144.66464000	   -188.64023410	    -93.53366371	    -38.90987233	    -52.05156527
    144.68160000	   -169.68568854	    -94.24050085	    -41.85369758	    -53.93859992
    144.69856000	    -97.50567796	    -84.12632513	    -40.11273420	    -49.81964630
    144.71552000	     -4.74413312	    -65.37847294	    -33.56864506	    -40.16085469
    144.73248000	     66.96854837	    -48.67856509	    -23.65926793	    -27.25131833
    144.74944000	    100.27872353	    -29.76290838	    -13.62543152	    -15.26220292
    144.76640000	    111.05590624	     -9.20307220	     -4.06448042	     -4.65966858
    144.78336000	    112.92985240	     11.47146006	      5.07671737	      5.80872189
    144.80032000	    108.21745521	     30.55219245	     14.04695850	     15.76148459
    144.81728000	     97.04726603	     48.73264391	     23.76913298	     27.43249255
    144.83424000	     83.20698712	     68.07125243	     34.79628574	     41.72281666
    144.85120000	     69.64975460	     93.49873760	     44.21359294	     55.14501523
    144.86816000	     58.59976157	    112.46852385	     49.09776900	     63.87017787
    144.88512000	     47.67873015	    114.97961886	     46.51043050	     63.29783534
    144.90208000	     32.38881045	     90.41625603	     34.33417148	     48.48354472
    144.91904000	     21.67234360	     66.29647938	     23.95310173	     35.20152819
    144.93600000	     12.87405450	     41.87554135	     14.67082130	     22.26481832
    144.95296000	      7.29917198	     24.12794636	      8.51808298	     13.19743573
    144.96992000	      3.73635067	     12.09817359	      4.39199025	      6.85017641
    144.98688000	      1.36732602	      4.30062486	      1.59725352	      2.49295358
    145.00384000	     -0.54847304	     -1.43637821	     -0.53609408	     -0.83664640
    145.02080000	     -2.58897537	     -6.78481289	     -2.49872297	     -3.89988229
    145.03776000	     -5.24049417	    -12.89008069	     -4.63538635	     -7.22176187
    145.05472000	     -8.85495029	    -20.25939425	     -7.13219029	    -11.03014413
    145.07168000	    -13.40370405	    -28.19754461	     -9.86847728	    -15.02353591
    145.08864000	    -18.58227974	    -35.45803931	    -12.59875525	    -18.79244606
    145.10560000	    -22.75438383	    -38.63513873	    -14.05897534	    -20.53320472
    145.12256000	    -23.88489575	    -35.04560368	    -13.05722468	    -18.69252131
    145.13952000	    -21.66991049	    -25.89342290	     -9.83780684	    -13.88725222
    145.15648000	    -16.03302501	    -12.39375367	     -4.76555384	     -6.67782373
    145.17344000	     -8.09571590	      2.92018375	      1.12596875	      1.57529828
    145.19040000	      0.13783693	     16.81532204	      6.44288586	      9.04699613
    145.20736000	      7.46282309	     27.36315188	     10.33737196	     14.64817129
    145.22432000	     13.83518017	     34.22154312	     12.67539787	     18.23212889
    145.24128000	     18.41995295	     36.65071140	     13.27283871	     19.46628333
    145.25824000	     18.60141709	     32.92658004	     11.66049910	     17.44622713
    145.27520000	     14.41027804	     24.60256912	      8.60778474	     13.12329319
    145.29216000	      7.56063634	     14.49732482	      5.09568720	      7.87032583
    145.30912000	     -0.81332200	      4.46471359	      1.58288526	      2.45725845
    145.32608000	    -10.43556234	     -4.83941277	     -1.71421760	     -2.66019032
    145.34304000	    -22.69743480	    -14.26856325	     -5.00940449	     -7.72778145
    145.36000000	    -40.00067257	    -24.99891244	     -8.74804247	    -13.32429402
