NormalizedFiberLength
version=1
nRows=51
nColumns=5
inDegrees=no

This analysis gathers basic information about muscles during a simulation (e.g., forces, tendon lengths, moment arms, etc).
Units are S.I. units (second, meters, Newtons, ...)
If the header above contains a line with 'inDegrees', this indicates whether rotational values are in degrees (yes) or radians (no).

endheader
time	recfem_r	vaslat_r	vasint_r	vasmed_r
    144.51200000	      1.25469100	      1.05588939	      1.07267607	      1.07516325
    144.52896000	      1.21871746	      1.02305712	      1.03999804	      1.04516746
    144.54592000	      1.19122452	      0.99877877	      1.01607427	      1.02316896
    144.56288000	      1.18233170	      0.99019792	      1.00766167	      1.01542692
    144.57984000	      1.19817987	      1.00017371	      1.01744368	      1.02442889
    144.59680000	      1.23980231	      1.02748281	      1.04438078	      1.04919441
    144.61376000	      1.30345559	      1.06801987	      1.08484795	      1.08631487
    144.63072000	      1.38093618	      1.11594355	      1.13350176	      1.13072810
    144.64768000	      1.46455205	      1.16781593	      1.18729878	      1.17964703
    144.66464000	      1.54423374	      1.21979399	      1.24255414	      1.22969358
    144.68160000	      1.60570789	      1.26486479	      1.29199737	      1.27398719
    144.69856000	      1.64271594	      1.30047214	      1.33256275	      1.30983277
    144.71552000	      1.65529288	      1.32644589	      1.36342275	      1.33666872
    144.73248000	      1.64732409	      1.34436134	      1.38451567	      1.35463430
    144.74944000	      1.62533246	      1.35589151	      1.39714919	      1.36516552
    144.76640000	      1.59458991	      1.36144170	      1.40291030	      1.36996950
    144.78336000	      1.55687519	      1.36114025	      1.40260306	      1.36970886
    144.80032000	      1.51233114	      1.35518000	      1.39639492	      1.36454214
    144.81728000	      1.46156444	      1.34352280	      1.38356488	      1.35383415
    144.83424000	      1.40531902	      1.32518842	      1.36189345	      1.33535153
    144.85120000	      1.34333138	      1.29686806	      1.32837879	      1.30616099
    144.86816000	      1.27336595	      1.25443534	      1.28039505	      1.26364622
    144.88512000	      1.19107942	      1.19507681	      1.21608615	      1.20577092
    144.90208000	      1.09976693	      1.12324612	      1.14100145	      1.13755382
    144.91904000	      1.00737554	      1.04763581	      1.06442514	      1.06759660
    144.93600000	      0.91887514	      0.97471424	      0.99251886	      1.00148321
    144.95296000	      0.84413636	      0.91468035	      0.93367987	      0.94729738
    144.96992000	      0.78880359	      0.87311112	      0.89186773	      0.90905808
    144.98688000	      0.75733854	      0.85128697	      0.86912750	      0.88849602
    145.00384000	      0.75183575	      0.84720107	      0.86478547	      0.88459578
    145.02080000	      0.77245584	      0.85874353	      0.87697794	      0.89557004
    145.03776000	      0.81664863	      0.88429430	      0.90327506	      0.91944524
    145.05472000	      0.87879594	      0.92173859	      0.94065282	      0.95370871
    145.07168000	      0.95083079	      0.96703799	      0.98502173	      0.99457670
    145.08864000	      1.02505084	      1.01505680	      1.03209256	      1.03790120
    145.10560000	      1.09469795	      1.06029640	      1.07709182	      1.07921046
    145.12256000	      1.15362863	      1.09744863	      1.11461237	      1.11351567
    145.13952000	      1.19921816	      1.12392485	      1.14169972	      1.13818915
    145.15648000	      1.23105733	      1.13899545	      1.15725770	      1.15233914
    145.17344000	      1.24927579	      1.14240742	      1.16079430	      1.15555472
    145.19040000	      1.25495209	      1.13461167	      1.15272154	      1.14821439
    145.20736000	      1.24961267	      1.11652567	      1.13409872	      1.13127156
    145.22432000	      1.23395353	      1.08882091	      1.10585034	      1.10551916
    145.24128000	      1.20757500	      1.05183804	      1.06862294	      1.07144694
    145.25824000	      1.17245291	      1.00802239	      1.02515972	      1.03152643
    145.27520000	      1.13525549	      0.96339482	      0.98146428	      0.99129902
    145.29216000	      1.10587442	      0.92638876	      0.94523366	      0.95792370
    145.30912000	      1.09560337	      0.90597421	      0.92503965	      0.93936304
    145.32608000	      1.11218738	      0.90765593	      0.92671241	      0.94089815
    145.34304000	      1.15494402	      0.93039852	      0.94917642	      0.96155313
    145.36000000	      1.21359511	      0.96582146	      0.98383381	      0.99348223
