DataType=double
version=3
OpenSimVersion=4.5.2-2025-05-03-6a4c6ec41
endheader
time	/jointset/patellofemoral_r|reaction_on_child_1	/jointset/patellofemoral_r|reaction_on_child_2	/jointset/patellofemoral_r|reaction_on_child_3	/jointset/patellofemoral_r|reaction_on_child_4	/jointset/patellofemoral_r|reaction_on_child_5	/jointset/patellofemoral_r|reaction_on_child_6
12.31332898999801	0.4690505301671689	1.831445130230019	-12.32792059209051	536.2955997843258	-251.2443458590111	112.7383522457483
12.329462307198	0.2031498719139341	1.724352328780382	-9.873185916786474	430.7203678184429	-234.7500219118926	83.66452129988232
12.34559562439799	-0.1983499020753106	1.695145357195975	-6.854438068488037	301.4114814421247	-179.7976612734826	45.24135229102192
12.36172894159799	-0.2800647019487311	1.585436163907387	-5.488874925101657	236.0361376384248	-153.1244068894537	32.57009674323458
12.37786225879798	-0.178235865364721	1.236269189772074	-5.265180488303352	212.8094564390773	-155.7351625680117	41.92339015500095
12.39399557599797	0.1111659573425487	0.9977724244149888	-6.199162291979312	223.2794106792788	-182.5881530649352	60.2427345508277
12.41012889319797	0.5179026975508051	1.015007348350889	-8.897710503955057	275.045137581886	-247.415408803184	80.70525991880244
12.42626221039796	0.7802201200082801	1.22477094760448	-13.15835011629497	349.8568869541198	-342.6413066435995	94.52865917037863
12.44239552759795	0.4945001472106502	1.931137802699205	-19.13747081093918	449.145215548797	-479.4526777351	90.64442545592821
12.45852884479794	-0.7432557430525508	3.567917405567646	-27.22540414444278	580.4229382216539	-675.6565993786736	56.9377902238087
12.47466216199794	-2.966267302613493	6.285552737818283	-37.41206924731741	741.3922933682966	-941.2814632373871	-8.207152837927682
12.49079547919793	-5.153749231268374	9.250223666957533	-48.28225080177302	905.6270667518412	-1243.450249914041	-72.58926537873633
12.50692879639792	-6.021815555877693	11.26640793225966	-58.347172716841	1052.153560267807	-1548.040774564475	-93.24919224249946
12.52306211359791	-5.159479349425554	10.96085382618943	-66.06398019364478	1125.426586464932	-1813.435416001329	-46.54592621813178
12.53919543079791	-3.209625533083493	9.889966789555546	-70.95003644758509	1085.106833667741	-2014.249548768931	42.68664798675516
12.5553287479979	-1.540003943539592	9.257005976761185	-75.54283004493971	1025.376353920788	-2193.946013450051	115.3066138789327
12.57146206519789	-0.7671243174577651	10.06783879740422	-80.92101509596849	1039.252180975568	-2377.296255847296	138.249627346028
12.58759538239788	-0.9709515411237124	12.32814827034409	-85.9247436812888	1150.572055950757	-2517.736900369011	106.0967411013424
12.60372869959788	-1.892955518920774	14.74201285375756	-86.68412477666671	1318.626804813931	-2482.560570619181	41.46023656929584
12.61986201679787	-3.057641437626225	15.59811044986007	-80.9958654187589	1463.702474501	-2199.627455839701	-12.46655357067312
12.63599533399786	-3.795143490673198	14.42082736780296	-70.87480991004445	1522.550906127685	-1752.420570112788	-26.69174567621926
12.65212865119785	-3.810192116787531	12.11900592646963	-60.24911986255228	1502.515650682061	-1286.516008477853	-5.211219129260057
12.66826196839785	-3.439643368914935	9.874123859813004	-51.88736876927834	1453.963675611356	-893.262039480551	29.29333160034992
12.68439528559784	-3.041877380076831	8.062893790315156	-45.82551662899781	1395.646119908154	-576.9785639651772	61.48057828890854
12.70052860279783	-2.625215797876119	6.516598098074931	-40.56769827441691	1286.073396325902	-334.9415517329023	87.39997799859132
12.71666191999783	-2.221334195502773	5.334821540231698	-34.53099073718582	1110.835449843503	-161.1339876860841	104.058217909276
12.73279523719782	-1.525116005952295	3.908447933802646	-27.72745194262319	894.11397189665	-54.77416731644361	107.7265423225844
12.74892855439781	-1.091889024054995	3.378969466993917	-23.38728414829138	763.1705101480247	9.292869215488569	109.669505701703
12.7650618715978	-0.9824301053269177	3.455552256657716	-21.34910285337953	713.9145069039895	53.5025151514828	113.1327943128607
12.7811951887978	-1.077140503477079	2.596577147282954	-16.51726247880757	577.4559168323423	70.00849659629182	91.61504650920996
12.79732850599779	-1.105067222753361	1.139581886025749	-9.901422656361204	372.0177482225093	55.75585149267355	53.04855508142919
12.81346182319778	-1.132501651918804	0.4321011153222746	-6.23680213743981	258.5552258375307	42.27243344316297	29.130225521851
12.82959514039777	-1.209791423281735	0.2817047324914403	-4.848431358385513	219.9315676801821	36.48813475021375	17.35072515497406
12.84572845759777	-1.355192356659149	0.2698871173845467	-4.587505556843753	218.6221607372617	33.94653682566049	11.78393185000445
12.86186177479776	-1.573101841051357	0.3834392614028295	-5.228056117479942	250.0048689016316	33.30147711917963	12.17328478927783
12.87799509199775	-3.513351970658444	4.569326372778551	-17.3066680481013	764.7246932659338	89.5777359319972	44.71569515605208
12.89412840919774	-6.399676441412481	14.83194721369088	-45.21215938955265	1857.28550562597	147.7485029795408	130.7676891268187
12.91026172639774	-10.33144435362122	25.5137828468947	-78.87904684810151	3061.678467901679	93.10379173667586	173.0080218175407
12.92639504359773	-17.57017692495685	35.24308707327603	-113.8739322477761	4275.079230007338	-104.088335622499	72.74609203664909
12.94252836079772	-25.75573448448083	42.43496498527225	-135.0398028462501	4990.745547282299	-416.7318870616215	-191.6834432788703
12.95866167799771	-32.64384598929985	47.00695702850231	-140.4209961587889	5169.477780334775	-769.8428606103621	-526.8290454135134
12.97479499519771	-34.04954786779039	44.65308790797332	-123.39221382014	4568.489400971621	-1010.899553229635	-764.2751113661
12.9909283123977	-28.19989967239052	34.55012601061281	-89.33299665708842	3355.960585029694	-1006.67499098578	-761.4820238985096
13.00706162959769	-18.69460357731538	22.90394313653072	-55.60647082517723	2143.994629582997	-818.9438380761644	-577.0273132426679
13.02319494679768	-8.436682041923671	11.81356179578198	-27.75376144133953	1110.601477474408	-518.6904697695253	-301.0765371727707
13.03932826399768	-3.086739819554531	5.067303221771017	-12.5337087806339	533.2557548646763	-295.3194528166366	-120.1792719022763
13.05546158119767	-2.098375384155466	2.838500609496666	-6.914378303802629	320.0814233065429	-199.88050318245	-61.46010835485092
13.07159489839766	-1.517645935766179	1.961670161131468	-4.830709776226258	222.686296282709	-154.0026160095287	-27.78546016189099
13.08772821559766	-0.7205477931462122	1.365471133852115	-4.235995965554155	179.7414048038174	-140.2787448064373	4.254003589275063
13.10386153279765	-0.07822475407957698	0.8926102024266096	-4.293294040465048	166.4355378884383	-146.853478508988	37.20173394306596
13.11999484999764	0.6799707689022434	0.4845924330231733	-5.437739030534375	185.412233652405	-185.5733786059953	84.3100353265162
