ModelForces
version=1
nRows=51
nColumns=78
inDegrees=no

This file contains the forces exerted on a model during a simulation.

A force is a generalized force, meaning that it can be either a force (N) or a torque (Nm).

Units are S.I. units (second, meters, Newtons, ...)
If the header above contains a line with 'inDegrees', this indicates whether rotational values are in degrees (yes) or radians (no).

endheader
time	addbrev_r	addlong_r	addmagDist_r	addmagIsch_r	addmagMid_r	addmagProx_r	bflh_r	bfsh_r	edl_r	ehl_r	fdl_r	fhl_r	gaslat_r	gasmed_r	glmax1_r	glmax2_r	glmax3_r	glmed1_r	glmed2_r	glmed3_r	glmin1_r	glmin2_r	glmin3_r	grac_r	iliacus_r	perbrev_r	perlong_r	piri_r	psoas_r	recfem_r	sart_r	semimem_r	semiten_r	soleus_r	tfl_r	tibant_r	tibpost_r	vasint_r	vaslat_r	vasmed_r	pelvis_tx_residual	pelvis_ty_residual	pelvis_tz_residual	pelvis_tilt_residual	pelvis_list_residual	pelvis_rotation_residual	hip_flexion_r_reserve	hip_adduction_r_reserve	hip_rotation_r_reserve	knee_angle_r_reserve	ankle_angle_r_reserve	hip_flexion_l_torque	hip_adduction_l_torque	hip_rotation_l_torque	knee_angle_l_torque	ankle_angle_l_torque	lumbar_extension_torque	lumbar_bending_torque	lumbar_rotation_torque	calcn_r_RightGRF_Fx	calcn_r_RightGRF_Fy	calcn_r_RightGRF_Fz	calcn_r_RightGRF_px	calcn_r_RightGRF_py	calcn_r_RightGRF_pz	calcn_r_RightGRF_Tx	calcn_r_RightGRF_Ty	calcn_r_RightGRF_Tz	calcn_l_LeftGRF_Fx	calcn_l_LeftGRF_Fy	calcn_l_LeftGRF_Fz	calcn_l_LeftGRF_px	calcn_l_LeftGRF_py	calcn_l_LeftGRF_pz	calcn_l_LeftGRF_Tx	calcn_l_LeftGRF_Ty	calcn_l_LeftGRF_Tz
     20.16500000	     18.36883777	     51.29864442	     11.55506195	     11.25853369	     13.38096719	     11.57090841	     21.70606644	     11.17349668	     49.20414772	     12.27852145	      8.89959106	     18.90962384	     31.05232957	     62.57630348	     13.93205927	     20.22362038	     16.30431707	     47.02915640	     10.11330817	     13.07838205	      6.66977247	      5.82916622	      1.09899815	      4.48352812	    240.64740356	     10.78698633	     22.70946260	      1.33653355	    193.93580400	    323.60670150	      5.13936216	     35.11697416	     11.49254199	    134.42179727	      8.68737857	    229.47271350	     35.61616977	     40.92878153	    238.07413205	     77.09769733	     -0.12425738	    -25.22652784	     -4.68809486	     -0.97507529	      0.23601712	      1.01397182	      0.00898473	     -0.00103426	      0.00328927	     -0.00044791	      0.00383271	      5.16607763	      8.09043454	     -1.25244411	    -24.21093522	     -7.88674776	     24.41918464	     21.13034825	      6.51054684	     -3.50461631	    341.66827237	     36.73372161	      0.05732344	     -0.00780717	      0.00057255	     -0.00182264	      0.62530266	      0.00283121	      0.41454364	    344.69721315	    -41.71589218	      0.08225026	     -0.00247618	     -0.02338996	      0.00122937	     -0.37001362	      0.00064252
     20.19810000	     18.99784883	     52.12553819	     12.13622270	     11.90978627	     13.96292466	     11.62737406	     21.80389467	     12.36160232	     34.46915285	     10.21628082	      9.71318465	     19.22354009	     30.95784635	     61.86771363	     14.73649021	     21.40127009	     16.60580675	     96.52062327	     11.01183147	     13.41086294	      9.08977066	      6.26963275	      1.71648395	      4.91734427	    220.35258764	     11.66898326	     23.14215839	      1.45142675	    155.94062289	    317.16468882	      6.20418947	     34.96771987	     11.56217412	    131.54003773	      8.75556042	    154.62248533	     35.82084360	     48.84759256	    231.06503270	     86.44474880	      0.48094051	      0.00401175	     -0.10372978	      0.58649651	     -0.16113624	     -0.15332667	      0.00786161	     -0.00094073	      0.00308706	     -0.00043333	      0.00263769	      6.32631773	      3.92991557	     -1.20519360	    -29.71616409	     -6.74143979	     24.32161412	     21.17347210	      7.97461821	     -4.13887172	    304.87229493	     32.43730408	      0.06847287	     -0.00796622	      0.00893961	     -0.00144719	      0.49649609	      0.00224801	     -0.22315806	    333.39677073	    -42.08188784	      0.08211542	     -0.00570981	     -0.00971573	      0.00182649	     -0.54973230	      0.00095460
     20.23120000	     17.40800762	     47.16132718	     12.24687045	     12.30616917	     13.30689606	     11.73999145	     22.04302823	     12.79538700	     26.90337936	      9.08870047	     10.14526622	     19.94300561	     30.57077728	     60.86618046	     15.52120779	     22.54221118	     17.01062719	    151.52580906	     11.84439940	     13.82949041	     12.62044754	      6.74390146	      2.63286405	      5.12756736	    193.79870575	     12.17539119	     24.01108196	      1.67821686	    119.10998544	    305.71909732	      6.40059563	     34.94600473	     11.65996190	    127.01073462	      9.29958053	    113.07620868	     36.84288272	     51.60112474	    240.03018557	     91.40456959	     -0.93935369	     16.05138760	      2.97536856	     -0.70935495	     -0.19286354	     -0.85485205	      0.00646386	     -0.00094319	      0.00278053	     -0.00045846	      0.00194361	      9.81369988	     -1.70475784	     -0.68570061	    -35.77595913	     -5.67661441	     24.57210462	     19.39195058	      9.37508306	     -5.41674615	    271.98342953	     30.16735168	      0.07537422	     -0.00875253	      0.01674798	     -0.00082158	      0.28186268	      0.00127621	      2.02326018	    323.83268740	    -41.75360745	      0.08203873	     -0.00858562	      0.00043893	      0.00261287	     -0.78641612	      0.00136560
     20.26430000	     13.57954168	     38.53057933	     11.62752591	     11.80238540	     11.66643073	     11.47148092	     22.38012316	     11.44965611	     21.45082476	      7.34347673	      9.17507281	     19.22439802	     38.54413952	     60.01638465	     16.25993545	     23.61794838	     17.49893619	    193.99506261	     12.57589571	     14.31587098	     16.12335967	      6.92620909	      3.70150689	      4.85167901	    162.55723395	     11.06376249	     22.91775059	      2.03028567	     84.98847062	    295.60159971	      5.64316002	     35.03328305	     11.63697462	    122.16202993	     10.07778103	     89.90893139	     35.76206183	     49.47157388	    337.49095272	     99.33421617	     -0.62541464	      3.30368070	      0.77008755	     -0.75704476	      0.81729187	      0.55362388	      0.00505248	     -0.00094279	      0.00237234	     -0.00066745	      0.00155243	      7.88233173	     -6.19126944	     -0.22524456	    -40.16908601	     -4.35561548	     29.05455685	     15.26989160	      9.19615383	     -5.71804251	    269.62285707	     32.55980439	      0.07985807	     -0.00920043	      0.02275814	     -0.00036687	      0.12586507	      0.00056988	      2.33911084	    323.62974438	    -38.96549269	      0.07932393	     -0.01030750	      0.00668077	      0.00432850	     -1.30278046	      0.00226225
     20.29740000	     11.63699060	     23.29079742	     11.76777062	     12.07642182	     11.58429011	     11.46628223	     22.90318417	     11.07809336	     14.97064778	      6.23956217	      8.94788189	     19.05520518	     29.84110931	     59.27538768	     16.95223055	     24.62376467	     18.09188422	    211.66777035	     13.20984437	     14.84063323	     18.45745488	      7.54918031	      4.87762108	      4.94113146	    119.20295835	     10.80552178	     22.64941445	      2.80216201	     49.62568185	    263.92700201	      5.22109540	     35.40476239	     11.72370838	    117.73408239	     13.01819527	     52.68433138	     35.44093450	     60.62984370	    515.52598052	    141.82881479	      3.66665776	     -2.51500243	     -2.60523721	      2.92582723	     -1.34811042	     -0.26936740	      0.00324272	     -0.00089948	      0.00180957	     -0.00108255	      0.00090567	     -1.70629035	    -10.61733658	      1.10839300	    -39.25304024	     -3.76383035	     40.01128702	     10.33646837	      6.55051149	     -6.29066754	    295.12620848	     37.55778545	      0.08265719	     -0.00916187	      0.02655983	     -0.00027637	      0.09481471	      0.00042930	      0.40556101	    313.19751359	    -37.42250639	      0.07803947	     -0.01087009	      0.00753958	      0.00609739	     -1.83517713	      0.00318674
     20.33050000	     11.53028722	     14.06668127	     12.19540638	     12.95878670	     11.78128024	     11.63550127	     23.76010454	     11.97566175	     15.44160861	      6.93268008	     10.08480132	     21.23012980	     36.16274241	     59.85435189	     18.66185855	     26.46509136	     18.89988753	    200.65197642	     15.92733866	     15.63750510	     18.69981250	     12.24116822	      6.70620404	      5.16514071	     53.78061104	     12.15542137	     25.22943009	      4.40773040	     29.53741499	    192.90440332	      5.77181271	     36.32837281	     12.04732288	    117.02828262	     17.71593250	     40.78301555	     39.35309616	     82.82726562	    689.25228277	    191.42141617	     -1.30880559	     -9.87531416	      0.51798595	     -1.16450302	      0.52237143	     -0.36455277	      0.00032882	     -0.00102763	      0.00098411	     -0.00153874	      0.00060251	     -4.52704276	    -13.19857359	      1.85500434	    -46.39502336	     -4.15016095	     52.61369838	      5.75417958	      3.14231923	     -8.18973844	    305.10370030	     37.97348161	      0.08446072	     -0.00889569	      0.02806081	     -0.00036260	      0.12440023	      0.00056326	      9.02393114	    333.94004984	    -40.08199925	      0.07984666	     -0.01060933	      0.00662155	      0.00836546	     -2.51781639	      0.00437213
     20.36360000	     11.36797296	     14.27070924	     12.43913682	     13.67772003	     11.80529113	     11.68716656	     24.76448629	     12.01124120	     13.97244089	      6.70967328	     10.37786907	     22.32255125	     31.26599629	     60.97242049	     26.85278534	     34.14175648	     19.78429416	    171.27458367	     25.43263040	     17.38415793	     15.97688823	     13.07890593	      8.85201807	      5.28061467	     28.40806859	     12.53084252	     26.42729677	      7.04790481	     27.57959750	    140.01898896	      5.66238686	     37.50413896	     12.40360764	    114.88418523	     15.27397464	     28.53840594	     41.43713048	    101.44574750	    871.13469525	    242.70122214	      2.72736784	      8.07897783	      0.21333363	      2.01583118	     -0.49397771	     -0.13674634	     -0.00094117	     -0.00083969	      0.00058806	     -0.00200503	      0.00045363	    -11.84852661	    -13.83545340	      2.81654774	    -47.06532871	     -4.50793882	     61.37909084	      1.39470397	      0.76129324	     -6.32049626	    316.38086172	     37.38722847	      0.08513196	     -0.00879127	      0.02793664	     -0.00036422	      0.12495466	      0.00056576	      4.55427110	    331.96143710	    -39.65845792	      0.08052525	     -0.01033869	      0.00480455	      0.00977016	     -2.94060110	      0.00510628
     20.39670000	     11.59891741	     15.03555734	     13.02158570	     16.16899447	     12.04598241	     11.56595210	     25.28982835	     11.05117855	     12.06614656	      5.99399429	      9.67994398	     21.27706665	     30.44073450	     58.49511136	     40.87471477	     74.75224152	     20.60623672	    164.63023430	     30.79480136	     17.25180494	     14.48522733	     12.31028053	      9.03668877	      5.29191962	     21.12253002	     11.70936669	     25.10281880	      9.32376320	     27.03655876	     87.89899507	      5.03328593	     38.09096131	     12.34012432	    140.71445063	     11.31825800	     22.00834568	     39.55063470	    127.63082445	   1091.31494845	    307.37962146	     -1.13365407	      5.36207818	      0.02498637	     -0.44707514	      0.26781250	     -0.18595029	     -0.00171832	     -0.00052302	      0.00050489	     -0.00268652	     -0.00010545	     -8.81377751	    -14.41890824	      3.14387579	    -54.71513115	     -5.86551750	     66.97534485	     -3.06587756	     -0.08480833	     -5.25806590	    333.85207060	     39.21523814	      0.08750459	     -0.00883460	      0.02769335	      0.00020223	     -0.06937949	     -0.00031413	      9.93039375	    345.42812681	    -41.69820939	      0.08528170	     -0.00952480	      0.00306057	      0.01124470	     -3.38440332	      0.00587694
     20.42980000	     11.92081385	     15.68361884	     16.02079516	     26.91930499	     12.86959282	     11.64508735	     26.56779957	     10.64449883	     11.82775065	      5.85596578	      9.45188318	     20.76581197	     29.72496181	     57.61533951	     56.00462146	    118.57777307	     32.39056501	    153.40947788	     32.90210931	     17.74921759	     12.97478756	     11.33943006	      9.15019684	      5.37668650	     19.35626831	     11.42422361	     24.47214347	     12.00361210	     27.06505008	     46.94856029	      4.83271183	     39.41123368	     12.59476410	    170.39307125	      8.40337727	     21.92030696	     38.55662813	    166.70269162	   1398.19017442	    400.40170813	     -2.06409474	     -4.01925897	      1.23083142	     -1.49238034	     -0.73426633	     -0.16111645	     -0.00243402	     -0.00012523	      0.00045302	     -0.00387800	     -0.00015876	     -9.73600182	    -13.87605895	      3.50503030	    -61.70536900	     -7.66898651	     76.06293944	     -6.99423909	     -0.23608969	     -4.74879484	    354.29487194	     39.24465834	      0.08868364	     -0.00935414	      0.02645578	      0.00139861	     -0.47982545	     -0.00217253	     13.89236330	    364.15997814	    -43.55892020	      0.09018573	     -0.00870949	      0.00151545	      0.01195943	     -3.59951944	      0.00625049
     20.46290000	     12.59238723	     16.52081527	     23.28887009	     42.15523678	     15.08526281	     11.93134160	     29.03590165	     10.51760005	     12.04728874	      5.99765865	      9.76088870	     21.51883459	     29.47805839	     56.85396126	     73.73376546	    164.68248111	     70.74188290	    158.97829333	     39.33368508	     19.28766127	     13.24274592	     11.86376996	     10.02173079	      5.51794033	     19.21752397	     11.79536692	     25.33008412	     14.62583947	     27.22369964	     38.40011142	      4.79422251	     41.44263735	     13.13575563	    203.88429700	      7.62098652	     22.06253386	     39.92889561	    201.63763597	   1651.90676256	    483.45350170	      2.72963480	     -1.66652527	      0.05192544	      1.13882935	      0.42985650	      0.18949196	     -0.00323127	      0.00012265	      0.00044490	     -0.00527407	     -0.00020934	    -17.88676317	    -11.77927722	      3.91918361	    -65.64194480	     -9.25167842	     92.11043777	     -9.75582247	     -0.56204073	     -9.11191559	    364.48897854	     39.38128303	      0.09034119	     -0.00995072	      0.02628102	      0.00257539	     -0.88354889	     -0.00400049	     13.84998454	    380.26529479	    -43.95768688	      0.09327768	     -0.00838674	      0.00004005	      0.01180226	     -3.55221669	      0.00616835
     20.49600000	     12.30376387	     16.65102182	     36.65283741	     61.20949538	     17.76472507	     11.67558405	     31.15372683	     10.28971386	     11.34995446	      5.60532162	      9.05528305	     19.87923231	     29.19623351	     56.04425625	     95.10130719	    224.13561239	    121.84454043	    157.68145059	     45.21578533	     20.51516387	     12.18953599	     10.85151717	      9.47006439	      5.47187715	     18.90121163	     10.92872486	     23.38605698	     16.44226313	     27.32180680	     37.50125959	      4.76304610	     42.77080009	     12.80372221	    239.26633840	      6.90097464	     21.31562713	     36.84864747	    240.16610809	   1920.61592084	    576.19575706	      0.49507668	     -2.98806785	      1.03558473	      0.39223650	     -1.46831742	     -1.25859226	     -0.00434533	      0.00039857	      0.00040479	     -0.00706936	     -0.00026561	    -23.81163948	    -11.12596187	      4.31841811	    -69.71240880	    -11.01689614	    109.92074778	    -11.94823736	     -1.11358242	    -16.39443191	    379.80525072	     38.38478737	      0.09120974	     -0.01037418	      0.02579894	      0.00344988	     -1.18356519	     -0.00535889	     17.14114684	    390.08898454	    -45.56640376	      0.09791525	     -0.00822449	     -0.00128706	      0.01344310	     -4.04607298	      0.00702592
     20.52910000	     14.61366915	     18.29200189	     45.67089912	     69.94255918	     24.77284071	     13.22859296	     35.40657673	     10.30603043	     12.59188341	      6.46429996	     10.96785487	     24.62875356	     28.97049911	     55.19545053	    109.54737875	    263.78387903	    147.27977304	    155.76728864	     52.73404862	     32.55657175	     13.78114198	     13.22201054	     12.62491805	      5.77252585	     19.07533233	     13.27715573	     28.92898401	     20.73369888	     27.47243964	     41.60399790	      4.75530093	     45.96230344	     13.97895582	    261.12435904	      7.13390109	     21.83036925	     45.66398819	    278.71989760	   2177.03206162	    669.76525882	     -1.79929971	      1.35105419	     -0.11353497	     -1.03567670	      0.74157940	      0.15530863	     -0.00508445	      0.00048552	      0.00036366	     -0.00912617	     -0.00030925	    -28.95419154	    -10.71768367	      4.71326548	    -73.72021491	    -12.34528367	    122.03942024	    -14.75210773	     -1.44361864	    -21.55593304	    384.91968653	     39.66619427	      0.09203574	     -0.01026772	      0.02591992	      0.00420898	     -1.44399436	     -0.00653805	     15.30495481	    399.42785588	    -46.23478947	      0.10089282	     -0.00841246	     -0.00211653	      0.01505230	     -4.53040635	      0.00786695
     20.56220000	     13.20912858	     17.47322520	     54.99321556	     77.79124218	     28.12333621	     12.34824471	     55.93962185	     10.04709947	     11.50748483	      5.75060837	      9.49895044	     21.08977996	     28.50606101	     54.12276360	    126.79391955	    317.52596656	    178.00213049	    138.10357143	     56.66403708	     42.24560916	     11.25797927	     11.00884502	     11.12329350	      5.61603688	     18.40713748	     11.47086339	     24.76833380	     20.47161461	     27.37327874	     38.84888607	      4.70313233	     62.10445844	     14.17988280	    304.62264083	      6.27280055	     21.20116087	     39.05848181	    265.38115694	   2324.59197953	    665.99432852	      0.78963262	      0.32216571	      2.32065189	      1.06293232	     -0.16373524	     -0.54402025	     -0.00610687	      0.00052373	      0.00025828	     -0.00959983	     -0.00038353	    -30.05900037	     -9.94813918	      4.41602728	    -77.43875894	    -13.65871454	    127.95230953	    -18.30100643	     -1.36103824	    -28.58315588	    398.74794822	     37.57454219	      0.09348665	     -0.00967701	      0.02550396	      0.00471676	     -1.61819917	     -0.00732681	     14.51931578	    403.51246882	    -45.46375283	      0.10454776	     -0.00846159	     -0.00260449	      0.01615126	     -4.86117055	      0.00844132
     20.59530000	     12.40533679	     17.27532497	     55.98795382	     75.18849730	     27.70788272	     11.67852074	     77.68815575	      9.92197415	     11.05653083	      5.46408089	      8.92477392	     19.71847353	     28.08164431	     53.03018306	    138.57019820	    352.40995864	    181.63206110	    126.94936103	     62.66149329	     59.18831620	     10.13111397	     10.27738066	     11.04297130	      5.56757486	     18.08392093	     10.76233705	     23.14926044	     22.99032732	     27.35769298	     39.58257697	      4.66964201	    110.78363133	     13.82210229	    361.55905684	      5.99751370	     20.83887646	     36.49352387	    282.32834581	   2469.82168256	    717.79141158	      0.85061081	      3.38146268	     -0.46595255	     -0.32863809	      0.00848419	     -0.22420346	     -0.00666628	      0.00033666	      0.00018403	     -0.00985519	     -0.00048035	    -29.66225869	     -9.24818201	      3.53172829	    -78.77270539	    -14.37115371	    133.44314569	    -21.50429282	     -1.13932587	    -28.81847661	    420.01338020	     41.33450672	      0.09655263	     -0.00882918	      0.02543430	      0.00467328	     -1.60328508	     -0.00725928	     16.84380262	    396.80007310	    -44.01043063	      0.10814691	     -0.00845893	     -0.00293016	      0.01798530	     -5.41317527	      0.00939986
     20.62840000	     12.30682774	     17.33622869	     58.39122858	     73.83785369	     28.83435791	     11.60619133	    104.61578937	      9.80710767	     10.99343971	      5.42697746	      8.86850942	     19.62241857	     27.64654470	     51.96138703	    153.20259311	    388.96069059	    186.70973106	    114.34780427	     66.56759918	     74.24708609	      9.25475161	      9.79747495	     11.42510294	      5.58886517	     17.74215169	     10.69036855	     23.02633774	     32.50268060	     27.30913850	     40.46345053	      4.63294535	    177.73683090	     15.85596491	    426.92201231	      5.70260027	     20.71695937	     36.29710093	    303.48166860	   2659.05509693	    780.52289633	      2.52267678	    -15.01160051	     -0.63561172	      3.47299047	      0.27095963	     -0.51251099	     -0.00737262	      0.00016291	      0.00011242	     -0.01025018	     -0.00059103	    -35.96534276	     -8.41052866	      3.17145769	    -82.27093770	    -15.55220992	    142.71572480	    -23.44718287	     -1.16672877	    -28.02561376	    447.16419651	     46.18828962	      0.09950354	     -0.00823194	      0.02480470	      0.00516986	     -1.77364872	     -0.00803064	     21.07376742	    406.61540265	    -45.33699665	      0.11096261	     -0.00862064	     -0.00335392	      0.01964135	     -5.91160734	      0.01026538
     20.66150000	     12.61801821	     17.46984386	     56.62913008	     66.73503061	     28.67078885	     12.22907370	    129.68062876	      9.71532670	     11.16954754	      5.58336393	      9.37355681	     21.09538107	     27.25338532	     51.01434780	    155.58977265	    394.74043618	    179.49051703	     79.10681617	     59.57428892	     79.60394438	      8.42776261	      9.30079888	     11.70802549	      5.71536365	     17.42629548	     11.32681797	     24.74530912	     41.63977379	     27.24937799	     41.17789517	      4.59862024	    241.11342379	     20.93182499	    454.28971594	      5.33399350	     20.74521514	     38.99780655	    302.73368418	   2663.52293971	    785.69719817	     -0.90120801	      6.69723388	      2.29367728	     -2.17974746	     -0.72818003	     -0.10250550	     -0.00757507	     -0.00005249	     -0.00002691	     -0.00987277	     -0.00063946	    -38.15469081	     -7.39638715	      1.91029077	    -83.86179680	    -15.16016268	    154.21169791	    -24.33287321	     -1.59062170	    -25.35419822	    450.98064758	     45.72487708	      0.10128492	     -0.00801690	      0.02327003	      0.00587062	     -2.01406278	     -0.00911918	     28.46855078	    400.99493516	    -43.51582583	      0.11182101	     -0.00908546	     -0.00310853	      0.02126384	     -6.39994264	      0.01111336
     20.69460000	     12.43833668	     17.42748846	     56.03121566	     62.24657332	     27.63291716	     11.85397059	    159.96739010	      9.62794813	     11.00103455	      5.47656888	      9.17309565	     20.65042185	     26.91306170	     50.21455178	    167.03396399	    420.85806750	    177.43698623	     55.03796569	     57.05266721	     87.83047949	      7.61420714	      8.57881103	     11.36885093	      5.70955947	     17.13317885	     11.07978571	     24.21956027	     51.75133913	     27.16335334	     41.75718241	      4.56611177	    323.13488700	     26.28359153	    481.95760070	      4.81108255	     20.56468086	     38.14950734	    310.49420587	   2748.84948809	    810.14055891	      2.82101668	     -7.80226646	      0.28705872	      2.68345188	      1.97932006	     -0.12197422	     -0.00813149	     -0.00028263	     -0.00009455	     -0.00960593	     -0.00072427	    -45.87605490	     -5.50509995	     -0.09099842	    -88.88825314	    -14.62951878	    163.86403417	    -25.08169878	     -2.24332419	    -24.11756749	    472.50926879	     48.47437263	      0.10137239	     -0.00800299	      0.02156264	      0.00622019	     -2.13398676	     -0.00966216	     28.11908484	    418.20579570	    -39.50565261	      0.10877527	     -0.00995737	     -0.00176918	      0.02352974	     -7.08192688	      0.01229761
     20.72770000	     12.43594836	     17.43715064	     52.31054109	     54.11904141	     24.05928221	     11.75717642	    191.53711082	      9.56421614	     10.97050425	      5.46877925	      9.21494244	     20.82279061	     26.65071649	     49.58132026	    171.69993215	    449.81838831	    177.92205751	     21.84906042	     40.27716919	     91.11024059	      6.88535210	      7.70760722	     10.19283114	      5.75699471	     16.89211803	     11.13395347	     24.41968599	     60.87465737	     27.07469718	     42.24714957	      4.53855715	    386.88216561	     30.88896288	    499.61069505	      4.10309191	     20.47706498	     38.43949999	    313.52435372	   2796.58148579	    818.86458183	      0.04051990	      2.26136399	      0.12035389	     -0.07400749	     -0.44750754	     -0.64148567	     -0.00858133	     -0.00067344	     -0.00032139	     -0.00922686	     -0.00078972	    -45.08247070	     -5.15932593	     -1.85148593	    -91.28777910	    -13.95321855	    170.51367300	    -26.41480702	     -2.77732996	    -19.55862712	    493.99186869	     47.91806745	      0.10106754	     -0.00775811	      0.01962525	      0.00547839	     -1.87949466	     -0.00850988	     29.39874730	    418.39683935	    -35.36595896	      0.10770816	     -0.01021817	     -0.00108995	      0.02497280	     -7.51625649	      0.01305182
     20.76080000	     12.36266476	     17.38505514	     32.69790102	     22.68445764	     14.77081882	     12.77140929	    290.70625101	      9.58090443	     11.28037841	      5.71340716	      9.84639434	     22.38631391	     26.48384332	     49.10060449	    123.95756772	    555.64153075	    231.00608856	     20.11409553	     15.79925565	     57.88021514	      6.34773352	      6.96270437	      8.47308653	      5.83645738	     16.67712781	     11.91265402	     26.25224995	     46.87357501	     26.99322058	     42.40829575	      4.51928727	    372.45216367	     27.49422126	    488.99363766	      3.25445852	     20.53178772	     41.29431653	    307.19420842	   2761.66173878	    800.61263735	      0.86071336	      4.12256629	      1.95339326	     -0.30381374	     -2.02994744	     -0.98257814	     -0.00922075	     -0.00231049	     -0.00211409	     -0.00870625	     -0.00078993	    -45.88538724	     -4.82518608	     -3.86459301	    -97.44751063	    -13.10936363	    176.83120183	    -28.43478714	     -2.92885830	    -19.68757060	    512.89111888	     41.98921292	      0.09851099	     -0.00746839	      0.01739332	      0.00338677	     -1.16191399	     -0.00526086	     29.65939889	    435.33748025	    -31.31229841	      0.10481953	     -0.01059744	      0.00038170	      0.02786803	     -8.38765466	      0.01456498
     20.79390000	     12.34423437	     17.40307623	     14.16023183	     10.42670963	     12.35167449	     13.05124821	    408.21354060	      9.49392135	     10.99813508	      5.50046767	      9.32601780	     21.01798352	     26.34857682	     48.72313677	     32.83205002	    692.55305875	    302.25212041	     20.00625798	     15.58169210	     18.01336584	      6.27945634	      6.87364637	      8.31722885	      5.66614799	     16.51273876	     11.26070977	     24.64190767	     21.28605416	     26.92004298	     61.67837018	      4.54965807	    275.53288456	     18.00262009	    474.49460084	      2.37752888	     20.37961189	     38.75701998	    293.23929361	   2655.56647886	    761.38159556	     -1.75456482	     -4.07212402	     -1.29972589	     -0.49165434	      1.96738020	      0.52412842	     -0.00971945	     -0.00482690	     -0.00481657	     -0.00806952	     -0.00079071	    -51.60061455	     -2.21821466	     -7.30887153	   -105.75011632	    -12.59919269	    185.19763307	    -30.68701944	     -2.77886866	    -18.31549944	    525.42660848	     33.67985930	      0.09621076	     -0.00686082	      0.01543239	      0.00117833	     -0.40425441	     -0.00183036	     28.28123363	    467.28019571	    -23.60379563	      0.10131438	     -0.01128213	      0.00233295	      0.03029289	     -9.11748185	      0.01583231
     20.82700000	     12.41018569	     17.49296372	     12.28556298	      9.89174412	     12.22734875	     69.10595610	    727.71523276	      9.57638284	     11.29707853	      5.76319245	     10.08223073	     23.02015847	     26.33044927	     48.41660558	     20.13419074	    693.63244825	    508.28704153	     19.95731509	     15.48439664	     17.47108524	      6.25712187	      6.83709907	      8.26026445	      5.69310821	     16.41070059	     12.20567719	     26.99565211	     20.75541757	     26.89665541	    341.93993023	     11.68803979	    162.78861960	     15.56200618	    443.59332916	      1.63784664	     20.39484873	     42.40397717	    259.58442642	   2365.70483080	    671.09867125	      4.47170282	      1.27397090	      1.29946848	      1.17744239	      0.90801979	     -0.30981574	     -0.01060738	     -0.00737951	     -0.01155368	     -0.00699999	     -0.00076661	    -55.96316025	      1.24559773	    -11.04988257	   -108.66936458	    -11.51374238	    194.65508140	    -32.32650943	     -2.74262685	    -26.18273720	    532.84666871	     14.79715449	      0.09217456	     -0.00641402	      0.01254955	     -0.00049351	      0.16930957	      0.00076659	     24.76207953	    480.56368809	    -12.51991990	      0.09767614	     -0.01242934	      0.00393587	      0.03069253	     -9.23776464	      0.01604118
     20.86010000	     12.47796114	     17.59748270	     11.91591086	      9.65108952	     12.20116042	    131.53896077	   1007.04948101	      9.69263306	     11.42574287	      5.87752964	     10.40856734	     23.89252515	     26.45827112	     48.16142862	     19.96635728	    679.92025386	    684.70095164	     19.92280361	     15.41045141	     17.23797201	      6.24549297	      6.81055431	      8.21248474	      5.70961664	     16.34912698	     12.61248038	     28.02418676	     20.57199156	     26.89474454	    588.95492785	     25.27856902	     90.04291001	     14.03469730	    455.79051743	      1.10633750	     20.39203057	     43.97799924	    237.35980194	   2174.72439944	    611.11315020	      1.22758789	     -0.69937526	      3.04378423	      0.57308154	     -1.68873771	     -1.18429102	     -0.01201262	     -0.01002186	     -0.01786519	     -0.00632567	     -0.00080650	    -59.00235909	      3.90466041	    -13.92481218	   -109.16567965	    -10.81491191	    202.80991499	    -32.55645348	     -3.20697407	    -25.93153211	    544.12162874	      1.12674277	      0.09147214	     -0.00569618	      0.01093056	     -0.00183435	      0.62932146	      0.00284941	     23.83095268	    483.65644237	     -3.54528504	      0.09567690	     -0.01359584	      0.00420776	      0.03060897	     -9.21261663	      0.01599751
     20.89320000	     12.52965689	     17.69074695	     11.73429169	      9.44491666	     12.17202393	    179.45891220	   1195.50617751	      9.73827368	     11.43873965	      5.89826629	     10.47636773	     24.08335100	     26.49279073	     47.87259689	     19.82993837	    631.36115162	    811.16260778	     19.90122276	     15.35558679	     17.06482839	      6.23938779	      6.79117569	      8.17219894	      5.69516450	     16.31696056	     12.69635470	     28.25168159	     20.41417511	     26.91385769	    791.84730456	     35.82986260	     56.26587391	     12.90121540	    455.60827267	      0.77641588	     20.39287426	     44.31280493	    224.95273225	   2071.90361476	    581.74717345	     -1.27568805	     -3.36882078	      1.41261215	     -0.10998076	     -0.21214379	      0.03353308	     -0.01320468	     -0.01225401	     -0.02280049	     -0.00615060	     -0.00082492	    -64.23284217	      6.61070221	    -17.13566162	   -108.90438862	     -9.75280579	    208.84483131	    -31.33149372	     -4.15681612	    -19.75529859	    544.27501848	     -7.48194280	      0.09134510	     -0.00516249	      0.00970371	     -0.00318186	      1.09161528	      0.00494256	     20.19608374	    490.36405619	      7.30541493	      0.09218553	     -0.01493987	      0.00445648	      0.03139207	     -9.44831218	      0.01640679
     20.92630000	     12.56180618	     17.76399560	     11.61465471	      9.26816581	     12.13970445	    208.60105133	   1316.30127227	      9.76566961	     11.46533065	      5.91635389	     10.48918973	     24.07939818	     26.44933257	     47.56183170	     19.72062534	    596.42141981	    889.23249886	     19.91454765	     15.32783823	     16.94569091	      6.24437872	      6.78775573	      8.15296815	      5.67676100	     16.31339562	     12.70712039	     28.24745457	     20.30542583	     26.94986167	    910.33232346	     42.81990811	     50.83558293	     12.43877881	    439.46071595	      0.59589411	     20.46571647	     44.30774203	    216.62230647	   2004.77182148	    563.34307831	      2.01781047	      3.39288865	     -1.36531405	      0.31881606	      0.95588064	     -0.22896366	     -0.01447178	     -0.01413346	     -0.02621110	     -0.00610399	     -0.00080802	    -66.96729994	      8.53879869	    -19.74969442	   -107.68131807	     -8.66261979	    213.32490115	    -29.50085662	     -5.15213065	    -18.45245419	    542.96216697	    -12.02855388	      0.09011408	     -0.00485259	      0.00909892	     -0.00460485	      1.57980964	      0.00715298	     18.67980815	    492.00018654	     16.19783614	      0.08911706	     -0.01585388	      0.00440952	      0.03201111	     -9.63462951	      0.01673033
     20.95940000	     12.57371852	     17.81030594	     11.51258862	      9.12159249	     12.09975024	    242.63349573	   1447.64342040	      9.70832259	     11.37295950	      5.83459693	     10.23043003	     23.35127455	     26.28537334	     47.26153509	     19.63796788	    546.20796201	    976.37340953	     19.96893035	     15.32578127	     16.87247278	      6.26179831	      6.80347906	      8.16129017	      5.65856819	     16.33521507	     12.37844381	     27.38842971	     20.25946211	     26.99933829	   1063.46949586	     51.16412860	     45.97377299	     11.99707299	    403.36181914	      0.50597371	     20.55535698	     42.98988268	    209.65648834	   1947.90056301	    547.55872690	     -0.26205576	      2.39919450	     -0.99480341	     -0.92490988	      1.71024610	      0.52688990	     -0.01559892	     -0.01614154	     -0.03006033	     -0.00604684	     -0.00074685	    -69.03508986	      9.90699636	    -21.82602663	   -112.47282324	     -7.41122245	    216.92091961	    -28.13204905	     -5.63990845	    -16.32064573	    545.62718140	    -19.06045976	      0.08774121	     -0.00453966	      0.00785906	     -0.00611016	      2.09624012	      0.00949125	     22.48756865	    508.72713601	     21.98924705	      0.08604422	     -0.01633657	      0.00486653	      0.03330117	    -10.02290670	      0.01740455
     20.99250000	     12.56508777	     17.82058844	     11.43036680	      9.00777996	     12.05272354	    280.93666683	   1615.43471636	      9.46462231	     10.86045288	      5.35249180	      8.69822549	     18.96120561	     26.04616503	     47.11083934	     19.57820851	    519.75910081	   1086.68521885	     20.03786233	     15.33388246	     16.83101812	      6.28318251	      6.82966650	      8.18901503	      5.64334916	     16.37610888	     10.42959226	     22.19848982	     20.26935358	     27.05534366	   1239.23991322	     61.25181458	     44.35664320	     11.75814217	    361.55168500	      0.46717714	     20.39378628	     35.01986748	    205.36473770	   1913.62325333	    537.87686207	     -0.88909778	     -1.82170162	      2.76313957	     -0.28392771	     -1.13174750	     -0.74141397	     -0.01704848	     -0.01861142	     -0.03459943	     -0.00607828	     -0.00064435	    -69.62899380	     11.32750608	    -23.40651434	   -118.57555752	     -6.93018316	    220.87788242	    -27.67300911	     -5.34793803	    -19.15888310	    560.58921362	    -30.05735905	      0.08401428	     -0.00424128	      0.00644390	     -0.00738837	      2.53476105	      0.01147677	     27.77925353	    527.27644254	     25.21492883	      0.08473079	     -0.01625659	      0.00477862	      0.03286312	     -9.89106271	      0.01717561
     21.02560000	     12.54233424	     17.79877994	     11.36771557	      8.92989814	     12.00240907	    309.11471613	   1739.99059305	      9.82642750	     11.71417746	      6.00408995	     10.35269564	     23.31348087	     26.36499233	     47.31602443	     19.53146453	    507.03188104	   1167.87200640	     20.09354419	     15.33551982	     16.80313373	      6.29990336	      6.85562633	      8.22198179	      5.63243607	     16.43607440	     12.49626693	     27.32939546	     20.30576007	     27.12409046	   1379.02420394	     69.60480379	     44.15145566	     11.73168753	    312.90635155	      0.46056165	     21.31607212	     42.98043556	    200.07572294	   1867.29608347	    524.66242639	      4.27296715	     -5.87527395	      1.17438866	      2.69168939	     -0.37844131	     -1.03517798	     -0.01801572	     -0.02044701	     -0.03802786	     -0.00599654	     -0.00057350	    -74.06020991	     13.47973004	    -25.33480223	   -124.78496493	     -6.31383219	    226.70242955	    -27.84420818	     -4.49421791	    -23.11451086	    569.84114098	    -39.74365080	      0.08044157	     -0.00398986	      0.00548807	     -0.00779417	      2.67397898	      0.01210711	     25.49285132	    554.44804917	     31.46408194	      0.08218202	     -0.01624259	      0.00566048	      0.03233906	     -9.73333476	      0.01690173
     21.05870000	     12.52023209	     17.77107626	     11.32348801	      8.89127519	     11.95388246	    321.74223267	   1776.81103735	      9.82404434	     11.72327945	      5.98385877	     10.20905244	     22.83182455	     26.50097862	     47.75866761	     19.48572406	    495.95614609	   1193.37973991	     20.13778439	     15.32501637	     16.77355374	      6.31307631	      6.87933269	      8.25146476	      5.62510278	     16.52616311	     12.30776163	     26.75845191	     20.32826887	     27.22103135	   1460.53526043	     73.87919274	     43.85555691	     11.68337167	    268.73201608	      0.48100603	     21.50332251	     42.11928805	    197.32620746	   1842.00530933	    517.22457126	     -0.26637360	      3.43017775	      0.40107791	     -0.80737978	      0.32145349	     -0.38715457	     -0.01799028	     -0.02095609	     -0.03934260	     -0.00596287	     -0.00049223	    -76.63856999	     14.16662452	    -25.34206359	   -130.16773272	     -6.04294557	    233.47154102	    -28.28616423	     -3.64534682	    -21.56690791	    568.63223906	    -43.89781165	      0.07797408	     -0.00385414	      0.00487299	     -0.00746592	      2.56136683	      0.01159723	     25.22158128	    573.20194748	     32.28495792	      0.08109220	     -0.01594573	      0.00652396	      0.03189963	     -9.60107663	      0.01667206
     21.09180000	     12.51384639	     17.77183521	     11.29957084	      8.89336509	     11.91277316	    324.61049689	   1766.87436990	      9.84234397	     11.85060215	      6.02045820	     10.15611855	     22.55173620	     26.75155872	     48.47820627	     19.43246465	    506.78293018	   1188.72169668	     20.18890556	     15.30323922	     16.73452140	      6.32953677	      6.90414402	      8.27328142	      5.62461834	     16.66158425	     12.22853085	     26.42469286	     20.29940948	     27.36086760	   1481.74345672	     74.64301965	     43.62657269	     11.66461115	    222.20101526	      0.53484506	     21.57649800	     41.62871775	    201.64338663	   1880.06944282	    527.42064112	      1.18361425	     -2.97282033	     -1.14476424	      0.80675901	      2.46666647	      0.57994009	     -0.01756691	     -0.02046860	     -0.03919284	     -0.00611396	     -0.00039921	    -81.83808158	     14.97674597	    -25.05747530	   -133.52143639	     -5.90800082	    237.50374221	    -28.97928663	     -3.32332551	    -20.38039795	    571.10383925	    -45.54342463	      0.07539995	     -0.00402210	      0.00382207	     -0.00697157	      2.39176609	      0.01082932	     18.56974117	    592.76678412	     32.58807919	      0.07966008	     -0.01563078	      0.00774398	      0.03157112	     -9.50219972	      0.01650036
     21.12490000	     12.52964165	     17.82258438	     11.29535236	      8.93422795	     11.88159996	    317.32590033	   1711.30890701	      9.90029211	     11.95845544	      6.08005556	     10.21071101	     22.59562237	     27.14273242	     49.48069116	     19.36923518	    532.97198980	   1153.87936410	     20.25363585	     15.26948936	     16.68645822	      6.35261786	      6.93058146	      8.28239257	      5.63266635	     16.85205277	     12.28795388	     26.47528221	     20.19579845	     27.55261559	   1439.21934071	     71.96425408	     43.43020055	     11.67858314	    185.06469314	      0.64363542	     21.57726745	     41.72735534	    210.75902597	   1960.01755174	    549.17189450	      1.15608053	      1.54117417	      1.63983697	     -0.13259620	     -0.81964334	     -0.21551444	     -0.01676866	     -0.01908274	     -0.03762043	     -0.00635681	     -0.00032783	    -79.99830615	     14.24609582	    -22.85192363	   -131.05442242	     -5.62633874	    236.62777983	    -29.78748443	     -3.63472342	    -20.83272801	    575.94872997	    -44.39818663	      0.07345109	     -0.00446406	      0.00290360	     -0.00686122	      2.35390708	      0.01065791	     14.67231834	    583.82092152	     26.97041466	      0.07901954	     -0.01508807	      0.00905920	      0.03034162	     -9.13215008	      0.01585778
     21.15800000	     12.56496923	     17.92689076	     11.31142395	      9.01034451	     11.86085501	    281.83401448	   1540.22198313	      9.78232608	     11.28333157	      5.70595069	      9.50977231	     20.94994923	     27.40510843	     50.53921628	     19.29939587	    568.81639479	   1040.22493676	     20.32964922	     15.22473903	     16.63729335	      6.38263702	      6.95808943	      8.27671980	      5.64881020	     17.10014407	     11.43652203	     24.54654505	     20.01689258	     27.79697899	   1246.18257350	     61.45239641	     43.27886444	     11.70592597	    157.83924166	      0.85529366	     20.79302468	     38.70785558	    226.18283891	   2095.61910011	    586.21643516	      0.12660165	     -2.61936598	      1.38788081	      0.38222777	     -1.24271391	     -1.11907204	     -0.01547629	     -0.01626365	     -0.03293896	     -0.00673388	     -0.00027479	    -78.56060244	     13.60363876	    -20.18810938	   -126.68057821	     -5.51281752	    232.28459165	    -29.99638107	     -4.21883777	    -21.37758402	    576.17226708	    -36.10480720	      0.07253127	     -0.00524547	      0.00233619	     -0.00731364	      2.50912395	      0.01136069	     11.31186852	    569.67235011	     18.39613024	      0.07855288	     -0.01446642	      0.01002826	      0.02805624	     -8.44430077	      0.01466334
     21.19110000	     12.61241237	     18.07788224	     11.35060743	      9.11766091	     11.84963194	    229.17906843	   1282.88640299	      9.88553986	     11.23877927	      5.62504163	      9.21248534	     20.14727158	     27.88780540	     51.84513704	     19.22809851	    580.23246181	    873.42244757	     20.42648225	     15.17713981	     16.59803214	      6.42351810	      6.99206050	      8.26399188	      5.67533217	     17.40591572	     11.06382914	     23.60626991	     19.78291342	     28.08946432	    979.82974592	     45.99243289	     43.45115969	     11.84076111	    130.28825353	      1.25570190	     20.89996752	     37.24673258	    245.27256164	   2262.40007614	    636.56660919	      0.10629923	     -2.31345934	      0.36979087	      0.50845613	      0.86413987	     -0.43821176	     -0.01372942	     -0.01267352	     -0.02641704	     -0.00741374	     -0.00021909	    -78.79946984	     12.35846007	    -16.77775535	   -120.47685968	     -5.23049073	    225.51105251	    -29.09993753	     -4.58901994	    -20.92432269	    557.49307279	    -22.69085783	      0.07210868	     -0.00641893	      0.00212382	     -0.00805872	      2.76474069	      0.01251806	      6.65022502	    551.54124323	      8.14635639	      0.07754326	     -0.01392109	      0.01060900	      0.02596467	     -7.81478499	      0.01357021
     21.22420000	     12.66517726	     18.26663886	     11.48817857	      9.25552824	     11.85858656	    160.21327459	    966.16559302	     10.01141516	     11.66096628	      5.79325053	      9.32161465	     20.20612174	     28.43503024	     53.30105789	     19.15891665	    588.91276580	    679.71626312	     20.56236759	     15.13528604	     16.57577233	      6.48246904	      7.04188481	      8.25668272	      5.71539939	     17.77136535	     11.17806029	     23.67681231	     19.51683098	     28.42005879	    658.29827198	     26.68255718	     53.86327510	     12.64731642	     97.86136024	      1.95962907	     21.32036188	     37.38087920	    271.13301300	   2486.54520567	    707.08794922	      1.73386055	      0.38015422	      0.68940472	      0.77164913	      0.21521204	     -0.18512531	     -0.01215053	     -0.00908689	     -0.01877573	     -0.00853524	     -0.00003911	    -76.10327137	      9.53528132	    -11.92769585	   -111.81352131	     -4.88682525	    214.63167163	    -27.74378157	     -4.48675052	    -20.06218160	    535.89432642	     -6.96989823	      0.07137601	     -0.00782673	      0.00232142	     -0.00865719	      2.97006250	      0.01344770	      1.88797688	    522.13685084	     -4.76609047	      0.07667366	     -0.01334220	      0.01048034	      0.02342363	     -7.04998907	      0.01224215
     21.25730000	     12.71993559	     18.48793656	     12.70806251	      9.42767837	     11.95667653	     97.51496968	    674.49466455	     10.16012304	     14.10131240	      6.46317196	      9.57527126	     20.10656120	     29.02538857	     54.72474778	     19.09164306	    582.40364071	    506.53740224	     20.73624043	     15.09393782	     16.56770802	      6.56141750	      7.10929433	      8.25548937	      5.75600192	     18.19905514	     11.41156964	     23.55758578	     19.21911869	     28.77931868	    390.26096721	     10.06098242	     80.14997956	     13.93185204	     84.31393000	      3.03970188	     35.13371837	     37.24511269	    295.81190659	   2693.39916263	    774.65085670	      0.64603163	      2.42803214	     -0.04869756	     -0.69463855	      0.06622749	      0.00211318	     -0.01083770	     -0.00625142	     -0.01227663	     -0.00967389	      0.00051828	    -69.41379571	      7.44747573	     -8.36280186	   -103.98427609	     -4.32969813	    199.99333132	    -26.82415408	     -3.93445195	    -18.42267835	    514.73516399	      5.95216310	      0.07019435	     -0.00913829	      0.00277072	     -0.00842898	      2.89176707	      0.01309320	     -1.43551762	    492.54530361	    -13.06414246	      0.07553887	     -0.01270237	      0.01088501	      0.01978604	     -5.95515410	      0.01034099
     21.29040000	     12.77983598	     18.74477527	     16.18364823	      9.67217992	     11.93512847	     44.37529165	    432.06593978	     10.31154274	     16.41623725	      6.49146565	      8.86672745	     18.55305674	     29.68077134	     56.24688854	     19.08693626	    574.85665062	    365.38380620	     20.91695643	     15.03508993	     16.60775587	      6.65401686	      7.18432085	      8.24497342	      5.71241381	     18.69008417	     10.55171008	     21.75443818	     18.93353236	     29.15093930	    142.77581857	      4.95761410	     95.14338933	     12.98704240	     84.56076433	      4.39582211	     60.27743438	     34.37159136	    320.65999490	   2896.61652368	    841.42012060	      2.10755265	      1.11342668	      2.73554437	      0.39200351	     -0.86383269	     -0.09984760	     -0.01019717	     -0.00428173	     -0.00709629	     -0.01108591	      0.00115831	    -64.72786870	      5.33835777	     -4.75880530	    -96.65780917	     -3.80128788	    186.85507623	    -26.01337757	     -3.09700535	    -19.94110884	    498.01329353	     13.88092355	      0.06809524	     -0.01018131	      0.00347204	     -0.00750096	      2.57338713	      0.01165166	     -8.21180873	    470.10159630	    -19.51478387	      0.07375523	     -0.01211103	      0.01133329	      0.01587331	     -4.77751305	      0.00829604
     21.32350000	     12.87394159	     19.05196578	     40.85505525	     24.29317824	     16.30996884	     16.39815028	    243.30644426	     10.49037684	     19.25200613	      7.01468040	      8.95333906	     18.58828216	     30.38637947	     57.83806544	     89.05053600	    495.22770248	    254.66698357	     21.07148538	     14.97044546	     45.34601958	      6.75916635	      7.26383317	      8.22818344	      5.73897580	     19.24632018	     10.63818621	     21.81516060	     35.57578802	     29.52279212	     46.45672900	      4.98309659	    160.76044046	     15.10167143	     85.35526043	      5.72529316	     75.42693616	     34.44678620	    346.34575845	   3103.88936108	    907.27934546	     -1.16407451	     -1.43774888	      0.20461759	     -0.19996031	      0.66533682	     -0.61315120	     -0.01012883	     -0.00191947	     -0.00287199	     -0.01263550	      0.00142885	    -61.66664271	      4.50185627	     -2.82237114	    -88.82932561	     -3.27937421	    178.94319854	    -24.38974275	     -2.15110757	    -20.67097897	    489.82032384	     21.77753647	      0.06677624	     -0.01073303	      0.00538173	     -0.00634295	      2.17610431	      0.00985286	    -13.55611122	    449.17067309	    -21.08494187	      0.07181634	     -0.01152900	      0.01204654	      0.01209201	     -3.63942447	      0.00631978
     21.35660000	     13.20000592	     19.47188090	     59.73243841	     60.63429771	     30.91620925	     12.15886323	    123.97233757	     10.68638099	     19.88543378	      7.21997340	      9.01515573	     18.62150084	     31.12857865	     59.51959568	    158.09194932	    413.60088178	    189.45649151	     22.94653261	     37.74911906	     77.64586996	      7.43808693	      8.09622248	      9.76273520	      5.77380998	     19.86430175	     10.70731181	     21.87882544	     42.39150218	     29.85603209	     47.03289084	      5.05557930	    172.34549254	     16.51358626	     86.51797681	      6.74594414	     78.34296632	     34.51519384	    358.59592854	   3193.76359413	    932.96897848	     -1.11480913	     -3.18549835	      0.63783508	      0.68394228	     -0.19495769	     -0.66087246	     -0.00995450	     -0.00034215	     -0.00039080	     -0.01379392	      0.00144926	    -60.47979147	      2.40869223	      0.11894446	    -80.63011889	     -3.05531620	    171.76808827	    -22.32262544	     -1.21851705	    -20.51933511	    482.03540631	     27.48568106	      0.06677024	     -0.01082671	      0.00822993	     -0.00492291	      1.68892516	      0.00764703	    -18.98342285	    430.52102867	    -25.24559339	      0.07051089	     -0.01084898	      0.01192030	      0.00914476	     -2.75236634	      0.00477942
     21.38970000	     13.58545561	     19.80321498	     60.48620157	     66.63477678	     31.89189770	     12.90135822	     83.68384294	     10.90028612	     21.19633654	      7.82002371	      9.40074737	     19.01659927	     31.87437268	     61.26811280	    152.80156414	    383.34773703	    183.86996353	     72.44691749	     53.97808986	     71.55248651	      8.93267124	      9.64634093	     11.23117150	      5.82699387	     20.45900795	     11.13283696	     22.37858720	     34.05677244	     30.10850681	     47.49836336	      5.13476260	     85.94919423	     14.44839150	     87.84123442	      7.39949461	     81.04136971	     35.24433781	    354.28740790	   3144.08685985	    911.87331216	      0.47699094	      0.66509971	      0.02451241	     -0.16085083	     -0.14686840	     -0.11100401	     -0.00944262	      0.00001961	     -0.00010812	     -0.01422101	      0.00148127	    -53.11276825	     -0.29400476	      2.69296954	    -73.87114270	     -3.58458574	    157.32612945	    -21.28331599	     -0.40452769	    -19.26971141	    467.49516194	     32.37940513	      0.06681153	     -0.01075415	      0.01148222	     -0.00355158	      1.21845460	      0.00551686	    -18.67693173	    411.05737071	    -30.04209927	      0.07202514	     -0.00978889	      0.01102537	      0.00620707	     -1.86818822	      0.00324407
     21.42280000	     13.19662384	     19.84319670	     55.32681771	     65.93819327	     27.60354136	     11.77156117	     44.64401137	     11.12001685	     23.11674023	      7.83501877	      9.02537327	     18.54380235	     32.58036828	     63.01304602	    139.59163715	    346.48905278	    170.98980181	    118.60904309	     58.26875605	     61.80871125	     10.41571892	     10.75701606	     11.27552231	      5.74816539	     21.03919507	     10.72218393	     21.85063212	     26.58719040	     30.26386287	     47.35471778	      5.20978956	     42.85630787	     12.19157149	     89.32428034	      7.85695448	     95.59796479	     34.38809224	    335.69298394	   2979.75933183	    852.63301089	      6.26158756	      6.65454134	      0.72239109	      0.46807347	     -0.15432433	      0.57066147	     -0.00856145	      0.00015489	      0.00007615	     -0.01404648	      0.00169293	    -40.66523336	     -4.27726881	      5.21513236	    -69.47814708	     -3.63008289	    135.56043677	    -21.37001477	      0.06132106	    -19.93301221	    444.21059399	     34.55479008	      0.06524183	     -0.01087543	      0.01423043	     -0.00215132	      0.73806215	      0.00334176	    -15.82650416	    393.25559952	    -35.47083689	      0.07311217	     -0.00896139	      0.01033893	      0.00431033	     -1.29731342	      0.00225276
     21.45590000	     13.06834087	     19.82575777	     44.01899290	     58.39003002	     20.05229957	     11.57397420	     25.70529111	     11.34700153	     20.94164481	      7.71695066	      9.40253118	     19.24864275	     33.17610610	     64.60301246	    128.23642347	    303.65203301	    144.55742413	    154.70784644	     60.28803437	     52.50080563	     13.48156830	     13.20626177	     12.25066089	      5.73155617	     21.57213450	     11.18956054	     22.73226686	     22.86665894	     30.30150215	     49.11484924	      5.27333339	     38.22046777	     11.74753452	     91.17187205	      8.36737265	     83.14141202	     35.69551272	    331.32598760	   2675.40160981	    810.48128383	      2.42278881	     -4.14809964	     -0.15248880	      1.16144565	      0.19298348	     -0.11538031	     -0.00739255	      0.00006202	      0.00022315	     -0.01283490	      0.00142196	    -30.28530248	     -8.03383992	      7.22999693	    -65.85836673	     -3.75715348	    117.29345904	    -20.32433466	     -0.11276662	    -16.74697360	    429.08804893	     38.03424767	      0.06765996	     -0.01067820	      0.01761210	     -0.00192863	      0.66166310	      0.00299584	     -8.41508961	    377.94575607	    -41.06299392	      0.07472995	     -0.00877374	      0.00885701	      0.00226831	     -0.68271015	      0.00118551
     21.48900000	     12.92812090	     19.65678445	     23.04751875	     38.68004426	     12.53148145	     11.53652663	     24.82274817	     11.59181996	     23.33207811	      8.12549172	      9.22622368	     18.78548674	     33.58167758	     65.83601455	    105.46162848	    231.36482382	     86.68694615	    189.58568803	     60.21613785	     40.85209231	     16.89104522	     15.56144089	     12.37946250	      5.73323522	     22.07221854	     10.97921664	     22.24173221	     19.20611259	     30.23131527	     51.38881277	      5.32764258	     38.02316281	     11.87110264	     92.75963883	      9.52331199	     96.42314628	     34.85599738	    257.37763116	   2141.32177609	    630.68038927	     -2.52017053	     -3.33504535	      1.34095742	      0.66490286	      2.49844107	      0.87131581	     -0.00541634	     -0.00034681	      0.00038871	     -0.00900064	      0.00159186	    -33.55354543	    -11.46589090	      9.67619641	    -57.32810376	     -4.30693062	    111.74932956	    -16.20664304	     -0.73602925	    -11.16735896	    397.73386903	     42.08809908	      0.06725212	     -0.01090193	      0.02038412	     -0.00230693	      0.79144766	      0.00358348	     -3.45583532	    361.63341900	    -47.76535247	      0.07673148	     -0.00939581	      0.00691579	      0.00053235	     -0.16022451	      0.00027823
     21.52210000	     13.11718163	     19.38694605	     17.00947758	     30.25446218	     12.58573755	     11.79242358	     26.74348082	     12.04249238	     19.59658009	      8.03235969	     10.11235464	     20.69076407	     33.84880213	     66.59862442	     96.38925246	    200.05040717	     53.11756973	    231.41306625	     60.85996942	     30.30802271	     21.42395131	     18.40726015	     12.69292681	      5.83169375	     22.73592731	     12.08385198	     24.58384679	     16.07655421	     30.08638908	     53.85629491	      5.39908843	     41.77841106	     12.84216651	     95.83289011	     12.69064965	     69.34321903	     38.39911118	    199.45311531	   1709.02541733	    491.08849041	     -8.58479755	      0.53214688	      1.07614349	     -3.03027368	     -1.79119017	     -2.35535344	     -0.00480304	     -0.00062281	      0.00058196	     -0.00626919	      0.00108698	    -31.64285677	    -13.65998927	     10.11449371	    -44.93346798	     -4.55406466	    111.64972070	    -10.35607176	     -0.74184793	     -7.96631510	    391.94923348	     47.01930511	      0.07230837	     -0.01051042	      0.02314172	     -0.00209489	      0.71870518	      0.00325411	      8.69721801	    315.23984961	    -50.33458207	      0.08080310	     -0.01013242	      0.00501883	     -0.00072021	      0.21676842	     -0.00037641
     21.55520000	     12.68083381	     18.74587644	     12.16389345	     17.00184709	     11.53362317	     11.60747098	     23.42395211	     12.35853924	     17.20791650	      7.66013173	      9.95983923	     20.47100063	     33.63875423	     66.74113542	     72.89122482	    134.53605284	     18.30616692	    268.47801030	     56.14999743	     18.72839810	     26.38903404	     20.95395977	     11.93737903	      5.71385834	     24.19859993	     11.94114458	     24.41650489	     11.86765905	     29.78296418	    118.43872134	      5.47991517	     38.53574601	     12.33010192	     97.54012316	     22.41802740	     46.38094920	     38.02499010	    144.41082064	   1268.49692122	    358.35943849	      3.69423438	     10.52510918	     -1.40715888	      0.35821236	      0.67085219	      1.40579893	     -0.00340788	     -0.00113580	      0.00082970	     -0.00415008	      0.00065136	    -34.43055386	    -14.65279419	      9.95177953	    -33.49250541	     -3.70754146	     98.66113821	     -6.37341912	      0.88061736	      0.59376076	    364.92940743	     53.99039297	      0.07879227	     -0.00979059	      0.02574046	     -0.00155013	      0.53181179	      0.00240791	      0.14933863	    289.13278491	    -50.02843822	      0.07790526	     -0.01108868	      0.00477549	     -0.00139271	      0.41917666	     -0.00072790
     21.58830000	     12.41708140	     17.98950418	     11.19317737	     11.09516837	     11.36684730	     11.62032306	     22.69195669	     12.28303904	     14.94263498	      6.82979620	      9.16553824	     19.28339922	     33.70534983	     66.61052215	     59.07492910	     98.68452400	     16.33979833	    290.84763351	     51.14394219	     14.00710668	     29.71569849	     22.05182335	      9.88978131	      5.60796873	     30.85917332	     11.04376769	     23.04383263	      7.91778905	     29.47106072	    170.85662941	      5.57748561	     37.46744114	     11.92377851	    101.18408331	     31.15624438	     41.27162682	     35.99581711	    107.66443411	    963.76761585	    269.11114238	      9.07943558	     -0.34736074	     -0.25987461	      2.54266219	      0.51842610	      0.95818317	     -0.00283448	     -0.00166442	      0.00101625	     -0.00296814	      0.00055266	    -16.22261169	    -17.13259366	      8.46349567	    -31.05177606	     -5.31464142	     67.98590334	     -5.84401829	      3.31166452	      0.82317462	    353.66104527	     57.41040410	      0.08193634	     -0.00944342	      0.02601829	     -0.00135772	      0.46579623	      0.00210901	     -0.23146640	    273.86981384	    -49.46129193	      0.08621899	     -0.01042835	      0.00236569	     -0.00235280	      0.70813829	     -0.00122967
     21.62140000	     12.17942490	     17.09212379	     11.14126429	     10.89985058	     11.39106109	     11.67611236	     22.60638274	     12.15254071	     13.25715843	      6.28777749	      8.62998623	     18.36287911	     40.95876110	     65.90579128	     47.43983648	     73.42191821	     16.00605351	    285.60984428	     43.98647497	     13.26605681	     30.14199023	     21.31130401	      7.08500305	      5.51145599	     35.00687453	     10.43589057	     22.01043645	      4.72080588	     29.03997081	    200.74430111	      5.39408343	     37.71501139	     11.99785630	    104.02241462	     35.79889923	     32.00894618	     34.42060973	     76.24543459	    691.22248609	    191.75629036	      1.74820310	     -1.35973730	      0.63402963	      0.74879392	     -0.14292105	     -1.15732847	     -0.00256038	     -0.00210556	      0.00108377	     -0.00206489	      0.00039268	      7.49876955	    -19.99896611	      6.44399657	    -30.76673174	     -7.25594591	     37.47632627	     -6.76712248	      3.95278329	     -1.60833773	    335.13214049	     56.52603073	      0.08681418	     -0.00952652	      0.02516807	     -0.00075506	      0.25904238	      0.00117288	      3.64612866	    252.50349308	    -46.15374279	      0.09856882	     -0.00947895	     -0.00190729	     -0.00264263	      0.79537126	     -0.00138114
     21.65450000	     11.91083748	     16.13816835	     11.11411850	     10.79660644	     11.42506041	     11.72739357	     22.66860809	     12.75895029	     13.44754667	      6.62874102	      9.40767249	     20.37913539	     34.73788735	     69.45914755	     26.45736696	     30.43485969	     15.74930897	    259.29852218	     32.56682495	     13.17666469	     28.49525237	     19.15646584	      6.14389761	      5.38483718	     59.06464243	     11.42023958	     24.47229237	      2.74665101	     28.56310392	    256.51185036	      6.45981365	     38.12895419	     12.07346350	    132.84466443	     38.77734048	     24.86123687	     38.46236671	     51.33399847	    416.50715378	    118.15905940	     -6.14853882	     -8.62995834	      0.13786544	     -1.51144261	      0.45975001	      0.36211598	     -0.00167413	     -0.00249494	      0.00109148	     -0.00117554	     -0.00008482	     10.61947212	    -22.68939645	      5.47685477	    -25.71008482	     -7.44726559	     25.47789232	     -6.75942443	      1.33638562	      1.97486068	    308.14983979	     54.62830792	      0.09580683	     -0.01005859	      0.02420437	      0.00097587	     -0.33479719	     -0.00151588	      1.41894747	    234.81102557	    -42.71208026	      0.10151453	     -0.01046125	     -0.00584432	     -0.00226948	      0.68306262	     -0.00118612
     21.68760000	     11.66912479	     15.12059088	     11.13810238	     10.78600239	     11.48287825	     11.79982273	     22.85234811	     13.42834671	     14.23520426	      6.93337621	      9.71087198	     20.92111415	     37.28377992	     73.68809603	     15.72667654	     21.29103334	     15.55672852	    219.30232542	     15.57092566	     12.85519751	     24.65657160	     14.47598143	      4.28249144	      5.27253597	     86.78576089	     11.80956261	     25.25227912	      1.76471641	     29.06309158	    279.64914870	      7.11665419	     38.60914819	     12.17252142	    134.42182627	     34.79464066	     27.00362662	     39.58450362	     37.59553892	    198.78355361	     69.12417417	     -3.54588707	     -9.07748989	      0.95572988	      0.04369834	     -0.21589664	     -0.32017170	     -0.00032451	     -0.00247110	      0.00118317	     -0.00053874	     -0.00010555	      0.07468185	    -23.08694930	      4.50373054	    -15.66775338	     -8.22516512	     29.63821099	     -5.13282221	     -2.81212609	     -0.32918568	    279.38635590	     48.63012931	      0.10097264	     -0.01119118	      0.02208850	      0.00175093	     -0.60069929	     -0.00271982	      1.65529770	    213.20315295	    -39.14022147	      0.10716386	     -0.01162162	     -0.01099864	     -0.00204582	      0.61574396	     -0.00106922
     21.72070000	     11.54912416	     14.46251357	     11.15280978	     10.71807438	     11.55627412	     11.85723018	     23.08637566	     14.98022332	     14.82188333	      7.00772164	      9.52448855	     20.17147978	     35.33024499	     92.03261048	     14.03602256	     20.08532631	     15.42122481	    152.09775706	     10.81852648	     12.59980064	     18.97885003	      9.50793281	      2.85975262	      5.15922023	    160.17447065	     11.59788644	     24.53297990	      1.33337594	     67.03573218	    256.69520426	      9.97333182	     39.14827071	     12.17242815	    114.27028546	     31.47598334	     30.54807290	     38.13484361	     28.48610652	     85.51502232	     46.73321786	      1.39072708	     11.89109846	     -0.16389299	     -0.23370994	     -0.31715914	     -0.47105259	      0.00382119	     -0.00271344	      0.00128940	      0.00229759	      0.00026786	     -9.58285324	    -19.40841924	      2.92697434	     -7.36177379	     -7.51541149	     34.86106022	     -2.86975280	     -5.59496421	     -1.56925397	    253.40558653	     41.12510815	      0.10430015	     -0.01167478	      0.01993670	      0.00204395	     -0.70122573	     -0.00317497	      1.25523395	    197.92102532	    -34.00443790	      0.10464447	     -0.01287307	     -0.01300914	     -0.00138261	      0.41613546	     -0.00072261
     21.75380000	     14.52048164	     38.16055990	     11.40177310	     10.95022397	     12.16233657	     12.05467455	     23.41102028	     14.51541579	     59.19163224	     15.31968655	      9.43059738	     18.07291460	    363.21193082	     61.95423050	     13.58169879	     19.47814613	     15.31738453	     83.58608881	     10.20766483	     12.46900601	     11.04894878	      6.53524881	      2.05501525	      5.39508617	    176.38166695	     11.40849468	     22.26567260	      1.22773809	     99.68457155	    230.89799193	      7.21728757	     39.84765952	     12.26513292	    111.44760115	      9.50771045	    293.14967581	     34.06753063	     35.64466087	    164.39652337	     62.97801512	      6.27357931	     25.69864301	      0.31477465	      2.87274383	     -1.35899888	     -0.94291990	      0.00479664	     -0.00088822	      0.00189579	     -0.00044631	      0.00366630	    -13.13065391	    -11.57835426	      1.05432569	     -2.82622184	     -6.68053787	     32.79635255	     -1.48712108	     -5.87474219	     -1.84551259	    258.17100182	     32.57331490	      0.10272419	     -0.01080871	      0.01710083	      0.00151995	     -0.52145732	     -0.00236103	     -2.51598899	    213.08706679	    -29.01308903	      0.09530384	     -0.01261974	     -0.01113895	     -0.00038030	      0.11446249	     -0.00019876
     21.78690000	     11.73086216	     33.95089154	     11.10565248	     10.57431612	     11.61596845	     12.07889788	     23.71621880	     19.03972002	     14.49377058	      6.42698631	      8.60035161	     18.08839105	     60.92340698	     76.93978386	     13.09231069	     18.74809754	     15.17693427	     16.15807615	      9.89428729	     12.48278927	      6.40437743	      5.89242273	      1.48032674	      5.14164055	    195.62832746	     10.52438264	     22.26532527	      1.09793803	    229.51941703	    133.82130549	     10.71633000	     40.48898013	     12.22971047	    111.19188172	     18.05998082	     52.73211526	     34.45561153	     25.86760171	     80.13110086	     43.34192347	     -0.02843401	     -7.09519725	     -0.45643812	     -0.16198573	      0.28559395	      0.22345946	      0.01052713	     -0.00215659	      0.00026549	      0.00543270	      0.00064760	     -7.75834072	     -4.09495968	     -0.45285952	     -1.72854780	     -7.07565267	     26.53361514	     -1.52894361	     -4.91368463	      1.05161223	    304.24595374	     32.11185472	      0.09515210	     -0.00880188	      0.01653208	     -0.00025491	      0.08745219	      0.00039596	     -1.48802117	    255.19423506	    -27.79585735	      0.09065493	     -0.00997171	     -0.00882395	      0.00165165	     -0.49710794	      0.00086321
     21.82000000	     13.94914139	     40.21980681	     11.09558610	     10.50493004	     11.86904440	     14.60949870	     24.07684213	     27.00284472	     17.68480352	      7.06800254	      8.85663241	     18.27938356	     32.26047118	     70.10274306	     12.56645690	     17.90852716	     15.03478445	     15.91416646	      9.63580330	     19.43711112	      6.38190407	      6.04284064	      1.28733277	      6.95591967	    223.26725289	     10.86592262	     22.72539431	      1.17664822	    323.38221495	     84.57949362	     13.56059121	     41.13154988	     12.25117654	    108.93093325	     23.00131857	     70.22188051	     34.84814440	     24.85875423	     78.31483036	     42.11300203	     -6.40995843	    -27.23834637	      1.19043016	     -3.24335236	      1.28460241	      0.83048624	      0.01427405	     -0.00267817	     -0.00029415	      0.00779479	      0.00084998	     -0.34734290	     -2.35963927	     -0.93807088	      0.11561260	     -7.72221749	     20.03798199	     -2.10526606	     -3.91605031	      1.73327547	    339.58087302	     35.88320004	      0.08274322	     -0.00704204	      0.01908010	     -0.00120933	      0.41488939	      0.00187852	      0.77877325	    285.46169994	    -31.26101155	      0.08946499	     -0.00729555	     -0.00866714	      0.00311933	     -0.93884915	      0.00163029
