inDegrees=no
DataType=double
version=3
OpenSimVersion=4.5.2-2025-05-03-6a4c6ec41
endheader
time	/jointset/ground_pelvis/pelvis_tilt/value	/jointset/ground_pelvis/pelvis_list/value	/jointset/ground_pelvis/pelvis_rotation/value	/jointset/ground_pelvis/pelvis_tx/value	/jointset/ground_pelvis/pelvis_ty/value	/jointset/ground_pelvis/pelvis_tz/value	/jointset/hip_r/hip_flexion_r/value	/jointset/hip_r/hip_adduction_r/value	/jointset/hip_r/hip_rotation_r/value	/jointset/hip_l/hip_flexion_l/value	/jointset/hip_l/hip_adduction_l/value	/jointset/hip_l/hip_rotation_l/value	/jointset/back/lumbar_extension/value	/jointset/back/lumbar_bending/value	/jointset/back/lumbar_rotation/value	/jointset/walker_knee_r/knee_angle_r/value	/jointset/patellofemoral_r/knee_angle_r_beta/value	/jointset/walker_knee_l/knee_angle_l/value	/jointset/patellofemoral_l/knee_angle_l_beta/value	/jointset/ankle_r/ankle_angle_r/value	/jointset/ankle_l/ankle_angle_l/value	/jointset/ground_pelvis/pelvis_tilt/speed	/jointset/ground_pelvis/pelvis_list/speed	/jointset/ground_pelvis/pelvis_rotation/speed	/jointset/ground_pelvis/pelvis_tx/speed	/jointset/ground_pelvis/pelvis_ty/speed	/jointset/ground_pelvis/pelvis_tz/speed	/jointset/hip_r/hip_flexion_r/speed	/jointset/hip_r/hip_adduction_r/speed	/jointset/hip_r/hip_rotation_r/speed	/jointset/hip_l/hip_flexion_l/speed	/jointset/hip_l/hip_adduction_l/speed	/jointset/hip_l/hip_rotation_l/speed	/jointset/back/lumbar_extension/speed	/jointset/back/lumbar_bending/speed	/jointset/back/lumbar_rotation/speed	/jointset/walker_knee_r/knee_angle_r/speed	/jointset/patellofemoral_r/knee_angle_r_beta/speed	/jointset/walker_knee_l/knee_angle_l/speed	/jointset/patellofemoral_l/knee_angle_l_beta/speed	/jointset/ankle_r/ankle_angle_r/speed	/jointset/ankle_l/ankle_angle_l/speed	/forceset/addbrev_r/activation	/forceset/addlong_r/activation	/forceset/addmagDist_r/activation	/forceset/addmagIsch_r/activation	/forceset/addmagMid_r/activation	/forceset/addmagProx_r/activation	/forceset/bflh_r/activation	/forceset/bfsh_r/activation	/forceset/edl_r/activation	/forceset/ehl_r/activation	/forceset/fdl_r/activation	/forceset/fhl_r/activation	/forceset/gaslat_r/activation	/forceset/gasmed_r/activation	/forceset/glmax1_r/activation	/forceset/glmax2_r/activation	/forceset/glmax3_r/activation	/forceset/glmed1_r/activation	/forceset/glmed2_r/activation	/forceset/glmed3_r/activation	/forceset/glmin1_r/activation	/forceset/glmin2_r/activation	/forceset/glmin3_r/activation	/forceset/grac_r/activation	/forceset/iliacus_r/activation	/forceset/perbrev_r/activation	/forceset/perlong_r/activation	/forceset/piri_r/activation	/forceset/psoas_r/activation	/forceset/recfem_r/activation	/forceset/sart_r/activation	/forceset/semimem_r/activation	/forceset/semiten_r/activation	/forceset/soleus_r/activation	/forceset/tfl_r/activation	/forceset/tibant_r/activation	/forceset/tibpost_r/activation	/forceset/vasint_r/activation	/forceset/vaslat_r/activation	/forceset/vasmed_r/activation
20.165	-0.6917965927405245	-0.1010267905840884	3.09675180864299	-3.468958117503568	1.034279574210999	2.499403027486745	-0.5235987627118069	-0.2690407881928644	-0.3021852089724083	-0.5235973558235347	0.0221419613474874	-0.1090759579609673	-1.111499054769802	-0.09744982598474544	0.007727046958288233	0.3204846102373931	0.3204846102373931	0.3910615917613945	0.3910615917613945	0.07047707720069403	0.1487271454074335	0.7112186584231995	-0.07487874017922554	0.1151721465175165	0.2592605293539024	-0.1348266717304331	-0.1816262382708146	1.930743270802182	0.08675181804947933	0.1222295100881912	2.269570223513178	-0.9658978125999711	0.01481223609816006	-0.2427083409143683	-0.420343731557532	-0.5967935985181396	2.812713752023999	2.812713752023999	2.745811944023059	2.745811944023059	1.38590917101416	0.7449304479453203	0.0104443397613069	0.01029577616639353	0.01031667551961893	0.01035776285112184	0.01029883439359722	0.01046984561666985	0.0105767432928042	0.0217293697805458	0.1266219730262295	0.06129699361946318	0.01020650585036425	0.01007967077707506	0.01003417198482539	0.01001678572010098	0.02247283736188609	0.02205269471233398	0.01021349038414857	0.2217551339854009	0.04556111856168788	0.01105565059371235	0.03999019414110449	0.02489880269769678	0.05905765066699754	0.01062418185842788	0.01021993719196683	0.0103768727022335	0.01013757386096617	0.01958312492938961	0.01018719714959383	0.06147143378082272	0.0205286306910773	0.01119066196152194	0.01097280272579307	0.01000490547117218	0.08885875369259412	0.32442383065667	0.01004232903276993	0.02303161038315507	0.01114770693668242	0.02883577348576088
20.1981	-0.668397709483068	-0.1027879954772208	3.101447556306011	-3.459709275154828	1.028497770831038	2.494778280935996	-0.4556323401688421	-0.2676151902032516	-0.2980502684174434	-0.4483970465204742	-0.005021873047788509	-0.1087868807969987	-1.1215353681301	-0.1065204030799752	-0.01041125825307995	0.4139826295989247	0.4139826295989247	0.4813157471934664	0.4813157471934664	0.1209165997243968	0.1732912016839928	0.7089888039940413	-0.05296129143685496	0.1612227773619022	0.2955399065956879	-0.2030783652660811	-0.118676743392344	2.124466567812793	-0.005851247561032905	0.1644175672859616	2.322041727897331	-0.7484883266051783	0.001741945508364254	-0.3478324883734563	-0.2025895044596508	-0.4983016951233922	2.858593972652931	2.858593972652931	2.702053050595957	2.702053050595957	1.370875133830642	0.7555538526669712	0.01028405064477012	0.01020304303279056	0.01019562761714119	0.01029072283649411	0.01018210797572347	0.01027747491679272	0.01040016923772441	0.01899688018846567	0.128910632162824	0.06412086904462405	0.01148341159689545	0.01068528399021094	0.0111883817595931	0.01003304633764312	0.02845091293922846	0.03633077271077393	0.01013009330975211	0.215540055008741	0.03469944903146111	0.009715516636128466	0.06224779247167082	0.04011633402774344	0.0327385331233323	0.01015396120354543	0.01823830688121692	0.01069329656911186	0.0105308981333246	0.01497667066684782	0.01002426860449247	0.06087540011060896	0.02150128978092766	0.01623537891964083	0.01037173565062714	0.01105704046338025	0.08094858444336733	0.3416671916569249	0.01274694609056514	0.01867150924246045	0.01346555303052807	0.01696186852941163
20.2312	-0.6447255182769286	-0.1045730730673285	3.10715060736724	-3.449517088739359	1.020850285935052	2.491488495876843	-0.3829123005528151	-0.2692429138778666	-0.2917404049574836	-0.3701834806609053	-0.02736153357135229	-0.1086911095567997	-1.134085591432026	-0.1112185946073439	-0.0256443237297763	0.5092130191936237	0.5092130191936237	0.5706579871045441	0.5706579871045441	0.1658547359615757	0.1979302637168312	0.7203163443853029	-0.04904548617347379	0.1982455367430737	0.3327793791435398	-0.2812350935583883	-0.06210136448690591	2.327726448465411	-0.1253131323649759	0.2437485616010958	2.430488898785149	-0.5432561155785657	-0.005613971532800396	-0.4469077862161812	-0.01821254999025362	-0.382219018666956	2.920049013610063	2.920049013610063	2.669941528606623	2.669941528606623	1.241744595490657	0.7505062892324759	0.01020286546324719	0.01014607124133306	0.01018757909246846	0.01029908464356272	0.01015525082429868	0.01018574109516836	0.009917821869423898	0.0158782153235623	0.127839393245672	0.06329333256811334	0.01216724458382866	0.01099763536826971	0.01178309569892298	0.01012611408800682	0.04064594264677149	0.03891961352388634	0.01014547499261337	0.2089475724297881	0.03583668044408164	0.0120364764943727	0.07349614299154049	0.04951480610697533	0.01946448068095221	0.01015656573604265	0.02568815206188631	0.0109126813113434	0.01074371261592897	0.01202732133215772	0.01038572374623449	0.05159934970420262	0.02024117742296988	0.01814034293689743	0.009930197364342318	0.01155559577995583	0.06807135025484053	0.3580506843704451	0.0140450857146794	0.01435211666421541	0.01321795063540592	0.02568130524236104
20.2643	-0.6204083108654185	-0.1066256254078035	3.113936164153823	-3.438005329073313	1.010211862416622	2.490037706420595	-0.3028373186695557	-0.2757117284038083	-0.2816670137461002	-0.2869914427426009	-0.04282653311666332	-0.1087828607768906	-1.150007714520614	-0.1102093655027897	-0.03636325760011313	0.6071039504379435	0.6071039504379435	0.659247391267374	0.659247391267374	0.2028092344460355	0.2224973054697174	0.747540007200165	-0.06601672722541975	0.2133244068051054	0.3655605813443237	-0.370643561318907	-0.01736490807703175	2.538049456326895	-0.2689757103257875	0.3656329450255265	2.585436851947815	-0.3659964898478641	-0.005859040809471284	-0.524151880680511	0.108015094755704	-0.2536171448496413	2.995259815406016	2.995259815406016	2.670297943436045	2.670297943436045	1.032096527867201	0.7350449194229663	0.01022980339042823	0.01014448559648356	0.01029755087257436	0.01035856165275387	0.01023109178461874	0.01022600444969823	0.00972468835519694	0.01303800294484862	0.1264101299939834	0.0613085899093861	0.01200606511190024	0.01089598970408876	0.01162163129827771	0.0103196882030823	0.05610767039833071	0.03085034037302426	0.0102194951608484	0.199457922487168	0.04840073506603051	0.01839739281786824	0.07021925729755675	0.05116764962017525	0.02297740791055713	0.01078606904112369	0.03075871261349909	0.01095122142939099	0.01069264337023769	0.01144030502069086	0.0112911525778756	0.03363442063828051	0.01603772036971004	0.01626807690686411	0.01064975786784182	0.01130420605327206	0.05159716979275304	0.3701816807304516	0.01342499886962074	0.01060553138123969	0.01367052866746742	0.05232243196909299
20.2974	-0.5951233285298569	-0.1092663926591217	3.120915883362957	-3.425486623243196	0.9963139738229059	2.490065516778594	-0.2152409875938782	-0.2871451697889639	-0.2670924681765409	-0.1988277828012053	-0.05237552289385236	-0.1089205458533513	-1.168272860545787	-0.105220866033869	-0.0426262464211762	0.7076721834767042	0.7076721834767042	0.7484039595557699	0.7484039595557699	0.2330857040846557	0.2470037286825644	0.780793911455836	-0.09218045208059833	0.1988692884091793	0.3847548810266286	-0.4644982123140881	0.01329284428126147	2.74126740425697	-0.4071469775105099	0.5074006242275131	2.719126828019755	-0.2305617501705366	-0.002517947361396393	-0.5620202786349118	0.1721300858334834	-0.1381825083125037	3.071192591571139	3.071192591571139	2.718382982087893	2.718382982087893	0.8594029620929916	0.7332889479847553	0.01031856467963553	0.01018622077045929	0.01040857671695131	0.0103583534181948	0.01032865408648488	0.0103306513566383	0.0112515933907285	0.01216827690371501	0.13299785604909	0.06525758870164519	0.01129625918873403	0.01053129666807984	0.01093789333688074	0.01040012678495672	0.06363559193308221	0.02571111157452354	0.01019159297465392	0.1832964889664208	0.06018728250573623	0.02536519237085175	0.05845647975469837	0.04782441288209088	0.03404807219484596	0.01131431724661579	0.03024570883041294	0.01080204755268082	0.01045846568948883	0.01198391632504007	0.01187395539843688	0.01746150113676009	0.01141156875190024	0.01479722602712461	0.01344220916353484	0.01062745243773418	0.03831576747213866	0.3746144852683021	0.0116971100354936	0.00886162729769694	0.02142324254330472	0.0722777698172806
20.3305	-0.5688152065258838	-0.1126023887339228	3.127035926034278	-3.412622561555049	0.9793523289791404	2.490928516346845	-0.1211806965578305	-0.3024495246539208	-0.2479970832273245	-0.1076205577325399	-0.05817293625027673	-0.1090053693767351	-1.187086378787235	-0.09873429704590178	-0.04561415355178649	0.8104801395189	0.8104801395189	0.8395707093058743	0.8395707093058743	0.2597741672691622	0.2718298835958531	0.8083909991692962	-0.1138531513772447	0.1631867842863184	0.3867161243839171	-0.5544459844248475	0.03152912508650287	2.921856454552032	-0.5066655011514805	0.6438060404273046	2.777521162735018	-0.141438441948034	0.0003207906543367427	-0.5597089215978415	0.1925609385773406	-0.05949683831657518	3.136058639285882	3.136058639285882	2.796541730376374	2.796541730376374	0.7767560052074417	0.7531283415623504	0.01038763342902939	0.01023389075169069	0.01040730529367587	0.01026454988555174	0.01035435226757714	0.01039585733540341	0.01552275497797478	0.0153416405106499	0.1512970142683902	0.07769776230475607	0.01063810892980287	0.01019851681312774	0.01007172501771131	0.009942716593422647	0.05580579503144845	0.0329281640765806	0.01003377755244195	0.1600458684772329	0.06354978329496151	0.02939885420045258	0.04618442779852527	0.04267360901989196	0.03952766442718665	0.01033456509985896	0.02167563942906014	0.01057474633188982	0.01022434165716813	0.01152359889416847	0.01092555376329702	0.01584195814593825	0.01251470661524282	0.0222906986767013	0.01768015138514901	0.01007055886278004	0.03288516056829343	0.3725935904242562	0.01025623504685314	0.01094493973119413	0.03816260678179725	0.0683794923891172
20.3636	-0.5417152989458895	-0.1164673111710639	3.131820613674217	-3.399946405391968	0.9596325186511214	2.4921594035551	-0.02185827436256766	-0.3199414922115087	-0.2247556039796741	-0.01571047806720809	-0.06201508624642519	-0.1090329166499778	-1.205282328483676	-0.09218318406899577	-0.04676152114099259	0.9149412696296226	0.9149412696296226	0.9330093692971266	0.9330093692971266	0.2850633655014262	0.2971030102294185	0.8255416961342558	-0.1251915039337078	0.1244080069833895	0.3781174290811152	-0.6346050538544343	0.04014000635282286	3.069444207645038	-0.5478476974013619	0.7626913138468479	2.77471749871011	-0.09435637993081633	0.001472342895394574	-0.5415697117847177	0.1927421183222684	-0.01985808949538741	3.177474438720847	3.177474438720847	2.855520059095837	2.855520059095837	0.7451901395281042	0.7670915080110035	0.01039283543802436	0.01025373118232188	0.01031618639649662	0.01024446968201845	0.01029854266980884	0.01038482977823503	0.02211343319775488	0.0251709621866859	0.1723266107909993	0.09243823123118856	0.01040594181327634	0.01007392955225059	0.009339968466419707	0.009044244434815513	0.03833325814369997	0.04429655604648887	0.01007223330325664	0.1352907728393893	0.06486224749090869	0.03143478087699137	0.0356746283916039	0.03639308033815616	0.03622789917677097	0.007916904248726849	0.008586732038962534	0.01042527227097242	0.01011856404748275	0.01101873790035449	0.008866639758602021	0.0335481649515469	0.02652954080291608	0.04734061618875347	0.02296590366640023	0.009894319370989715	0.03393989914156773	0.3714592168910729	0.009798185821583037	0.01644148784868425	0.06199609036762069	0.05087847886207856
20.3967	-0.5142003750869242	-0.1206148859371477	3.13540671765682	-3.387603909204502	0.9375055003400194	2.493496555953798	0.08155968016072557	-0.337773901284267	-0.197861457984655	0.07589157503194814	-0.06500092561887702	-0.1090412623071576	-1.222995649026194	-0.08596787451233945	-0.04708566202913859	1.020121638319282	1.020121638319282	1.027489380601925	1.027489380601925	0.3092837268149844	0.3221869941217244	0.8328715071567276	-0.1292208615006938	0.09372982762748666	0.3694123069170419	-0.7012615249736547	0.04080045592167391	3.175577434723911	-0.5290954066288115	0.8638420576125854	2.766399491932965	-0.07958292655993421	0.00134696195687327	-0.5391352004527266	0.1828289954394251	-0.003189308019200746	3.176040249837227	3.176040249837227	2.857894411069321	2.857894411069321	0.7083315717317994	0.7477251794557624	0.01034714996728267	0.01023696558932765	0.01024327133892127	0.01045455881661684	0.01022334776775794	0.01034681595023559	0.03021337762682016	0.04556710079991284	0.1822561323019655	0.1031932805046875	0.01052811963167975	0.01011476942628342	0.009452855396334279	0.009190090679158774	0.0236023704832231	0.04454979599642221	0.01063582617582539	0.1155484517308196	0.06990529889746683	0.03666531821781222	0.02785511206301033	0.03150747345369434	0.03243395992575333	0.008044680832774742	0.004613782780549652	0.01042167016035199	0.01013303037273912	0.01758397840073075	0.009488810830406383	0.06737254839397749	0.05693757726516024	0.09379348247752398	0.03377994766663535	0.009962692845925582	0.04022620421868379	0.3805634968628298	0.009996668586151357	0.02043290071324545	0.1019180652498635	0.03724713239940839
20.4298	-0.4866237382612074	-0.1249276696975599	3.138082322499656	-3.375493055377348	0.9134104993254876	2.494750372974903	0.1876605054547476	-0.3542604999466585	-0.1677924727377032	0.1675819447096958	-0.06776728360128034	-0.1090657258986009	-1.241074127448189	-0.08028688142447662	-0.04702318982957823	1.124393728681049	1.124393728681049	1.121315163561508	1.121315163561508	0.3317601092301249	0.3461784225742577	0.8331225617030686	-0.1327443798691012	0.06932086963839418	0.3631013762449943	-0.7530234643456738	0.03527291411185519	3.231055906212684	-0.4635885105905332	0.9508547141877454	2.777482287886865	-0.08250312243342119	0.0005754639933247736	-0.5558663412792334	0.1612294716145538	0.006082988065535691	3.111078156381218	3.111078156381218	2.812836993889507	2.812836993889507	0.6473590442494801	0.7018163599744581	0.01028044662265247	0.01019599925386548	0.01020434266259314	0.01058824523654782	0.01017006095740852	0.01033333950703299	0.0414006471562171	0.0800536774707659	0.1803530897673233	0.1104784565092939	0.0107223962753777	0.0101842886874582	0.01141074496850605	0.01239491849172141	0.01692538890180317	0.03091379629253626	0.01114856035704059	0.1012160826890171	0.06963187234874568	0.04885112508651935	0.02835447033787794	0.03493985507748035	0.03660359633365706	0.01651081506031016	0.02574742100274557	0.01049459044050152	0.01018092149902528	0.03998131636493264	0.01793658907498215	0.1158794597498702	0.1005393931551574	0.1603892899901427	0.0586094410386503	0.01004310889585971	0.05611466865689189	0.403425085526696	0.0102404889483171	0.01834307662863259	0.177767447429629	0.02868594501377357
20.4629	-0.4591769919993874	-0.1294405867825785	3.139966570293562	-3.363636649726752	0.8878109600088676	2.495776999682098	0.2947142124018095	-0.3681237355159721	-0.1350150836943244	0.2595683754233964	-0.07060690849724657	-0.1090841056805814	-1.259711542917991	-0.0754844308608677	-0.04671763293050686	1.225574648048089	1.225574648048089	1.213532443805298	1.213532443805298	0.3519651381601027	0.3686036240649369	0.8292727941793557	-0.1391806458722875	0.04574906731321505	0.351511633787346	-0.7920504294626363	0.02670438369790021	3.23121153792716	-0.3683872179248027	1.024632776739727	2.77696922016256	-0.08878267633836748	0.001807173919139822	-0.5600268487627645	0.128854228738437	0.01176887818880529	2.980761441929931	2.980761441929931	2.75659111289618	2.75659111289618	0.5762510028777887	0.6509818946123238	0.01020691508902156	0.01014740611870866	0.01008319052534498	0.009942273355869733	0.01012091770819651	0.01031124728634496	0.06043391358896323	0.1257993260712755	0.1837390190377496	0.1134274125631288	0.01081032273650654	0.01020541115068816	0.01511403888429966	0.01833975697754807	0.01402490598777442	0.01342285980479556	0.01005497378950554	0.08785764619391871	0.05590980073681098	0.0647503445713747	0.03950304565375718	0.04879589201487364	0.04808312418698824	0.03338179830907343	0.07033633784581202	0.01054263738727002	0.01020019026098533	0.07662086957228265	0.03451452279382618	0.183897992858366	0.1483763973705996	0.242490901448845	0.09854822899644926	0.01004882839624006	0.08404623845222305	0.431988981602916	0.0102777760899117	0.01640748481351567	0.2874826442637386	0.02825338860894319
20.496	-0.4319719668063702	-0.1341873020678271	3.141081370294392	-3.352352948723376	0.8610697268948612	2.496515383873069	0.4009462402894067	-0.3785176571930347	-0.1000356838322705	0.3507648562355827	-0.07358831539471995	-0.1089235080764988	-1.277912230007541	-0.07180855164825023	-0.04631864492738891	1.321831974063426	1.321831974063426	1.304039864693904	1.304039864693904	0.3699252081939406	0.3893475647729917	0.81758493621574	-0.1455210726579896	0.02336160431801141	0.3277913991879344	-0.822490298219843	0.01776395923502459	3.180562797404011	-0.2544630625769425	1.08343004875875	2.727914333397494	-0.09459521040435701	0.0110325252405911	-0.527667624521177	0.09401255366290458	0.01221264333825816	2.817544296630837	2.817544296630837	2.707336009611315	2.707336009611315	0.5118044803636648	0.5998477434120417	0.01013681093675284	0.01010353848175978	0.009859958877531744	0.008640856542363882	0.0100575928608222	0.01018065403824471	0.09023776734019504	0.1683944810851825	0.2063399691145417	0.1051947948311554	0.01080554655841059	0.01019336210424296	0.0184852325578856	0.02318347816927905	0.01051823472306686	0.001917975574525908	0.007208149020069506	0.0735289638463949	0.04212030292140229	0.07529235780028956	0.05071156257150924	0.06208814130239809	0.05840630879604879	0.04909752920799863	0.1107438674884883	0.01054974326405961	0.01019445157831568	0.1095912382688334	0.05117961528485643	0.269251282663189	0.1873926403591632	0.3262361069466795	0.137738335992124	0.01001908772636326	0.1134287633039466	0.4513234099118448	0.01020564997815051	0.03044150402824371	0.3835637697946422	0.06054945384781539
20.5291	-0.4054179796697138	-0.1390545626889263	3.141549773023014	-3.34202583018246	0.8334274947029648	2.49695648084254	0.5048352615383666	-0.3848973554383769	-0.06338300629576855	0.4395733751887034	-0.07685863236740864	-0.108202305295021	-1.29460869890713	-0.06920782076472558	-0.04596306590436042	1.412711216523453	1.412711216523453	1.392721751046661	1.392721751046661	0.3859373867404691	0.4082156377564354	0.7840830094772168	-0.1458947120689355	0.006966785440640379	0.2953404825230816	-0.8466863158896552	0.008666740519292794	3.089601478098007	-0.1278082571533385	1.126515032537103	2.638255130764074	-0.1080024392309117	0.03496005528732962	-0.4799407505456382	0.06492262832036053	0.01071727473608049	2.669914324016948	2.669914324016948	2.648333458101234	2.648333458101234	0.457245802659598	0.5388853734978161	0.01010198751349639	0.0100781049107157	0.009862651908174846	0.008908451038142752	0.01003029750507742	0.009948331721999742	0.1235152244136097	0.1860501554266967	0.2322048547957101	0.08949629115459518	0.01079077580742361	0.01018642409418437	0.01911506485707282	0.0230547624322356	0.009029463777966809	0.003161590430805585	0.00704690442800935	0.06103563098496666	0.04737200141698632	0.07417272334121665	0.04840277017569171	0.06088705533309057	0.05948362492011799	0.05238022498467226	0.1166593799432974	0.01055350935427816	0.01019063827001357	0.1172056614496021	0.0572498045334798	0.3419176579956575	0.2014379949305788	0.3780248474413233	0.1520874401488167	0.01000230710333588	0.1249732202308953	0.4545264611338	0.01016334433015302	0.06494275240077789	0.4093243477740651	0.1361904771008848
20.5622	-0.3804647668136667	-0.1437752306702607	3.141629723419227	-3.33279177572482	0.8050947079652909	2.497081405350865	0.6052064351667188	-0.3869717533343318	-0.02556410820535661	0.5252722951091572	-0.08082353057647476	-0.106400506903962	-1.310007361383493	-0.06743273203998451	-0.04557197608980804	1.499148180386524	1.499148180386524	1.478765040179962	1.478765040179962	0.4002323566774948	0.424854474352616	0.7160233636474697	-0.1365646966891812	-0.00061510961785067	0.2634748751040164	-0.8639510891528862	-0.001308415726949848	2.9686179039301	0.003547300060317352	1.153871435987052	2.544720378454841	-0.1360969000426408	0.07592421234094618	-0.4595126560582887	0.04432486505205079	0.01605347557447931	2.56175477333637	2.56175477333637	2.55351095646316	2.55351095646316	0.4084047057909117	0.4637394602258988	0.0101426371080504	0.01008603826409173	0.01057280972647793	0.01361818802150436	0.01013462478840974	0.009921110715286259	0.1421424363344011	0.1643218575070363	0.2250873932948917	0.0883468604494919	0.01079064122529146	0.01018684660766917	0.01674105644460126	0.01836916022041631	0.01620354499043643	0.02422027647719167	0.01671018606280352	0.05299427071095359	0.06590916665047232	0.06476177390259218	0.03351745947774117	0.04513019854087073	0.05015478830490912	0.04173473861879287	0.08620591663539162	0.01055292360836452	0.01018991479043043	0.09444989005344072	0.04910211801214828	0.3501687211607047	0.177874354815913	0.3559008366871788	0.1302681405493207	0.01000486892196788	0.1080469359773477	0.4504163182365628	0.01016907729126052	0.09992757785784277	0.3590798892134548	0.2117059335728758
20.5953	-0.3583099690666655	-0.1480276284331118	3.141584452823212	-3.324526652782961	0.7763252494037292	2.496871750129855	0.7011527317568308	-0.384784214012538	0.01287024531239501	0.6080634091651104	-0.085910199319762	-0.1030525015848262	-1.32542534003113	-0.06620790478143029	-0.04479283211580488	1.582377870900175	1.582377870900175	1.561023783878962	1.561023783878962	0.4129668529636659	0.4390010726779284	0.6154422114697182	-0.1179465213258149	-0.001373557339317956	0.2369179623792321	-0.8728576588395335	-0.01116589472232192	2.823436227964615	0.127575242761325	1.162318247984515	2.460099012723599	-0.1729260568266087	0.1287583659756955	-0.4808725943755772	0.03161611246235285	0.03452643952621401	2.478686773864616	2.478686773864616	2.425561967940518	2.425561967940518	0.3642489568755534	0.3824718454327659	0.01025182446740188	0.01012496081069478	0.01195621793948191	0.02198992632332481	0.01039464127077691	0.01051489125239435	0.1313459497507726	0.1104319998241873	0.1802492304450724	0.1111973418460049	0.01078463126666946	0.01018000439939114	0.01331127450086392	0.01306823487571263	0.03428585567041014	0.06521171446403236	0.03728425993749054	0.04760407351265379	0.07281150460075847	0.05609119649871179	0.01925324153243005	0.02742235998273026	0.03575230875626346	0.02593002067471793	0.04493306183704827	0.01052859742920748	0.01018108483534298	0.05809787080642693	0.03281489948431008	0.2688385461271788	0.1212695437610901	0.2531815121163974	0.08443936280937074	0.0100112791200029	0.07092297432872113	0.4500678746998705	0.01017771577874298	0.1119522070139644	0.2814018687640308	0.2283192833976355
20.6284	-0.3398380486155828	-0.1515514102731455	3.141558880020563	-3.317080603092301	0.7474039400464203	2.496371266040044	0.7918827190500576	-0.3787606380740431	0.05117231295291388	0.6878551877757207	-0.09217403025449593	-0.09792998459506029	-1.341965937535614	-0.06528671582040636	-0.04319303340378951	1.662894483982226	1.662894483982226	1.639017700605429	1.639017700605429	0.424345080038555	0.450704522972331	0.4978379503654891	-0.09350578479355424	0.0002293367091172374	0.2130564483839802	-0.8732043088704753	-0.01835854546022508	2.654544750064002	0.2330754649193731	1.144640597252687	2.357038835115242	-0.2036987939251743	0.1836232370038318	-0.5198138282547727	0.02605804081669429	0.06413309018549733	2.391354605170956	2.391354605170956	2.297981515678257	2.297981515678257	0.3263537917534025	0.3095704985220646	0.01035256275221195	0.01016415669536951	0.01316634472308975	0.02813183314489919	0.01068926783104824	0.01146430035299952	0.09563309914532031	0.051767626774946	0.1477579636595552	0.1294892462251291	0.01078100248715148	0.0101764640007719	0.01084760311889672	0.01018434089293652	0.05623504878172125	0.1118481367562304	0.05861476807432543	0.04042704195032928	0.0569966228908753	0.05268931818405754	0.01371555827435111	0.01730103817556813	0.02283048638465154	0.01435280836573955	0.01733086884504577	0.01051501874601482	0.01017623390610249	0.0312997895967098	0.01800001852912794	0.1385134868614699	0.05792094785518393	0.1243917853926881	0.04018235780534833	0.01001320395839736	0.03372873245297207	0.4509267590162776	0.01018012693618926	0.1021605680606972	0.226204516824076	0.1842602576533196
20.6615	-0.3253244631449886	-0.1542075502008203	3.141569363210099	-3.310434396171773	0.7186125218298551	2.495702495504754	0.8766059772328791	-0.3696048563198066	0.08832347885625044	0.7634573710998662	-0.09924179463389987	-0.09107359962744166	-1.359670427982923	-0.06443588349205405	-0.04052307667470964	1.740256583636804	1.740256583636804	1.713240088586172	1.713240088586172	0.4345903905891777	0.4603199121136733	0.3804586314878678	-0.06680880275334719	0.0009610576385027455	0.1881050125031698	-0.8650415967774716	-0.02111786358413466	2.461157531372092	0.3149793859190972	1.093449168425692	2.203639614794195	-0.2198261943980113	0.232511936721735	-0.5455797720204073	0.02726700708696353	0.09674311288762413	2.279172571826515	2.279172571826515	2.193343936217154	2.193343936217154	0.2942372523599769	0.2541490248851053	0.01036412454629049	0.01016902678206533	0.01329779025855247	0.02667907222102816	0.01084048766510396	0.01130468385833359	0.05732443219239455	0.01495064542414904	0.1709157804622711	0.1122857910064126	0.01080868529470223	0.01019679447463908	0.009924889351904035	0.009693342589507416	0.06955062554768736	0.1477909153588412	0.06895977705958149	0.02960759690367143	0.03160000986097971	0.0508930355972737	0.01363873115909578	0.01397479595998191	0.01483033986863757	0.009886272906478272	0.008392087471964979	0.0105609603243315	0.01019543790274363	0.024100328835758	0.01030662014990784	0.03406195314674846	0.01689352248599797	0.04088632360287782	0.01594523383458061	0.01001323903587441	0.01212521103327452	0.4458709030179577	0.01019905310778847	0.08849793160431471	0.2080371348885648	0.1305710918151434
20.6946	-0.3145585855833952	-0.1559635023406243	3.141578012744205	-3.304628909291774	0.6902568378774948	2.49501509738585	0.9545558017814857	-0.3581274064812962	0.1231414020761182	0.8331558673227875	-0.1066603366854907	-0.08271959975667717	-1.377889136410002	-0.06343862869656244	-0.0368315634042085	1.813466486352042	1.813466486352042	1.784282630761255	1.784282630761255	0.4438787464151691	0.4682683123061184	0.2730985052475589	-0.04007210118196	0.0002733901057836756	0.1627719706631701	-0.8464823509105267	-0.01973846244462009	2.246089954975908	0.3724375208819399	1.006192719761033	2.002745996066313	-0.2260564400095191	0.27084646137306	-0.5515150703580058	0.03420963177382857	0.1241122129784864	2.13495715707748	2.13495715707748	2.095526261300961	2.095526261300961	0.2673460718830795	0.2126832178572127	0.01028456748212329	0.01013548311654003	0.01235726557931212	0.01914219781970733	0.01077207181833838	0.008919717490875731	0.0408882209979573	0.005277382369789815	0.2195598226817466	0.0765410084148771	0.01085395664868094	0.0102285209480416	0.009936210456881827	0.0100541849933515	0.0657276383755963	0.1724405073432659	0.07188856644477022	0.01824826045016077	0.01393836270421101	0.04458593443424188	0.01324488035791302	0.01265675081067223	0.01144093687242187	0.009868253944654898	0.009332640002813484	0.01063453017859629	0.01022626990897323	0.02820211972668704	0.00899862538041908	-0.003600730148262603	0.005475898136359094	0.02147257173467227	0.0112261636691355	0.01001425226636761	0.007167317545840363	0.4423063966197348	0.01022908814823821	0.07801488960950682	0.2138268508103365	0.1031199161245741
20.7277	-0.3071537474587773	-0.1568741080146008	3.141565633531619	-3.299615012105598	0.6627401311893814	2.4944241153475	1.025105854875609	-0.3452419310018202	0.154506353576122	0.8959554085818399	-0.1142424920611959	-0.07328745693412345	-1.396175896668452	-0.06213795837366854	-0.03239751526985314	1.88138931819813	1.88138931819813	1.851907822841084	1.851907822841084	0.4524093899007557	0.4747701572964845	0.1771530267904251	-0.01619540272596035	-0.0006663862559856537	0.1410330317679372	-0.8136934920346143	-0.01581211990464361	2.015637174414834	0.3996973375024611	0.887373961675879	1.791026799018278	-0.232325418433645	0.2937681128407935	-0.5532119551512867	0.04417986116854235	0.1414938750480039	1.959905998953344	1.959905998953344	1.975268735289183	1.975268735289183	0.2478310130932887	0.1737160008765621	0.01017997277198206	0.0100886420113482	0.01115791498856613	0.01192725729060856	0.01055592030405268	0.007183890752318909	0.06159432702677639	0.009163372878098399	0.2311421032887092	0.06752731278927032	0.01086288398060083	0.01023433294835803	0.01011191937428852	0.01023047296929599	0.04714630168843006	0.1956140683017898	0.09031181194199986	0.01095756284958245	0.008509976542463904	0.03247814149890744	0.01141730008986097	0.01122601250091629	0.01055175893150075	0.0107085555017503	0.01122015339026453	0.01064638357142134	0.01023218575601031	0.02952343206041754	0.01008308330756231	0.01532600702450455	0.009918811241556991	0.02935036088700429	0.0136285299717823	0.01001477913970657	0.009679196864000849	0.4549411641049229	0.01023449333924696	0.06515017361240369	0.2222082253181116	0.0947141306804722
20.7608	-0.3027559390494652	-0.1570995411117744	3.14155468162327	-3.295229520820166	0.6365877136973109	2.493985266668707	1.087869854104513	-0.3321655487111357	0.1815636586952786	0.9521187734229244	-0.1220809486151529	-0.06339377244871926	-1.414638069019152	-0.06049848417461427	-0.02755733336665059	1.943038924156952	1.943038924156952	1.915156328264261	1.915156328264261	0.4604512706132882	0.4797846512037865	0.09075111355719072	0.0009959089235613053	-0.0006486629800153225	0.1248509709139899	-0.7637102493410372	-0.0110129601538929	1.777589087289295	0.3838170100965311	0.7474320329970249	1.602860722025616	-0.2432798756088925	0.2969553954275498	-0.5632847777374714	0.05277811999841855	0.1497349325998986	1.760753997348161	1.760753997348161	1.825079945862888	1.825079945862888	0.2359211093634496	0.1286897222234962	0.01010592163772912	0.01005248640513822	0.01039617899146746	0.009049650494284925	0.01032605232252175	0.01458960281778184	0.1236516994938702	0.01279733505901809	0.2025706360718699	0.09708866753043927	0.01080951679120744	0.0102001432314209	0.01012867099000925	0.01012481444862619	0.02532771387334672	0.2183312194605913	0.1497508964794721	0.008945029760533366	0.009516932963679767	0.0193966821293324	0.00993341826067499	0.01013746692426899	0.01038203650829587	0.01081273159286529	0.01115183527429222	0.01056315920228653	0.01019890055261821	0.02324438589865365	0.01068443275846014	0.06741049066303095	0.01860515670139609	0.02879640418060491	0.01395028081809929	0.01001295178492201	0.01158784195779293	0.4814101453904813	0.01020005945858072	0.05127306192978609	0.2136283004956686	0.08777693065697992
20.7939	-0.3010628996025933	-0.1568510898411601	3.14157995868492	-3.291315386965489	0.6123684551923464	2.493699561843046	1.142766149906755	-0.3204353894323111	0.2038718820804477	1.002516205743124	-0.1303592729800848	-0.05370924972819723	-1.433502196957654	-0.05864472668899558	-0.02247831129350349	1.997800629086854	1.997800629086854	1.972983076392797	1.972983076392797	0.4681723961675509	0.4831985389791614	0.01308124188113473	0.01213550039085532	0.0001640533132380717	0.1119073547647522	-0.6972156108931883	-0.006773613290730413	1.541276615704189	0.31942261901302	0.602271296840908	1.440524690616242	-0.2586390254391602	0.2822826221792956	-0.5757315308143734	0.05542431380219166	0.1569055725480931	1.549900254400545	1.549900254400545	1.6517236910018	1.6517236910018	0.2247601687334203	0.07988883873839697	0.01006880945721465	0.01003237674107722	0.01015703942160993	0.009442176625018285	0.01017856549529592	0.04063665476939691	0.2197829193549999	0.01261787341176931	0.1876387830340173	0.1341875170761163	0.01072933603387899	0.0101503365297424	0.0100488348548199	0.009994595729661849	0.01142676728706024	0.2310065910222467	0.2541126028711325	0.009691071598682325	0.01086803701611422	0.01110175642483377	0.009642371379486222	0.009832350287041831	0.01023229925134356	0.0104275306108704	0.01023614380492473	0.01044299932559817	0.01014940856388941	0.01476990507179913	0.01043196452431961	0.1400545787353429	0.03634675679613322	0.01750859519774535	0.01174606157647405	0.01000969732052996	0.01116019268673321	0.5026431264199797	0.01015056003379152	0.04622731847564832	0.1803433822587437	0.08014943054410553
20.827	-0.3017776579945269	-0.15621624860108	3.141627507121528	-3.287827296940771	0.5905638657824347	2.493525761915816	1.190011875890994	-0.3114146931660582	0.2215670665724465	1.047612118061908	-0.1392287905908952	-0.04471061042516167	-1.452586862478376	-0.05683730667253298	-0.01701537631064664	2.045561469411061	2.045561469411061	2.024446480521675	2.024446480521675	0.4754099284402395	0.4851109338091609	-0.05548435000655555	0.02434103219737496	-0.0002845058069628217	0.09855133059790444	-0.6186260847120971	-0.004168428809411396	1.314602210153765	0.2233959592169079	0.4718582863731609	1.280739860006344	-0.2772815498030183	0.257992237788426	-0.574936853015717	0.04946979973962563	0.1726582687764949	1.341339945234019	1.341339945234019	1.453289317136879	1.453289317136879	0.2034674400849189	0.0387859525471718	0.01005052261901848	0.01002227861636677	0.01017296759439226	0.01032200377513001	0.01013332876325079	0.08759857912964537	0.3315283979692751	0.0112016073549975	0.2128284813050579	0.1507954894170851	0.01068216809475397	0.01011785348326988	0.009998150672210722	0.009967528882734323	0.007857853338217426	0.2284996121696345	0.3786204607285156	0.01043205047106842	0.01076098672869112	0.008867074999727279	0.009944198405219337	0.009967784155677199	0.01007634908539608	0.01016984857080926	0.009771487623242755	0.01036478380195066	0.01011565902817431	0.009959441595863398	0.01005444401589154	0.2218284934998007	0.07381049336846396	0.008741038222313547	0.0100057412488771	0.01000734065101076	0.01014784618726469	0.5085629149178581	0.01012011146515952	0.05091439800877597	0.1345599040534156	0.07504171566660146
20.8601	-0.3045772244521945	-0.1550886466677715	3.141593113384122	-3.28481049229881	0.5714796375309231	2.493406637504275	1.229940750716067	-0.3056617840715385	0.2353711462544018	1.087110122326177	-0.1487105517785796	-0.03658340101097579	-1.471255014227006	-0.0553811804391082	-0.01089503655236822	2.08658687800142	2.08658687800142	2.068641021504889	2.068641021504889	0.4816524931788861	0.4859322291918471	-0.1129882677755158	0.04222968846052965	-0.004465788879680009	0.08341745987571146	-0.5336680302311451	-0.003148935074162972	1.097395937973955	0.1259636471878919	0.3687515552078453	1.102191476193005	-0.293482538292685	0.2316897187771578	-0.5501197235153598	0.03560980155012811	0.1950060321746022	1.141746673237028	1.141746673237028	1.226612911535323	1.226612911535323	0.1646629028107594	0.01429097452925183	0.01003891713739468	0.01001661954784121	0.01021591300966827	0.01044944517020586	0.0101503631043486	0.1463946806151177	0.4372059109510794	0.01055573178254599	0.2473685724069651	0.1483687638617132	0.0106971697181071	0.01011576295752122	0.01000180085596187	0.009999873955968838	0.009448735696919872	0.2159593848692393	0.4916508166637176	0.0103783053500092	0.01011084296407762	0.009700889000822237	0.01013876454404313	0.01008764834017826	0.01000198807366697	0.01019203976299129	0.009856421320767883	0.0103601979539698	0.01011121625627353	0.009272145498933177	0.009957804862480407	0.2970893259822073	0.1268517238327515	0.007602162843712232	0.00982384629367683	0.01000711811829332	0.00982053139864386	0.5090064662563309	0.01012144902908486	0.05315690061264271	0.09867357189667196	0.06798363990863916
20.8932	-0.309012308076393	-0.1533821195664795	3.141335654645077	-3.282309113722993	0.5552542959696025	2.493312816223299	1.262734821740546	-0.3028407632672954	0.2461266246385954	1.120286501019418	-0.1584858726912548	-0.02936253046702336	-1.488635151375367	-0.05448683710258465	-0.004189258256512811	2.121140068074338	2.121140068074338	2.104991109016041	2.104991109016041	0.4862713389135306	0.4861936118278334	-0.1529848914996289	0.05968306780255223	-0.01174999729712572	0.06773770773566465	-0.44624241775595	-0.002268575781007917	0.8821541604163317	0.04818725230548095	0.2843810712446623	0.899058228027281	-0.2930501178252372	0.2044179348736797	-0.4967089358066993	0.01852970648989682	0.2062447445284539	0.9455251276553501	0.9455251276553501	0.9856056080345632	0.9856056080345632	0.1094423091841067	0.005708681423937033	0.0100315395463455	0.01001332122007144	0.01021053500244046	0.0101487811709124	0.01016993683826627	0.2013716760991468	0.5246711124076049	0.01062488419433589	0.2567739966580165	0.1406794661483294	0.01075420699400051	0.01013548029965717	0.01002218567707777	0.01002305296006716	0.01085488976220216	0.2000211845570221	0.5820471881272301	0.01004465381777558	0.009818952875047688	0.01049231036901589	0.0100989425742334	0.01007152538220958	0.01000107430946391	0.01029267799364836	0.01004667576684028	0.01040857531145249	0.01012889520879029	0.01004812364999647	0.0100420200531827	0.3575780749593424	0.1733197186551074	0.009803832566517078	0.01027723714572467	0.0100085602134105	0.01005380148081555	0.5171634650782359	0.01014412937790568	0.04360380562995444	0.08354603312036857	0.05296934257467986
20.9263	-0.3143531263944653	-0.151289831345135	3.140833198400986	-3.280306497158163	0.5419603785098968	2.49326629564909	1.288365710002273	-0.302171106199068	0.2541511230039648	1.146396427843582	-0.167749067482806	-0.0231577783627204	-1.5037618445476	-0.05413743078996122	0.002407187217392282	2.149111690655044	2.149111690655044	2.133604602703278	2.133604602703278	0.4888485954315763	0.4863549237099175	-0.1660587408456035	0.06584599478969207	-0.0164899216112063	0.05366463468593493	-0.3561862197264177	-0.0001620339305219085	0.6643756687121595	-0.004367398591028672	0.1982994970286894	0.6758565582549816	-0.2611103795888905	0.1707540496815622	-0.4139458676603716	0.005631346592571774	0.1880681317292021	0.7396790871155206	0.7396790871155206	0.7530016066472275	0.7530016066472275	0.04776605264098997	0.009924270215210061	0.01002731749256142	0.01001149302763093	0.01016523012209864	0.009955500042726641	0.01015376059944598	0.2413567190164575	0.5963510261084147	0.01080501466187626	0.2462965079171948	0.1331615154641006	0.0108095297434078	0.01015940660380544	0.01003208672685607	0.01002092981942606	0.0107115521908067	0.1824992728237027	0.6590648166695008	0.009893041792100645	0.009900179624619162	0.01041537948776803	0.01000486984155151	0.01001204540620125	0.01001505508348495	0.01029133299230062	0.0100996484214367	0.01046703810448147	0.01015207253744332	0.01041806503308719	0.01010949736225086	0.4071235183234145	0.1961736732406909	0.01093084907247955	0.01044254232966433	0.01001034091477286	0.01030122697952863	0.5331630413556749	0.01016907125839886	0.02774685069939457	0.08063621851821097	0.03360925367959181
20.9594	-0.3196181335262842	-0.1492552702731996	3.140295848224722	-3.278716641276744	0.5317464244627989	2.493304612409884	1.306791139344799	-0.3027839001647617	0.2592404292857039	1.164909536908968	-0.1753774879785444	-0.01828336749198859	-1.515754397849551	-0.05408218259647474	0.007866383382310684	2.169951212298206	2.169951212298206	2.15498213307236	2.15498213307236	0.4894173140341149	0.4868195901060926	-0.1481049363738608	0.05634553126190747	-0.01220038714900114	0.0430936706244049	-0.2592694892993084	0.002602243659885803	0.4474702527178768	-0.02999172531776677	0.1057075193344924	0.4420613883676782	-0.1938599429453973	0.1236555700544769	-0.3088914237435451	0.001642807796696312	0.139131237056058	0.5137629361696531	0.5137629361696531	0.5341972776853769	0.5341972776853769	-0.006139433692386989	0.02661011399116701	0.01002394146506291	0.01001015902410747	0.01010837956060593	0.009968882766250492	0.01010695068201485	0.2670039900954259	0.6619599083052135	0.01087557183749385	0.2420499316609517	0.1254321691108043	0.01083292233629701	0.01017270885348367	0.01003131945826221	0.01001197393297308	0.01009919166879305	0.1636717494848291	0.7313135538761356	0.009933658957603154	0.01002422931126506	0.01007043010679762	0.009973567018295621	0.009985419741996482	0.01001279148887008	0.01019251521960824	0.01004534650579773	0.01049927430861685	0.01016579081208983	0.01023329767426293	0.01009976900094243	0.4519331560498783	0.2039179443701243	0.01049388146535724	0.01025696189130887	0.01001129969636208	0.01033969910428246	0.5478077907766983	0.01018163796155327	0.01897660947340567	0.07516392997929618	0.02130441748902177
20.9925	-0.3238460872052738	-0.147739271834416	3.14005878579659	-3.277407297913246	0.5249313082771901	2.493415265118428	1.318088019049777	-0.3037531488171788	0.2613679762789137	1.175654636087661	-0.1803338925139302	-0.01520965201764797	-1.524085639322011	-0.05404601805057067	0.01141197645820843	2.182883912678669	2.182883912678669	2.169168868757666	2.169168868757666	0.4884646804737013	0.4878998423333759	-0.1038757997406772	0.03392952771623769	0.0008786511412172901	0.03668962643371515	-0.1501014439953441	0.003810576891291997	0.2350501691383287	-0.02659395789676504	0.02314344541777492	0.2083691407826017	-0.1006808562121607	0.06055881607019273	-0.1939140731676405	0.002607426852548198	0.07446701861552781	0.2640412261864745	0.2640412261864745	0.3072743063958075	0.3072743063958075	-0.04177364153555885	0.04945609762622245	0.01002065814469169	0.01000892852945116	0.0100683279320281	0.01003661863331625	0.01006461762892921	0.2862250429363505	0.7264827441639874	0.01091209289364879	0.2511122316661605	0.1224866140013404	0.01082260551929181	0.01017054232928767	0.01002839549881314	0.01001343624415944	0.009849555442583856	0.146275361276246	0.79687714583474	0.0100191320744866	0.01004806928321377	0.009928377328552833	0.009992318595556011	0.009994432265079661	0.01000546393952266	0.010114504092128	0.009969596848200646	0.01049291214005168	0.01016444830831295	0.009970087900678198	0.01005407935882667	0.4930798504890037	0.2172408763632411	0.00996548801996611	0.01009821888301247	0.01001108986512495	0.01026047154423037	0.5565588521596989	0.01017820902309452	0.02234603477548814	0.06242432494043706	0.02222100026137971
21.0256	-0.3262898689534076	-0.1470993527767697	3.140299345710862	-3.276260734035254	0.5219745686436371	2.493516498844271	1.322339344939036	-0.3042257731336557	0.2610688448422323	1.178742911191695	-0.1820041953415531	-0.01438203428170401	-1.528531824132045	-0.05402652367627039	0.01283024267841812	2.187124194400457	2.187124194400457	2.175248673730909	2.175248673730909	0.4866717597444906	0.4895772199311322	-0.03982808031866743	0.001834339284214551	0.01398522173019407	0.03276410419777202	-0.02618957712895757	0.001866760736139385	0.02381549327951139	-0.002066039242771274	-0.03702381602905551	-0.02124400997527706	0.002424000190369226	-0.01412665050921085	-0.07221318662163918	-0.002711123284951947	0.01104597852786338	-0.00950592085650076	-0.00950592085650076	0.0435616980787992	0.0435616980787992	-0.05872472833821741	0.06330918992164826	0.0100192205856403	0.01000836416070991	0.01006042865974177	0.01005789131149604	0.01005460078499875	0.3036901044529459	0.7834526734733624	0.01099242113911698	0.2567802620059245	0.1313268219534964	0.01079688830568482	0.01015976220945515	0.01002716579857079	0.01002493756334364	0.009859166828867739	0.1345449124916537	0.8500444934422484	0.0100749884975878	0.01003329535423613	0.00992092753413484	0.01001761235053455	0.01001814454857802	0.01001607142479735	0.01013286817355212	0.009934490786945149	0.01046387814457316	0.01015435204460745	0.009866572828577076	0.01003033576798512	0.5277523341548852	0.2405760928783001	0.010150441107983	0.01017224955940596	0.01001028651599881	0.01020137648404427	0.5641181665954916	0.01016646091552996	0.02911945319946253	0.05043071001105085	0.02985763678139991
21.0587	-0.3263589925203054	-0.1476098667997724	3.140858649796948	-3.275249677535526	0.5233423884516659	2.493505838169964	1.319475810030564	-0.3038492876199086	0.2589907770095169	1.174276514284257	-0.180309321116489	-0.01605230504633796	-1.528744147988703	-0.05439084092288281	0.01234451967816748	2.181972530528039	2.181972530528039	2.171712202004715	2.171712202004715	0.484548102843576	0.4914732779526728	0.04018807565435544	-0.03689439744857594	0.0176896761697842	0.02791074572088649	0.1104360125602287	-0.00285025191741534	-0.1929880502627221	0.0216169332753573	-0.08359044918449826	-0.2496617557178608	0.1001369391182679	-0.09210388672528319	0.06461193451196749	-0.02309826709775948	-0.04171201047824235	-0.3029930705003145	-0.3029930705003145	-0.2680225085213114	-0.2680225085213114	-0.06605201442935835	0.06116296336023073	0.01002077050679009	0.0100088918287238	0.01007511782555871	0.01004355069308369	0.0100717612433025	0.3173841857963408	0.8183670382343338	0.01098952597822923	0.2507986042267314	0.1455507023002127	0.01077750899117963	0.01015202055253499	0.01002653585356589	0.01002678866723777	0.009853477014467064	0.1316868020745114	0.8842155796859229	0.01006158920541753	0.01003412015622121	0.009891628752285161	0.01003010379937538	0.01003646844433869	0.01003882651545867	0.0101795813552729	0.01001048844618701	0.01044103529494588	0.01014705876748768	0.009924894913658527	0.01006790219998732	0.5506117858407918	0.2599435134448594	0.01044430666363785	0.01027399788312907	0.01000978482181092	0.01020474844132144	0.5747629467229385	0.01015807118603566	0.02949728097401087	0.04905270117723404	0.03378623030685005
21.0918	-0.3236332924051158	-0.1494042266528325	3.141379711555583	-3.274452276665465	0.529379470830274	2.493314443224815	1.309272524722429	-0.3030498366519367	0.2553442018166037	1.162290708009607	-0.1755960566884909	-0.02022029215252559	-1.52415523375553	-0.05564469730855635	0.01034794738051749	2.166951461637892	2.166951461637892	2.157103540905656	2.157103540905656	0.482227032832111	0.49323590949456	0.1271125336611479	-0.07498360158830206	0.01128256508927903	0.01965927515911143	0.2549676999945383	-0.008928819500989196	-0.419425217949105	0.02189729209642832	-0.1328778195014076	-0.4749377079154791	0.1832077016996929	-0.1651469836400649	0.2164847345571038	-0.05652190724821239	-0.08109954859229801	-0.6056270231460171	-0.6056270231460171	-0.6215564206311366	-0.6215564206311366	-0.07452260028133029	0.05197828515508562	0.01002285396252235	0.01000958271261566	0.0100891153477096	0.01003197487386667	0.01008925624270583	0.3232680611741661	0.8181415845245534	0.01061970472446422	0.2495483265945427	0.1470378100063075	0.01077085543151204	0.01015105821845066	0.01002444124651058	0.00999780911493676	0.009978251611627393	0.1387993057168838	0.8868673264481413	0.009929936345575065	0.0100010490204941	0.009961921583126247	0.01001792222034135	0.01001883129047981	0.01002520014586166	0.01011535732043977	0.01019232984450885	0.01043569117080189	0.01014637773212888	0.01012785232144702	0.01014873756483931	0.5532037380527212	0.263707522697148	0.009772879204562612	0.01003534527820047	0.01000981885166129	0.01021307347519701	0.5842197163752255	0.01015662130465814	0.02616255493514853	0.05969996347630944	0.03310393175257392
21.1249	-0.3181655806687394	-0.1523394122021266	3.141625329185654	-3.273992321312387	0.5402529886413646	2.492916285909984	1.291432678081111	-0.3027757490581045	0.2499460313933549	1.142983905029551	-0.168380022271866	-0.02664650622576866	-1.51452704284044	-0.05807670367946843	0.007224515025112267	2.141949690618086	2.141949690618086	2.130334758565783	2.130334758565783	0.4795543754294462	0.4947181219173736	0.2015184502299354	-0.1029957941285915	0.002438751117327892	0.00754142322229564	0.4016678618540792	-0.01525447147217397	-0.6563512010383498	-0.0090297083682021	-0.1912473100437497	-0.6911560595690208	0.2509460206834178	-0.2261676633720322	0.3644406196405486	-0.0921470882121916	-0.1090442634610076	-0.9051703698262906	-0.9051703698262906	-1.000484193855063	-1.000484193855063	-0.08919325354120741	0.03925337649156935	0.01002177128640739	0.01000898764595163	0.010098397092428	0.01003342277200682	0.01009641081222373	0.31843137775174	0.7775211812461986	0.009991202037574714	0.2625585831552298	0.1342947922817904	0.01075812943109802	0.01014751401942676	0.01002140377218299	0.009959196757098299	0.01045578285914373	0.1542999826501729	0.8431354971024398	0.009768356733186115	0.009894488877261014	0.01030688279023542	0.00997393476448912	0.009951498596698315	0.009942843878835407	0.009982750002460289	0.01022772680150665	0.01042644977790643	0.01014303100932997	0.01033005642044681	0.01015337500716905	0.5281640005809753	0.2509562777696947	0.008439268501631599	0.009582501927195217	0.01000962738519927	0.01013977224123437	0.5871195716649585	0.01015272644514098	0.02913559387617539	0.07727059377228981	0.036453654190512
21.158	-0.3106980450841338	-0.1560190182376149	3.141630282313094	-3.274002016247996	0.5559236157297982	2.492315144611561	1.265622452492686	-0.3039491983948467	0.2425000715751098	1.116565546029884	-0.1590933609172528	-0.03487972284012991	-1.500322314484847	-0.06159576533159248	0.003239537250311964	2.10714247098699	2.10714247098699	2.091043307328281	2.091043307328281	0.476318219207936	0.4955935278096011	0.2441131810509137	-0.1168802593423684	-0.001875997350416116	-0.008975303498659508	0.5436673278279022	-0.02102653665098182	-0.9044554592455907	-0.0630336658439942	-0.2600836747965642	-0.9073364159275359	0.3082517533996543	-0.2698094690235313	0.4902492974798386	-0.1195645731814006	-0.131116690927926	-1.197342986904652	-1.197342986904652	-1.371346168818197	-1.371346168818197	-0.1094235802602564	0.00953759632085374	0.01001943107377247	0.01000797006930487	0.01012992842615319	0.01003942589155547	0.01011689169378437	0.2989890674998152	0.6984792486681938	0.01011482821553556	0.2681732234896524	0.1330053391515909	0.01071790755283366	0.0101329535461362	0.01002204646746747	0.00999280089175493	0.01075699363130781	0.1735779626560842	0.7513399078161266	0.009910156039646928	0.00985775481714965	0.01057208447352904	0.009942072730218078	0.009912613806150213	0.009885069290068545	0.01014233299565528	0.009776275871553866	0.01039127007089095	0.01012881264485048	0.01011721896756221	0.009953795842903193	0.4764704976163425	0.2228315306059249	0.009083954209122481	0.009910314343711537	0.01000853721864801	0.01001017339606285	0.5869890012992401	0.01013769528230301	0.04074363337052195	0.09915333617215838	0.05007365635030098
21.1911	-0.3024345062161808	-0.1599914591308204	3.141567342662349	-3.274653249204412	0.5761053348259377	2.491540606588464	1.231422722332859	-0.3070735557595132	0.2325162073219768	1.08265966854328	-0.1480171726502282	-0.04432328976891168	-1.482329868601783	-0.06584983325317825	-0.00148456815106808	2.062752892654995	2.062752892654995	2.040103230413516	2.040103230413516	0.4723521049490118	0.4951907198232897	0.2477238516864338	-0.1187158708940881	-0.001336532316307107	-0.0315220436332003	0.6731538348358612	-0.02558592373129073	-1.167080862668272	-0.1243312789300479	-0.3491435526252074	-1.146525554720762	0.3583372458898143	-0.2944158834950357	0.5927408995708662	-0.1349450608425753	-0.1513134332226744	-1.484293550922109	-1.484293550922109	-1.694783345206107	-1.694783345206107	-0.1348929207108885	-0.04149510187244448	0.01002604381758484	0.01001090756235718	0.0102041071091633	0.01004803908625929	0.01017629214540742	0.2589609048179011	0.5867498270302869	0.01194012672124033	0.2530679181847276	0.1558211606747731	0.01067020443842305	0.01012103913377081	0.01002962592974543	0.01013957145484279	0.009710328934542573	0.1906074649689793	0.6313872092256602	0.01053523506215071	0.01013579824815365	0.00989091731984547	0.0100205727625969	0.01005093432088783	0.01005049580366908	0.01085061026701494	0.009129866150285399	0.0103612061886355	0.01011773847153618	0.009339564328329804	0.009705913127111701	0.4065227798393505	0.1799380073252203	0.01378100603339828	0.01179023228490796	0.01000754696502994	0.01005156148799101	0.5886585830261427	0.01012450178339143	0.05327224683440787	0.1275726794721241	0.07011092088624286
21.2242	-0.2946606117709618	-0.1638730611433889	3.141546721997253	-3.276159741178238	0.6002744413076448	2.490633834567441	1.188239747767448	-0.3121186177663399	0.2190763096004384	1.040333881875849	-0.1354337619583975	-0.05434380913546402	-1.461279744560918	-0.07045079320311133	-0.006829877745412952	2.008970844951291	2.008970844951291	1.979370643537375	1.979370643537375	0.4674187502328981	0.4930138426370552	0.2135081690954074	-0.1104624393499997	0.0004607729446146688	-0.06038580327979473	0.7841062612377465	-0.02909442902657507	-1.450266764587435	-0.1770343828583208	-0.471718004810416	-1.412906704790045	0.3977591621972593	-0.3016945536049283	0.6726684426016755	-0.1401619940457118	-0.1665220321540017	-1.765331354439535	-1.765331354439535	-1.960141816629573	-1.960141816629573	-0.1700318779176793	-0.09660836384939132	0.01005021989071605	0.01002137727181003	0.01029584555718738	0.01006936437502502	0.01025883406229553	0.1960399680024444	0.4517922247617481	0.01378585810818981	0.2503292414386571	0.1709642103833106	0.01067068712715989	0.01013975806760837	0.01003409595350403	0.01022067883355145	0.007586808366662774	0.2013808809316009	0.5116290670318769	0.01090638799287171	0.01058855603324394	0.008346713538723854	0.01021004959266974	0.0103321908268828	0.01041915761992932	0.01145830843155464	0.009612587669104184	0.01040449527079635	0.01013789719391114	0.009222714877483012	0.009968340817436038	0.3237052625491842	0.12837423318662	0.01784944299432187	0.01346949717917859	0.01000883913415859	0.01044472705560236	0.5861169888225044	0.01014073825138269	0.06032109368530507	0.1627503403173872	0.08729031438709542
21.2573	-0.2886462742169097	-0.1673087245129979	3.141566531917791	-3.278698479401412	0.6277783767220786	2.489615443218387	1.135300214212624	-0.3186207481542289	0.2010275436302791	0.9890913018884326	-0.1218275627167713	-0.06432370609658965	-1.438109702321725	-0.07510587556851962	-0.01248666066276148	1.946082238013203	1.946082238013203	1.910507957954109	1.910507957954109	0.4610743980737916	0.4889110905274588	0.1409623920694275	-0.09155458935539071	0.001157414149918107	-0.09339751699101936	0.8748068935121425	-0.03244312190558276	-1.757469582050256	-0.2117138906476956	-0.6272865406910166	-1.679005553820925	0.4187235509449048	-0.292051341680019	0.7178393812948477	-0.1382210281526906	-0.1687350263239853	-2.034364230465397	-2.034364230465397	-2.191545254268565	-2.191545254268565	-0.2201019335304016	-0.1547750483816594	0.01008351771464567	0.01003556081249503	0.01035532491334627	0.01011294233223914	0.0103145752443114	0.1203894232574847	0.3111219908324825	0.01096883172214866	0.2868991640213824	0.1472177208115501	0.01072950660424784	0.01018864215410802	0.0100150430520891	0.009906897340975981	0.008205507832471103	0.2055780319422152	0.4048843762775794	0.009618478485127787	0.01036710363500273	0.008692661170729735	0.01023400931985999	0.01030119139850531	0.01042277856045234	0.01052531298218827	0.01201878180791811	0.01052060459294775	0.01018835469367577	0.01242858123503268	0.01102496345519075	0.2267031526674577	0.07820114397517969	0.01002681862201521	0.01072986074511154	0.01001255322525018	0.0107667349465816	0.5725552470208876	0.01018678989964759	0.06436814876959582	0.1981441263951784	0.09774221497761455
21.2904	-0.2856839134516633	-0.1699291157089289	3.141587557319828	-3.282379518354389	0.6579679774760796	2.488488061615228	1.071874033948961	-0.3259738160238479	0.1775316615158754	0.9294122623474825	-0.1079241396331773	-0.07363022082763652	-1.414144011985139	-0.07958639348352067	-0.01789737952029081	1.874576077063829	1.874576077063829	1.834268290717987	1.834268290717987	0.4528078238059363	0.4822866391596128	0.0305037113693412	-0.06183701894838282	0.0009110989230065276	-0.129670807940108	0.9466255325964388	-0.0354172142921801	-2.081822602763274	-0.2297942213341997	-0.7985861497166179	-1.922938585368108	0.4157542558631384	-0.2634686150897623	0.7228648292425828	-0.1291962652947582	-0.1514690293105203	-2.285014928548456	-2.285014928548456	-2.411260375691323	-2.411260375691323	-0.2822209459137235	-0.2483473159622954	0.01010373280536612	0.01004447349015323	0.01035915513405771	0.01017258882329853	0.01030851824219696	0.05409748637065794	0.1915185383310972	0.002598704128854688	0.317165624088362	0.1110217780949944	0.01077296552232022	0.01022373251388366	0.009981737551803115	0.009311180217127119	0.01632541660116036	0.2033597950606512	0.3014973731067382	0.00708051019518237	0.00888573775083059	0.01504143638503407	0.00976835652812438	0.009524979446116619	0.009464903032552907	0.008035690127511867	0.01360501098989202	0.01060050331540851	0.01022445306014843	0.0205851533010617	0.0117049917923959	0.1247682580695106	0.03718305644221814	-0.01008067981923192	0.003218585062279663	0.01001510223942485	0.01003650196813191	0.5583469596861504	0.01022024168071352	0.0718687334646604	0.2282556035598327	0.1080339301539122
21.3235	-0.2868771242323913	-0.1713835741203373	3.141593062524739	-3.287352573545046	0.6902446283798466	2.487295906727611	0.9976506778868941	-0.33372401348289	0.1483733229818338	0.8619054448963819	-0.09453791630448548	-0.08167021625709878	-1.390397192733848	-0.08360916621412542	-0.02234901633067168	1.795093791850534	1.795093791850534	1.750986942420486	1.750986942420486	0.4423931755516906	0.471840944872016	-0.1068239951042262	-0.02266051765153804	0.0004728213287863538	-0.1723225741553474	1.000891869752381	-0.03585543603578348	-2.405652500622496	-0.2374223745435876	-0.9664626746281231	-2.158799163096798	0.3892208922465419	-0.2185859439220679	0.7114926866378356	-0.1101434069509594	-0.1119601572589739	-2.515185532252393	-2.515185532252393	-2.617004548057666	-2.617004548057666	-0.3454726160859941	-0.3874467303727966	0.01010309216615387	0.01004666712552779	0.01032073407594734	0.01022273043073751	0.01025163525730465	0.01585280212392105	0.1192440733765858	0.001305283598868587	0.2779488250000556	0.1112205533637238	0.01074176887679365	0.01021205168560235	0.01001004888614213	0.009537078775003279	0.03024516187789478	0.1902091247007567	0.192082106953838	0.007956927435607684	0.007995297733834773	0.02819687416167585	0.009256041687737348	0.008852840592099421	0.008535662188772584	0.007936668359950383	0.008849179918689979	0.01056377939224482	0.01021299868154735	0.03172643611092433	0.009787208695770259	0.05913614331983419	0.0145804281914126	-0.009929332884742577	0.002566550034706076	0.01001301904408703	0.008448376721563958	0.560225016854778	0.01020839709185771	0.0835765820891757	0.2625021420306182	0.128387251407849
21.3566	-0.2928135136264028	-0.171373383081531	3.141581992862916	-3.293883290789515	0.7240399124874199	2.486155506046135	0.9129297849371848	-0.3415081586319784	0.1138329110592621	0.7864377539285344	-0.08240061958864583	-0.08809064011819345	-1.366863626731503	-0.08680226168641528	-0.02508942747226318	1.70825918544228	1.70825918544228	1.661242960498633	1.661242960498633	0.4299848630712261	0.4567534240395943	-0.252724508776957	0.02450409801993127	-0.0001632025608555053	-0.2236723987929931	1.038383709510978	-0.03230519077188845	-2.711493067509667	-0.2312191195539288	-1.120257734503204	-2.405249732040114	0.3424865039506287	-0.1679058278669456	0.7133625499276244	-0.08001687458672203	-0.05034733948216511	-2.729081810891868	-2.729081810891868	-2.801099902534713	-2.801099902534713	-0.4036859369579923	-0.5298500270499479	0.01010168162586512	0.01005174979005286	0.01026178464116087	0.01023426227584466	0.01018529974341272	0.005818004946764539	0.1036043629092806	0.02899903310657612	0.1944035316555292	0.1429881548578306	0.01068492518519294	0.01017733920420903	0.01018401727037263	0.01185863434331436	0.03965099669632918	0.1587416213097577	0.0912826938280671	0.01810879204566614	0.01259480706447292	0.04391259387752151	0.01047301262329204	0.01107717669695296	0.01115610896769749	0.01607030972577555	-0.001121886505027675	0.01047937321264371	0.01017796149662125	0.04329881294947801	0.005783833011952094	0.08355968140729181	0.02582654557744974	0.06108031386037414	0.02750406990211738	0.01000834484166901	0.009990225656851551	0.5728030733128575	0.01017381135782179	0.09248195950619729	0.3210009691279143	0.1614970491172031
21.3897	-0.3035744606979583	-0.1696801013738395	3.141549247013122	-3.302194201808809	0.7588291171220451	2.48516891841556	0.8184353881797828	-0.348633050074232	0.07446993326320689	0.7028831254978344	-0.07213046519491925	-0.09288020698140327	-1.343114144293175	-0.08887275231665825	-0.02546439269527075	1.614458782250932	1.614458782250932	1.565681472353927	1.565681472353927	0.4157478854048369	0.4372986781822839	-0.3959458840626163	0.07662333906128149	-0.001013113267276304	-0.2780015446587957	1.061318527792452	-0.02749295111867227	-2.992252935405002	-0.1946783426097945	-1.25443768136072	-2.636480997074263	0.2775423778524031	-0.1214606295054864	0.7200803936599667	-0.04527413398285191	0.02790019889000449	-2.937448076018978	-2.937448076018978	-2.972698137621281	-2.972698137621281	-0.4634893427224829	-0.6525778646884206	0.01011675218772766	0.01006379878912947	0.01019681364086449	0.01020082426412322	0.01014176226410241	0.009150690831942303	0.1281203584225367	0.09202094629109549	0.1555603498277881	0.158606688913401	0.01068074448497758	0.01015723402453525	0.01047430474688025	0.01563769098801203	0.03619297681133313	0.1099872390674613	0.02616795156118321	0.03647368646647318	0.02715909873201006	0.05830518253696482	0.01555677867927872	0.01923334688032549	0.02122511026118365	0.03257940963434863	0.001236655519963532	0.01045511302260444	0.010157094253036	0.05907536898214932	0.006710061055883315	0.1968901118793046	0.07858452868524188	0.2085136307363336	0.08147823650376795	0.01000798280463125	0.02252189396877827	0.5695585585879152	0.01015367205749847	0.09228106776012829	0.4032751648430203	0.1983032589745116
21.4228	-0.3190208363917013	-0.1662745864861152	3.141501828221237	-3.312191993319468	0.7941814394590549	2.484283637543739	0.7150632934452604	-0.3538529728857836	0.03104062979881804	0.6126341916550387	-0.06426775345489205	-0.09623274122479041	-1.319629752255554	-0.0898801238375348	-0.02315914966395537	1.513692274598505	1.513692274598505	1.46443327512832	1.46443327512832	0.3994185722924758	0.4135116717549777	-0.5334827215601441	0.1257319371823378	-0.00120871912820305	-0.3236889501991041	1.072776869509823	-0.02726431630258207	-3.245321196046358	-0.114283869337267	-1.363875255393846	-2.797091099595957	0.1974896031287877	-0.08202971653981775	0.6925511091252058	-0.0192183966461168	0.1081591939704813	-3.152561967738396	-3.152561967738396	-3.149715203140398	-3.149715203140398	-0.5387778066134965	-0.7970800864329275	0.01013485807988478	0.0100726349961313	0.01013878082012758	0.01014572739411914	0.01012174460827828	0.01231529025881086	0.1587788964124618	0.1629576953649562	0.190109884228671	0.1408740862408362	0.01071410075959555	0.01015191735598303	0.01075581913624117	0.01793230491646286	0.02516515398635108	0.05949636776251568	0.004351575665133988	0.05391370413227943	0.0505855637438927	0.07262802988298783	0.02460459784998455	0.03319106431487551	0.03835872449229931	0.04797066580294289	0.03830476034522669	0.01047905390663765	0.01015153998650873	0.0861590768297195	0.02144270877449065	0.3113447550855958	0.1531559705632866	0.3563851442850698	0.1382651182364743	0.01001607961733543	0.05202275602222747	0.5353814118391692	0.01014793327976967	0.08440478834152706	0.4681514941621185	0.2217652142622057
21.4559	-0.3387883914165314	-0.1614656444771458	3.141474557910725	-3.323478801690364	0.8297146510279841	2.483285951690994	0.6039720210763022	-0.3557923965901211	-0.01552890515873918	0.518435597215951	-0.05908756355806302	-0.09838229422112059	-1.297757292912564	-0.09032936493025695	-0.01846165882371303	1.405683857845899	1.405683857845899	1.357196791958386	1.357196791958386	0.3801740448157504	0.3844108971092806	-0.6539631207066268	0.1603185831990267	-0.0002146906246577641	-0.356780204336133	1.071635899564253	-0.03410074259097214	-3.458337881676581	0.001673147194358071	-1.443203882991949	-2.878010822455962	0.1176040686899861	-0.04904591256072131	0.6288077531388256	-0.01240118593792337	0.1698267900689943	-3.37731973235194	-3.37731973235194	-3.330347665238163	-3.330347665238163	-0.6430267384977701	-0.9808131036535739	0.01013973516019761	0.01007571818869532	0.01009928979167966	0.0100973315285135	0.01010936348637765	0.0118345229370108	0.1652613125153477	0.1995627810983957	0.2351633892738385	0.1153569877750479	0.01072559047461618	0.01016282977209571	0.01094324393380363	0.01662960564376466	0.02101577312282759	0.02502191305516249	0.007265437579405706	0.06586918308462175	0.07496012554967894	0.0886518542954529	0.0342066963014749	0.0479117530500913	0.05539288205425635	0.05107863488461399	0.1032135289766808	0.01049237238424466	0.01016587380579869	0.1179852259591435	0.04738503493595721	0.3298095738663638	0.2083704749242186	0.4100958229825884	0.1616724186689336	0.0100250985632354	0.09333682588888861	0.4839603751615664	0.01015443384468028	0.07306151517998261	0.4662020052128514	0.2143923838811364
21.489	-0.361861765411768	-0.1558987389699174	3.141487280340416	-3.335810981171055	0.8648947797365003	2.482015846983905	0.4868573358781587	-0.3537099895801467	-0.06409960090522908	0.4219601990322069	-0.05608123102930999	-0.09956550542481264	-1.277609410556145	-0.09086561023221987	-0.01225910322318986	1.290304242482761	1.290304242482761	1.244296531409985	1.244296531409985	0.3568276740103657	0.3497588033572743	-0.730741157970321	0.1723717019736333	0.0005872666072813809	-0.3903708611146001	1.049686314627255	-0.04193847002563752	-3.610396212389919	0.1245629627623139	-1.483403442455232	-2.953635697978612	0.0705560588887108	-0.02277161492148994	0.6036477229206278	-0.02125565718432597	0.1992708389464835	-3.5979613882335	-3.5979613882335	-3.477667988126015	-3.477667988126015	-0.7820471904526138	-1.130452264433184	0.01014886242771128	0.01009324277772	0.0100837137348742	0.01007104621014863	0.01010077326020271	0.01026677039703102	0.1390691635994599	0.1829503051806102	0.2282913036885673	0.09952330217255126	0.01073044464695862	0.01022727928166802	0.0108905917106971	0.01327987601835511	0.03107427900175801	0.01044713062241307	0.01281871385952918	0.0818866310496098	0.09062762014307427	0.1019076966505573	0.03981704768436057	0.05649939162410947	0.0629124719660598	0.04056100031736046	0.1486713892176702	0.01053365932819284	0.01023894891629985	0.1290146403430499	0.06603793088427538	0.2494946596715431	0.211892771734971	0.3525755238941579	0.1398545564369894	0.01001605517408959	0.1279540270887964	0.4388425340978881	0.01020719809254205	0.05792072649928796	0.392113662076105	0.1697193635361578
21.5221	-0.3863991509851863	-0.1503391394232893	3.141494461380583	-3.349519380163708	0.898883332999441	2.480612628537317	0.3659302264727752	-0.3478414348004799	-0.1131273489493305	0.3219939117229821	-0.05361114087345632	-0.09999894156402245	-1.256398853851371	-0.09176149460295056	-0.005571085124953756	1.168046589908018	1.168046589908018	1.127608756710812	1.127608756710812	0.3283230447922331	0.3114585273353578	-0.7429280886110585	0.1619060452020475	-0.0003354179733694818	-0.4414036764611392	0.9984993416667938	-0.04048445308395669	-3.687831308494056	0.2278796614654655	-1.468879454428227	-3.100386828897777	0.08784363914300213	-0.002352548538215705	0.698784182914602	-0.02961784256010791	0.2030668467018951	-3.789374958146355	-3.789374958146355	-3.550508149542917	-3.550508149542917	-0.9436642813240074	-1.182034070509127	0.01018631041759947	0.01013681143309289	0.01009679878531092	0.01008629681307717	0.01010893468809509	0.009722685420240929	0.09392744982214125	0.1304993824022147	0.1763527153938163	0.08573901184624751	0.01077853948192926	0.01033966615565588	0.01026524558754827	0.01111472662174479	0.04782249145931904	0.009059397508914012	0.01299549100727659	0.1134922305792257	0.09396859409951004	0.1048763448084715	0.04119988889980848	0.05678920563401664	0.05869134330784323	0.02519721206711514	0.1334401084271346	0.0106525731947794	0.0103588949752431	0.101762030289676	0.06074315129162124	0.1507144738941375	0.1640945362380304	0.2468337341506251	0.09264887419420915	0.009983393537843247	0.1368337563742291	0.4064698096263496	0.01030829869119244	0.03850780891484992	0.2866676753663941	0.1037057558654578
21.5552	-0.4103842714422815	-0.1454589829902417	3.141437938374256	-3.365175778388218	0.9307076494598425	2.479471042107819	0.2436551099150126	-0.3389859531449675	-0.1605540731556105	0.2164593492884527	-0.04944599234364573	-0.09984669807331145	-1.230251216546496	-0.09277353331040067	0.00112379433512106	1.040236193955289	1.040236193955289	1.009731170134594	1.009731170134594	0.2943736504093201	0.2718407987126665	-0.7013484244823674	0.1322937278973194	-0.001462701716099726	-0.5040197398694162	0.9205365047941045	-0.02659996447423931	-3.688107124128232	0.3056843398261095	-1.386130082671914	-3.274474551151416	0.1696618371200723	0.01310672884919349	0.8852573615650144	-0.02728831847521598	0.2047583960428533	-3.927056006562819	-3.927056006562819	-3.560771013268482	-3.560771013268482	-1.098092901219273	-1.180893482530271	0.01023324855024195	0.01017683540810852	0.01014372112590482	0.01017006126885755	0.01014171222010504	0.01006568342684248	0.05098150307219155	0.07479302125110548	0.1274327832932944	0.07052612988989609	0.01083779657169871	0.0104031449088929	0.009330239970548342	0.01103739249807651	0.05829800084490523	0.01801245961730873	0.01067701614845293	0.1554856346856694	0.09029417339503996	0.0950873845616923	0.0443455535434551	0.05433119510514818	0.05051838875374597	0.01411762575491298	0.07428259885803687	0.0107563347507712	0.01042130093287822	0.05407458992328353	0.03674618120677873	0.09533568882717314	0.0950991436910591	0.1550869903405549	0.04859872289472547	0.009974443221233285	0.1181979760926147	0.3739572213293072	0.01037287903944226	0.02171413124590382	0.1908212895658307	0.04965609604905593
21.5883	-0.4326471164861492	-0.1418693639598448	3.141353984274009	-3.382671586298239	0.9596596611655985	2.478888436179814	0.1226343893587592	-0.327875180506982	-0.2041248875513366	0.1067188764950683	-0.04197479806691489	-0.09932210184919277	-1.198343272898619	-0.09365593537632806	0.00808592862582644	0.9089144766559066	0.9089144766559066	0.891825386604871	0.891825386604871	0.2557546072243794	0.2315524844334098	-0.6434993377529657	0.08279299516030007	1.575445974478922e-06	-0.5469736774747596	0.8286164188730655	-0.00884452698831913	-3.610796519445001	0.3653563162343393	-1.238434532650004	-3.328730698091244	0.2806343125145995	0.01915136980359848	1.023608715859777	-0.02537048109356792	0.2200312512870352	-3.994929528277787	-3.994929528277787	-3.572617189215922	-3.572617189215922	-1.217713379400926	-1.204401897053164	0.01024440466580595	0.01017272147179138	0.0102093191506967	0.01030553199272637	0.01018263656757484	0.01039863362926574	0.02363159068543952	0.03717417803336036	0.1097710632704804	0.062870921691947	0.01083182695032018	0.01036664947784356	0.01002572744394871	0.01143687488552163	0.05911518877638348	0.03876635239479208	0.009479748652484495	0.1892258047033512	0.08763572449725127	0.0756168165781748	0.0550252413723124	0.05648590286727098	0.04587175032893664	0.009888951390802304	0.02677743441133275	0.01072274162812312	0.01038500433684915	0.02199726688311523	0.0147878576859884	0.07900307716235135	0.0401859985036555	0.09195840858457897	0.02266434003382494	0.01006603661859281	0.09065904753864922	0.3311165905698509	0.01033818236483968	0.01580046229053044	0.1177056092406523	0.03029535813784168
21.6214	-0.4531492387282676	-0.140267923719231	3.141348527812272	-3.400900588082898	0.9854426146664947	2.478797801543146	0.005474634491580695	-0.3150616221470184	-0.2420031577586708	-0.001517082179704879	-0.03096325263383767	-0.09882503195099558	-1.164191330700994	-0.09478954584455807	0.01562974789238597	0.7765214941092137	0.7765214941092137	0.7729305821665854	0.7729305821665854	0.2139179449713166	0.1902483320938061	-0.5969526515818571	0.01168779460927043	0.002963892106824293	-0.5479218374467014	0.7306173973300346	0.001694270977519964	-3.458508483398492	0.4085358003733577	-1.04690986079997	-3.181538730001229	0.3783885306209879	0.009581759747683077	1.017424838219728	-0.04575356781288702	0.2342849875019862	-3.988135301342361	-3.988135301342361	-3.624995193657335	-3.624995193657335	-1.295250912290096	-1.251250709087887	0.01020741592497198	0.01012738118863268	0.01024850555470834	0.01040243605706086	0.01019905637937619	0.01037120763753534	0.01249551449131976	0.01939457623609514	0.1114665321956314	0.06273347479607297	0.0107705431794442	0.01034122820283639	0.01439949047169082	0.01114273384235401	0.05845816121317359	0.06481813962530539	0.00974379720677963	0.2033013929932065	0.08813945792765429	0.05119079059738694	0.07071935986609004	0.06396851996490821	0.04218110017382506	0.009797297957629084	0.01999310461045118	0.01061528544578226	0.01038471473676031	0.01901063889737921	0.007178121096835017	0.07244981031629816	0.01635635991782987	0.04804341023936801	0.01315280223616032	0.01021334857180549	0.07740874981221507	0.2856914964318505	0.01028144139525324	0.01878919466025962	0.06481664867815772	0.03589347642411726
21.6545	-0.4721532859597878	-0.141280606527462	3.141449117316426	-3.418636883228356	1.007826953020651	2.478890321502961	-0.1056083917295926	-0.3011879911288865	-0.2731554672333676	-0.102555310190402	-0.01728678650973904	-0.09879282857141752	-1.131857068422019	-0.09710048622582951	0.02319995858551042	0.6454652147940194	0.6454652147940194	0.6518432381678738	0.6518432381678738	0.1702943126358771	0.1483557349292236	-0.5517771819967037	-0.0701691599745909	0.003443317674457574	-0.5212653056700255	0.6188873055404188	0.002572092219133127	-3.242279116615199	0.4316614211519644	-0.8354090407943198	-2.916786393013562	0.4379258194927698	-0.01073367229993535	0.9292849232147596	-0.09378651782600118	0.215593945823306	-3.914804417136316	-3.914804417136316	-3.688520888136892	-3.688520888136892	-1.337483587354871	-1.268577294776595	0.01015476463855199	0.01008270359207754	0.01022427139185014	0.0103746562427929	0.01017331173367337	0.01018668645368193	0.0104955172406076	0.01336578109077203	0.1073161224578464	0.05854965505913394	0.01074338247839037	0.01044109147148354	0.02040824723685274	0.01057353678918902	0.06103390362589984	0.07941640643436125	0.01024405472714693	0.2031407083801737	0.08743106552050349	0.02963982780242744	0.08181660174586211	0.07054785988294969	0.03346462082441556	0.0104800554354563	0.03409571954608733	0.01061221922692202	0.01053167013766573	0.02823202949179846	0.008680113482283531	0.06449950059750512	0.01969761260813954	0.01991981847602609	0.01146097991139367	0.01013829934638861	0.0865996800851295	0.2498894899786748	0.01031796159705103	0.0209438887984743	0.03033496775953827	0.03946662210848621
21.6876	-0.4892493141099909	-0.1448702976301258	3.141565717779871	-3.435532046607238	1.026216444282113	2.478931094663581	-0.2089101466800651	-0.2868334339857161	-0.2972809878927992	-0.1950549097005387	-0.002339491694682937	-0.09930881158901501	-1.101722779695708	-0.1012024607977935	0.02942058539109819	0.5176326256355531	0.5176326256355531	0.5289596610735724	0.5289596610735724	0.1258896055610994	0.1071688182561581	-0.4781119886285634	-0.1346302456360158	0.0009299738109560677	-0.4998163540578019	0.4812834506405523	-0.0003973185242973053	-2.975670299798963	0.4434225412741076	-0.6208511858906883	-2.682709990392305	0.4498769643011499	-0.02442034305232224	0.8982738979445687	-0.1469751701278603	0.1543060753018384	-3.797533460497763	-3.797533460497763	-3.717043161195463	-3.717043161195463	-1.348781547337891	-1.232799992194148	0.01012162673353452	0.01006780909115574	0.010152530721914	0.01024187363110153	0.01012291387533246	0.01008505007389403	0.01081759394035453	0.01358671168389912	0.09023475069678093	0.04736986088519506	0.01079238582270475	0.0105768525494866	0.02204300962904333	0.01033758222847339	0.0581263260926321	0.06980186089014463	0.01031685290777377	0.2010353377878646	0.08145517880057264	0.02218113472817877	0.08127557035011906	0.07051036835526094	0.02244498233056096	0.01056508617958889	0.03772321947899595	0.01075278192846157	0.01069050378010869	0.03013103009680589	0.009127205616873496	0.05848923806957277	0.03778163827821543	0.008551973260818285	0.01126440330534997	0.009643738191001564	0.1062638784893857	0.2214047938195443	0.01042185490154005	0.0174366457930142	0.0126767090104361	0.02913421047991388
21.7207	-0.5034364026864482	-0.1498517588301073	3.14161484218622	-3.451991431993231	1.039688931320156	2.478891866963643	-0.3027967363399462	-0.2718628614892666	-0.3146089788364462	-0.2814018385976484	0.01219942739613866	-0.09995523025887329	-1.071052669512204	-0.1066084954533444	0.03323928814636708	0.3939836832145822	0.3939836832145822	0.405917655939568	0.405917655939568	0.08120830077976025	0.06778065601044091	-0.3713409937083528	-0.1533328761766871	-0.001256477707459566	-0.4966114757205308	0.3222105490070051	-0.001727093414057298	-2.674115437305597	0.4668448959494784	-0.4213692611128587	-2.544261120957219	0.4138499767570402	-0.01889329117390548	0.9712022693474077	-0.1732746503098509	0.07805977982581613	-3.669732860501922	-3.669732860501922	-3.702488904195743	-3.702488904195743	-1.338580416934093	-1.165435809385451	0.01011520854513017	0.0100761149354178	0.01008808211974953	0.01011154393200132	0.01008333510915182	0.01009952056049766	0.01067853978918547	0.01938500326700561	0.07183123741546449	0.03800616661298762	0.01086571681868537	0.01057429048578623	0.01795678624652802	0.01032611178268435	0.04228042929323367	0.04230874307709501	0.01012856567421625	0.2023378912814722	0.07168696645880608	0.03203698776396281	0.07210697967341	0.06452581121551371	0.01726173679203378	0.01030284864897646	0.02647741560055405	0.01089819557324041	0.01065779836108155	0.02223015987505092	0.007834134133795329	0.05426585069266818	0.05768839989489492	0.009107636999135469	0.0107630866970203	0.009336999506694654	0.1184754945411684	0.1940235630976439	0.01046419426759987	0.01190323353175888	0.007588575830282128	0.01445748404456301
21.7538	-0.5141282413365514	-0.1542676718935469	3.141605434377631	-3.468326238975468	1.047605917910001	2.478844916042025	-0.3857884512735427	-0.2552737684807279	-0.3259064087366509	-0.3641888436341492	0.02462064770888108	-0.1001434246986998	-1.037818813626801	-0.1118878246418836	0.03480800432017298	0.2744372238795234	0.2744372238795234	0.284198493102982	0.284198493102982	0.03620272125552336	0.03045027225777173	-0.2680167750342588	-0.1201418597009335	-0.001961758793468467	-0.4972397623468746	0.1665238827903068	-0.0009235885665989656	-2.36653491329914	0.5203001075775749	-0.2642304649169997	-2.471810142974913	0.3431714564254351	-7.066508516977328e-05	1.065037620066819	-0.1567107913557085	0.02207443069415005	-3.562666927799087	-3.562666927799087	-3.664500406373641	-3.664500406373641	-1.34356141328731	-1.102009230070915	0.01012259070723582	0.01008734745042078	0.01007057646616065	0.0100709379583743	0.01007478595431371	0.01014554341520258	0.01024675362545393	0.0299145792939018	0.06219953640878564	0.03385521850161071	0.01089057288306984	0.01044854442494538	0.01812821531877341	0.01028355751392162	0.02638063478195705	0.02132448588779381	0.009998643630296447	0.2020839055580097	0.06387149376387385	0.04428131707019212	0.06559186017567883	0.05862250853004466	0.01861960003340245	0.01015178719906179	0.02315544326230962	0.01091960707952165	0.01049860256915509	0.01326223341243644	0.01457993505839895	0.04624722329880823	0.06648354926934855	0.01314293013869045	0.01033713185221725	0.01081707375667869	0.1166223088630705	0.1814046311001952	0.01039796968369532	0.008939548024355854	0.01188031594715559	0.006897508909712774
21.7869	-0.5218398585860455	-0.1566715244224458	3.14159020503525	-3.484443365872161	1.050415576147388	2.478833874300031	-0.4581299508433899	-0.2361843394085207	-0.3326153322900048	-0.4446263640389438	0.03401540922839873	-0.09958190973136279	-1.002477871555401	-0.1157874883797168	0.03511033237521413	0.1580748852802622	0.1580748852802622	0.1643484651906383	0.1643484651906383	-0.0095088263009587	-0.005288004495590568	-0.2093519312755934	-0.05223064937619522	-0.003799808694593464	-0.4840841876451479	0.03834308446496704	-3.905785864320906e-05	-2.087040469804029	0.604043301395867	-0.170522479011766	-2.42233723019558	0.2624780819180415	0.01627855678831217	1.081126675685627	-0.1040450388345194	-0.002919977832347296	-3.490196265320843	-3.490196265320843	-3.620989763181968	-3.620989763181968	-1.411232220926614	-1.063111970651263	0.01013093023023392	0.01009114614224571	0.01010001740323183	0.01012944755053222	0.01009264877538624	0.01015972424332359	0.01026955215990272	0.0422478062391292	0.06023673730432335	0.02779321983467611	0.01084197434052489	0.01038494498822012	0.03542490534274898	0.01029234015837587	0.03327365475536226	0.02918392839182111	0.01001320045527143	0.1928833528503732	0.06268954234175893	0.0379269554001441	0.07161292432686622	0.05836794229141322	0.01907633147181855	0.01015858530269043	0.05021186039704688	0.0108117536127237	0.01048270144797738	0.009936135264974713	0.03860223078221857	0.03091022476362508	0.05528878896665378	0.015517490846967	0.01034443477286496	0.01545201159774566	0.1066048899039854	0.2080605063324848	0.01029515699398081	0.008955657546216945	0.0249904478647299	0.007332291393616892
21.82	-0.5279276847996653	-0.1573029965715662	3.14159175024536	-3.500287075810856	1.050097462129936	2.478850763309155	-0.5235977930446315	-0.2151162623446972	-0.3368340178411986	-0.523594820849145	0.04115955516446143	-0.09847307116884628	-0.9663914198396879	-0.1183579694212793	0.035009470543272	0.04344131756840627	0.04344131756840627	0.04583232691865848	0.04583232691865848	-0.05593036524241896	-0.04021483446309183	-0.194984227367374	0.02908777199811761	-0.008185338271898724	-0.4564909112982994	-0.0633233331271721	6.271228858954894e-06	-1.840969950050049	0.7048832606587849	-0.1269187330501893	-2.378600416785637	0.1868800547125527	0.02393836296056221	1.013698641211461	-0.03314238549303395	-0.009215971996537051	-3.442977489191159	-3.442977489191159	-3.578955305385003	-3.578955305385003	-1.542339574952473	-1.044573605313212	0.01013646504553878	0.01008899603354258	0.01015420651527008	0.0102442792701534	0.01012259774728855	0.01014019175119101	0.0108322627808548	0.05427788310526795	0.06079338576657006	0.01565380069977923	0.01074517162290192	0.01045989554862159	0.06935055424441253	0.01045813159335807	0.06549767359629262	0.06384338048487097	0.01010433297555389	0.1748384169432251	0.06735077057243166	0.01055435755126442	0.08921666404334519	0.06368000676240995	0.01475626440101579	0.01020035517217766	0.1048356753395377	0.0106393085440247	0.01069597612398824	0.0118144946529777	0.07723409807232147	0.0101596744219771	0.02773849578467999	0.01587768536315772	0.01066070638534139	0.02267252662864863	0.09519197904070154	0.2724881967678203	0.0102153122466242	0.01019001967711182	0.044571605428647	0.01116114389994458
