NormalizedFiberLength
version=1
nRows=51
nColumns=5
inDegrees=no

This analysis gathers basic information about muscles during a simulation (e.g., forces, tendon lengths, moment arms, etc).
Units are S.I. units (second, meters, Newtons, ...)
If the header above contains a line with 'inDegrees', this indicates whether rotational values are in degrees (yes) or radians (no).

endheader
time	recfem_r	vaslat_r	vasint_r	vasmed_r
     20.16500000	      1.12876799	      0.79898186	      0.78993948	      0.81037509
     20.19810000	      1.16976389	      0.83042485	      0.82255254	      0.83990024
     20.23120000	      1.20506649	      0.86108857	      0.85419903	      0.86855808
     20.26430000	      1.23313288	      0.89104857	      0.88532352	      0.89671333
     20.29740000	      1.25243349	      0.91984503	      0.91555468	      0.92400359
     20.33050000	      1.26232882	      0.94702295	      0.94443681	      0.94999736
     20.36360000	      1.26427410	      0.97310442	      0.97251471	      0.97527391
     20.39670000	      1.25922573	      0.99811470	      0.99982484	      0.99991375
     20.42980000	      1.24633453	      1.02081487	      1.02506814	      1.02267577
     20.46290000	      1.22566800	      1.04043681	      1.04738298	      1.04276637
     20.49600000	      1.19848296	      1.05691999	      1.06661292	      1.06007056
     20.52910000	      1.16689173	      1.07076033	      1.08319177	      1.07499442
     20.56220000	      1.13296517	      1.08318264	      1.09765478	      1.08811098
     20.59530000	      1.09812418	      1.09575562	      1.11143876	      1.10110697
     20.62840000	      1.06571619	      1.10845609	      1.12540457	      1.11442185
     20.66150000	      1.03753661	      1.12133185	      1.13957520	      1.12805792
     20.69460000	      1.01404453	      1.13431787	      1.15385400	      1.14188470
     20.72770000	      0.99540050	      1.14726456	      1.16805943	      1.15566993
     20.76080000	      0.98125464	      1.15989297	      1.18188088	      1.16906089
     20.79390000	      0.97083332	      1.17187075	      1.19496140	      1.18168209
     20.82700000	      0.96325578	      1.18292494	      1.20701511	      1.19325044
     20.86010000	      0.95786130	      1.19288196	      1.21786451	      1.20360336
     20.89320000	      0.95407605	      1.20150089	      1.22725337	      1.21253934
     20.92630000	      0.95136276	      1.20846546	      1.23483629	      1.21978462
     20.95940000	      0.94958943	      1.21364781	      1.24047594	      1.22519085
     20.99250000	      0.94848075	      1.21686284	      1.24397331	      1.22855114
     21.02560000	      0.94776420	      1.21791696	      1.24511976	      1.22965395
     21.05870000	      0.94723429	      1.21663627	      1.24372689	      1.22831418
     21.09180000	      0.94675989	      1.21290202	      1.23966450	      1.22441206
     21.12490000	      0.94633596	      1.20668342	      1.23289641	      1.21792853
     21.15800000	      0.94611095	      1.19800973	      1.22345085	      1.20891626
     21.19110000	      0.94664504	      1.18704506	      1.21150499	      1.19754206
     21.22420000	      0.94959803	      1.17440477	      1.19772580	      1.18434090
     21.25730000	      0.95647127	      1.16053948	      1.18258758	      1.16974428
     21.29040000	      0.96877824	      1.14592202	      1.16658803	      1.15424232
     21.32350000	      0.98757830	      1.13097279	      1.15017831	      1.13832015
     21.35660000	      1.01303776	      1.11591326	      1.13361199	      1.12230647
     21.38970000	      1.04456696	      1.10074467	      1.11692159	      1.10631764
     21.42280000	      1.08059148	      1.08533849	      1.10001400	      1.09032416
     21.45590000	      1.11568810	      1.06974418	      1.08195917	      1.07388461
     21.48900000	      1.14721328	      1.05174187	      1.06051679	      1.05458471
     21.52210000	      1.17203827	      1.02957561	      1.03496466	      1.03158869
     21.55520000	      1.18720630	      1.00268260	      1.00486405	      1.00446081
     21.58830000	      1.19176255	      0.97162708	      0.97091435	      0.97383127
     21.62140000	      1.18724412	      0.93826254	      0.93508646	      0.94158732
     21.65450000	      1.17232151	      0.90229296	      0.89708753	      0.90734240
     21.68760000	      1.14679651	      0.86373113	      0.85693256	      0.87103210
     21.72070000	      1.11292345	      0.82381016	      0.81572070	      0.83371158
     21.75380000	      1.07197640	      0.78308960	      0.77323466	      0.79529958
     21.78690000	      1.02592483	      0.74266603	      0.72938869	      0.75615634
     21.82000000	      0.97708012	      0.70399420	      0.68436880	      0.71708936
