Moment_knee_angle_r
version=1
nRows=51
nColumns=5
inDegrees=no

This analysis gathers basic information about muscles during a simulation (e.g., forces, tendon lengths, moment arms, etc).
Units are S.I. units (second, meters, Newtons, ...)
If the header above contains a line with 'inDegrees', this indicates whether rotational values are in degrees (yes) or radians (no).

endheader
time	recfem_r	vaslat_r	vasint_r	vasmed_r
     20.16500000	    -22.69020239	     -7.71452144	     -4.38898468	     -7.48266511
     20.19810000	    -23.31470512	     -9.02655239	     -3.75925964	     -5.01785873
     20.23120000	    -22.30443542	     -9.18702374	     -3.21799125	     -6.85652083
     20.26430000	    -19.66279726	     -9.56068016	     -2.79046906	    -12.03318023
     20.29740000	    -17.12234235	    -12.53037944	     -2.62722649	    -15.27715133
     20.33050000	    -16.64045916	    -18.38396253	     -2.98697324	    -14.08422470
     20.36360000	    -18.78618314	    -26.68625069	     -3.85905736	    -11.17008823
     20.39670000	    -21.96580327	    -38.70614369	     -4.43404737	     -8.81312302
     20.42980000	    -25.26197729	    -57.32047479	     -4.11556754	     -7.13523701
     20.46290000	    -29.53049694	    -78.85176158	     -3.78883849	     -6.69001924
     20.49600000	    -34.73715055	    -91.08328285	     -4.87086105	    -10.16109393
     20.52910000	    -38.21657446	    -86.27507710	     -7.36344081	    -17.70611052
     20.56220000	    -35.06214629	    -78.31604780	     -9.44631723	    -24.93274908
     20.59530000	    -25.40926530	    -65.65385594	    -10.96420061	    -28.43499433
     20.62840000	    -15.00037333	    -56.93394288	    -10.91198092	    -25.24504556
     20.66150000	     -5.62328820	    -56.47654107	    -10.64120613	    -20.61495339
     20.69460000	     -1.79131988	    -62.23546705	    -10.69662887	    -18.83021403
     20.72770000	     -3.88459077	    -69.48892702	    -10.56780779	    -19.38362974
     20.76080000	    -10.57519173	    -72.37862750	    -10.26590391	    -20.02142268
     20.79390000	    -21.04377075	    -67.47620761	    -10.73722520	    -20.37564042
     20.82700000	    -34.00366148	    -57.50004681	    -12.16962611	    -20.92745993
     20.86010000	    -47.06552508	    -49.28311990	    -13.31425043	    -20.99916951
     20.89320000	    -56.47427744	    -45.38360686	    -12.68195067	    -19.14324968
     20.92630000	    -63.81358261	    -44.89539633	    -11.26340064	    -16.46794571
     20.95940000	    -70.52594882	    -43.55902802	    -10.57214099	    -14.86825314
     20.99250000	    -76.73196599	    -39.90919804	    -11.06790643	    -15.22118215
     21.02560000	    -81.98006986	    -36.32192947	    -11.79875407	    -16.44873369
     21.05870000	    -85.46121715	    -35.67731998	    -11.75085159	    -16.92269023
     21.09180000	    -85.93819656	    -38.35352956	    -11.20690861	    -16.51820232
     21.12490000	    -82.37414237	    -42.88624481	    -11.20244449	    -16.57970790
     21.15800000	    -74.96901667	    -48.63388215	    -12.01196688	    -18.10037194
     21.19110000	    -62.36851547	    -54.44291533	    -12.43238845	    -19.99312355
     21.22420000	    -47.42543070	    -60.26260847	    -11.96523953	    -20.90366677
     21.25730000	    -31.79550251	    -64.70622642	    -11.12798174	    -20.55082195
     21.29040000	    -17.21514874	    -66.48051786	    -10.56852214	    -19.95102282
     21.32350000	     -8.66991678	    -68.43815674	    -10.36563262	    -20.42815070
     21.35660000	    -11.03187082	    -75.47890487	    -10.03628940	    -22.22158518
     21.38970000	    -22.36518882	    -87.00320889	     -9.18417905	    -24.20163518
     21.42280000	    -35.97638724	    -94.75825969	     -7.96407816	    -24.67285893
     21.45590000	    -43.13961468	    -91.85238595	     -7.52915571	    -24.53011415
     21.48900000	    -37.67346650	    -88.98123188	     -6.86381092	    -21.90826682
     21.52210000	    -28.22720629	    -76.16222358	     -5.61447096	    -15.90505398
     21.55520000	    -22.92365813	    -58.78030865	     -4.16805601	     -9.66903672
     21.58830000	    -21.69978352	    -40.31834718	     -3.40953041	     -6.90299123
     21.62140000	    -21.08229432	    -24.66411413	     -3.50725617	     -7.53482650
     21.65450000	    -20.36634613	    -14.13623974	     -3.68759761	     -8.26794546
     21.68760000	    -19.05226901	     -7.81361208	     -3.15084228	     -6.54135055
     21.72070000	    -17.49106535	     -5.50722693	     -2.33296114	     -3.88106397
     21.75380000	    -15.02042608	     -6.60378149	     -1.83792504	     -2.37057528
     21.78690000	    -10.78381200	    -10.66572735	     -1.70016550	     -2.22082726
     21.82000000	     -5.44551857	    -16.01095647	     -1.70622724	     -2.62443244
