Joint Reaction Loads
version=1
nRows=51
nColumns=10
inDegrees=no

This file contains the reaction forces and moments
applied to the specified body of a joint pair and expressed  in the specified reference frame.

Units are S.I. units (seconds, meters, Newtons, ...)
endheader
time	patellofemoral_r_on_patella_r_in_patella_r_fx	patellofemoral_r_on_patella_r_in_patella_r_fy	patellofemoral_r_on_patella_r_in_patella_r_fz	patellofemoral_r_on_patella_r_in_patella_r_mx	patellofemoral_r_on_patella_r_in_patella_r_my	patellofemoral_r_on_patella_r_in_patella_r_mz	patellofemoral_r_on_patella_r_in_patella_r_px	patellofemoral_r_on_patella_r_in_patella_r_py	patellofemoral_r_on_patella_r_in_patella_r_pz
     20.16500000	    581.38571735	    -82.29169177	    -36.92261973	     -5.60101425	      0.66889278	    -13.42998497	      0.00000000	      0.00000000	      0.00000000
     20.19810000	    627.31555856	    -63.94698582	    -14.45312755	     -4.70414206	      1.28610735	    -16.46039167	      0.00000000	      0.00000000	      0.00000000
     20.23120000	    703.49760460	    -37.90877465	      2.12795114	     -5.29916144	      0.87207969	    -20.23251373	      0.00000000	      0.00000000	      0.00000000
     20.26430000	    840.24177036	     -1.96058455	     13.88214476	     -7.24230928	     -0.51982325	    -25.67143452	      0.00000000	      0.00000000	      0.00000000
     20.29740000	   1035.31781887	     56.81415327	     27.82953712	     -8.97915578	     -0.93146052	    -33.56092739	      0.00000000	      0.00000000	      0.00000000
     20.33050000	   1266.08227372	    148.96476846	     51.00000425	     -9.66409793	      1.28702694	    -43.83928603	      0.00000000	      0.00000000	      0.00000000
     20.36360000	   1573.95834225	    286.74225360	     88.02885787	    -10.33222148	      5.73400785	    -57.85486915	      0.00000000	      0.00000000	      0.00000000
     20.39670000	   2106.25683664	    519.99340962	    146.07286650	    -12.77959635	     12.63736415	    -80.90734033	      0.00000000	      0.00000000	      0.00000000
     20.42980000	   3046.24328688	    951.39527450	    242.38842901	    -18.63454508	     24.80309319	   -120.67534628	      0.00000000	      0.00000000	      0.00000000
     20.46290000	   4434.00803422	   1665.93674174	    398.60115804	    -28.78599586	     41.67795619	   -179.69103865	      0.00000000	      0.00000000	      0.00000000
     20.49600000	   5976.90009698	   2595.43559244	    608.38690026	    -41.08815185	     53.71862634	   -246.54058925	      0.00000000	      0.00000000	      0.00000000
     20.52910000	   7076.02207326	   3456.35393415	    805.97702031	    -49.66106988	     50.89418907	   -296.04110161	      0.00000000	      0.00000000	      0.00000000
     20.56220000	   7064.63611189	   3631.68273678	    925.91709119	    -45.53418675	     34.65921194	   -301.03307530	      0.00000000	      0.00000000	      0.00000000
     20.59530000	   5988.57492476	   3114.90275521	    898.97638396	    -36.25720869	     20.57454619	   -259.73382379	      0.00000000	      0.00000000	      0.00000000
     20.62840000	   4581.71644472	   2352.65774330	    766.51130100	    -27.60899446	     16.00314771	   -201.87214756	      0.00000000	      0.00000000	      0.00000000
     20.66150000	   3620.45453037	   1831.75534901	    662.93036106	    -22.39865751	     17.72461292	   -161.54891087	      0.00000000	      0.00000000	      0.00000000
     20.69460000	   3311.49589152	   1660.79830640	    668.55565188	    -20.20745627	     20.30378488	   -149.80524513	      0.00000000	      0.00000000	      0.00000000
     20.72770000	   3351.79549776	   1684.28664530	    747.31508404	    -19.11315005	     21.49996933	   -154.00418035	      0.00000000	      0.00000000	      0.00000000
     20.76080000	   3404.23006173	   1731.47440172	    825.23666203	    -17.64509946	     20.42492194	   -158.81224929	      0.00000000	      0.00000000	      0.00000000
     20.79390000	   3378.37436159	   1754.64423072	    873.48198089	    -15.60230471	     16.41483302	   -159.89602500	      0.00000000	      0.00000000	      0.00000000
     20.82700000	   3346.34975265	   1785.29844431	    907.33160966	    -13.55555742	     10.80779123	   -160.46796393	      0.00000000	      0.00000000	      0.00000000
     20.86010000	   3370.78830098	   1849.57477725	    944.60353987	    -12.09841343	      6.74105208	   -163.30004990	      0.00000000	      0.00000000	      0.00000000
     20.89320000	   3443.29858632	   1936.82824262	    987.71199814	    -11.33963328	      5.95344887	   -167.97982085	      0.00000000	      0.00000000	      0.00000000
     20.92630000	   3531.94664111	   2024.44260490	   1032.08754127	    -10.98558066	      7.01860975	   -173.17912501	      0.00000000	      0.00000000	      0.00000000
     20.95940000	   3622.81002768	   2104.87065420	   1074.25253729	    -10.65996740	      7.18934124	   -178.34588987	      0.00000000	      0.00000000	      0.00000000
     20.99250000	   3717.27389883	   2178.22330391	   1112.89258752	    -10.30707102	      5.44698176	   -183.55458852	      0.00000000	      0.00000000	      0.00000000
     21.02560000	   3813.57906688	   2243.61102514	   1147.03285635	    -10.06938294	      3.30565835	   -188.69142270	      0.00000000	      0.00000000	      0.00000000
     21.05870000	   3896.76477103	   2292.70957629	   1171.49759126	    -10.12717006	      2.76605585	   -192.99759681	      0.00000000	      0.00000000	      0.00000000
     21.09180000	   3946.98517083	   2311.52593688	   1178.89884756	    -10.51780815	      4.04528165	   -195.40585659	      0.00000000	      0.00000000	      0.00000000
     21.12490000	   3958.23527276	   2291.27216580	   1165.97977757	    -11.20243922	      5.85853644	   -195.46202390	      0.00000000	      0.00000000	      0.00000000
     21.15800000	   3948.19586699	   2238.48870669	   1138.50831887	    -12.18730703	      7.41661059	   -193.94184899	      0.00000000	      0.00000000	      0.00000000
     21.19110000	   3943.10406548	   2172.91090123	   1104.13862116	    -13.55984161	      9.31003790	   -192.16485378	      0.00000000	      0.00000000	      0.00000000
     21.22420000	   3930.44627883	   2106.04482128	   1053.79357170	    -15.28628597	     12.36013257	   -189.43167403	      0.00000000	      0.00000000	      0.00000000
     21.25730000	   3853.41785952	   2014.94199488	    967.52889682	    -17.21128149	     16.18782060	   -182.87425875	      0.00000000	      0.00000000	      0.00000000
     21.29040000	   3751.57913423	   1923.07311024	    855.05912029	    -19.46898243	     19.66634452	   -174.30276431	      0.00000000	      0.00000000	      0.00000000
     21.32350000	   3920.04709643	   1989.44353465	    787.55711694	    -23.13697032	     23.07242395	   -177.76736810	      0.00000000	      0.00000000	      0.00000000
     21.35660000	   4785.43955480	   2446.80971467	    844.07185485	    -30.02800936	     28.74290157	   -212.65887651	      0.00000000	      0.00000000	      0.00000000
     21.38970000	   6352.53718557	   3298.46136252	    987.26541475	    -40.49560844	     37.75039763	   -277.19494863	      0.00000000	      0.00000000	      0.00000000
     21.42280000	   7766.04188081	   4012.70113364	   1034.43919011	    -51.19648372	     46.45616630	   -331.70440712	      0.00000000	      0.00000000	      0.00000000
     21.45590000	   7821.79111223	   3766.31391732	    888.44256729	    -53.99005515	     48.89397995	   -326.49497676	      0.00000000	      0.00000000	      0.00000000
     21.48900000	   6315.14776656	   2581.85031676	    622.93197686	    -42.44782209	     41.40504844	   -257.91699845	      0.00000000	      0.00000000	      0.00000000
     21.52210000	   4359.60335871	   1464.24188617	    353.52711913	    -28.56398363	     31.21795699	   -173.04492651	      0.00000000	      0.00000000	      0.00000000
     21.55520000	   2809.83228352	    736.55978441	    181.82850037	    -17.36816344	     21.55064371	   -108.07319162	      0.00000000	      0.00000000	      0.00000000
     21.58830000	   1867.53633701	    345.87995970	     96.36327089	    -10.86824606	     12.88846816	    -69.09135256	      0.00000000	      0.00000000	      0.00000000
     21.62140000	   1311.75690135	    135.77712325	     50.77499692	     -8.03252171	      5.89719839	    -45.60696723	      0.00000000	      0.00000000	      0.00000000
     21.65450000	    914.31850355	     20.48271608	     21.27793664	     -6.46072904	      1.81817492	    -29.12039677	      0.00000000	      0.00000000	      0.00000000
     21.68760000	    617.41835931	    -33.04880287	      3.93071094	     -4.76120777	      0.54158238	    -17.66823451	      0.00000000	      0.00000000	      0.00000000
     21.72070000	    426.85650949	    -50.67943971	     -7.22026777	     -3.20293794	      0.62292527	    -10.79726449	      0.00000000	      0.00000000	      0.00000000
     21.75380000	    332.75443677	    -50.65296292	    -23.61611234	     -2.48779504	      1.11906581	     -7.53104867	      0.00000000	      0.00000000	      0.00000000
     21.78690000	    309.20373554	    -42.08449179	    -53.97176033	     -2.70790610	      1.96339576	     -6.78713117	      0.00000000	      0.00000000	      0.00000000
     21.82000000	    324.88771970	    -21.87130282	    -98.31752642	     -3.55503843	      3.19220945	     -7.95982231	      0.00000000	      0.00000000	      0.00000000
