PennationAngle
version=1
nRows=51
nColumns=5
inDegrees=no

This analysis gathers basic information about muscles during a simulation (e.g., forces, tendon lengths, moment arms, etc).
Units are S.I. units (second, meters, Newtons, ...)
If the header above contains a line with 'inDegrees', this indicates whether rotational values are in degrees (yes) or radians (no).

endheader
time	recfem_r	vaslat_r	vasint_r	vasmed_r
     20.16500000	      0.19192883	      0.31848159	      0.07991122	      0.53016761
     20.19810000	      0.18512306	      0.30602299	      0.07673649	      0.50968438
     20.23120000	      0.17963983	      0.29479164	      0.07388826	      0.49133523
     20.26430000	      0.17550816	      0.28459791	      0.07128615	      0.47460795
     20.29740000	      0.17277604	      0.27545185	      0.06892852	      0.45949179
     20.33050000	      0.17140818	      0.26734986	      0.06681740	      0.44599731
     20.36360000	      0.17114183	      0.26001581	      0.06488553	      0.43364166
     20.39670000	      0.17183478	      0.25335540	      0.06311080	      0.42226128
     20.42980000	      0.17363010	      0.24760199	      0.06155464	      0.41228354
     20.46290000	      0.17658830	      0.24283741	      0.06024160	      0.40387267
     20.49600000	      0.18063747	      0.23897584	      0.05915422	      0.39690683
     20.52910000	      0.18558401	      0.23582793	      0.05824780	      0.39109490
     20.56220000	      0.19120900	      0.23307300	      0.05747946	      0.38612950
     20.59530000	      0.19735436	      0.23035004	      0.05676583	      0.38133592
     20.62840000	      0.20343871	      0.22766388	      0.05606065	      0.37654988
     20.66150000	      0.20904490	      0.22500441	      0.05536281	      0.37177453
     20.69460000	      0.21396217	      0.22238490	      0.05467702	      0.36705758
     20.72770000	      0.21803383	      0.21983385	      0.05401141	      0.36247536
     20.76080000	      0.22122894	      0.21740174	      0.05337917	      0.35813503
     20.79390000	      0.22364387	      0.21514454	      0.05279431	      0.35414048
     20.82700000	      0.22543348	      0.21310291	      0.05226661	      0.35055840
     20.86010000	      0.22672522	      0.21129706	      0.05180057	      0.34741493
     20.89320000	      0.22764058	      0.20975861	      0.05140393	      0.34474765
     20.92630000	      0.22830131	      0.20853185	      0.05108799	      0.34261556
     20.95940000	      0.22873525	      0.20762836	      0.05085552	      0.34104211
     20.99250000	      0.22900739	      0.20707181	      0.05071242	      0.34007154
     21.02560000	      0.22918362	      0.20688998	      0.05066569	      0.33975425
     21.05870000	      0.22931413	      0.20711093	      0.05072248	      0.34013980
     21.09180000	      0.22943109	      0.20775790	      0.05088884	      0.34126787
     21.12490000	      0.22953571	      0.20884437	      0.05116844	      0.34315918
     21.15800000	      0.22959128	      0.21037904	      0.05156383	      0.34582404
     21.19110000	      0.22945942	      0.21235191	      0.05207273	      0.34924830
     21.22420000	      0.22873314	      0.21467305	      0.05267235	      0.35331058
     21.25730000	      0.22706050	      0.21727869	      0.05334724	      0.35791638
     21.29040000	      0.22412639	      0.22009565	      0.05407960	      0.36294445
     21.32350000	      0.21978903	      0.22305376	      0.05485193	      0.36826183
     21.35660000	      0.21417812	      0.22611593	      0.05565434	      0.37377345
     21.38970000	      0.20761731	      0.22928726	      0.05648688	      0.37944814
     21.42280000	      0.20059974	      0.23260150	      0.05735605	      0.38530443
     21.45590000	      0.19420748	      0.23605619	      0.05831423	      0.39152107
     21.48900000	      0.18880542	      0.24017550	      0.05949466	      0.39908822
     21.52210000	      0.18475967	      0.24545157	      0.06096531	      0.40850796
     21.55520000	      0.18237244	      0.25217603	      0.06279389	      0.42022834
     21.58830000	      0.18166742	      0.26042034	      0.06499263	      0.43432771
     21.62140000	      0.18236656	      0.26990819	      0.06748655	      0.45027221
     21.65450000	      0.18471452	      0.28095421	      0.07034978	      0.46859855
     21.68760000	      0.18887486	      0.29386280	      0.07365214	      0.48981597
     21.72070000	      0.19469610	      0.30856088	      0.07738045	      0.51383827
     21.75380000	      0.20223414	      0.32518018	      0.08164141	      0.54131503
     21.78690000	      0.21144664	      0.34358945	      0.08656109	      0.57273975
     21.82000000	      0.22218996	      0.36331394	      0.09227106	      0.60828545
