NormalizedFiberLength
version=1
nRows=51
nColumns=5
inDegrees=no

This analysis gathers basic information about muscles during a simulation (e.g., forces, tendon lengths, moment arms, etc).
Units are S.I. units (second, meters, Newtons, ...)
If the header above contains a line with 'inDegrees', this indicates whether rotational values are in degrees (yes) or radians (no).

endheader
time	recfem_r	vaslat_r	vasint_r	vasmed_r
    144.16800000	      0.95335149	      0.79612031	      0.80720241	      0.83395823
    144.18304000	      0.95117555	      0.79763187	      0.80907283	      0.83558069
    144.19808000	      0.95472654	      0.80582111	      0.81910280	      0.84431883
    144.21312000	      0.97407757	      0.82575797	      0.84286585	      0.86525339
    144.22816000	      1.01471829	      0.85952664	      0.88138753	      0.89976197
    144.24320000	      1.07526198	      0.90522344	      0.93099170	      0.94493588
    144.25824000	      1.14831168	      0.95732062	      0.98543932	      0.99496855
    144.27328000	      1.22354960	      1.00922138	      1.03894272	      1.04406742
    144.28832000	      1.29223713	      1.05712482	      1.08873832	      1.08951658
    144.30336000	      1.34690053	      1.09863574	      1.13259780	      1.12926340
    144.31840000	      1.38569287	      1.13413902	      1.17081156	      1.16371425
    144.33344000	      1.41091328	      1.16487599	      1.20454098	      1.19411085
    144.34848000	      1.42390977	      1.18946263	      1.23219529	      1.21896594
    144.36352000	      1.42849771	      1.20775090	      1.25337061	      1.23795146
    144.37856000	      1.42782724	      1.22058181	      1.26866040	      1.25165948
    144.39360000	      1.42173579	      1.22962168	      1.27888913	      1.26084173
    144.40864000	      1.40734949	      1.23528404	      1.28473816	      1.26609922
    144.42368000	      1.38175659	      1.23730024	      1.28673041	      1.26789131
    144.43872000	      1.34416993	      1.23577412	      1.28522656	      1.26653850
    144.45376000	      1.29643182	      1.23100149	      1.28035079	      1.26215504
    144.46880000	      1.24210121	      1.22330084	      1.27186326	      1.25453325
    144.48384000	      1.18494361	      1.21250620	      1.25899058	      1.24298869
    144.49888000	      1.12761951	      1.19648674	      1.24025443	      1.22619450
    144.51392000	      1.07120694	      1.17305699	      1.21365953	      1.20231635
    144.52896000	      1.01606283	      1.14055780	      1.17779790	      1.17001205
    144.54400000	      0.96447529	      1.10019760	      1.13426437	      1.13076776
    144.55904000	      0.91515481	      1.05205822	      1.08343552	      1.08469032
    144.57408000	      0.86827819	      0.99870123	      1.02809160	      1.03412997
    144.58912000	      0.82743649	      0.94647439	      0.97421196	      0.98464271
    144.60416000	      0.79510394	      0.90116243	      0.92667247	      0.94097953
    144.61920000	      0.77477343	      0.86769331	      0.89043603	      0.90795103
    144.63424000	      0.76932626	      0.84833105	      0.86882575	      0.88844152
    144.64928000	      0.78101116	      0.84382726	      0.86371703	      0.88385511
    144.66432000	      0.81034454	      0.85375800	      0.87493869	      0.89394302
    144.67936000	      0.85417131	      0.87538874	      0.89888130	      0.91561775
    144.69440000	      0.90503843	      0.90259190	      0.92819447	      0.94237329
    144.70944000	      0.95339996	      0.92706349	      0.95400120	      0.96605668
    144.72448000	      0.99115238	      0.94171689	      0.96927440	      0.98010106
    144.73952000	      1.01366578	      0.94310938	      0.97072053	      0.98143122
    144.75456000	      1.01958073	      0.93129897	      0.95842721	      0.97012543
    144.76960000	      1.01013923	      0.90879146	      0.93477504	      0.94840393
    144.78464000	      0.98910497	      0.87990515	      0.90380365	      0.92009593
    144.79968000	      0.96269138	      0.85019003	      0.87092489	      0.89032907
    144.81472000	      0.93888803	      0.82540433	      0.84245167	      0.86488595
    144.82976000	      0.92588369	      0.81023204	      0.82443662	      0.84899052
    144.84480000	      0.93004543	      0.80751163	      0.82115249	      0.84611211
    144.85984000	      0.95499486	      0.81871031	      0.83456399	      0.85790506
    144.87488000	      1.00131939	      0.84436146	      0.86432472	      0.88440011
    144.88992000	      1.06598698	      0.88322246	      0.90740393	      0.92337550
    144.90496000	      1.14253875	      0.93124863	      0.95837467	      0.97007712
    144.92000000	      1.22185745	      0.98151853	      1.01039305	      1.01789732
