FiberActivePower
version=1
nRows=51
nColumns=5
inDegrees=no

This analysis gathers basic information about muscles during a simulation (e.g., forces, tendon lengths, moment arms, etc).
Units are S.I. units (second, meters, Newtons, ...)
If the header above contains a line with 'inDegrees', this indicates whether rotational values are in degrees (yes) or radians (no).

endheader
time	recfem_r	vaslat_r	vasint_r	vasmed_r
    144.16800000	      0.87235896	      4.64177112	      1.51786052	      2.38559409
    144.18304000	     -0.37211406	     -5.15551735	     -1.76621452	     -2.69975144
    144.19808000	     -1.49316994	    -11.46773301	     -4.14582223	     -6.12940531
    144.21312000	     -5.07067245	    -15.62432266	     -5.92980736	     -8.47774409
    144.22816000	    -20.58557090	    -19.52053438	     -7.49761622	    -10.51539460
    144.24320000	    -55.63925201	    -24.37001815	     -8.98793687	    -12.63544876
    144.25824000	    -93.60961366	    -27.95886060	     -9.79437010	    -13.86408692
    144.27328000	   -103.86452970	    -28.24162148	     -9.65967674	    -13.67892049
    144.28832000	    -77.44087294	    -25.21989612	     -8.64990409	    -12.21511254
    144.30336000	    -38.10054831	    -20.35024594	     -7.08120172	     -9.94102686
    144.31840000	    -13.45551029	    -16.74758276	     -5.93824978	     -8.34411592
    144.33344000	     -3.94933735	    -13.14289488	     -4.75731917	     -6.70301348
    144.34848000	     -2.03867349	     -9.43975702	     -3.48457683	     -4.92209123
    144.36352000	     -0.89161627	     -6.50682823	     -2.42780227	     -3.45446187
    144.37856000	      2.27771814	     -4.34449558	     -1.60656928	     -2.31174805
    144.39360000	      9.97749387	     -3.01511779	     -0.96556819	     -1.40557120
    144.40864000	     21.88948615	     -1.48101026	     -0.44756160	     -0.65582810
    144.42368000	     31.98882225	     -0.06899489	     -0.02162143	     -0.03154920
    144.43872000	     34.55384295	      0.96209388	      0.33466402	      0.48035063
    144.45376000	     28.93154259	      1.82294758	      0.66862332	      0.94553174
    144.46880000	     18.71627625	      3.43472437	      1.09585796	      1.58275382
    144.48384000	      9.05051480	      7.85667110	      1.83128525	      2.84635573
    144.49888000	      3.41930682	     17.72006026	      3.13523280	      5.33705454
    144.51392000	      1.95056818	     32.93697378	      5.01178258	      9.16965316
    144.52896000	      2.68837865	     46.44945249	      6.73607621	     12.80267469
    144.54400000	      3.74826873	     48.81051056	      7.34738739	     13.98266103
    144.55904000	      4.60618034	     40.30114220	      6.84874825	     12.66133863
    144.57408000	      5.04969633	     25.25828161	      5.50397811	      9.40030946
    144.58912000	      4.78105994	     14.17203617	      4.38022148	      6.77542048
    144.60416000	      3.18377362	      9.38227659	      3.73522840	      5.51653228
    144.61920000	      0.77375709	      6.65718308	      3.01526668	      4.46647523
    144.63424000	      0.11252305	      2.99137001	      1.59919527	      2.34067237
    144.64928000	      1.27635267	     -0.69328348	     -0.41235919	     -0.56777660
    144.66432000	     -8.68428637	     -5.71078917	     -2.14770946	     -2.63362500
    144.67936000	    -50.96495201	    -20.83464154	     -3.43208936	     -4.10051855
    144.69440000	   -114.97764111	    -46.70510272	     -5.28563247	     -7.82485255
    144.70944000	   -146.31724260	    -56.84757500	     -6.63990232	    -11.70967429
    144.72448000	   -115.17187073	    -28.54639472	     -3.89278309	     -7.44531737
    144.73952000	    -51.23474181	     18.51655853	      2.98982286	      5.93485139
    144.75456000	      6.81775815	     46.87804057	      8.92696290	     17.97506019
    144.76960000	     43.07389492	     43.33747593	      9.87490177	     19.68114954
    144.78464000	     53.70034252	     23.55685151	      6.86472688	     12.91488771
    144.79968000	     40.93444390	      7.98840151	      3.51428118	      5.58216893
    144.81472000	     17.84956497	      2.88816449	      1.79669238	      2.16769766
    144.82976000	      1.85619261	      1.95778081	      0.93552484	      1.11736708
    144.84480000	     -1.10137177	     -1.64887371	     -0.65924654	     -0.87761923
    144.85984000	     -0.36988320	     -8.95042484	     -3.39863040	     -4.79729179
    144.87488000	     -5.64158642	    -17.17557815	     -6.38700342	     -9.22425072
    144.88992000	    -14.22741454	    -23.69044750	     -8.59133832	    -12.46060858
    144.90496000	    -17.77662387	    -27.57903061	     -9.68409904	    -13.95788584
    144.92000000	    -15.09807462	    -28.85059791	     -9.89320543	    -14.06576229
