PennationAngle
version=1
nRows=51
nColumns=5
inDegrees=no

This analysis gathers basic information about muscles during a simulation (e.g., forces, tendon lengths, moment arms, etc).
Units are S.I. units (second, meters, Newtons, ...)
If the header above contains a line with 'inDegrees', this indicates whether rotational values are in degrees (yes) or radians (no).

endheader
time	recfem_r	vaslat_r	vasint_r	vasmed_r
    143.77200000	      0.19987255	      0.28859085	      0.06990901	      0.46219188
    143.78824000	      0.20056131	      0.29117596	      0.07055148	      0.46627468
    143.80448000	      0.20021614	      0.29177665	      0.07070167	      0.46722748
    143.82072000	      0.19763818	      0.28865384	      0.06992459	      0.46229105
    143.83696000	      0.19222204	      0.28103743	      0.06806281	      0.45040938
    143.85320000	      0.18440555	      0.26975435	      0.06536491	      0.43312065
    143.86944000	      0.17550238	      0.25702118	      0.06234992	      0.41383336
    143.88568000	      0.16681274	      0.24483079	      0.05942812	      0.39525255
    143.90192000	      0.15967914	      0.23464255	      0.05692999	      0.37949452
    143.91816000	      0.15449382	      0.22628094	      0.05482876	      0.36628794
    143.93440000	      0.15161641	      0.21957170	      0.05309515	      0.35539734
    143.95064000	      0.15151729	      0.21468306	      0.05178023	      0.34716495
    143.96688000	      0.15402189	      0.21088501	      0.05078619	      0.34093388
    143.98312000	      0.15863972	      0.20728830	      0.05000543	      0.33584657
    143.99936000	      0.16404212	      0.20437023	      0.04936374	      0.33157078
    144.01560000	      0.16866574	      0.20254126	      0.04895432	      0.32882912
    144.03184000	      0.17169780	      0.20203039	      0.04883901	      0.32805556
    144.04808000	      0.17349157	      0.20282601	      0.04901841	      0.32925888
    144.06432000	      0.17526497	      0.20470135	      0.04943728	      0.33206224
    144.08056000	      0.17829317	      0.20738781	      0.05002705	      0.33599001
    144.09680000	      0.18368902	      0.21063885	      0.05072983	      0.34057990
    144.11304000	      0.19202375	      0.21417698	      0.05164036	      0.34628934
    144.12928000	      0.20324428	      0.21881920	      0.05289637	      0.35415177
    144.14552000	      0.21728020	      0.22551300	      0.05463308	      0.36505701
    144.16176000	      0.23331531	      0.23413644	      0.05680418	      0.37870406
    144.17800000	      0.25109600	      0.24455263	      0.05936070	      0.39482540
    144.19424000	      0.27124369	      0.25674294	      0.06228385	      0.41341191
    144.21048000	      0.29204830	      0.26902753	      0.06519258	      0.43201605
    144.22672000	      0.31070239	      0.27928375	      0.06763968	      0.44770111
    144.24296000	      0.32235955	      0.28505430	      0.06903935	      0.45664981
    144.25920000	      0.32296194	      0.28490888	      0.06900380	      0.45642292
    144.27544000	      0.31234657	      0.27906718	      0.06758754	      0.44736728
    144.29168000	      0.29468715	      0.26947904	      0.06529962	      0.43270214
    144.30792000	      0.27555514	      0.25907799	      0.06283772	      0.41694684
    144.32416000	      0.25848827	      0.25013825	      0.06070769	      0.40337465
    144.34040000	      0.24489763	      0.24386290	      0.05919335	      0.39376556
    144.35664000	      0.23448584	      0.24044199	      0.05835963	      0.38849477
    144.37288000	      0.22610049	      0.23942410	      0.05811025	      0.38692163
    144.38912000	      0.21877593	      0.24019951	      0.05830028	      0.38812022
    144.40536000	      0.21215873	      0.24221510	      0.05879256	      0.39122970
    144.42160000	      0.20631207	      0.24502577	      0.05947535	      0.39555188
    144.43784000	      0.20134601	      0.24834454	      0.06027664	      0.40063558
    144.45408000	      0.19736215	      0.25218718	      0.06119844	      0.40649632
    144.47032000	      0.19458433	      0.25694633	      0.06233215	      0.41371999
    144.48656000	      0.19330362	      0.26314556	      0.06380045	      0.42310060
    144.50280000	      0.19358109	      0.27088170	      0.06563244	      0.43483567
    144.51904000	      0.19486599	      0.27920117	      0.06761980	      0.44757380
    144.53528000	      0.19581248	      0.28590740	      0.06924822	      0.45798234
    144.55152000	      0.19502393	      0.28884240	      0.06997126	      0.46258795
    144.56776000	      0.19205944	      0.28747744	      0.06963412	      0.46044188
    144.58400000	      0.18779053	      0.28343622	      0.06864466	      0.45412950
