ModelForces
version=1
nRows=51
nColumns=77
inDegrees=no

This file contains the forces exerted on a model during a simulation.

A force is a generalized force, meaning that it can be either a force (N) or a torque (Nm).

Units are S.I. units (second, meters, Newtons, ...)
If the header above contains a line with 'inDegrees', this indicates whether rotational values are in degrees (yes) or radians (no).

endheader
time	addbrev_r	addlong_r	addmagDist_r	addmagIsch_r	addmagMid_r	addmagProx_r	bflh_r	bfsh_r	edl_r	ehl_r	fdl_r	fhl_r	gaslat_r	gasmed_r	glmax1_r	glmax2_r	glmax3_r	glmed1_r	glmed2_r	glmed3_r	glmin1_r	glmin2_r	glmin3_r	grac_r	iliacus_r	perbrev_r	perlong_r	piri_r	psoas_r	recfem_r	sart_r	semimem_r	semiten_r	soleus_r	tfl_r	tibant_r	tibpost_r	vasint_r	vaslat_r	vasmed_r	pelvis_tx_residual	pelvis_ty_residual	pelvis_tz_residual	pelvis_tilt_residual	pelvis_list_residual	pelvis_rotation_residual	hip_flexion_r_reserve	hip_adduction_r_reserve	hip_rotation_r_reserve	knee_angle_r_reserve	ankle_angle_r_reserve	subtalar_angle_r_reserve	hip_flexion_l_torque	hip_adduction_l_torque	hip_rotation_l_torque	knee_angle_l_torque	ankle_angle_l_torque	subtalar_angle_l_torque	calcn_r_RightGRF_Fx	calcn_r_RightGRF_Fy	calcn_r_RightGRF_Fz	calcn_r_RightGRF_px	calcn_r_RightGRF_py	calcn_r_RightGRF_pz	calcn_r_RightGRF_Tx	calcn_r_RightGRF_Ty	calcn_r_RightGRF_Tz	calcn_l_LeftGRF_Fx	calcn_l_LeftGRF_Fy	calcn_l_LeftGRF_Fz	calcn_l_LeftGRF_px	calcn_l_LeftGRF_py	calcn_l_LeftGRF_pz	calcn_l_LeftGRF_Tx	calcn_l_LeftGRF_Ty	calcn_l_LeftGRF_Tz
    143.77200000	     20.30305233	    244.28367292	      7.54863949	      7.30637250	      7.87253465	      8.54510987	     15.91249382	     62.31647744	     12.77802804	      4.63743229	      6.24114812	     13.05178081	    996.36663658	     39.52533852	     12.07093832	     17.28780161	     11.88433319	    305.10123762	     52.33456468	      9.33817369	     72.39071309	     49.75350542	     21.57711280	     11.78262557	    556.29585133	     28.88239438	    129.89717440	      8.39432404	    637.11252510	    254.91517122	     34.88806141	     26.34288456	      8.40633040	    912.79770736	     97.67155694	     18.70355514	     23.50143183	     21.51546506	     64.00897768	     35.05287797	      7.01853777	   -193.46510183	     25.77905827	     20.38988266	    -19.72733053	     16.11827652	      0.05286468	     -0.02058095	      0.00069888	      0.04306517	     -0.00267522	     -0.00195659	    -47.64777840	     13.79295465	     -8.22064522	      3.89801662	      1.54087901	     -0.32917706	    143.45054812	    478.35444437	    -24.58305415	      0.23050054	      0.00209098	     -0.01018063	      0.00000715	     -6.63497829	      0.00001657	     -0.00000000	      0.00000000	     -0.00000000	     -0.58888014	     -0.61060366	      0.67947831	      0.00000000	      0.00000000	     -0.00000000
    143.78824000	     90.46640270	    348.97813199	      7.57875843	      7.32541698	      7.98365606	     58.93907204	     15.90290910	     38.08737862	     13.42649818	      5.35009125	      6.65964471	     13.39631853	    844.87904496	     32.58328140	     12.48886202	     17.77261512	     12.06967277	     18.71171143	     17.99248002	     32.97653761	     17.41797419	     26.01702160	     22.55898053	     23.95065619	    302.48391991	     10.39240295	     33.77510994	     79.37378810	    468.64940617	    335.29995389	     24.65055900	     26.05785890	      8.37425676	     71.90482559	     42.79188777	     20.69281628	     23.94706373	     21.94898126	     65.16128466	     35.70396859	      4.30576069	     -3.43716068	      8.63506856	      0.59020749	     -6.88201561	      0.29791564	      0.04190028	     -0.00692574	     -0.00301262	      0.02739751	     -0.00026887	     -0.00060772	    -54.37251573	     22.82872224	    -11.69529947	     13.67924182	      1.43290901	     -0.33527599	     86.80888753	    241.92804924	     -8.44139269	      0.23539918	     -0.00646709	     -0.00797949	      0.00000267	      2.49523787	      0.00001042	     -0.00000000	      0.00000000	     -0.00000000	     -0.71367081	     -0.53927612	      0.67728579	      0.00000000	      0.00000000	     -0.00000000
    143.80448000	    145.77331500	    449.37470179	      7.61005411	      7.35717910	     50.61936053	    115.51579002	     15.81038533	     32.32895678	     61.97058445	     14.99574708	      6.22155306	     12.16497284	     85.09468234	    635.27082397	     13.04860871	     18.48314996	     12.36464861	     13.03677919	      9.31275470	     23.21827980	      4.73497765	     10.65109063	     22.70656868	     35.25451045	    229.00025635	      6.33024668	     13.61689494	    159.19958181	    448.89880356	    322.51186040	     21.58521929	     25.43918601	      8.29335556	     53.77174180	     14.60438904	    323.07795823	     23.45449324	     22.83851501	     67.57222062	     37.01765542	      1.40912113	     47.74059666	     -5.93177915	     -1.49837515	      4.90133760	     -7.68599209	      0.04263439	      0.00049154	     -0.00441372	      0.02420519	      0.00792364	      0.00009500	    -58.49496936	     23.74942893	     -9.51183373	     24.18115665	      1.13064412	     -0.50804075	     37.05313610	    110.20574594	     -4.42604036	      0.26019496	      0.00373182	     -0.00048758	      0.00000192	      6.43215128	      0.00000489	     -0.00000000	      0.00000000	     -0.00000000	     -0.84040314	     -0.47092112	      0.64692136	      0.00000000	      0.00000000	     -0.00000000
    143.82072000	    169.10569244	    415.80946635	     47.53920519	      8.34353209	    113.61469322	    117.54752429	     15.57394143	      8.34173658	    485.93650377	     72.34059132	      6.11328148	     12.12678261	     13.70511905	   1368.56765263	     13.79448781	     19.49835747	     12.83618421	     13.85654844	     10.12792684	     11.39997680	      4.81943391	      5.33866223	      5.77655860	     25.58185510	    145.89842284	     64.88805080	    257.22922580	     13.31751884	    256.77566822	    547.55102512	      5.13031881	     24.23181766	      8.16258209	     50.84620336	      5.56968348	   1279.56983214	     23.94039395	     32.08526206	     94.11784793	     52.08494637	     -1.33726876	     61.10194973	    -22.63433642	     -4.70904792	     17.39492372	     -4.25074835	      0.02291655	      0.01050152	      0.00116759	     -0.00023459	      0.04370927	     -0.01172581	    -61.83626430	     18.90836873	     -4.83621479	     34.48675127	      0.29428501	     -0.46863623	      0.35184065	      0.92272960	      0.06439550	     -0.21933298	     -0.63076425	      0.11034349	      0.00000001	     -0.04899273	      0.00000003	     -0.00000000	      0.00000000	     -0.00000000	     -0.95971917	     -0.41329699	      0.58488539	      0.00000000	      0.00000000	     -0.00000000
    143.83696000	    141.79290399	    387.70061044	      7.75608871	      7.43934235	     69.57877345	    108.98164724	     15.02553269	     26.31650729	    361.83061104	     51.69736857	      6.31517688	     12.47050939	     12.96429175	    908.00600817	     14.64032746	     20.64407686	     13.21981369	     14.89770373	     11.14754485	     12.70076307	      5.09306728	      6.19297138	      7.84775919	     31.93089175	    221.30231599	     47.44822213	    194.07424618	     40.19873170	    397.82106935	    382.82929998	     17.43878147	     22.25259444	      7.87753113	     51.82457741	     10.02133834	    912.72207843	     24.95963681	     26.02705593	     76.81460927	     41.72611807	    -18.54022496	      6.87401782	    -21.41886411	     -6.17657425	     18.45244413	     -3.75378226	      0.04029613	      0.00396305	     -0.00181436	      0.02066778	      0.03618237	     -0.00980668	    -69.23919297	     13.64715217	     -1.44116133	     43.69712007	     -1.13360401	      0.00374164	      0.00000000	      0.00000000	      0.00000000	     -0.11100223	     -0.67260478	      0.04533678	      0.00000000	     -0.00000000	      0.00000000	     -0.00000000	      0.00000000	     -0.00000000	     -1.05619779	     -0.37406849	      0.50763378	      0.00000000	      0.00000000	     -0.00000000
    143.85320000	    123.07088629	    394.66422441	      7.41761357	      7.44821599	      7.92751247	     75.53547921	     14.22353874	     70.99360890	     95.57495332	     11.41838893	      6.49169660	     12.85794191	     12.86061045	     57.61145916	     15.35793404	     21.63387951	     13.57102514	     46.45973457	     12.08756360	     13.82136333	     48.11552091	     54.09139836	     50.03053975	     37.20125152	    454.25895513	     19.42663386	     86.03953959	     73.20662644	    660.77318981	    109.64595489	     41.46748486	     19.71318469	      7.52960647	     55.06251504	     93.54148874	    172.20219860	     25.71704257	     27.40047854	     81.31032860	     43.73200294	     -4.89659098	    -18.92830986	     -2.96222440	      1.39617483	      2.42857824	      1.24520514	      0.06820747	     -0.00855870	     -0.00101185	      0.05667518	      0.00887402	     -0.00369642	    -79.83834206	     10.20485460	      0.10186365	     51.21492389	     -2.77128987	      0.68547602	     -0.00000000	     -0.00000000	     -0.00000000	      0.01198811	     -0.68202084	     -0.03166646	     -0.00000000	      0.00000000	     -0.00000000	      0.00000000	     -0.00000000	      0.00000000	     -1.11820106	     -0.35911457	      0.44427173	     -0.00000000	     -0.00000000	      0.00000000
    143.86944000	    121.05818605	    397.14007056	      7.32989762	      7.44548541	      6.93324501	     67.45780319	     13.24022207	     84.96205028	    108.69263364	     12.20927525	      6.50614276	     13.03613314	     24.19885953	     30.96380236	     15.80923997	     22.25953940	     13.75993650	    215.16653491	     13.15946505	     14.67972215	     72.88841838	     76.11032757	     66.23619469	     39.46602723	    515.89370994	     23.31817910	    105.38962959	     38.98708955	    717.93303377	    280.58568590	     49.77956791	     16.95056948	      7.16433692	     58.55139853	    122.87870057	    186.16160880	     25.75518137	     28.10245178	     83.88868557	     44.67330564	     18.17473020	    -30.80767767	     14.11856332	      6.40559684	    -11.83003655	      7.68199336	      0.07536525	     -0.01054204	     -0.00051201	      0.06651197	      0.01085501	     -0.00448391	    -93.48076086	      1.86025965	      0.92358875	     56.58169534	     -3.86430439	      0.92061503	     -0.00000000	     -0.00000000	     -0.00000000	      0.13495715	     -0.66795118	     -0.10788353	     -0.00000000	      0.00000000	     -0.00000000	      0.00000000	     -0.00000000	      0.00000000	     -1.14270817	     -0.37186690	      0.41621074	     -0.00000000	     -0.00000000	      0.00000000
    143.88568000	    115.03692239	    377.46849805	      7.26155794	      7.45503742	      6.89697310	     62.83778178	     12.32620108	     84.53006372	    123.87510145	     13.90601981	      6.39469956	     12.99256559	     11.98306923	     67.61390509	     15.94107158	     22.47265317	     13.81830020	    271.45061674	     16.59832588	     15.20702636	     76.31315275	     77.06495199	     65.13507236	     38.71349176	    493.71650754	     23.90770334	    106.02059754	     58.95040679	    676.58560114	    493.38018871	     49.98245487	     14.16715091	      6.83219379	     60.89892752	    119.50724613	    223.01387832	     25.11480497	     27.98633085	     83.97381912	     44.40359690	     14.72366978	    -31.38896063	     19.72437896	     -6.95297667	    -13.57869840	      8.56543431	      0.07154478	     -0.00884567	     -0.00072326	      0.06363923	      0.01422827	     -0.00461925	   -110.63761883	    -11.67803109	      0.98028903	     59.19334808	     -3.90330157	      0.47085152	     -0.00000000	     -0.00000000	     -0.00000000	      0.25285218	     -0.63623622	     -0.16923775	     -0.00000000	      0.00000000	     -0.00000000	      0.00000000	     -0.00000000	      0.00000000	     -1.13369490	     -0.40743104	      0.42252450	     -0.00000000	     -0.00000000	      0.00000000
    143.90192000	    108.10868209	    354.64869744	      7.26576152	      7.54790685	      6.51131319	     61.47584762	     11.81146291	     74.82330446	    105.37308423	     11.34297717	      6.18848277	     12.81668424	     10.95456863	     18.42689220	     15.81836765	     22.41854471	     13.93824370	    240.85971458	     30.20829767	     15.18909527	     65.27755021	     69.48863603	     60.84853124	     36.62023696	    435.83606531	     19.15857577	     84.52918991	    177.63379415	    611.56195901	    747.28528089	     46.98646649	     11.27987439	      6.61039914	     62.09272355	    103.47239741	    182.00163402	     24.14447050	     27.08631202	     81.75012464	     43.01760901	    -19.14672481	     -9.05068878	     22.19155671	    -23.34361154	    -14.31692305	     -0.77438534	      0.06604554	     -0.00624242	     -0.00202467	      0.05367839	      0.01284716	     -0.00362858	   -123.09538432	    -16.92945120	      0.82943670	     57.84460743	     -3.03197025	     -0.08348063	     -0.00000000	     -0.00000000	     -0.00000000	      0.36206770	     -0.59792070	     -0.20435302	     -0.00000000	      0.00000000	     -0.00000000	      0.00000000	     -0.00000000	      0.00000000	     -1.10166258	     -0.44679863	      0.44608562	     -0.00000000	     -0.00000000	      0.00000000
    143.91816000	    106.51996132	    356.08876446	      7.40919416	      7.79020567	      6.40970600	     60.83206803	     11.92776057	     55.61943503	    106.99498332	     11.43840303	      6.02685240	     12.64925819	      9.20101493	     10.00609557	     15.56526986	     22.31034102	     14.34411009	    276.89863063	     84.30827224	     57.73209323	     62.87659606	     70.83068710	     61.10630605	     30.93103197	    430.34973131	     16.85025755	     71.04328985	    236.27425448	    624.79945218	   1096.84843200	     45.60164137	      8.40022787	      6.63462104	     62.92598182	    104.80396339	    186.17375660	     23.30774844	     26.11335079	     79.37142302	     41.64203665	    -30.35788387	     59.23517348	     23.07882143	      1.64720984	    -21.46271962	    -14.31520206	      0.06984604	     -0.00646901	     -0.00360208	      0.03820301	      0.01436480	     -0.00321062	   -107.50379884	     -7.24131639	      2.05048091	     48.99986888	     -1.62512090	     -0.26445598	      0.00000000	      0.00000000	      0.00000000	      0.45829373	     -0.56479745	     -0.20973917	      0.00000000	     -0.00000000	      0.00000000	     -0.00000001	      0.00000080	     -0.00000010	     -1.06228954	     -0.46327243	      0.47189836	      0.00000000	      0.00000017	     -0.00000000
    143.93440000	     88.29925174	    312.19831813	      7.72364464	      8.19350595	      6.61125900	     43.75180734	     12.77297907	      8.50877168	    113.88280481	     11.93539871	      5.96462560	     12.60764271	      7.24516327	      4.29945026	     15.25854697	     22.21725188	     15.03806132	    405.49873044	    141.62173273	    104.04362990	     66.70649994	     70.83096098	     53.51673668	      8.91687832	    422.02783402	     17.47428412	     73.18191179	    173.51996146	    616.23306823	   1416.03081764	     35.00667354	      6.43693604	      6.91141997	     64.13408500	    104.79021073	    193.24191733	     22.99040304	     25.04300315	     76.07972404	     39.99650532	      0.16303528	     70.55231586	     25.47462971	     28.04767328	    -41.18156100	    -45.70990652	      0.07080052	     -0.01004018	     -0.00354615	      0.00430161	      0.01607872	     -0.00333877	    -99.41830928	      8.08847763	     22.64285327	     63.78736266	    -22.03340784	      9.23668157	      0.00000000	      0.00000000	      0.00000000	      0.53619793	     -0.54605515	     -0.19171328	      0.00000000	     -0.00000000	      0.00000000	     10.83294203	    161.46619348	      0.30042358	      0.18236475	      0.03265293	      0.00186020	      0.00000322	     19.47751672	      0.00000687
    143.95064000	     42.34700407	    195.73906910	      8.16963176	      8.71099944	      7.06614814	     10.27675843	     14.27201798	      5.79619681	    103.63787799	     10.95735937	      6.03389683	     12.75627063	      4.96015234	      1.86977505	     14.90543549	     21.99909057	     15.72126515	    416.70414133	    172.71272319	    144.69983015	     52.54332062	     55.87213565	     38.49312605	      3.32719574	    321.14585429	     16.19628116	     66.43475967	    123.44804147	    471.90567936	   1012.82006504	     28.61098509	      5.87681131	      7.37590019	     66.07451730	     74.88227111	    176.98354329	     23.32279179	     39.37269070	    294.27360299	     87.62201896	    142.31405221	   -138.66074722	   -195.25562916	    121.17630193	    154.95222191	     54.69634119	      0.05699089	     -0.01297658	     -0.00266997	     -0.00288162	      0.01553240	     -0.00309348	     25.80102631	   -227.71984163	    -24.59760085	      5.39347181	    -53.53954323	      3.63954286	      0.00000000	      0.00000000	      0.00000000	      0.59209482	     -0.54704087	     -0.16199850	      0.00000000	     -0.00000000	      0.00000000	   -128.74952536	    719.29293181	    249.83960034	      0.16227742	      0.05251694	      0.01940254	      0.00001187	    -34.03491125	      0.00003910
    143.96688000	      7.31657042	      9.58619594	      8.70780079	     10.19502185	      7.62258076	      6.59921590	     18.11200864	      8.07182197	     66.99359763	      7.64607051	      6.21594499	     13.08437257	      3.24447136	      1.44840287	     66.03198470	     24.29450850	     16.04110968	    342.43355600	    168.51357553	    149.04699914	     27.44213340	     24.97326407	     14.60189624	      3.43819847	     14.18044631	     10.99408543	     37.21511387	     28.48411673	     17.55107860	     16.56192218	      3.30584998	     11.38734088	     10.20612799	     68.91502707	     15.85607982	    123.17434114	     24.12947503	     23.07297137	     71.16856785	     37.07142053	   -138.42598467	    -60.92912718	    222.13300672	   -163.06066573	   -203.95379005	    -84.32904570	     -0.00488415	     -0.01150655	      0.00222925	      0.00375669	      0.01107559	     -0.00193720	   -168.58131554	     86.48044299	     36.52636389	    107.00052307	   -136.12772922	     36.96438506	      0.00000000	      0.00000000	      0.00000000	      0.62603315	     -0.56823075	     -0.12888598	      0.00000000	     -0.00000000	      0.00000000	     28.81198785	   1110.82015944	   -104.58195868	      0.17057230	      0.07177580	      0.01454786	      0.00002436	     32.22461822	      0.00007912
    143.98312000	      7.73514320	      9.99323197	     54.67651554	    222.18266113	      8.06376286	      6.94329903	    525.07837145	      5.94810811	     32.75382589	      4.24903447	      6.43482967	     13.53249638	      2.42570955	      1.43620005	     59.33058551	    104.74885945	    179.69891311	    503.94775895	    217.95958082	    129.48572929	     40.06421354	     26.20734075	      9.49001730	      3.61982283	     11.29985200	      7.16897099	     16.80912049	      8.17151399	     17.48641213	     16.31486423	      3.10791646	    172.85666739	    144.34532428	     72.86291203	      3.93808513	     67.18543578	     25.05676296	     32.59399392	    345.44261544	     81.89642819	    -67.45885141	    163.12834648	     30.53909259	    -68.27386602	     20.05742961	     23.22016758	     -0.03576456	     -0.01183110	      0.00901051	     -0.00319805	      0.00604756	     -0.00085891	     52.50126785	   -144.78821595	    -11.07266594	    -31.85631277	   -153.46355402	     37.91180578	     -0.00000000	     -0.00000000	     -0.00000000	      0.64055472	     -0.60388204	     -0.09456783	     -0.00000000	      0.00000000	     -0.00000000	   -186.65439505	   1242.84224817	    136.14062731	      0.18383426	      0.08556217	      0.00916601	      0.00002119	    -15.75115026	      0.00008668
    143.99936000	      8.09457747	     10.56967779	    108.07038997	    268.50007750	      8.40467975	      7.16532525	    608.86315373	      6.23564667	     30.45742536	      4.16536028	      6.57044277	     13.94741196	      2.28464368	      1.49177051	     24.28020928	     46.57496586	    230.31284244	    450.94873278	    180.54650442	     83.19456865	     38.15379173	     21.31158470	      5.81508078	      3.79103314	     11.58185658	      8.37177349	     24.54024220	      8.41210318	     17.91568891	     18.19834066	      3.17856920	    346.31296042	    165.48369467	     78.02460671	      3.55349747	     57.69384378	     25.65257636	     62.95694683	    687.43460161	    166.88077776	    -66.63610558	     23.79785583	    140.05764326	    -89.11887561	   -108.62753377	    -32.17269825	     -0.03536893	     -0.00525763	      0.00921288	     -0.00648153	      0.00523327	     -0.00105618	     57.54948502	     -9.25736149	     17.19503476	    -50.26538080	   -223.58831035	     80.14528431	     -0.00000000	     -0.00000000	     -0.00000000	      0.63690048	     -0.64584001	     -0.06188843	     -0.00000000	      0.00000000	     -0.00000000	   -186.95955662	   1507.39686910	     -4.13171226	      0.19854465	      0.08803414	     -0.00678809	      0.00003067	     23.16246496	      0.00010081
    144.01560000	     50.02879165	     12.31911590	    121.70886910	    216.15026740	     75.85665562	      8.01225371	    351.99239813	      6.61060173	     48.12434023	      5.84524321	      6.59398023	     14.25540715	      2.74626159	      1.55507718	     12.56987364	     17.78744263	    106.19411864	    277.93176105	     43.24228041	     10.91321705	     31.14827570	      6.32966178	      4.39660967	      4.05025093	     15.85382160	     10.59123029	     41.94590088	      9.37876990	     18.78666591	     21.13057584	      3.32654819	    331.71682248	    112.05814712	     84.23470087	      4.15994719	     93.90079645	     25.73876779	     77.14154144	    837.77206721	    207.11082297	     26.04170134	    -81.22346900	    -37.39598121	     68.98855014	     18.16603538	      2.93854198	     -0.02025887	      0.00570094	      0.00777055	     -0.00834642	      0.00845812	     -0.00167940	    152.91227030	   -127.09870830	     30.87500322	   -150.76553607	   -136.44154016	     37.20504471	     -0.00000000	     -0.00000000	     -0.00000000	      0.61136180	     -0.69150334	     -0.03669649	     -0.00000000	      0.00000000	     -0.00000000	   -157.05933737	   1670.43334980	     94.04392849	      0.13497182	      0.06446333	      0.00731705	      0.00002544	     25.02291893	      0.00009514
    144.03184000	     77.69446262	    113.17163288	     65.15589847	     94.69046919	     61.05864881	     33.75055718	     80.48458838	      7.04374800	     66.58497787	      8.59333155	      6.53939658	     14.46426396	      4.31285604	      1.79960925	     12.05336394	     16.69001416	     26.86784409	     82.13911269	     10.40666480	     11.09381811	     14.82156255	      5.06666646	      5.15841768	      5.82991536	     43.51364636	     14.30196789	     50.91322882	     10.43808853	     27.28857352	     23.93909902	      3.50392219	    112.37538498	     34.20055083	     91.08296029	      5.07661167	    140.45630417	     25.41262469	     65.62210171	    708.44243141	    176.88486254	     75.05915854	      0.00171584	    -46.55049187	     65.57788528	     25.73641593	      3.32082857	     -0.00625391	      0.00649989	      0.00374620	     -0.00753412	      0.01244968	     -0.00211622	     86.09213828	   -122.49001930	     26.26553505	    -88.69481823	   -131.53815028	     45.93685856	     -0.00000000	     -0.00000000	     -0.00000000	      0.55568721	     -0.74393818	     -0.01997981	     -0.00000000	      0.00000000	     -0.00000000	   -108.65425745	   1699.86611320	     83.68014811	      0.12804683	      0.06289569	     -0.00171774	      0.00002673	     21.78521057	      0.00006188
    144.04808000	     77.28695232	    217.51743247	      8.37323018	      8.40326341	     33.25481943	     79.71807739	     16.91107035	      7.50447300	     83.84447349	     11.40691947	      6.41958365	     14.52988844	      8.16630268	      2.49594470	     12.01424195	     32.69036863	     22.98665888	     14.69689714	     10.62770241	     11.19105319	      4.68398743	      5.24720693	      5.60128744	     11.26956574	     13.79057050	     18.61702802	     61.48259162	     42.33209635	    196.87614019	    686.99335908	     16.53180066	     18.49211083	      8.33198274	     97.91069123	      5.62932085	    186.41622437	     24.80848062	     43.42192956	    450.27484288	    112.92271641	     22.10180683	     19.42109064	      0.98460107	     -3.23243937	      4.20613093	     11.59310568	      0.01682201	      0.00609738	     -0.00701079	     -0.00522670	      0.01587600	     -0.00248112	    -46.60998770	    -99.75240725	      0.29643682	     12.86711535	   -121.26346142	     43.00176618	      0.00000000	      0.00000000	      0.00000000	      0.46124778	     -0.80384975	     -0.00357443	      0.00000000	     -0.00000000	      0.00000000	    -21.12217186	   1731.37056437	     84.31452747	      0.11995160	      0.06089046	     -0.00427492	      0.00003390	     -0.94747121	      0.00010176
    144.06432000	    117.88432720	    381.20441697	      8.16024253	      8.34297160	     37.32173873	    145.01988546	     17.63822498	      7.98292049	     98.03205143	     14.04448161	      6.28326859	     14.44998967	     14.39581473	      5.51266309	     12.23261668	    127.42861520	     18.86858328	     14.97584951	     10.75384355	     11.31931620	      4.78434080	      5.33254859	      5.70691193	     23.35528307	     13.88246104	     23.90634505	     77.97442207	    176.02653061	    414.60515295	   1485.24269089	     46.49291734	     21.26603268	      8.60337285	    103.42918887	      5.67602236	    228.66021990	     24.14836030	     33.91254550	    324.27444851	     81.73480909	    -17.79805582	     -1.58242552	     41.45679396	    -39.58202916	    -32.67224280	     -4.44430720	      0.03790563	      0.00883311	     -0.01592423	     -0.00407146	      0.01793014	     -0.00283264	   -133.56115871	    -55.67388026	      5.48712482	     99.45444988	   -118.77178048	     47.00965620	      0.00000000	     -0.00000000	     -0.00000000	      0.32277268	     -0.86423029	      0.02380641	     -0.00000000	      0.00000000	     -0.00000000	     53.80014843	   1642.79407123	     57.72649843	      0.11964020	      0.05539594	     -0.00800221	      0.00002764	      5.85016079	      0.00010416
    144.08056000	    131.97738148	    426.40886572	      8.27659736	      8.54108391	     34.48082976	    167.53599157	     19.21941808	      8.55650434	    104.43928654	     15.87970165	      6.18130455	     14.27257713	     20.00629753	     18.94788645	     12.35773454	     79.76190442	     11.91657069	     15.02608661	     10.89698138	     11.62883099	      4.75006255	      5.29487445	      5.72176459	     26.54388875	     13.65743443	     29.17130408	     98.41496591	    253.43335670	    530.54234044	   1719.60132925	     60.19254626	     25.90294563	      9.09288856	    105.73288925	      5.37957916	    256.98108966	     23.64898848	     39.36033105	    362.28023227	     91.62305595	    -22.86074227	    -19.59967764	     -4.23503733	    -12.37891838	      1.13279676	    -11.86659155	      0.04843912	      0.00939958	     -0.01907511	     -0.00484958	      0.01761727	     -0.00305444	   -133.04250348	    -83.50127378	     11.80228342	    115.65752264	    -97.93857059	     40.27593499	      0.00000000	     -0.00000000	     -0.00000000	      0.14165728	     -0.91042326	      0.06900985	     -0.00000000	      0.00000000	     -0.00000000	    111.11038701	   1452.36787566	     65.05582847	      0.11602086	      0.04230051	     -0.00822327	      0.00004148	     12.86058078	      0.00005236
    144.09680000	     68.52724182	    242.28667432	      8.40782981	      8.76585426	      7.69671485	     42.14496634	     21.01179816	      9.26202964	    102.49283051	     16.22550107	      6.12253375	     14.06987777	     23.13088627	     37.36342589	     12.52038772	     17.20568334	     11.76922655	     15.22929449	     11.18416526	     12.07402224	      4.76801448	      5.59044467	      7.02233705	      4.44495545	    241.69157891	     33.08988527	    122.03026616	     62.35055017	    505.21824679	   1287.97145761	     44.24376277	     31.05028435	      9.61095114	    103.95686771	     59.70409401	    261.60840407	     23.39802060	     23.55420779	    147.56910216	     44.07210279	    -18.80887611	     -0.24562572	      8.91783710	     -1.79499808	     -9.48414786	      0.45509812	      0.04078519	     -0.00094280	     -0.00395140	     -0.00212506	      0.01513479	     -0.00318497	    -96.94317021	    -76.62206730	      0.97260140	     92.43715176	    -85.92317132	     36.44841871	      0.00000000	     -0.00000000	     -0.00000000	     -0.07002175	     -0.92508016	      0.13198936	     -0.00000000	      0.00000000	     -0.00000000	    159.86434897	   1188.61329890	     32.01888477	      0.12767868	      0.03109809	     -0.01186226	      0.00002262	      2.53006535	      0.00005560
    144.11304000	     31.75969926	    126.62046915	      8.45044514	      8.84120150	      7.64170437	      7.19814679	     22.52704587	     66.88780902	     95.02997085	     15.24563016	      6.10326295	     13.88077235	     24.95606842	     46.85414613	     12.65043513	     17.32352177	     11.75937359	    220.90764954	     35.20607574	     12.48257740	     32.81397051	     32.09011845	     21.11549362	      5.01157161	    238.40816985	     34.79346961	    137.20750726	     15.02036295	    360.31449425	    619.68370055	     39.31017316	     35.30293806	     10.00172474	     99.40092356	     64.22531043	    242.03184561	     23.27673134	     18.03036838	     58.18116833	     29.96734583	     -2.75863392	     14.68532329	     10.44104248	      1.70515093	     -1.61917677	      5.56712000	      0.02813567	     -0.00336143	      0.00089806	      0.01636256	      0.01190449	     -0.00319890	    -45.39759309	    -86.50680411	     -8.92848101	     58.33959476	    -72.59659570	     29.74508451	     -0.00000000	      0.00000000	      0.00000000	     -0.29069407	     -0.89727457	      0.20767601	      0.00000000	     -0.00000000	      0.00000000	    184.85093331	    881.30295109	     37.38264422	      0.14811652	      0.02171546	     -0.01505497	      0.00001473	     -4.45667308	      0.00003579
    144.12928000	     11.09438390	     42.45320324	      8.36931649	      8.73556405	      7.51413980	      6.64207568	     23.43055636	     89.04093862	     84.95943502	     13.62569973	      6.07035065	     13.68730806	     26.57228096	     51.36031394	     12.55614934	     17.07636711	     11.47357332	    346.00608429	     93.40407922	     17.73262898	     41.68086716	     36.03918903	     22.81926885	     10.50323401	    145.09199040	     32.62184442	    132.14643562	     15.34218275	    167.54397854	     71.06159924	     24.32666034	    176.83666207	     14.87653960	     94.37431984	     41.58322972	    211.85175265	     23.03922960	     17.64665497	     56.43260645	     29.35918943	     22.97163193	     10.01766399	     20.88443861	     11.03072657	    -15.22544614	      4.16616573	      0.01236833	     -0.00276670	      0.00219190	      0.02106057	      0.00926514	     -0.00294317	     21.59656062	    -63.98628949	     -7.73118394	     23.31044347	    -59.56351952	     25.33068387	     -0.00000000	      0.00000000	      0.00000000	     -0.49886822	     -0.82726663	      0.28926446	      0.00000000	     -0.00000000	      0.00000000	    160.73817241	    569.37558705	     23.40014234	      0.17952283	      0.01996674	     -0.02255496	      0.00001106	     -2.22710930	      0.00001878
    144.14552000	      7.64616167	     10.55214297	     10.35547655	     36.04136998	      7.46010822	      6.49321322	    110.44353780	      9.89074405	     72.07472853	     11.61701266	      5.95924135	     13.43092267	     27.82230171	     54.76838154	     16.09994449	     17.52418189	     11.75880874	    341.72101543	    113.89365784	     57.47445593	     36.14029787	     28.29912153	     17.62969595	      4.59640933	     17.21950026	     26.99275767	    107.74476164	     14.94795251	     19.53609557	     20.04267887	      3.83562058	    582.01370202	     35.78762047	     90.19896928	     13.26718506	    179.63863621	     22.47764512	     18.73047548	     59.61567996	     31.51206205	     16.76509367	      0.10925947	     -1.15380101	      5.10310579	      0.17393901	     -3.84025503	     -0.00511726	     -0.00134195	      0.00256290	     -0.00007892	      0.00732582	     -0.00233415	     64.33062479	    -52.06242831	     -4.82651484	      3.21908471	    -43.21930840	     17.22813522	     -0.00000000	      0.00000000	      0.00000000	     -0.68178964	     -0.72197933	      0.36902365	      0.00000000	     -0.00000000	      0.00000000	    112.96673654	    313.86749844	     27.25283548	      0.21574495	      0.02730201	     -0.03401686	      0.00000583	      2.25590193	      0.00001286
    144.16176000	      7.61851715	     10.65990150	     21.17400947	     47.54283109	      7.62693961	      6.46201739	    232.84725414	      9.80860772	     57.27783627	      9.44039870	      5.77439459	     13.04898602	     28.14331871	     56.27973956	     49.19396066	     81.12793323	     46.46142636	    256.95949996	     95.50095634	     63.46898653	     25.42603629	     20.88428047	     14.84979037	      4.56383359	     13.55710690	     19.41404400	     72.78355199	     14.82403553	     19.78120372	     20.22695416	      3.84481085	    877.79642889	     52.14406644	     86.26070364	      5.76832783	    146.53103194	     21.54286074	     22.94333008	    153.58440881	     46.83905556	     -7.21374485	     -7.94028862	      4.88309543	     -0.56319019	     -9.17996742	      1.65192498	     -0.00845596	     -0.00127822	      0.00189785	     -0.00158957	      0.00574120	     -0.00154879	     97.72202774	    -14.43633362	     -2.98804205	    -16.91664114	    -22.30150286	     11.01467656	     -0.00000000	      0.00000000	      0.00000000	     -0.83585438	     -0.59009848	      0.43556367	      0.00000000	     -0.00000000	      0.00000000	     61.67357416	    152.86354885	      4.34218535	      0.24096342	      0.02680842	     -0.04212563	      0.00000272	     -0.17639808	      0.00000563
    144.17800000	      7.69598518	     10.82047273	     31.16292827	     52.19357118	     10.92037844	      6.52535155	    289.90051705	      9.52541728	     40.72295718	      7.26900118	      5.51770903	     12.52494430	     27.04591502	     54.50645136	     48.31376521	     99.82148417	     72.90495833	    139.87655699	     53.44354523	     37.91991045	     13.25915505	      9.81851721	      8.15648818	      4.71711193	     13.63549702	     12.38340136	     35.30311794	     13.99416426	     19.98434270	     19.58277627	      3.83186231	    997.19984925	     62.71129274	     80.75499632	      5.22487054	    110.06300068	     20.36228531	     21.49529694	     99.59760366	     39.91092292	    -21.82926415	      4.56020944	    -11.52981778	    -11.49653635	     11.50997290	      1.57527717	     -0.00924071	     -0.00002189	      0.00137917	     -0.00094325	      0.00403158	     -0.00081773	     95.69657168	     -5.64919564	     -4.33880433	    -15.76985637	    -11.40089953	      4.91689289	      0.00000000	     -0.00000000	     -0.00000000	     -0.96259630	     -0.44509929	      0.47236222	     -0.00000000	      0.00000000	     -0.00000000	     28.13777553	     55.30202241	     10.59547634	      0.29831192	      0.08318583	     -0.04766364	      0.00000113	     -2.32395670	      0.00000263
    144.19424000	      7.78728286	     10.93180387	     27.98851923	     40.86867085	     12.91994315	      6.64639749	    311.51047182	     14.32923024	     12.72459567	      5.20395108	      5.53115584	     12.35959688	     25.12315315	     50.43140971	     35.07615566	     83.28905679	     68.66105703	     45.49499500	     19.61101919	     16.76183074	      5.60232690	      5.97724661	      6.51913340	      7.53346226	     13.61185728	      8.61815751	     18.30127420	     13.35710093	     20.05726364	     19.28669776	      3.80907918	   1038.98428861	     71.94426277	     72.37716063	      5.04292348	     82.75509468	     22.84689995	     17.51849981	     52.68474473	     28.91041416	     -3.76768248	     22.25928898	     -4.18308747	      1.59066647	      3.83041899	      2.28639965	     -0.00709676	      0.00062025	      0.00074368	      0.00539422	      0.00227897	      0.00049872	    108.72974613	     12.98603988	      0.98161864	    -23.71617383	      2.09189742	     -0.85751445	      0.00000000	     -0.00000000	     -0.00000000	     -1.06461254	     -0.31221794	      0.46418246	     -0.00000000	      0.00000000	     -0.00000000	     -0.00000003	     -0.00000005	     -0.00000001	      0.13593130	     -0.34844326	      0.69661733	     -0.00000000	      0.00000000	     -0.00000000
    144.21048000	      7.69196037	     10.87639650	     10.47195011	     12.11954667	      7.67501679	      6.62284529	    336.05999749	     39.90859679	     24.21786881	      6.71631540	      5.52236876	     11.51179248	     90.36181060	     41.90984892	     46.30021914	     88.03744623	     32.93146712	     23.00437610	     24.05557576	     34.42218402	      5.46544055	      6.96008509	      8.50498310	     11.72550069	     13.50636289	      9.51220171	     19.14365428	     31.66537470	     20.01491676	     19.63718494	      5.78395267	   1104.45616653	     84.07083630	     61.71890213	      4.92775091	     89.07861978	     19.13183047	     18.15170501	     54.42465206	     29.91424883	      3.52560956	     -0.51275521	      2.33798205	      4.82982511	     -3.34916497	      1.21107931	     -0.00327448	     -0.00139971	     -0.00016470	      0.01940438	      0.00247396	     -0.00006644	    111.34651432	     19.27045622	      1.71299135	    -23.41518450	      2.45699795	     -0.93456059	      0.00000000	     -0.00000000	     -0.00000000	     -1.14200184	     -0.22756150	      0.41009490	     -0.00000000	      0.00000000	     -0.00000000	     -0.00000000	     -0.00000000	     -0.00000000	      0.20603108	     -0.27406284	      0.71096525	     -0.00000000	      0.00000000	     -0.00000000
    144.22672000	      7.61959795	     10.74010131	      8.68326835	      9.45711959	      7.32331092	      6.58735921	    371.71194861	     51.38806830	    108.81197574	     15.70377975	      4.98113585	     10.42764373	    336.30664626	     32.37296059	     84.61346987	    139.15317799	     20.84134484	     76.73230295	     61.41008049	     78.88166562	      7.01168576	     12.27036295	     16.37717785	     11.98535093	     13.36521634	     23.68720640	     80.95481910	     68.93782887	     19.80269321	     20.98482265	      9.49121164	   1134.02826022	     95.91758621	     51.81635814	      4.95470955	    257.48513063	     18.23695168	     19.51234333	     58.38073267	     32.01638694	      9.48419397	    -28.39032584	     12.86172394	     -0.38508180	    -10.07094260	     -2.97130846	     -0.00296295	     -0.00426158	     -0.00046199	      0.02986716	      0.00841441	     -0.00212722	    114.12589130	     18.88354899	      2.54689411	    -24.48117193	      3.03641872	     -1.36743155	      0.00000000	     -0.00000000	     -0.00000000	     -1.18969410	     -0.22266661	      0.32989539	     -0.00000000	      0.00000000	     -0.00000000	     -0.00000000	     -0.00000000	     -0.00000000	      0.27839347	     -0.18561618	      0.72070617	     -0.00000000	      0.00000000	     -0.00000000
    144.24296000	      7.55251905	     10.60986263	      8.18689695	      8.41490061	      7.30213125	      6.55871583	    418.70213824	     64.67952715	    165.84851226	     22.04485902	      5.03868759	     10.19407383	    417.34011501	     76.11864177	    114.05276753	    174.70552163	     12.12784756	    120.00457313	     90.87231697	    112.72089938	      7.47759310	     17.29694780	     23.10766042	     13.77731279	     13.10132394	     31.05358398	    116.61875357	     88.67962981	     19.64668441	     23.48627000	     13.39606585	   1187.89078707	    112.82990910	     44.79125116	      4.88151062	    364.48546044	     18.86626329	     21.56095902	     64.15490691	     35.09530874	      8.99053541	    -52.08204974	     11.27742176	     -7.63263972	     -6.84613341	     -5.99102724	     -0.00225672	     -0.00656870	     -0.00071210	      0.04318874	      0.01377712	     -0.00385726	    114.93179660	     12.42725661	      4.23997572	    -25.20515757	      3.45781732	     -1.91002235	      0.00000000	     -0.00000000	     -0.00000000	     -1.19711756	     -0.30470188	      0.25264077	     -0.00000000	      0.00000000	     -0.00000000	     -0.00000000	     -0.00000000	     -0.00000000	      0.35588030	     -0.09391825	      0.71820295	     -0.00000000	      0.00000000	     -0.00000000
    144.25920000	      7.51115784	     10.49968115	     15.94581162	     30.96821098	      7.68575798	      6.54662039	    436.00094706	     46.85722149	    230.28765494	     31.76236424	      5.37163426	     10.44332231	     12.14360317	    662.22088275	     91.11500068	    164.03922282	     66.59416682	    114.96192668	     70.37954141	     74.87715975	      8.67361111	     11.91828172	     13.50447086	     14.49352298	     12.93936197	     29.02418246	    110.73097868	     33.82897777	     19.48298891	     26.54103452	      5.36973502	   1069.92837404	    116.46086237	     41.67692546	      4.97705939	    549.05787290	     20.52188704	     23.81060652	     70.42473231	     38.42502713	      3.00475655	    -20.52636049	    -12.55230400	     -4.50692736	     10.40235336	     -1.38277838	     -0.00836840	     -0.00337742	      0.00051099	      0.03430011	      0.02421529	     -0.00584317	    113.05007332	      3.41020518	      5.88391640	    -25.00040660	      3.67957031	     -2.31432996	     -0.00000000	      0.00000000	      0.00000000	     -1.15339495	     -0.45002565	      0.19533359	      0.00000000	     -0.00000000	      0.00000000	      0.00000000	      0.00000000	      0.00000000	      0.43696054	     -0.01046664	      0.70105324	      0.00000000	     -0.00000000	      0.00000000
    144.27544000	     26.66299508	     47.69736004	     23.44465695	     12.73997746	     28.55379606	     27.02100125	    396.17146326	     54.90976747	    101.46082142	     13.86881849	      5.90993228	     11.19709475	     11.32483035	    249.35593525	     12.72390975	     46.03386318	     67.62047221	     14.60171096	     10.52494397	     10.99028783	      4.46882717	      5.29625615	      5.73591069	     26.98843748	     12.94840356	     12.14091151	     46.76097769	      9.72330315	     22.95223725	     29.45413762	     11.24514505	    899.93901842	    113.14902103	     43.13300155	      5.12630454	    235.89654452	     23.06954897	     25.71057176	     76.01355972	     41.24087283	     -8.37229943	    125.28942667	    -47.58581235	     14.88642667	     33.70921569	     13.26819290	      0.00002076	      0.00372376	     -0.00152078	      0.04209213	      0.01347224	     -0.00321368	    107.17180399	     -4.67046269	      5.20768992	    -23.24798513	      3.78782122	     -2.43620603	     -0.00027298	      0.00477211	      0.00222966	     -1.05821519	     -0.61561268	      0.15240317	      0.00000000	     -0.00069742	      0.00000000	      0.00000000	      0.00000000	      0.00000000	      0.51627211	      0.05604279	      0.67335989	      0.00000000	     -0.00000000	      0.00000000
    144.29168000	     44.30469569	     32.40602518	     65.44979880	    132.71060859	     39.58782264	      6.75466877	    149.78627179	      6.91716986	      7.75271047	      3.54049526	      9.03973999	     31.24610030	     11.78076314	     19.53718840	     11.65421824	     16.04573131	     11.59571084	    510.29691906	    111.95701110	     10.99069645	     57.79905199	     33.24628232	      6.18487584	      5.49752945	     75.29484308	      5.42339075	     11.96581302	      9.04790940	     19.63466762	     31.82457894	      3.44924408	    429.21408583	     56.92487388	    516.83047466	      7.84833420	     15.86627653	    139.50844298	     29.96968852	    177.87192914	     55.77385524	     63.21797596	      3.56965367	      9.83804927	     74.24748030	    -10.34807938	     34.91029164	     -0.01266219	      0.00429126	      0.00777896	     -0.00057819	     -0.00173797	      0.00075163	     96.28115122	    -14.11287240	      1.71784391	    -19.78035905	      3.80711891	     -2.25560994	    -90.10904687	    386.74699743	    -77.08771509	      0.16945917	      0.01109067	      0.01317796	      0.00000627	    -23.56790361	      0.00002635	      0.00000000	      0.00000000	      0.00000000	      0.58747271	      0.10034667	      0.64395520	      0.00000000	     -0.00000000	      0.00000000
    144.30792000	      7.27771401	     10.17680447	      8.18011010	      8.47542119	      7.23541681	      6.32149371	    177.72068104	      7.44391460	      7.41711878	      7.49381991	     27.71489325	     52.61115489	    193.92048762	   1145.04270751	    701.33608575	   1107.80779025	    130.51843858	    727.14202790	    539.42497366	    618.89800885	     31.56662080	     92.29298818	    124.74963186	      3.56040092	     12.83181193	      5.41517909	     11.99750446	    295.86677846	     19.37210853	     33.59292269	      3.59793333	    246.06180414	     12.88926950	     61.29264811	     38.10015225	    203.98120882	    501.84969850	     38.34322518	    270.42764798	     76.53529117	    -57.46090337	    -99.01719683	     73.96198008	    -51.17685825	    -52.44291648	    -42.77355817	     -0.02645795	     -0.03708976	     -0.00321383	     -0.00093332	      0.00990064	      0.00483610	     77.43942804	    -30.22064272	     -1.97974286	    -13.96229297	      3.58827031	     -1.79571854	     -3.08773383	    815.70684640	   -139.30166361	      0.17050795	      0.03489430	      0.00837577	      0.00000765	     27.73417059	      0.00004577	      0.00000000	      0.00000000	      0.00000000	      0.64646958	      0.11880455	      0.62259110	      0.00000000	     -0.00000000	      0.00000000
    144.32416000	      7.42716530	     10.41694136	     40.73864031	     87.59776746	      7.33032163	      6.34770280	    204.96686965	      6.97028781	      6.02451955	      3.51457649	     65.64678822	    213.57219219	     39.88142108	     30.74335633	    142.29488804	    241.24567801	    119.56489234	    369.06040676	    171.16240353	    136.62123484	     27.65555777	     30.14687250	     26.70352549	      3.64670044	     13.16802835	      5.71759606	     12.71685896	     27.50244561	     19.69334118	     34.55765626	      3.47024208	    395.39026234	     46.41729949	   1253.56571989	      5.85944501	     74.15095794	   1188.59667044	    175.61791043	   1581.19321167	    430.69446756	     -3.65678772	     -6.67282482	    -95.89928736	      8.59090875	     91.86640134	     35.28248558	     -0.02018394	     -0.00639175	      0.00253501	     -0.00612815	      0.00306338	      0.00725888	     45.03621096	    -52.27992134	     -2.32441540	     -5.25110578	      2.88919207	     -1.11968424	   -113.98593371	   1050.75164431	     23.59717943	      0.16432509	      0.04384856	      0.01416677	      0.00001904	     -4.98769149	      0.00008581	     -0.00000000	     -0.00000000	     -0.00000000	      0.69247366	      0.10775436	      0.61542958	     -0.00000000	      0.00000000	     -0.00000000
    144.34040000	      7.82241229	     11.02665199	      7.92105005	      8.14955257	      7.13213669	      6.47671350	     14.54483994	      7.15046827	      5.43403373	      3.40885308	     88.79482544	    298.31208880	     23.12858419	   1134.46913857	    478.05845984	    641.60735091	     10.58252080	   1237.80880270	    615.93881895	    541.58012642	     93.21370748	    145.15041923	    140.85588052	      3.69491057	     13.73309638	      5.94937379	     13.51102571	    184.79212158	     20.21649617	    771.22806445	      4.03748473	     21.79888930	      7.01355446	    908.13426746	    116.88834777	     87.10317258	   1620.36191170	    277.42222134	   2490.88049722	    677.59410750	     41.14645912	     41.62525525	     24.18852399	      2.09340542	    -30.64931751	    -15.97572557	     -0.01572453	     -0.03800075	      0.00010244	     -0.01137181	      0.00833704	      0.01070835	      2.85603968	    -69.25893036	      3.15392281	      2.58707540	      1.88146855	     -0.55885909	   -227.74342502	   1297.55108210	   -117.11649323	      0.17657831	      0.05656154	      0.02114068	      0.00001620	     -5.65965497	      0.00008184	     -0.00000000	     -0.00000000	     -0.00000000	      0.72598332	      0.06389332	      0.62232707	     -0.00000000	      0.00000000	     -0.00000000
    144.35664000	      8.47728186	     11.99383589	     46.96683776	    146.31824372	      7.19912986	      6.78445007	    113.60696335	      7.51330111	      5.20880684	      3.89814315	    134.38260273	    489.15657449	     26.77318628	     50.37876647	     56.18778881	     32.34601186	     44.80643868	   1196.12249468	    340.18260515	    153.96346479	    132.57436866	     98.40641936	     48.49002220	      3.84756925	     14.57131768	      6.09570084	     14.26277894	      6.33482110	     20.89750106	     34.90650727	      3.59936269	    340.35958757	     29.61502163	   1978.87290126	     51.19341956	    132.25106355	   2402.33242808	    473.03212652	   4249.12740256	   1157.92419487	    -25.54655598	     -9.03831975	    -96.73935095	    -55.84449466	     81.45298964	     43.80266334	     -0.02952765	     -0.00913828	      0.00931966	     -0.02267908	      0.01758599	      0.01889996	    -30.79665852	    -67.39534455	     13.76038796	      2.86508389	      1.28060905	     -0.61020451	   -198.89600727	   1579.83870995	      8.43337872	      0.15626794	      0.03029014	      0.01945469	      0.00001845	    -45.77198651	      0.00006373	     -0.00000000	     -0.00000000	     -0.00000000	      0.74616835	     -0.01128810	      0.63735934	     -0.00000000	      0.00000000	     -0.00000000
    144.37288000	      9.13765535	     13.04271208	      7.58761548	      7.76512431	      7.21184621	      7.14098000	     14.60328605	      7.87161198	      5.43239255	      6.63791073	    139.57742814	    539.41226473	     29.40926453	     56.78007299	    177.98717798	    150.23278225	      9.91148423	   1626.12155532	    507.47974080	    307.02004186	    184.94903247	    167.94340899	     96.69944438	      3.97649544	     16.47907557	      6.32475141	     15.02014210	     57.86555670	     21.46308945	   1326.63092197	      3.68670683	     23.75659249	      7.42325673	    904.71842668	    199.44199324	    219.23571272	   2400.20782838	    545.18756533	   4914.95559977	   1343.74595438	    -13.46093555	     22.58640117	     40.80181091	      8.92364353	    -36.16418036	     -2.02680375	     -0.01338330	     -0.02923069	      0.00610355	     -0.02915778	      0.02686611	      0.02475307	    -42.52439964	    -43.43162205	     23.59974157	     -4.26362996	      1.43027137	     -1.23516308	   -184.06816915	   1693.44869910	    -96.52724227	      0.12228055	      0.00223419	      0.00690246	      0.00002365	    -16.09204243	      0.00007813	     -0.00000000	     -0.00000000	     -0.00000000	      0.74830644	     -0.11062488	      0.65528862	     -0.00000000	      0.00000000	     -0.00000000
    144.38912000	      9.68638244	     13.98945742	      7.44232310	      7.49594529	      7.28051838	      7.46605218	     14.52232743	      8.11411687	      6.15090605	     12.54644100	    136.22487982	    546.42730123	     29.57120619	     58.79640446	     93.02318451	     26.26320964	      9.85141891	   1394.75927087	    389.59920319	    222.27612720	    182.34377732	    146.14438466	     70.95132022	      4.07947181	     97.39588374	      6.64222775	     15.60599467	     43.98862732	     21.78050545	   2021.62613410	      3.75852595	     24.00168557	      7.55190150	   1056.36497687	    230.73343020	    408.55265381	   2233.60661693	    549.94093391	   4981.27649331	   1366.85959479	      5.97874180	     -3.81460935	     63.94878591	     57.98188885	    -50.32734292	    -11.19295847	     -0.00520965	     -0.02615595	      0.00591601	     -0.03109758	      0.03446465	      0.03021155	    -35.14582057	     -8.00692819	     25.01810796	    -11.38514456	      1.90484875	     -1.77294442	   -123.73571534	   1781.11980897	    -98.44328295	      0.11025528	     -0.00544909	     -0.00014543	      0.00002628	     -0.63346618	      0.00012383	      0.00000000	      0.00000000	      0.00000000	      0.72083860	     -0.22847832	      0.67790704	      0.00000000	     -0.00000000	      0.00000000
    144.40536000	     13.00512804	     16.19708371	      7.60410045	     46.43826173	      7.40727110	      7.71047712	     14.48745745	      8.24049565	      7.32797340	     13.92894481	     97.39764558	    398.75242911	     27.52776139	     54.79882996	     10.27439462	     14.22710902	     10.00044529	    652.21262449	     82.70043673	      8.61744706	    115.89211890	     49.01236801	      6.20201851	      4.14525587	    205.54475540	      6.96388381	     15.96877381	      6.52617648	     23.22824089	    844.97038285	      3.75774249	     23.94374768	      7.66193345	   3739.57617341	    113.91403783	    506.45522966	   1524.37546799	    411.88038055	   3745.82037581	   1031.90893759	     11.14156560	    -19.51042345	    -18.63798338	     11.54243318	     25.21973111	     -3.28820993	     -0.00423698	     -0.00211115	      0.00837372	     -0.02352208	      0.02596438	      0.02515952	    -18.90748713	     23.43872139	     15.70490473	    -13.40204298	      2.23714409	     -1.74211108	    -32.13990774	   1780.43581303	    -24.01414407	      0.15167171	      0.01346344	     -0.00560176	      0.00002248	     -3.78033263	      0.00007807	      0.00000000	      0.00000000	      0.00000000	      0.65435899	     -0.35594039	      0.70519576	      0.00000000	     -0.00000000	      0.00000000
    144.42160000	    120.45928000	    197.60225617	     52.23889092	    127.41447210	     41.70675058	      7.83747483	     22.29261607	      8.28582781	      8.61617330	      4.30851356	     37.29839856	    169.74719308	    318.81879558	     47.63841853	     10.72954220	     14.90613052	     10.28038167	    614.28014136	      9.50143025	      8.98438178	    127.25501597	     22.98331328	      4.72213146	      4.21040906	    256.33088690	      7.31570923	     16.33445847	      7.75178935	     21.63657754	     34.43738583	      3.74699252	    364.64812257	     45.83358561	   5733.62349502	     73.73965155	    106.99190418	    562.68676725	    260.14963967	   2371.92622366	    656.05135929	     12.15593361	    -17.35452582	    -40.37649867	    -37.05534477	     34.11714845	     10.44041566	     -0.01344068	      0.00658353	      0.01362361	     -0.01460041	      0.00284716	      0.01010746	     -4.04732955	     40.08309014	      1.27402474	    -11.20544208	      2.29950778	     -1.26413716	     47.79963338	   1675.55108622	    -22.61243457	      0.20600538	      0.03662678	     -0.01342559	      0.00003015	    -19.37547839	      0.00007701	     -0.00000000	     -0.00000000	      0.00000000	      0.54353605	     -0.48561776	      0.73147734	     -0.00000000	     -0.00000000	     -0.00000000
    144.43784000	     52.59140024	     84.24036312	     12.35631008	     76.33869758	      7.92658989	      7.79188382	     14.47891554	      8.27390725	      9.64420417	      4.47155884	      6.73316162	     36.64064642	    256.99836358	   1006.56731448	     11.20371246	     15.56214986	     10.40774534	    585.43020551	     10.55361266	      9.56006433	    117.59964572	     27.23024518	      5.11993604	      4.14023063	    265.40236917	      9.46886619	     38.90914093	      9.10735796	     21.43403037	     34.20401107	      3.73374775	    101.69684964	     12.21667183	   4083.99229102	     93.09046443	     18.42937409	     48.30289542	    218.99518934	   2000.08964538	    555.54648619	    -11.00828927	     -0.13044899	    -10.01523901	    -11.37326361	     -1.59996404	      4.87981444	     -0.00770949	      0.00103502	      0.01194994	     -0.01198066	     -0.00906336	      0.00024495	      2.64274053	     38.42453907	     -8.46981883	     -7.99577549	      2.17344765	     -0.83204384	    121.48541649	   1461.37608853	    -59.35792539	      0.21251729	      0.03579952	     -0.01842736	      0.00001752	    -16.49883028	      0.00008147	     -0.00000000	     -0.00000000	      0.00000000	      0.38968993	     -0.60878450	      0.74565588	     -0.00000000	     -0.00000000	     -0.00000000
    144.45408000	     13.64543429	     33.87343533	      7.91312161	      6.97695248	      9.22967706	     17.15872607	     14.48698783	      8.61430279	     10.24116301	      4.76692856	     27.89571466	    127.66624095	    306.96399106	    636.45078441	     32.76999645	     39.48716230	     12.54593775	     14.77148878	     11.51275427	     35.23568970	      5.44541383	      6.17309353	      9.83399962	      4.82519222	     15.82835174	      8.10359899	     17.45146610	     65.66316550	     53.48573207	    553.50580149	      5.58465057	     23.60295188	      7.89842658	   3311.18721671	      7.05785872	     25.49483022	    400.31267862	    100.04570277	    912.00246460	    254.90371328	    -17.18411946	      9.27178328	    -38.94114881	      0.75143214	     33.79526246	    -13.05005989	      0.00425664	     -0.00007956	     -0.00220093	     -0.00537907	     -0.00166728	      0.00783884	      1.58027519	     22.67933883	     -7.40863429	     -5.71969518	      2.05262471	     -0.85941292	    159.99872448	   1170.94137779	    -11.35253840	      0.22422461	      0.03439212	     -0.01301621	      0.00001541	      4.50962903	      0.00005346	      0.00000000	      0.00000000	     -0.00000000	      0.19909216	     -0.71391958	      0.73841595	      0.00000000	      0.00000000	      0.00000000
    144.47032000	      9.93761497	     15.14112127	      7.01285470	      6.77276799	      7.15797486	      7.85176091	     14.41846198	      8.76023565	     10.43530567	      4.74773077	     27.45917380	    120.27566991	    255.22494275	    616.71005107	     48.84600414	     17.32124117	     10.40668991	    386.84714594	    154.34921691	    133.68926671	     52.42288986	     53.99256644	     42.51921983	      4.12999797	     62.86236380	      8.34275909	     17.82016069	     91.26634130	     22.18479224	    627.24189629	      6.97561464	     23.91284262	      7.97084396	   2364.54294778	     81.14153244	     95.30653167	    394.05441683	     37.06573211	    296.83866465	     85.24769139	     -5.99719829	     -0.91858868	     22.85394294	      0.84452191	    -19.58944715	     -7.94731226	      0.00301037	     -0.01210258	      0.00005892	     -0.00176046	     -0.00043825	      0.00759916	     -2.73394570	      2.58027761	      1.99270602	     -3.75124486	      2.09453980	     -1.33433139	    174.23911839	    850.12999094	    -39.80591796	      0.23928550	      0.03459865	     -0.00320031	      0.00001392	      5.47897568	      0.00003340	      0.00000000	      0.00000000	     -0.00000000	     -0.02055446	     -0.78762672	      0.70691897	      0.00000000	      0.00000000	      0.00000000
    144.48656000	     10.00100160	     15.20000141	      7.00649057	      6.70066029	      7.25002053	      8.00345875	     14.56745956	     20.38157631	     10.27744813	      5.17164993	     22.07594060	     92.60791506	    661.30114729	     37.81027001	     11.69120740	     16.13297286	     10.33091115	    532.11520081	    140.55012437	     55.23971458	     88.51428150	     66.53769604	     36.07168461	      4.15544457	    234.70581566	      8.34193060	     17.75351837	     11.34494537	    100.26789283	    451.16674216	     13.30722048	     24.44702845	      8.09989865	   1414.57233498	    114.10478976	    110.63734593	    321.50676597	     20.18684966	     60.38941280	     32.91519645	     14.64855610	     -3.06574171	     30.73564114	      5.34453099	    -22.10830112	      6.19587721	      0.01022817	     -0.01618555	      0.00280408	      0.00940914	      0.00005049	      0.00562671	     -8.59726994	    -13.61112410	     12.26545424	      0.88677445	      2.25745121	     -1.89234018	    154.06988079	    532.15326437	    -26.80253243	      0.24880915	      0.02952628	      0.00849891	      0.00000661	     -3.15309290	      0.00002171	      0.00000000	      0.00000000	     -0.00000000	     -0.26173620	     -0.81684077	      0.65249377	      0.00000000	      0.00000000	      0.00000000
    144.50280000	     10.06466210	     25.32856586	      7.06870705	      6.69560195	      7.40294084	      8.20781632	     14.80568257	     53.66710479	      9.92352589	      4.89661058	     16.89350085	     65.60340410	    592.06336481	     38.63373907	     11.80278727	     16.27531309	     10.41255994	    366.21222853	    104.85968495	     51.00253940	     71.75416535	     64.73160175	     44.97364813	      4.48495119	    371.98583376	      8.06078328	     17.17224603	     53.89107984	    373.05737117	    333.44642225	     30.14790278	     24.95060832	      8.21030063	    504.72423807	    105.99898397	    116.09964215	    251.93330175	     19.64645374	     58.78167223	     32.16409694	     18.99414571	     -1.07486439	     12.95303856	      7.19218402	     -6.74335250	      5.70517198	      0.03076480	     -0.01641012	      0.00020224	      0.02835122	      0.00082433	      0.00384280	    -17.05919234	    -23.44426214	     17.71176337	     10.31617278	      2.41704249	     -2.20288112	    103.13135008	    284.05485776	    -18.72253522	      0.25467092	      0.01971300	      0.02104765	      0.00000283	     -0.15532677	      0.00001091	      0.00000000	      0.00000000	     -0.00000000	     -0.51417262	     -0.79010217	      0.57665451	      0.00000000	      0.00000000	      0.00000000
    144.51904000	     10.72952085	     90.13493827	      7.18057555	      6.77953216	      7.55795763	      8.49460014	     15.03571839	     20.72620329	    204.98581320	     34.68778852	      5.49767456	     11.52129078	     20.11613477	   1190.79810752	     12.18580064	     16.77340660	     10.73275706	    167.34383882	     56.63729753	     38.98835380	     35.49301913	     36.82775978	     30.71908770	      4.81084429	    232.92879954	     10.23567646	     17.52317209	     71.36741866	    276.53625583	    484.71192079	     16.45289713	     25.12747818	      8.27251846	     61.62770006	     58.92629834	    663.00829107	     20.96266926	     19.77539787	     59.05878212	     32.38979615	     -3.51293014	      2.54864703	    -19.64318287	     -2.91302229	     14.03139942	      1.08398290	      0.02275232	     -0.00900173	     -0.00066637	      0.01196217	      0.02417404	     -0.00266549	    -26.06913844	    -25.75740953	     16.33878505	     22.17780249	      2.52339827	     -2.11671846	     50.00360462	    135.41726702	    -10.61164266	      0.26731900	      0.01648151	      0.02522013	      0.00000105	      2.54461660	      0.00000598	     -0.00000000	     -0.00000000	      0.00000000	     -0.75970581	     -0.69922826	      0.48394168	     -0.00000000	     -0.00000000	     -0.00000000
    144.53528000	     33.55663663	    127.07416224	      7.31322126	      6.91383065	      7.88975264	     19.60526896	     15.13603087	      8.02987179	    603.26748188	     90.22178649	      5.83489555	     11.97757739	     19.49641258	   1678.55944580	     12.76810001	     17.57655264	     11.22212228	     16.52521790	     10.73715873	     11.89589476	      9.01992386	     11.08572914	     11.49406923	      4.98698036	    115.50307488	     85.94722739	    299.47170504	     40.84309214	    165.05746949	    603.61181121	      6.24917388	     24.82942150	      8.26317969	     61.72764105	     23.93668564	   1627.84278678	     22.70195792	     28.98025431	    199.83684940	     63.29843322	    -23.89872688	     26.26492133	    -34.21514148	     -8.60398803	     25.61335463	     -1.57000459	      0.01393257	     -0.00213964	     -0.00063122	     -0.00102626	      0.07008620	     -0.01399838	    -30.88607247	    -18.34544027	     10.00793000	     30.66693093	      2.45190870	     -1.56522977	     14.57634986	     44.14366210	     -0.16768285	      0.15681283	     -0.16437920	      0.03661838	      0.00000033	      0.73661410	      0.00000095	     -0.00000000	     -0.00000000	      0.00000000	     -0.97284526	     -0.54410546	      0.39096609	     -0.00000000	     -0.00000000	     -0.00000000
    144.55152000	     17.49616745	     52.64726073	      7.43408172	      7.03889866	      8.17698284	     10.08491038	     15.04448011	      8.05775055	    733.25333116	    108.64996535	      6.15544620	     12.50027417	     19.01438163	   2030.89653368	     13.43495193	     18.48634493	     11.71013641	     21.20606170	     10.80542268	     12.05094156	      9.97668030	      6.82290548	      6.95290500	      4.33651222	     79.87225995	    112.16138678	    415.58981862	     16.45630682	     87.88865630	    349.10587739	      4.37240115	     24.08675743	      8.20423384	     64.01377090	     15.20289112	   1949.26842740	     24.25080879	     41.06401058	    312.56839048	     97.26934330	    -20.28262778	     37.06145409	    -12.61780398	    -17.40574386	      4.62615509	     -1.34920120	      0.00649804	     -0.00157326	      0.00085314	     -0.00142450	      0.09299610	     -0.01991520	    -28.90851755	     -5.87097504	      3.84603394	     33.36401387	      1.80908707	     -0.66741495	      0.00000000	      0.00000002	     -0.00000000	     -0.11846102	     -0.67085213	      0.01958205	      0.00000000	      0.00000000	      0.00000000	     -0.00000000	     -0.00000000	      0.00000000	     -1.13061018	     -0.33765436	      0.32807914	     -0.00000000	     -0.00000000	     -0.00000000
    144.56776000	     28.18320889	    122.28213910	      7.33391785	      7.06211990	      7.55108223	     10.55924647	     14.71058748	     39.10526285	    208.86111655	     29.22771249	      6.42725308	     13.07986595	    394.21320318	     34.83123568	     13.71435561	     19.00446865	     11.95324965	    123.53773731	     26.12657170	     12.59762408	     29.16716509	     27.30616531	     22.35312382	     14.92309323	    194.98811239	     43.44021707	    174.13779170	     25.11727352	    252.43866825	     32.58672931	     14.72967126	     23.34111968	      8.29488075	     69.90740158	     31.02587228	    503.51977137	     25.48472127	     23.41929824	     69.26317728	     37.85591229	      6.13526820	    -13.40139045	     14.39980882	      3.49553071	    -10.85643221	     -0.52748467	      0.02202451	     -0.00590859	     -0.00011377	      0.02882243	      0.02799187	     -0.00709297	    -23.62359755	      5.52485614	      0.91820650	     31.15766792	      0.52092470	      0.28754565	      0.00000000	      0.00000000	     -0.00000000	     -0.04731654	     -0.66877445	      0.00926928	      0.00000000	      0.00000000	      0.00000000	     -0.00000000	     -0.00000000	      0.00000000	     -1.22216607	     -0.10286788	      0.32363385	     -0.00000000	     -0.00000000	     -0.00000000
    144.58400000	     33.79250814	    129.66822257	      7.31230107	      7.10034662	      7.49218146	     14.53495636	     14.20073794	     17.80757549	    358.80119591	     52.09192097	      6.62520628	     13.65459645	    778.31932284	     36.74710865	     13.98342220	     19.41493665	     12.11022786	    125.84058316	     19.44369614	     13.22019097	     30.73006906	     26.80507866	     20.50171879	      8.73219108	    199.76642633	     73.72700379	    287.53386952	     19.63198847	    259.51716056	    281.46469362	     10.94496173	     21.44189437	      7.86038784	     77.96538658	     42.35083824	    913.40443065	     26.42525171	     24.77477973	     73.11926871	     39.84135862	     50.88844483	    -85.34702223	     32.77950049	     34.92671325	    -19.84756527	     -1.13075883	      0.02313905	     -0.00554986	      0.00001534	      0.01321018	      0.05636501	     -0.01257552	    -15.72509799	     13.52937112	      0.53145019	     27.42540173	     -1.03339985	      0.96655645	      0.00000000	      0.00000000	     -0.00000000	      0.02412800	     -0.66084880	     -0.00480517	      0.00000000	      0.00000000	      0.00000000	      0.00000000	      0.00000000	     -0.00000000	     -1.24757245	      0.14003352	      0.38357326	      0.00000000	      0.00000000	      0.00000000
