Static Optimization
version=1
nRows=51
nColumns=59
inDegrees=no
This file contains static optimization results.

endheader
time	addbrev_r	addlong_r	addmagDist_r	addmagIsch_r	addmagMid_r	addmagProx_r	bflh_r	bfsh_r	edl_r	ehl_r	fdl_r	fhl_r	gaslat_r	gasmed_r	glmax1_r	glmax2_r	glmax3_r	glmed1_r	glmed2_r	glmed3_r	glmin1_r	glmin2_r	glmin3_r	grac_r	iliacus_r	perbrev_r	perlong_r	piri_r	psoas_r	recfem_r	sart_r	semimem_r	semiten_r	soleus_r	tfl_r	tibant_r	tibpost_r	vasint_r	vaslat_r	vasmed_r	pelvis_tx_residual	pelvis_ty_residual	pelvis_tz_residual	pelvis_tilt_residual	pelvis_list_residual	pelvis_rotation_residual	hip_flexion_r_reserve	hip_adduction_r_reserve	hip_rotation_r_reserve	knee_angle_r_reserve	ankle_angle_r_reserve	subtalar_angle_r_reserve	hip_flexion_l_torque	hip_adduction_l_torque	hip_rotation_l_torque	knee_angle_l_torque	ankle_angle_l_torque	subtalar_angle_l_torque
    143.77200000	      0.02026916	      0.16780729	      0.01001784	      0.01001711	      0.01002757	      0.01021569	      0.01001031	      0.08413042	      0.01378312	      0.01065869	      0.01039057	      0.01020153	      0.50753694	      0.01000083	      0.01001111	      0.01000527	      0.01000463	      0.25057916	      0.06397284	      0.01062181	      0.15904587	      0.11284662	      0.05579868	      0.02970396	      0.39802912	      0.04028950	      0.08353640	      0.01161812	      0.33012793	      0.08590576	      0.10220399	      0.01001076	      0.01002656	      0.12239560	      0.19671656	      0.01005107	      0.01005823	      0.01000912	      0.01000318	      0.01000567	      1.40370755	    -38.69302037	      5.15581165	      8.15595306	     -7.89093221	      6.44731061	      0.01762156	     -0.01029047	      0.00069888	      0.01435506	     -0.00133761	     -0.00195659	     -0.15882593	      0.06896477	     -0.08220645	      0.01299339	      0.00770440	     -0.00329177
    143.78824000	      0.09357378	      0.25136132	      0.01003654	      0.01002443	      0.01017573	      0.07066020	      0.01001548	      0.05213670	      0.01376136	      0.01173986	      0.01119022	      0.01088273	      0.49783902	      0.01000601	      0.01002027	      0.01000885	      0.01000820	      0.01499516	      0.02092972	      0.03518004	      0.03793533	      0.05612305	      0.05245310	      0.06168543	      0.22153658	      0.01558524	      0.02331402	      0.09320139	      0.24653883	      0.11061859	      0.07259701	      0.01001284	      0.01003487	      0.01163087	      0.08408448	      0.01037097	      0.01036243	      0.01001375	      0.01000487	      0.01000859	      0.86115214	     -0.68743214	      1.72701371	      0.23608299	     -2.75280624	      0.11916626	      0.01396676	     -0.00346287	     -0.00301262	      0.00913250	     -0.00013443	     -0.00060772	     -0.18124172	      0.11414361	     -0.11695299	      0.04559747	      0.00716455	     -0.00335276
    143.80448000	      0.15779149	      0.34339831	      0.01007667	      0.01002935	      0.06510107	      0.14013673	      0.01001903	      0.04509457	      0.06283160	      0.03280657	      0.01043158	      0.01011142	      0.05703860	      0.23173425	      0.01002237	      0.01000988	      0.01001135	      0.01002838	      0.01009793	      0.02270163	      0.01014393	      0.02158552	      0.04605522	      0.09338607	      0.17238772	      0.01026622	      0.01011194	      0.14986947	      0.24040380	      0.10239069	      0.06397160	      0.01001398	      0.01004143	      0.01000998	      0.02767974	      0.15899302	      0.01010396	      0.01001487	      0.01000531	      0.01000934	      0.28182423	      9.54811933	     -1.18635583	     -0.59935006	      1.96053504	     -3.07439684	      0.01421146	      0.00024577	     -0.00441372	      0.00806840	      0.00396182	      0.00009500	     -0.19498323	      0.11874714	     -0.09511834	      0.08060386	      0.00565322	     -0.00508041
    143.82072000	      0.19363036	      0.34075564	      0.06315891	      0.01131069	      0.14937698	      0.14636778	      0.01003930	      0.01194418	      0.50633719	      0.16432615	      0.01002319	      0.01001069	      0.01000322	      0.56306212	      0.01001143	      0.01000879	      0.01005720	      0.01001344	      0.01001496	      0.01001182	      0.01005464	      0.01004068	      0.01003016	      0.07027356	      0.11326774	      0.11318796	      0.20383377	      0.01000175	      0.14033934	      0.16482889	      0.01532671	      0.01002314	      0.01008539	      0.01000166	      0.01007488	      0.64864135	      0.01000577	      0.01321811	      0.01313480	      0.01330427	     -0.26745375	     12.22038995	     -4.52686728	     -1.88361917	      6.95796949	     -1.70029934	      0.00763885	      0.00525076	      0.00116759	     -0.00007820	      0.02185464	     -0.01172581	     -0.20612088	      0.09454184	     -0.04836215	      0.11495584	      0.00147143	     -0.00468636
    143.83696000	      0.17282718	      0.34185805	      0.01037847	      0.01003215	      0.09469547	      0.14128920	      0.01001898	      0.03894638	      0.39708094	      0.12546125	      0.01002643	      0.01001195	      0.01000416	      0.40552394	      0.01001367	      0.01000702	      0.01000910	      0.01002482	      0.01003902	      0.01004949	      0.01028354	      0.01083858	      0.01194402	      0.09147706	      0.17663938	      0.08721425	      0.16110875	      0.02510837	      0.22154521	      0.11017329	      0.05259950	      0.01001676	      0.01005357	      0.01000187	      0.01730589	      0.49458063	      0.01000627	      0.01001326	      0.01000448	      0.01000826	     -3.70804499	      1.37480356	     -4.28377282	     -2.47062970	      7.38097765	     -1.50151290	      0.01343204	      0.00198152	     -0.00181436	      0.00688926	      0.01809119	     -0.00980668	     -0.23079731	      0.06823576	     -0.01441161	      0.14565707	     -0.00566802	      0.00003742
    143.85320000	      0.15918713	      0.37041728	      0.01002526	      0.01001644	      0.01124692	      0.10293221	      0.01001271	      0.10905769	      0.11096625	      0.02996274	      0.01007285	      0.01003589	      0.01037513	      0.02739496	      0.01000758	      0.01000382	      0.01000439	      0.02931293	      0.01007280	      0.01003620	      0.09400527	      0.08965245	      0.06941633	      0.11107637	      0.36844113	      0.03624397	      0.07257848	      0.03944913	      0.37236211	      0.03130089	      0.12636669	      0.01001632	      0.01003916	      0.01000660	      0.15644455	      0.10183207	      0.01001803	      0.01000613	      0.01000205	      0.01000390	     -0.97931820	     -3.78566197	     -0.59244488	      0.55846993	      0.97143130	      0.49808205	      0.02273582	     -0.00427935	     -0.00101185	      0.01889173	      0.00443701	     -0.00369642	     -0.26612781	      0.05102427	      0.00101864	      0.17071641	     -0.01385645	      0.00685476
    143.86944000	      0.16424176	      0.38827483	      0.01002045	      0.01001409	      0.01026035	      0.09696370	      0.01001234	      0.13552344	      0.13148587	      0.03450825	      0.01007638	      0.01003505	      0.02038424	      0.01562480	      0.01000668	      0.01000329	      0.01000368	      0.12892869	      0.01037952	      0.01004091	      0.13808042	      0.12225835	      0.08783237	      0.12188748	      0.41863746	      0.04215896	      0.08683635	      0.01879177	      0.40566027	      0.08348986	      0.15310267	      0.01002005	      0.01004378	      0.01000603	      0.20365439	      0.12043648	      0.01001703	      0.01000544	      0.01000180	      0.01000352	      3.63494604	     -6.16153553	      2.82371266	      2.56223874	     -4.73201462	      3.07279734	      0.02512175	     -0.00527102	     -0.00051201	      0.02217066	      0.00542750	     -0.00448391	     -0.31160254	      0.00930130	      0.00923589	      0.18860565	     -0.01932152	      0.00920615
    143.88568000	      0.16185156	      0.37809080	      0.01002163	      0.01001457	      0.01060078	      0.09529655	      0.01001508	      0.13946000	      0.15241286	      0.04174454	      0.01009334	      0.01003245	      0.01077977	      0.03678200	      0.01000829	      0.01000379	      0.01000390	      0.15663626	      0.01271206	      0.01012116	      0.14087312	      0.12292243	      0.08734621	      0.12230455	      0.39697865	      0.04066815	      0.08276981	      0.02793050	      0.38110144	      0.16109113	      0.15480189	      0.01003519	      0.01009248	      0.01000459	      0.20169367	      0.15596793	      0.01001519	      0.01000605	      0.01000203	      0.01000396	      2.94473396	     -6.27779213	      3.94487579	     -2.78119067	     -5.43147936	      3.42617372	      0.02384826	     -0.00442284	     -0.00072326	      0.02121308	      0.00711414	     -0.00461925	     -0.36879206	     -0.05839016	      0.00980289	      0.19731116	     -0.01951651	      0.00470852
    143.90192000	      0.15684249	      0.36310997	      0.01002361	      0.01001583	      0.01026978	      0.09804929	      0.01001573	      0.12688265	      0.12968861	      0.03559986	      0.01006557	      0.01003042	      0.01061461	      0.01185240	      0.01000970	      0.01000448	      0.01000458	      0.13659124	      0.02311826	      0.01019019	      0.11940994	      0.11313299	      0.08735520	      0.11735278	      0.34848787	      0.03075047	      0.06228854	      0.09339619	      0.34372936	      0.27857975	      0.14635489	      0.01003318	      0.01005648	      0.01000414	      0.18341737	      0.13515598	      0.01001697	      0.01000929	      0.01000322	      0.01000622	     -3.82934496	     -1.81013776	      4.43831134	     -9.33744461	     -5.72676922	     -0.30975414	      0.02201518	     -0.00312121	     -0.00202467	      0.01789280	      0.00642358	     -0.00362858	     -0.41031795	     -0.08464726	      0.00829437	      0.19281536	     -0.01515985	     -0.00083481
    143.91816000	      0.15816886	      0.37381279	      0.01002052	      0.01001379	      0.01011012	      0.10059696	      0.01001127	      0.09648731	      0.13155315	      0.03709953	      0.01006607	      0.01002994	      0.01006003	      0.01007841	      0.01001185	      0.01000495	      0.01000438	      0.15964041	      0.06659067	      0.04034400	      0.11817323	      0.12178241	      0.09839318	      0.09955728	      0.34755623	      0.02598388	      0.05012704	      0.14939419	      0.35254561	      0.46799564	      0.14301412	      0.01002274	      0.01002689	      0.01000369	      0.20199997	      0.14445144	      0.01001787	      0.01001415	      0.01000505	      0.01000955	     -6.07157677	     11.84703470	      4.61576429	      0.65888394	     -8.58508785	     -5.72608082	      0.02328201	     -0.00323451	     -0.00360208	      0.01273434	      0.00718240	     -0.00321062	     -0.35834600	     -0.03620658	      0.02050481	      0.16333290	     -0.00812560	     -0.00264456
    143.93440000	      0.13144184	      0.33383639	      0.01001641	      0.01001189	      0.01004851	      0.07271951	      0.01000682	      0.01506459	      0.14121464	      0.03971082	      0.01006216	      0.01002757	      0.01002966	      0.01005203	      0.01001263	      0.01000497	      0.01000393	      0.24924630	      0.11932289	      0.07770118	      0.13611987	      0.13414023	      0.10020308	      0.02834819	      0.35048659	      0.02632586	      0.05029154	      0.13512828	      0.35097787	      0.70059362	      0.11081112	      0.01001555	      0.01001271	      0.01000329	      0.22860225	      0.15471036	      0.01001676	      0.01015964	      0.01006011	      0.01010863	      0.03260706	     14.11046317	      5.09492594	     11.21906931	    -16.47262440	    -18.28396261	      0.02360017	     -0.00502009	     -0.00354615	      0.00143387	      0.00803936	     -0.00333877	     -0.33139436	      0.04044239	      0.22642853	      0.21262454	     -0.11016704	      0.09236682
    143.95064000	      0.06124059	      0.20929356	      0.01001556	      0.01001223	      0.01003032	      0.01652618	      0.01000656	      0.01043020	      0.13108173	      0.03717939	      0.01006421	      0.01002846	      0.01003973	      0.01009776	      0.01001821	      0.01000648	      0.01000440	      0.28767731	      0.15943595	      0.11714165	      0.12329610	      0.12170268	      0.08704259	      0.01025278	      0.27666191	      0.02420046	      0.04519180	      0.11715320	      0.27117890	      0.57099961	      0.09160800	      0.01001784	      0.01001217	      0.01000335	      0.19068106	      0.14467715	      0.01001737	      0.01692581	      0.04085915	      0.02329726	     28.46281044	    -27.73214944	    -39.05112583	     48.47052077	     61.98088876	     21.87853647	      0.01899696	     -0.00648829	     -0.00266997	     -0.00096054	      0.00776620	     -0.00309348	      0.08600342	     -1.13859921	     -0.24597601	      0.01797824	     -0.26769772	      0.03639543
    143.96688000	      0.01003303	      0.01002332	      0.01009126	      0.01103853	      0.01003765	      0.01003471	      0.01126853	      0.01439022	      0.08704373	      0.02632132	      0.01009470	      0.01003921	      0.01009129	      0.01027367	      0.04579616	      0.01134132	      0.01004448	      0.27108464	      0.17131086	      0.13038940	      0.07477415	      0.06261925	      0.03940929	      0.01009093	      0.01257706	      0.01651031	      0.02539797	      0.03202528	      0.01009970	      0.01014392	      0.01069508	      0.01691192	      0.01293138	      0.01000460	      0.04589534	      0.10197386	      0.01002390	      0.01043730	      0.01013385	      0.01029734	    -27.68519693	    -12.18582544	     44.42660134	    -65.22426629	    -81.58151602	    -33.73161828	     -0.00162805	     -0.00575328	      0.00222925	      0.00125223	      0.00553780	     -0.00193720	     -0.56193772	      0.43240221	      0.36526364	      0.35666841	     -0.68063865	      0.36964385
    143.98312000	      0.01002167	      0.01001264	      0.06090528	      0.23094635	      0.01004547	      0.01002184	      0.29871754	      0.01024189	      0.04376863	      0.01479158	      0.01014537	      0.01007042	      0.01014939	      0.01020859	      0.04288116	      0.05129291	      0.11582089	      0.43513892	      0.23540892	      0.11932511	      0.11904477	      0.07062818	      0.02732687	      0.01005552	      0.01006349	      0.01088502	      0.01156639	      0.01006472	      0.01002341	      0.01001498	      0.01004988	      0.18792974	      0.17353918	      0.01000810	      0.01197008	      0.05614056	      0.01004637	      0.01531322	      0.05061516	      0.02341968	    -13.49177028	     32.62566930	      6.10781852	    -27.30954641	      8.02297184	      9.28806703	     -0.01192152	     -0.00591555	      0.00901051	     -0.00106602	      0.00302378	     -0.00085891	      0.17500423	     -0.72394108	     -0.11072666	     -0.10618771	     -0.76731777	      0.37911806
    143.99936000	      0.01003427	      0.01001676	      0.11938396	      0.27804396	      0.01025457	      0.01003125	      0.33397492	      0.01016873	      0.04170909	      0.01464843	      0.01014104	      0.01007269	      0.01015182	      0.01020470	      0.01843303	      0.02437806	      0.15984240	      0.38736011	      0.19453956	      0.07771502	      0.11128252	      0.05577305	      0.01567575	      0.01007809	      0.01006606	      0.01278103	      0.01690184	      0.01004643	      0.01002446	      0.01001240	      0.01004143	      0.27110898	      0.19459075	      0.01000828	      0.01019354	      0.04873315	      0.01004749	      0.03086455	      0.10495090	      0.04957676	    -13.32722112	      4.75957117	     28.01152865	    -35.64755025	    -43.45101351	    -12.86907930	     -0.01178964	     -0.00262881	      0.00921288	     -0.00216051	      0.00261664	     -0.00105618	      0.19183162	     -0.04628681	      0.17195035	     -0.16755127	     -1.11794155	      0.80145284
    144.01560000	      0.06020935	      0.01102638	      0.13799920	      0.23250976	      0.09390515	      0.01112611	      0.19624030	      0.01014090	      0.06711187	      0.02074501	      0.01010260	      0.01004669	      0.01009637	      0.01014661	      0.01003326	      0.01002531	      0.08157028	      0.22023539	      0.04435923	      0.01005405	      0.08138945	      0.01477514	      0.01012459	      0.01048288	      0.01294249	      0.01602060	      0.02844479	      0.01002620	      0.01006566	      0.01001523	      0.01004619	      0.21133393	      0.13275549	      0.01000474	      0.01010285	      0.08038070	      0.01002941	      0.03967201	      0.13402515	      0.06430771	      5.20834027	    -16.24469380	     -7.47919624	     27.59542006	      7.26641415	      1.17541679	     -0.00675296	      0.00285047	      0.00777055	     -0.00278214	      0.00422906	     -0.00167940	      0.50970757	     -0.63549354	      0.30875003	     -0.50255179	     -0.68220770	      0.37205045
    144.03184000	      0.09149736	      0.09645337	      0.07721537	      0.10817657	      0.07814163	      0.04699025	      0.04688025	      0.01018731	      0.09387709	      0.03062960	      0.01008694	      0.01003532	      0.01005120	      0.01011968	      0.01003712	      0.01002935	      0.02277843	      0.05925650	      0.01011680	      0.01004362	      0.03419667	      0.01042225	      0.01010874	      0.01480764	      0.03317859	      0.02105981	      0.03340565	      0.01003372	      0.01398996	      0.01003607	      0.01007852	      0.06551640	      0.04124365	      0.01000306	      0.01013462	      0.12156302	      0.01002326	      0.03528752	      0.11852557	      0.05727985	     15.01183171	      0.00034317	     -9.31009837	     26.23115411	     10.29456637	      1.32833143	     -0.00208464	      0.00324995	      0.00374620	     -0.00251137	      0.00622484	     -0.00211622	      0.28697379	     -0.61245010	      0.26265535	     -0.29564939	     -0.65769075	      0.45936859
    144.04808000	      0.08965506	      0.17969195	      0.01025937	      0.01003713	      0.04366956	      0.11128696	      0.01003139	      0.01026578	      0.11855122	      0.04033535	      0.01007511	      0.01003006	      0.01002375	      0.01007145	      0.01022833	      0.02033260	      0.02067650	      0.01000874	      0.01001705	      0.01003154	      0.01002579	      0.01003859	      0.01006662	      0.02798441	      0.01007942	      0.02636601	      0.03868901	      0.03831130	      0.09833681	      0.27298023	      0.04591946	      0.01001892	      0.01003837	      0.01000227	      0.01007895	      0.16112530	      0.01002077	      0.02407287	      0.07783306	      0.03765501	      4.42036137	      3.88421813	      0.19692021	     -1.29297575	      1.68245237	      4.63724227	      0.00560734	      0.00304869	     -0.00701079	     -0.00174223	      0.00793800	     -0.00248112	     -0.15536663	     -0.49876204	      0.00296437	      0.04289038	     -0.60631731	      0.43001766
    144.06432000	      0.13678704	      0.31422926	      0.01005100	      0.01001549	      0.04928351	      0.20327008	      0.01001382	      0.01034195	      0.13755438	      0.04825760	      0.01007401	      0.01002820	      0.01001250	      0.01003243	      0.01034551	      0.07882446	      0.01701300	      0.01000415	      0.01000877	      0.01001924	      0.01001216	      0.01002008	      0.01004326	      0.05636165	      0.01008336	      0.03264760	      0.04736812	      0.15243795	      0.20682515	      0.59729275	      0.12703748	      0.01000784	      0.01001776	      0.01000193	      0.01004599	      0.19271622	      0.01001994	      0.01901742	      0.05693769	      0.02757432	     -3.55961116	     -0.31648510	      8.29135879	    -15.83281166	    -13.06889712	     -1.77772288	      0.01263521	      0.00441656	     -0.01592423	     -0.00135715	      0.00896507	     -0.00283264	     -0.44520386	     -0.27836940	      0.05487125	      0.33151483	     -0.59385890	      0.47009656
    144.08056000	      0.15661770	      0.36261274	      0.01003769	      0.01001183	      0.04523617	      0.23781443	      0.01000946	      0.01049303	      0.14348141	      0.05172321	      0.01008623	      0.01002914	      0.01000900	      0.01000983	      0.01016628	      0.04779153	      0.01040888	      0.01000344	      0.01000724	      0.01001576	      0.01001019	      0.01001701	      0.01003750	      0.06219717	      0.01014696	      0.03914522	      0.05890637	      0.20508878	      0.26940841	      0.72771873	      0.16391491	      0.01000497	      0.01001291	      0.01000193	      0.01004461	      0.20485158	      0.01002064	      0.02198120	      0.06372423	      0.03081711	     -4.57214845	     -3.91993553	     -0.84700747	     -4.95156735	      0.45311870	     -4.74663662	      0.01614637	      0.00469979	     -0.01907511	     -0.00161653	      0.00880864	     -0.00305444	     -0.44347501	     -0.41750637	      0.11802283	      0.38552508	     -0.48969285	      0.40275935
    144.09680000	      0.08452041	      0.21700757	      0.01002233	      0.01001463	      0.01005203	      0.06120851	      0.01000666	      0.01074040	      0.13616221	      0.04918387	      0.01008331	      0.01003326	      0.01000927	      0.01000608	      0.01002299	      0.01001356	      0.01001222	      0.01002208	      0.01003242	      0.01003782	      0.01009961	      0.01056167	      0.01204588	      0.01015278	      0.18537905	      0.04478496	      0.07380427	      0.04636869	      0.26250740	      0.58998414	      0.12049121	      0.01000462	      0.01001252	      0.01000229	      0.11965914	      0.19243455	      0.01002273	      0.01303621	      0.02569769	      0.01464502	     -3.76177522	     -0.04912514	      1.78356742	     -0.71799923	     -3.79365914	      0.18203925	      0.01359506	     -0.00047140	     -0.00395140	     -0.00070835	      0.00756740	     -0.00318497	     -0.32314390	     -0.38311034	      0.00972601	      0.30812384	     -0.42961586	      0.36448419
    144.11304000	      0.04071743	      0.11878107	      0.01002633	      0.01002147	      0.01004506	      0.01074905	      0.01001084	      0.07348630	      0.12143876	      0.04296844	      0.01009190	      0.01003888	      0.01001588	      0.01001034	      0.01002521	      0.01001356	      0.01001285	      0.14138431	      0.03073983	      0.01010966	      0.06827402	      0.05908079	      0.03455038	      0.01123455	      0.18624728	      0.04832578	      0.08519605	      0.01044810	      0.18972826	      0.29815185	      0.10656070	      0.01000940	      0.01002656	      0.01000296	      0.13333699	      0.16371635	      0.01002535	      0.01006030	      0.01002369	      0.01004107	     -0.55172678	      2.93706466	      2.08820850	      0.68206037	     -0.64767071	      2.22684800	      0.00937856	     -0.00168071	      0.00089806	      0.00545419	      0.00595224	     -0.00319890	     -0.15132531	     -0.43253402	     -0.08928481	      0.19446532	     -0.36298298	      0.29745085
    144.12928000	      0.01459719	      0.04070980	      0.01004860	      0.01005017	      0.01006670	      0.01017258	      0.01004732	      0.09413503	      0.10467528	      0.03632071	      0.01011413	      0.01004654	      0.01002628	      0.01001909	      0.01004536	      0.01002343	      0.01002269	      0.21425631	      0.08012401	      0.01427407	      0.08375022	      0.06373775	      0.03547765	      0.02332353	      0.11280756	      0.04612166	      0.08362836	      0.01035613	      0.08795981	      0.03509649	      0.06521643	      0.04548955	      0.01471906	      0.01000392	      0.08505823	      0.13459815	      0.01002953	      0.01004242	      0.01001547	      0.01002811	      4.59432639	      2.00353280	      4.17688772	      4.41229063	     -6.09017846	      1.66646629	      0.00412278	     -0.00138335	      0.00219190	      0.00702019	      0.00463257	     -0.00294317	      0.07198854	     -0.31993145	     -0.07731184	      0.07770148	     -0.29781760	      0.25330684
    144.14552000	      0.01016459	      0.01010206	      0.01271721	      0.04274087	      0.01025161	      0.01010919	      0.04751985	      0.01026981	      0.08580941	      0.02992612	      0.01012692	      0.01005894	      0.01001525	      0.01000844	      0.01315630	      0.01055302	      0.01062788	      0.20729962	      0.09776364	      0.04693025	      0.07046744	      0.04845640	      0.02657068	      0.01022564	      0.01312733	      0.03753360	      0.06743093	      0.01015563	      0.01010581	      0.01005974	      0.01015505	      0.14017186	      0.03589185	      0.01000521	      0.02619868	      0.11038522	      0.01003805	      0.01090257	      0.01096801	      0.01101167	      3.35301873	      0.02185189	     -0.23076020	      2.04124232	      0.06957560	     -1.53610201	     -0.00170575	     -0.00067098	      0.00256290	     -0.00002631	      0.00366291	     -0.00233415	      0.21443542	     -0.26031214	     -0.04826515	      0.01073028	     -0.21609654	      0.17228135
    144.16176000	      0.01011575	      0.01006709	      0.02658646	      0.05818430	      0.01070881	      0.01010817	      0.10385885	      0.01027271	      0.06553397	      0.02375139	      0.01016744	      0.01008058	      0.01001884	      0.01001020	      0.04106230	      0.04992820	      0.04302596	      0.15627898	      0.08356297	      0.05322990	      0.04914531	      0.03540299	      0.02235867	      0.01029351	      0.01013404	      0.02560264	      0.04366231	      0.01039547	      0.01006361	      0.01004287	      0.01010951	      0.21000727	      0.05420605	      0.01000727	      0.01116197	      0.08854129	      0.01005522	      0.01327002	      0.02853015	      0.01629570	     -1.44274897	     -1.58805772	      0.97661909	     -0.22527608	     -3.67198697	      0.66076999	     -0.00281865	     -0.00063911	      0.00189785	     -0.00052986	      0.00287060	     -0.00154879	      0.32574009	     -0.07218167	     -0.02988042	     -0.05638880	     -0.11150751	      0.11014677
    144.17800000	      0.01015866	      0.01007984	      0.03961645	      0.06513553	      0.01548754	      0.01016092	      0.13647500	      0.01031365	      0.04424646	      0.01774625	      0.01019539	      0.01012841	      0.01002804	      0.01001214	      0.04081085	      0.06196390	      0.06776175	      0.08719078	      0.04815884	      0.03268983	      0.02606521	      0.01686992	      0.01258264	      0.01089607	      0.01009464	      0.01532194	      0.02013465	      0.01023948	      0.01005976	      0.01003726	      0.01010343	      0.25222953	      0.06854104	      0.01001121	      0.01019049	      0.06494453	      0.01007391	      0.01257174	      0.01899452	      0.01406602	     -4.36585283	      0.91204189	     -2.30596356	     -4.59861454	      4.60398916	      0.63011087	     -0.00308024	     -0.00001094	      0.00137917	     -0.00031442	      0.00201579	     -0.00081773	      0.31898857	     -0.02824598	     -0.04338804	     -0.05256619	     -0.05700450	      0.04916893
    144.19424000	      0.01023437	      0.01011652	      0.03558053	      0.05113475	      0.01828887	      0.01026733	      0.15550624	      0.01630275	      0.01303677	      0.01215441	      0.01075290	      0.01060775	      0.01027354	      0.01013354	      0.02964641	      0.05145885	      0.06283528	      0.02941080	      0.01818789	      0.01474575	      0.01141785	      0.01056938	      0.01043658	      0.01786526	      0.01010332	      0.01021389	      0.01012692	      0.01023716	      0.01007764	      0.01002929	      0.01016496	      0.28946507	      0.08312666	      0.01003225	      0.01012465	      0.04655613	      0.01197865	      0.01009062	      0.01003430	      0.01006091	     -0.75353650	      4.45185780	     -0.83661749	      0.63626659	      1.53216760	      0.91455986	     -0.00236559	      0.00031013	      0.00074368	      0.00179807	      0.00113948	      0.00049872	      0.36243249	      0.06493020	      0.00981619	     -0.07905391	      0.01045949	     -0.00857514
    144.21048000	      0.01011232	      0.01008695	      0.01319865	      0.01500903	      0.01076973	      0.01016755	      0.17770423	      0.04802208	      0.02364154	      0.01498776	      0.01116560	      0.01053826	      0.04296550	      0.01001174	      0.03892152	      0.05381479	      0.02942462	      0.01540242	      0.02278460	      0.03066033	      0.01161669	      0.01271086	      0.01413751	      0.02862296	      0.01014055	      0.01128606	      0.01070413	      0.02556819	      0.01010744	      0.01001884	      0.01570846	      0.34392154	      0.10238606	      0.01002756	      0.01020885	      0.04706394	      0.01044310	      0.01002850	      0.01000954	      0.01001774	      0.70512191	     -0.10255104	      0.46759641	      1.93193004	     -1.33966599	      0.48443172	     -0.00109149	     -0.00069986	     -0.00016470	      0.00646813	      0.00123698	     -0.00006644	      0.37115505	      0.09635228	      0.01712991	     -0.07805061	      0.01228499	     -0.00934561
    144.22672000	      0.01006512	      0.01004648	      0.01082173	      0.01153526	      0.01017533	      0.01009052	      0.20816358	      0.06537710	      0.10451633	      0.03428551	      0.01020911	      0.01006044	      0.19672913	      0.01000605	      0.07082321	      0.08437475	      0.01824051	      0.05264356	      0.05884468	      0.07083431	      0.01543210	      0.02299833	      0.02805383	      0.03015074	      0.01018207	      0.02979453	      0.04810208	      0.05914137	      0.01008202	      0.01001245	      0.02625881	      0.39449308	      0.12265515	      0.01000884	      0.01042305	      0.12977083	      0.01003931	      0.01001566	      0.01000533	      0.01000970	      1.89683879	     -5.67806517	      2.57234479	     -0.15403272	     -4.02837704	     -1.18852338	     -0.00098765	     -0.00213079	     -0.00046199	      0.00995572	      0.00420720	     -0.00212722	      0.38041964	      0.09441774	      0.02546894	     -0.08160391	      0.01518209	     -0.01367432
    144.24296000	      0.01004572	      0.01003565	      0.01010242	      0.01011945	      0.01006674	      0.01006056	      0.24863879	      0.08667926	      0.16407542	      0.04907020	      0.01007363	      0.01003602	      0.29773476	      0.03020298	      0.09555349	      0.10584164	      0.01049448	      0.08323574	      0.08740867	      0.10194444	      0.01680591	      0.03291571	      0.04036564	      0.03570052	      0.01011097	      0.04382632	      0.07707790	      0.08143844	      0.01008084	      0.01000801	      0.03768365	      0.46005411	      0.15117939	      0.01000627	      0.01018287	      0.18263977	      0.01002121	      0.01000921	      0.01000317	      0.01000572	      1.79810708	    -10.41640995	      2.25548435	     -3.05305589	     -2.73845337	     -2.39641090	     -0.00075224	     -0.00328435	     -0.00071210	      0.01439625	      0.00688856	     -0.00385726	      0.38310599	      0.06213628	      0.04239976	     -0.08401719	      0.01728909	     -0.01910022
    144.25920000	      0.01006310	      0.01004228	      0.01953315	      0.03683319	      0.01054141	      0.01008170	      0.27430495	      0.06580534	      0.24489751	      0.07525721	      0.01004325	      0.01002096	      0.01002034	      0.31555076	      0.07682723	      0.10001610	      0.05751587	      0.07968227	      0.06758353	      0.06820821	      0.01962873	      0.02278606	      0.02381713	      0.03863108	      0.01007938	      0.04714538	      0.08266909	      0.03335080	      0.01005566	      0.01000705	      0.01532411	      0.45812064	      0.16286695	      0.01000391	      0.01010398	      0.28761589	      0.01001169	      0.01001049	      0.01000364	      0.01000658	      0.60095131	     -4.10527210	     -2.51046080	     -1.80277095	      4.16094134	     -0.55311135	     -0.00278947	     -0.00168871	      0.00051099	      0.01143337	      0.01210764	     -0.00584317	      0.37683358	      0.01705103	      0.05883916	     -0.08333469	      0.01839785	     -0.02314330
    144.27544000	      0.03602989	      0.04614993	      0.02859430	      0.01504549	      0.03909181	      0.04189924	      0.26224694	      0.08023860	      0.11911811	      0.03613206	      0.01006462	      0.01003301	      0.01000699	      0.12976193	      0.01083186	      0.02837407	      0.05870403	      0.01002663	      0.01004623	      0.01007076	      0.01007355	      0.01008084	      0.01010898	      0.07382967	      0.01014711	      0.02199811	      0.03832036	      0.01022973	      0.01189265	      0.01000637	      0.03249975	      0.41965402	      0.16390836	      0.01000673	      0.01004742	      0.13501064	      0.01001774	      0.01000820	      0.01000280	      0.01000517	     -1.67445989	     25.05788533	     -9.51716247	      5.95457067	     13.48368628	      5.30727716	      0.00000692	      0.00186188	     -0.00152078	      0.01403071	      0.00673612	     -0.00321368	      0.35723935	     -0.02335231	      0.05207690	     -0.07749328	      0.01893911	     -0.02436206
    144.29168000	      0.06054459	      0.03173470	      0.07981699	      0.15650939	      0.05436240	      0.01058591	      0.10281355	      0.01039392	      0.01016546	      0.01032179	      0.01399852	      0.02548038	      0.01000737	      0.01000176	      0.01003019	      0.01002106	      0.01017581	      0.34499840	      0.10588417	      0.01010973	      0.12872678	      0.06246810	      0.01077729	      0.01535602	      0.05914137	      0.01027727	      0.01019675	      0.01003631	      0.01018907	      0.01001178	      0.01006411	      0.21121403	      0.08433372	      0.10542303	      0.01485179	      0.01021949	      0.05401535	      0.01116431	      0.02230950	      0.01300364	     12.64359519	      0.71393073	      1.96760985	     29.69899212	     -4.13923175	     13.96411666	     -0.00422073	      0.00214563	      0.00777896	     -0.00019273	     -0.00086899	      0.00075163	      0.32093717	     -0.07056436	      0.01717844	     -0.06593453	      0.01903559	     -0.02255610
    144.30792000	      0.01000843	      0.01000639	      0.01003501	      0.01006170	      0.01001524	      0.01001159	      0.12403345	      0.01127254	      0.01087542	      0.02442770	      0.03949713	      0.03862510	      0.13755122	      0.50043021	      0.61272539	      0.70412620	      0.11656195	      0.48125890	      0.50572897	      0.57312124	      0.06870688	      0.16978871	      0.21394110	      0.01003570	      0.01001608	      0.01006327	      0.01002900	      0.34547424	      0.01001181	      0.01003187	      0.01052379	      0.12266524	      0.01920568	      0.01000904	      0.06965572	      0.14895993	      0.17674886	      0.01414884	      0.03343068	      0.01772514	    -11.49218067	    -19.80343937	     14.79239602	    -20.47074330	    -20.97716659	    -17.10942327	     -0.00881932	     -0.01854488	     -0.00321383	     -0.00031111	      0.00495032	      0.00483610	      0.25813143	     -0.15110321	     -0.01979743	     -0.04654098	      0.01794135	     -0.01795719
    144.32416000	      0.01003555	      0.01002195	      0.05061523	      0.10557617	      0.01024083	      0.01004409	      0.14288391	      0.01034456	      0.01006344	      0.01316587	      0.08832451	      0.14297282	      0.02182023	      0.01005612	      0.12757126	      0.15762601	      0.10966004	      0.23734415	      0.16004036	      0.12897221	      0.05770527	      0.05390386	      0.04542468	      0.01018019	      0.01004177	      0.01005193	      0.01002316	      0.03451272	      0.01002681	      0.01001440	      0.01006846	      0.19185749	      0.06834350	      0.16348061	      0.01029224	      0.06380150	      0.39409602	      0.06617470	      0.19874562	      0.10190616	     -0.73135754	     -1.33456496	    -19.17985747	      3.43636350	     36.74656054	     14.11299423	     -0.00672798	     -0.00319587	      0.00253501	     -0.00204272	      0.00153169	      0.00725888	      0.15012070	     -0.26139961	     -0.02324415	     -0.01750369	      0.01444596	     -0.01119684
    144.34040000	      0.01000845	      0.01000658	      0.01002458	      0.01003826	      0.01001376	      0.01001109	      0.01004105	      0.01013259	      0.01005370	      0.01443001	      0.11740621	      0.18630297	      0.01012676	      0.27467190	      0.44618996	      0.43630900	      0.01005461	      0.76983103	      0.58126696	      0.53176492	      0.18279285	      0.25175579	      0.24252109	      0.01002783	      0.01002866	      0.01003490	      0.01001451	      0.25928563	      0.01001597	      0.22136066	      0.01150778	      0.01002639	      0.01004238	      0.09611623	      0.19517962	      0.08783163	      0.53197967	      0.10929372	      0.32586517	      0.16726011	      8.22929182	      8.32505105	      4.83770480	      0.83736217	    -12.25972701	     -6.39029023	     -0.00524151	     -0.01900037	      0.00010244	     -0.00379060	      0.00416852	      0.01070835	      0.00952013	     -0.34629465	      0.03153923	      0.00862358	      0.00940734	     -0.00558859
    144.35664000	      0.01002658	      0.01001482	      0.06074487	      0.18500584	      0.01008341	      0.01002563	      0.07787658	      0.01006147	      0.01003443	      0.01734178	      0.18441932	      0.29842935	      0.01004541	      0.01000389	      0.05493069	      0.02297635	      0.04417205	      0.72659952	      0.33032845	      0.16070641	      0.24386669	      0.16758171	      0.08724534	      0.01005491	      0.01008580	      0.01001829	      0.01000727	      0.01035091	      0.01002176	      0.01001404	      0.01003472	      0.14837913	      0.04106459	      0.17922632	      0.08082318	      0.14415990	      0.83349245	      0.19639255	      0.58331315	      0.30001920	     -5.10931120	     -1.80766395	    -19.34787019	    -22.33779786	     32.58119586	     17.52106533	     -0.00984255	     -0.00456914	      0.00931966	     -0.00755969	      0.00879300	      0.01889996	     -0.10265553	     -0.33697672	      0.13760388	      0.00955028	      0.00640305	     -0.00610205
    144.37288000	      0.01001037	      0.01000752	      0.01002983	      0.01010969	      0.01001613	      0.01001234	      0.01001817	      0.01004680	      0.01002834	      0.02785277	      0.20801068	      0.33947390	      0.01002483	      0.01001088	      0.17947571	      0.10976401	      0.01002686	      0.99230554	      0.51891586	      0.34403763	      0.32610873	      0.28847737	      0.18872459	      0.01002390	      0.01087264	      0.01001183	      0.01000476	      0.10454090	      0.01002383	      0.38007595	      0.01007303	      0.01001245	      0.01002592	      0.07486932	      0.30033671	      0.22781999	      0.92621790	      0.23710916	      0.70456131	      0.36313269	     -2.69218711	      4.51728023	      8.16036218	      3.56945741	    -14.46567214	     -0.81072150	     -0.00446110	     -0.01461534	      0.00610355	     -0.00971926	      0.01343305	      0.02475307	     -0.14174800	     -0.21715811	      0.23599742	     -0.01421210	      0.00715136	     -0.01235163
    144.38912000	      0.01001203	      0.01000870	      0.01002621	      0.01006256	      0.01001639	      0.01001378	      0.01001346	      0.01004328	      0.01002286	      0.04523154	      0.22321198	      0.36850738	      0.01002503	      0.01001751	      0.09350944	      0.01912525	      0.01002011	      0.88301005	      0.42303255	      0.26115474	      0.31897975	      0.25995183	      0.15151036	      0.01002349	      0.06230205	      0.01000828	      0.01000353	      0.07723763	      0.01003792	      0.57841835	      0.01012625	      0.01000910	      0.01002028	      0.09059392	      0.33880885	      0.36443076	      0.97124464	      0.24747769	      0.73788771	      0.38087178	      1.19574836	     -0.76292187	     12.78975718	     23.19275554	    -20.13093717	     -4.47718339	     -0.00173655	     -0.01307798	      0.00591601	     -0.01036586	      0.01723232	      0.03021155	     -0.11715274	     -0.04003464	      0.25018108	     -0.03795048	      0.00952424	     -0.01772944
    144.40536000	      0.01300457	      0.01104070	      0.01040121	      0.06413830	      0.01014649	      0.01005945	      0.01002554	      0.01005585	      0.01002280	      0.04121914	      0.17208368	      0.29115181	      0.01019221	      0.01000825	      0.01003153	      0.01002097	      0.01003574	      0.43390419	      0.09303724	      0.01008800	      0.20681594	      0.09052213	      0.01374623	      0.01005965	      0.13002946	      0.01000895	      0.01000407	      0.01003880	      0.01071012	      0.24288331	      0.01006128	      0.01002098	      0.01004792	      0.37066482	      0.16704741	      0.36808288	      0.73041309	      0.18930099	      0.56701519	      0.29303066	      2.22831312	     -3.90208469	     -3.72759668	      4.61697327	     10.08789244	     -1.31528397	     -0.00141233	     -0.00105558	      0.00837372	     -0.00784069	      0.01298219	      0.02515952	     -0.06302496	      0.11719361	      0.15704905	     -0.04467348	      0.01118572	     -0.01742111
    144.42160000	      0.11947277	      0.13148891	      0.07239640	      0.18012738	      0.05737103	      0.01011713	      0.01545332	      0.01008699	      0.01003076	      0.01074289	      0.06945990	      0.13343805	      0.13630559	      0.01000895	      0.01001711	      0.01001395	      0.01009215	      0.42160342	      0.01061484	      0.01002009	      0.23257281	      0.04296377	      0.01005919	      0.01020960	      0.16218151	      0.01002089	      0.01001032	      0.01001448	      0.01007966	      0.01002388	      0.01004160	      0.15391109	      0.05959086	      0.69649186	      0.10933570	      0.06484442	      0.28887094	      0.12080387	      0.36343464	      0.18802805	      2.43118672	     -3.47090516	     -8.07529973	    -14.82213791	     13.64685938	      4.17616626	     -0.00448023	      0.00329176	      0.01362361	     -0.00486680	      0.00142358	      0.01010746	     -0.01349110	      0.20041545	      0.01274025	     -0.03735147	      0.01149754	     -0.01264137
    144.43784000	      0.05257743	      0.05579277	      0.01734674	      0.10994729	      0.01101957	      0.01005919	      0.01006702	      0.01010573	      0.01005241	      0.01009281	      0.01311536	      0.03078900	      0.12796472	      0.24872886	      0.01001759	      0.01001381	      0.01003464	      0.40258920	      0.01140185	      0.01002119	      0.21670759	      0.05013271	      0.01006644	      0.01009042	      0.16899774	      0.01230011	      0.02310411	      0.01001390	      0.01011048	      0.01014420	      0.01005966	      0.04324979	      0.01576415	      0.60799598	      0.13970473	      0.01002521	      0.02620161	      0.10224464	      0.30887180	      0.15998524	     -2.20165785	     -0.02608980	     -2.00304780	     -4.54930544	     -0.63998561	      1.95192578	     -0.00256983	      0.00051751	      0.01194994	     -0.00399355	     -0.00453168	      0.00024495	      0.00880914	      0.19212270	     -0.08469819	     -0.02665258	      0.01086724	     -0.00832044
    144.45408000	      0.01376920	      0.02247111	      0.01124423	      0.01021459	      0.01294886	      0.02214976	      0.01010562	      0.01055070	      0.01003076	      0.01039406	      0.05657282	      0.11339165	      0.16741264	      0.17434260	      0.02850191	      0.02474730	      0.01202591	      0.01007052	      0.01208545	      0.03539893	      0.01000040	      0.01114014	      0.01812740	      0.01179837	      0.01014551	      0.01002776	      0.01001439	      0.06519767	      0.02549156	      0.16848548	      0.01514469	      0.01003440	      0.01009690	      0.55299725	      0.01074774	      0.01330015	      0.22640842	      0.04719319	      0.14265628	      0.07407630	     -3.43682389	      1.85435666	     -7.78822976	      0.30057286	     13.51810498	     -5.22002396	      0.00141888	     -0.00003978	     -0.00220093	     -0.00179302	     -0.00083364	      0.00783884	      0.00526758	      0.11339669	     -0.07408634	     -0.01906565	      0.01026312	     -0.00859413
    144.47032000	      0.01003083	      0.01002119	      0.01004272	      0.01006013	      0.01003357	      0.01003870	      0.01003434	      0.01073335	      0.01003076	      0.01046133	      0.05684450	      0.11038642	      0.13929816	      0.17027044	      0.04206773	      0.01076583	      0.01002868	      0.26481624	      0.16122984	      0.13285760	      0.09641781	      0.09691903	      0.07651275	      0.01006688	      0.04053440	      0.01002577	      0.01001323	      0.08768057	      0.01065737	      0.19802758	      0.01903877	      0.01002741	      0.01005305	      0.40388628	      0.12682391	      0.04987744	      0.22539210	      0.01788050	      0.04760722	      0.02527046	     -1.19943966	     -0.18371774	      4.57078859	      0.33780876	     -7.83577886	     -3.17892490	      0.00100346	     -0.00605129	      0.00005892	     -0.00058682	     -0.00021912	      0.00759916	     -0.00911315	      0.01290139	      0.01992706	     -0.01250415	      0.01047270	     -0.01334331
    144.48656000	      0.01003214	      0.01002471	      0.01002903	      0.01004255	      0.01002594	      0.01003168	      0.01002371	      0.02505062	      0.01004440	      0.01178171	      0.04510341	      0.08529461	      0.34254159	      0.01002277	      0.01004353	      0.01001952	      0.01001314	      0.37321714	      0.14890920	      0.05522972	      0.16555276	      0.12085981	      0.06510189	      0.01007197	      0.15284417	      0.01003480	      0.01001795	      0.01075955	      0.04855825	      0.14895360	      0.03661770	      0.01002726	      0.01005050	      0.23600065	      0.18585725	      0.05932326	      0.17840087	      0.01004568	      0.01001656	      0.01003048	      2.92971122	     -0.61314834	      6.14712823	      2.13781240	     -8.84332045	      2.47835088	      0.00340939	     -0.00809277	      0.00280408	      0.00313638	      0.00002524	      0.00562671	     -0.02865757	     -0.06805562	      0.12265454	      0.00295591	      0.01128726	     -0.01892340
    144.50280000	      0.01008097	      0.01682333	      0.01002358	      0.01002476	      0.01002881	      0.01006102	      0.01001652	      0.06683409	      0.01007398	      0.01156873	      0.03297873	      0.05915577	      0.29435755	      0.01001035	      0.01002216	      0.01001036	      0.01000845	      0.26535103	      0.11232229	      0.05069588	      0.13820593	      0.11956461	      0.08096883	      0.01088230	      0.24698273	      0.01005147	      0.01002681	      0.04816196	      0.18298284	      0.11452889	      0.08399950	      0.01001731	      0.01003807	      0.08224653	      0.18133070	      0.06371775	      0.13089553	      0.01001658	      0.01000559	      0.01001036	      3.79882914	     -0.21497288	      2.59060771	      2.87687361	     -2.69734100	      2.28206879	      0.01025493	     -0.00820506	      0.00020224	      0.00945041	      0.00041216	      0.00384280	     -0.05686397	     -0.11722131	      0.17711763	      0.03438724	      0.01208521	     -0.02202881
    144.51904000	      0.01088273	      0.06147858	      0.01003928	      0.01003714	      0.01005639	      0.01025482	      0.01002053	      0.02646766	      0.21785542	      0.08451676	      0.01006853	      0.01002757	      0.01000366	      0.31634498	      0.01003228	      0.01001475	      0.01001249	      0.12355018	      0.05985732	      0.03735692	      0.07034400	      0.06837410	      0.05355928	      0.01183780	      0.15943586	      0.01364513	      0.01086415	      0.05651964	      0.13838169	      0.16825836	      0.04661347	      0.01001722	      0.01004076	      0.01000269	      0.10495125	      0.36925673	      0.01001878	      0.01003529	      0.01001243	      0.01002231	     -0.70258603	      0.50972941	     -3.92863657	     -1.16520892	      5.61255977	      0.43359316	      0.00758411	     -0.00450086	     -0.00066637	      0.00398739	      0.01208702	     -0.00266549	     -0.08689713	     -0.12878705	      0.16338785	      0.07392601	      0.01261699	     -0.02116718
    144.53528000	      0.03498224	      0.09061999	      0.01009814	      0.01007282	      0.01041331	      0.02360325	      0.01002980	      0.01059091	      0.67200250	      0.22645155	      0.01001742	      0.01000744	      0.01000143	      0.47117625	      0.01004930	      0.01002410	      0.01002469	      0.01210031	      0.01091509	      0.01074776	      0.01812348	      0.02033243	      0.01899425	      0.01259368	      0.08201048	      0.12390051	      0.19872352	      0.02849586	      0.08472905	      0.20358878	      0.01802021	      0.01002078	      0.01005119	      0.01000089	      0.04338953	      0.92120610	      0.01000436	      0.01409380	      0.03253958	      0.01881809	     -4.77974538	      5.25298427	     -6.84302830	     -3.44159521	     10.24534185	     -0.62800183	      0.00464419	     -0.00106982	     -0.00063122	     -0.00034209	      0.03504310	     -0.01399838	     -0.10295357	     -0.09172720	      0.10007930	      0.10222310	      0.01225954	     -0.01565230
    144.55152000	      0.01889811	      0.03955316	      0.01019816	      0.01010957	      0.01082995	      0.01225970	      0.01005110	      0.01097400	      0.85758101	      0.28335328	      0.01001183	      0.01000514	      0.01000173	      0.59195031	      0.01012627	      0.01006997	      0.01005648	      0.01507262	      0.01048215	      0.01029155	      0.01994759	      0.01225624	      0.01094632	      0.01130334	      0.05864342	      0.17109678	      0.28906777	      0.01045987	      0.04627641	      0.11212318	      0.01279915	      0.01004068	      0.01008898	      0.01000064	      0.02743714	      1.13877050	      0.01000290	      0.01872653	      0.04795823	      0.02726770	     -4.05652556	      7.41229082	     -2.52356080	     -6.96229754	      1.85046204	     -0.53968048	      0.00216601	     -0.00078663	      0.00085314	     -0.00047483	      0.04649805	     -0.01991520	     -0.09636173	     -0.02935488	      0.03846034	      0.11121338	      0.00904544	     -0.00667415
    144.56776000	      0.03153534	      0.09646906	      0.01005735	      0.01004857	      0.01012322	      0.01307069	      0.01005197	      0.05472170	      0.25789196	      0.08041412	      0.01003229	      0.01001473	      0.20473061	      0.01000189	      0.01002548	      0.01001231	      0.01001247	      0.08460413	      0.02436245	      0.01033481	      0.05730662	      0.04814456	      0.03421786	      0.04014143	      0.14650160	      0.06726378	      0.12220773	      0.01504981	      0.13561005	      0.01002066	      0.04360427	      0.01023425	      0.01038327	      0.01000190	      0.05518233	      0.31101266	      0.01000813	      0.01001247	      0.01000438	      0.01000783	      1.22705364	     -2.68027809	      2.87996176	      1.39821228	     -4.34257288	     -0.21099387	      0.00734150	     -0.00295430	     -0.00011377	      0.00960748	      0.01399593	     -0.00709297	     -0.07874533	      0.02762428	      0.00918206	      0.10385889	      0.00260462	      0.00287546
    144.58400000	      0.03906472	      0.10685998	      0.01006156	      0.01004835	      0.01021187	      0.01839347	      0.01002810	      0.02551513	      0.47156691	      0.15356761	      0.01001742	      0.01000754	      0.38663971	      0.01000044	      0.01002947	      0.01001279	      0.01001250	      0.08320023	      0.01759569	      0.01056390	      0.05911147	      0.04666531	      0.03109921	      0.02421372	      0.15219320	      0.11264640	      0.19829539	      0.01138231	      0.14145862	      0.08424696	      0.03268969	      0.01002814	      0.01006418	      0.01000084	      0.07426200	      0.61029617	      0.01000424	      0.01002459	      0.01000874	      0.01001569	     10.17768897	    -17.06940445	      6.55590010	     13.97068530	     -7.93902611	     -0.45230353	      0.00771302	     -0.00277493	      0.00001534	      0.00440339	      0.02818251	     -0.01257552	     -0.05241699	      0.06764686	      0.00531450	      0.09141801	     -0.00516700	      0.00966556
