DataType=double
version=3
OpenSimVersion=4.5.2-2025-05-03-6a4c6ec41
endheader
time	pelvis_tilt	pelvis_list	pelvis_rotation	pelvis_tx	pelvis_ty	pelvis_tz	hip_flexion_r	hip_adduction_r	hip_rotation_r	hip_flexion_l	hip_adduction_l	hip_rotation_l	knee_angle_r	knee_angle_r_beta	knee_angle_l	knee_angle_l_beta	ankle_angle_r	ankle_angle_l	subtalar_angle_r	subtalar_angle_l
15.83332459999599	-0.0455987052259358	0.0392246300617304	-0.01307075329665073	2.381676615328499	1.015594794489761	0.997587723939663	0.08646069459242099	0.007440221608881864	-0.00738748737236013	0.5802201101352114	-0.1082011390037901	-0.0906986799724781	0.6343898491065039	0.6343898491065039	1.296334834636199	1.296334834636199	0.1929443582106818	-0.09932232737930527	-0.1447497643593788	-0.2396842240500396
15.85039124959598	-0.05811674309160305	0.05203701668177132	0.01206352737443754	2.385553753717565	1.030273316771738	0.9938287870283423	-0.000820202959285702	-0.009704443636313368	-0.01800556278251368	0.5829350705919849	-0.08314017524250231	-0.1361431286055794	0.5363687664636968	0.5363687664636968	1.12828089303435	1.12828089303435	0.06341970590040595	-0.06690767359984395	-0.188509003665753	-0.2181466550682107
15.86745789919597	-0.0742782665979681	0.05847060827061177	0.03600884352917103	2.389358299010472	1.042890251252352	0.9899364882307882	-0.0754061504374493	-0.01874219007316693	-0.02950706491743011	0.5832277649611247	-0.05872630101215034	-0.1713195063517659	0.4483629341042772	0.4483629341042772	0.9550182782482607	0.9550182782482607	-0.05721914296535058	-0.03330410122499427	-0.2316342646942217	-0.1846185407057074
15.88452454879597	-0.09440300706484722	0.05569254795744024	0.05784947502616732	2.392958819629377	1.052148676266799	0.9858655944370867	-0.1300051997759813	-0.01622496638582419	-0.04185561464600665	0.5795397062850223	-0.03529044865819331	-0.1906827174566511	0.3821317638313194	0.3821317638313194	0.7780072566187328	0.7780072566187328	-0.1616902864997027	0.003499702283197468	-0.2718864759433723	-0.135402474166512
15.90159119839596	-0.1145878162025864	0.04582264523522138	0.07697783075025606	2.396181820802322	1.057784700709901	0.9816936303087898	-0.1648485215173696	-0.004855984265890817	-0.0538213089704753	0.5709755164150685	-0.0124071004991279	-0.1956368045110102	0.3490597379376939	0.3490597379376939	0.6073572407492631	0.6073572407492631	-0.24582184404129	0.04611050066796066	-0.3063744980850138	-0.07691493548009194
15.91865784799595	-0.1285692452553224	0.03454654934177512	0.09275883818198459	2.398879180781309	1.060269641576073	0.9776065531216254	-0.1857172263543305	0.008788285239279697	-0.06297698195433236	0.5566316756280917	0.01109638043372491	-0.193372825241492	0.3557594922504868	0.3557594922504868	0.458675883628279	0.458675883628279	-0.3092940841823528	0.09650871609307539	-0.3342669130621128	-0.02086845385426233
15.93572449759594	-0.1307865448890851	0.02788088210936308	0.1040580126659223	2.400969605783643	1.060252851291236	0.9738614728802685	-0.1996079701223212	0.01842278711033684	-0.06577741166537757	0.5357413857446484	0.03613199264176634	-0.192953609105419	0.402009970273068	0.402009970273068	0.3477654507232674	0.3477654507232674	-0.3549688620143451	0.1544368707362759	-0.3580979874021122	0.02174371758403949
15.95279114719593	-0.1188918214943539	0.02884012470281732	0.1091504406248109	2.402428317566965	1.058103528783582	0.9707257975782513	-0.2106153640535858	0.02152999743933614	-0.05846133304625102	0.5088490302895151	0.06186509901382219	-0.2002581568364338	0.4826290188707282	0.4826290188707282	0.285983861294298	0.285983861294298	-0.3869832044189388	0.2158972952759884	-0.3820014985299161	0.04313585341326272
15.96985779679593	-0.09476120422847038	0.03584434351164344	0.1062666339483115	2.403256389005247	1.053763514684308	0.9683891394825179	-0.2179640383226343	0.02021458178586565	-0.03910427770794109	0.4789427550247136	0.0852061736689637	-0.2143164589450493	0.5907933067431592	0.5907933067431592	0.2774069375965659	0.2774069375965659	-0.4086973806457808	0.2731752926053137	-0.4084221893285874	0.03854308636879445
15.98692444639592	-0.06378593975211773	0.04389684685239365	0.09445372394649186	2.403459488706852	1.046940580994864	0.9668803342394821	-0.2168224823410558	0.0190134198105005	-0.00964424123771062	0.4512521803281451	0.1022753031850337	-0.227470071310419	0.7199239530907536	0.7199239530907536	0.3181121110065125	0.3181121110065125	-0.4217364051493818	0.3183958109280226	-0.436184360817783	0.007652190257708793
16.00399109599591	-0.03281105410471107	0.04771061691496645	0.0740976105111974	2.403041581433284	1.037494120280233	0.966047733802995	-0.2011104873517595	0.02139571125422433	0.02405630089349089	0.4313007454811596	0.1109839156088906	-0.2295468566366478	0.8635148207821839	0.8635148207821839	0.3976479578728445	0.3976479578728445	-0.4264849076951868	0.3494637289202917	-0.4614697030126186	-0.04187718474459221
16.0210577455959	-0.007653106662947585	0.04450889186650066	0.04667517728061589	2.402012200173305	1.025764571537811	0.9656358633232675	-0.1665868465996601	0.02777441967470011	0.05484657510769739	0.4220541589506769	0.1125617577469195	-0.213426684539276	1.014150055595652	1.014150055595652	0.5019528403093927	0.5019528403093927	-0.4233112267075901	0.3731484704175917	-0.4807733563199061	-0.09441209128627216
16.0381243951959	0.008699138493283355	0.03476346427667149	0.01402225031623728	2.400405290747945	1.012667737759713	0.9654183886816321	-0.1127137136633979	0.03634220291656774	0.07784549038351013	0.4217908918718154	0.1107636044171821	-0.1787042743260333	1.163137140138983	1.163137140138983	0.6162323532031292	0.6162323532031292	-0.4134360979126499	0.4014734225160841	-0.4932511361275347	-0.1335920093897918
16.05519104479589	0.01651055726300324	0.02089813394582502	-0.02211781643254379	2.398302355566807	0.9995573221700825	0.9652920119242259	-0.04285992115522996	0.0454445015108239	0.09197366941021651	0.4240948077096092	0.1094565188103926	-0.1317657254737944	1.301105008278437	1.301105008278437	0.7267167082741145	0.7267167082741145	-0.398841451748935	0.4434597899624416	-0.5004782894440964	-0.1517907977669856
16.07225769439588	0.01834023762379053	0.00520976488228947	-0.05995989094819296	2.395854876000267	0.9879730662924863	0.965269560965638	0.03676283046724217	0.05511277946333514	0.09837178601467023	0.420125467074934	0.1102443733179223	-0.08268097962996172	1.418981517788066	1.418981517788066	0.8213018245902529	0.8213018245902529	-0.3814310663581879	0.498395869216495	-0.5039754311079273	-0.1533515909072898
16.08932434399587	0.01729199285639579	-0.01150558075470393	-0.09737829023140857	2.393305749332979	0.9793694678832331	0.9653982179277336	0.1188443360713329	0.06642713729224337	0.09752502239690698	0.4018836163908185	0.1115835067502304	-0.04079484460760114	1.508878757550013	1.508878757550013	0.8897590771848934	0.8897590771848934	-0.3621598991300141	0.5556471515047243	-0.5027251487037044	-0.1493482633459071
16.10639099359587	0.0154036802120619	-0.02981321732194544	-0.1318357998598371	2.390997574091437	0.9748628688475678	0.9656742946295223	0.1967836673673878	0.07956660591845979	0.08776690926202003	0.3647439012017304	0.109942719872384	-0.01131940619141686	1.564895642488186	1.564895642488186	0.9243082648116371	0.9243082648116371	-0.3407522300910771	0.6005505163996968	-0.4928297531490382	-0.1494161482562578
16.12345764319586	0.0129441433273635	-0.05048267884174119	-0.1606032946139347	2.389340174202088	0.975030895358694	0.9660132327968549	0.2659502830492536	0.09283429278121885	0.06629047888094665	0.3083271565769632	0.102127468132174	0.005603810791668504	1.583807850216061	1.583807850216061	0.9208606004978727	0.9208606004978727	-0.3161608225470873	0.6213020019791632	-0.4697503204631017	-0.1578285202558235
16.14052429279585	0.008798664492028367	-0.07345023685174903	-0.1813873990538954	2.388723625430942	0.9798205904322379	0.9663003464134342	0.3240718022564634	0.1038166921824099	0.03171301415470981	0.2358687251782014	0.08708544336641785	0.01326655268584587	1.565359000852471	1.565359000852471	0.8802336096374966	0.8802336096374966	-0.2874842177967569	0.6120844272082356	-0.4315635572470199	-0.1755031397311608
16.15759094239584	0.001474323777365161	-0.09746117154794035	-0.1933039574200193	2.389405649108539	0.9886005724165285	0.9664917227298967	0.3708888294708149	0.1113231314746753	-0.01387919970461306	0.1528132069055756	0.06622255530618489	0.0152820107207545	1.511943897630339	1.511943897630339	0.8081555750012555	0.8081555750012555	-0.2548277439878788	0.5715119196536559	-0.3808293664746828	-0.203022904257376
16.17465759199584	-0.01009208672819382	-0.1202501110609152	-0.1974634884337818	2.391432511823191	1.000319921782414	0.9666766647012648	0.4075601339505086	0.1160238415142794	-0.0650583942430845	0.0654766618421358	0.0425278337896816	0.01299056118560057	1.427770801814898	1.427770801814898	0.7136864672673441	0.7136864672673441	-0.219582853182506	0.4995072734370676	-0.3236038870299356	-0.2400529162497826
16.19172424159583	-0.02641814568311888	-0.1389555397120859	-0.1964302980543496	2.394634375550618	1.013690756245569	0.9670354636554356	0.4361878597200338	0.1193302619629587	-0.1151984554345152	-0.01969938578336714	0.01947106226646038	0.005204018607610517	1.317805162816421	1.317805162816421	0.6070200051824227	0.6070200051824227	-0.1839325813848414	0.3968354510269085	-0.2662122134608571	-0.2826260804604647
16.20879089119582	-0.04772115003715079	-0.1506209521735754	-0.192897568646048	2.398686408636575	1.027349699710105	0.9677304099539432	0.4592940998530408	0.1218736995728779	-0.1587322310871405	-0.09649407120465611	0.0003750814161340742	-0.009624896059338101	1.186822164430757	1.186822164430757	0.4981328375985201	0.4981328375985201	-0.149940467569835	0.2678475173245438	-0.2121489695035956	-0.3227021297731998
16.22585754079581	-0.07384246569737921	-0.1528913523458511	-0.1887075891324755	2.403198796320883	1.040015046344978	0.9688298565215065	0.4788824786582579	0.1231843847997217	-0.1917813653996034	-0.1595021773858457	-0.0119120383386789	-0.03074478915444485	1.038849998588395	1.038849998588395	0.3967604032193542	0.3967604032193542	-0.1188144639249807	0.1226777017540958	-0.1614588891763643	-0.3513815762196555
16.2429241903958	-0.1036783310222576	-0.1449052110913669	-0.1848144882841237	2.40780585947517	1.050656560184635	0.9703129040629783	0.4953044776399793	0.1227000944989238	-0.2113422939559564	-0.2052722118109522	-0.01557995880118527	-0.05431350022099282	0.8774077948364549	0.8774077948364549	0.312634479942962	0.312634479942962	-0.09068161129634443	-0.02392294255275617	-0.1128707945658027	-0.3633637172964309
16.25999083999579	-0.1345648822927335	-0.1278756367028276	-0.1817473446560556	2.412232316752327	1.058644888758792	0.9721137769544732	0.5067808182473124	0.1206733563781501	-0.2148055106653882	-0.2334764803300502	-0.01052304733140267	-0.07513119751241451	0.7069668842634513	0.7069668842634513	0.2547392527436147	0.2547392527436147	-0.06486260662355839	-0.1557042126173944	-0.06647718251792413	-0.3594606531930072
16.27705748959579	-0.1622553661641923	-0.1048556903366436	-0.1798739474421325	2.416312577966424	1.063810223954141	0.9741457779507089	0.5102860693525283	0.1179062372320294	-0.2012282921080289	-0.2471062715906314	0.001522200246654164	-0.08922174389355381	0.535323781037901	0.535323781037901	0.2297825517294344	0.2297825517294344	-0.04048119927457039	-0.257844984284657	-0.02439658138502144	-0.3457705982351366
16.29412413919578	-0.1819147846456663	-0.07983946521202517	-0.1793537885048202	2.419955231059348	1.066349515479391	0.9762976710760782	0.50364927260546	0.1149369072090069	-0.1736734136875869	-0.2510605982136652	0.01759964361198074	-0.09494933120543073	0.3753165025453376	0.3753165025453376	0.2411059729564256	0.2411059729564256	-0.01721850947100067	-0.3202860326243827	0.01070951742632781	-0.3303766606354258
16.31119078879577	-0.1899103360849256	-0.05666932170778507	-0.1801372561528694	2.423083389410421	1.066586590065679	0.9784393316778557	0.4877424909527271	0.1118196825210132	-0.1399620071897333	-0.249684301413393	0.03465319340251809	-0.09217690204907486	0.2439683605065607	0.2439683605065607	0.2886792346754974	0.2886792346754974	0.00407135863576016	-0.3417011596681623	0.03680177432623235	-0.3196439210557215
16.32825743839576	-0.1854189052527545	-0.03795520853005709	-0.1821247301213391	2.425601596759658	1.064690065697411	0.9804537397920601	0.4673079724619941	0.1084566600056366	-0.1098033661843187	-0.2447470116224332	0.05076817934326296	-0.08115375070643055	0.1585668853016	0.1585668853016	0.3697986079852515	0.3697986079852515	0.02145703370658545	-0.3308376265580099	0.05146733295835882	-0.3161467742460489
16.34532408799576	-0.170826803450007	-0.02414361048011042	-0.1851879602537256	2.427412929012777	1.06052073104905	0.9822685550925181	0.4497591628934968	0.1046214851280157	-0.08958827001962258	-0.2349967763777082	0.06602059142685304	-0.062759483868036	0.1312951390658205	0.1312951390658205	0.47986357040256	0.47986357040256	0.03326621626062643	-0.302571758913438	0.0502997417073501	-0.3190014595529891
16.36239073759575	-0.1507296068717973	-0.01322252107037156	-0.188967459862955	2.428460970687128	1.05373438004118	0.9838627418100814	0.4425301760296205	0.09961328643555069	-0.07881984615293525	-0.2172139609963539	0.08235882652948326	-0.03965696861115894	0.1649074675277239	0.1649074675277239	0.6129200664238404	0.6129200664238404	0.0402157119209332	-0.2711262476557922	0.02776779589272401	-0.3256609888667093
16.37945738719574	-0.1302365635675358	-0.001576715651537094	-0.1928291466806714	2.428752913260945	1.044104659738723	0.9852582134738417	0.4501723804593892	0.09243087448103063	-0.07107267013970112	-0.1878568781094336	0.1024380729041937	-0.01652608959499334	0.2511083847784174	0.2511083847784174	0.761964323848546	0.761964323848546	0.04707478899171995	-0.245202449252091	-0.01909025820884163	-0.3336929948478938
16.39652403679573	-0.1135155462443963	0.01420369194907982	-0.1961048395217405	2.428349674366233	1.031866765817965	0.9865038130086411	0.4722777566774559	0.08273548638289964	-0.05854753819270238	-0.1443859464846053	0.1280524290397541	0.001541120195010554	0.3719954247590918	0.3719954247590918	0.9191850742317186	0.9191850742317186	0.06286914870837769	-0.2271522564949763	-0.08729719503879813	-0.3417255572697737
16.41359068639573	-0.1031047098072178	0.03552371769392326	-0.1980769542668396	2.427344859246738	1.017865918241789	0.9876300135488345	0.503033929741716	0.07157484149815237	-0.03669537584166996	-0.08585159804102342	0.1589984197290297	0.01148527176101916	0.5041730619980389	0.5041730619980389	1.076352146559358	1.076352146559358	0.09856603432338051	-0.2151040974973266	-0.1678254373239152	-0.3493870488107669
16.43065733599572	-0.09994131191067158	0.06097678297660938	-0.197393387371913	2.42585314855954	1.003442323852455	0.9885751156112218	0.5328592405085327	0.06092101701062536	-0.00620465796635267	-0.01288387678078587	0.1928511756159446	0.01373149654474146	0.6245702879182291	0.6245702879182291	1.225372168931004	1.225372168931004	0.1614837776864343	-0.2059055852001697	-0.248880796020531	-0.3564480515316246
16.44772398559571	-0.103742038190681	0.08690053010195435	-0.1915662235969088	2.424006514347966	0.9901475919868996	0.9891443298872913	0.55168993610492	0.0524258718819137	0.02790414565062681	0.07252783258976955	0.2257342811019467	0.01161553725359114	0.7160849039835255	0.7160849039835255	1.358805159195036	1.358805159195036	0.2490566844540054	-0.1971850623668904	-0.3206139702643143	-0.3617503231020132
16.4647906351957	-0.1134187665361027	0.1089283740317104	-0.1773955517527149	2.421952252515073	0.9794340567338411	0.9890612839041607	0.5523549054247932	0.04659720147091359	0.05890798343665564	0.1672233841623634	0.2537335309369099	0.009257843547590024	0.7706989824609403	0.7706989824609403	1.470167072218652	1.470167072218652	0.3476051070041609	-0.1878185490665009	-0.3785958779823668	-0.3627582982512884
16.48185728479569	-0.1273807644743417	0.1236744844493112	-0.1522788642133408	2.41985579810248	0.9724128526321391	0.988094965144082	0.5321811726485272	0.04304826699067555	0.0814064902154403	0.2670076183385146	0.2741170709978393	0.009298996926565105	0.7887833298003394	0.7887833298003394	1.554096528463154	1.554096528463154	0.4383990665365835	-0.1772110933660106	-0.424018279038325	-0.3564017989708147
16.49892393439569	-0.1436266167081047	0.1297509690536388	-0.1156453468519122	2.417908046983714	0.9697249096654836	0.9861880089236831	0.4921001949104343	0.0413637542675926	0.09352579648343048	0.3667118081039625	0.2855640736810388	0.0116478729730834	0.775500215128064	0.775500215128064	1.606574124541113	1.606574124541113	0.5064442328535148	-0.1644853607461029	-0.4606592766800427	-0.341070577942884
16.51599058399568	-0.1596517984408672	0.1278757616369476	-0.06977691113042293	2.416325706130328	0.9715288678387672	0.9835189089487761	0.4343071417817856	0.04156497315458474	0.09730085025810742	0.4601988827271316	0.2874389564838742	0.0135127335444865	0.7367786980130639	0.7367786980130639	1.62520084043991	1.62520084043991	0.5450368757860649	-0.1484603230425493	-0.4908942913556829	-0.3185314302481014
16.53305723359567	-0.1725326918571093	0.1203023194552796	-0.01959703931370423	2.415332764653183	0.9775643459750647	0.9804663524115497	0.360523564484564	0.04365411896621685	0.09697975330030174	0.5406605912135499	0.2789888982338172	0.01043413124172439	0.677120998573547	0.677120998573547	1.60931599949231	1.60931599949231	0.5532031448025213	-0.1284064410389274	-0.5135167720531315	-0.2941152505316617
16.55012388319566	-0.1796414785005853	0.1098186817230152	0.0286164877563789	2.415121234557259	0.9872232962209611	0.9774849299228336	0.2722330017846677	0.04683415586097883	0.09623339071752568	0.6017119463777459	0.2592940009540577	-0.002073256067930978	0.5997995864618382	0.5997995864618382	1.559746361082974	1.559746361082974	0.5294440708752238	-0.1047641111863391	-0.5244880168217803	-0.2743383216602883
16.56719053279566	-0.1798894548521138	0.09843569577331365	0.06915220658133722	2.41579953446602	0.9995897841776588	0.9749442750126638	0.1724447709807688	0.0495907368039689	0.09611598216583074	0.6392619905045537	0.2279362564834159	-0.02671648265417092	0.5082677028949877	0.5082677028949877	1.478297790688123	1.478297790688123	0.468507452254229	-0.07903686474731129	-0.5196025846465553	-0.2628371494323631
16.58425718239565	-0.1746270397094011	0.08610312019075432	0.09858727653941786	2.41734345451688	1.01346497606953	0.9730074290186815	0.06724543333633232	0.0510689059365295	0.09509778616697419	0.653288261134234	0.1856136897134436	-0.06301158553606592	0.407466846193338	0.407466846193338	1.367532729514658	1.367532729514658	0.3650270457280997	-0.05283777277638606	-0.4971621564694951	-0.2570579244684586
16.60132383199564	-0.1672161718984325	0.07023147201583922	0.116532201644172	2.419568878034289	1.027425691377586	0.9716053988586981	-0.03434311496181353	0.05265703300005661	0.09075589641997098	0.6483201880859067	0.134085088201166	-0.1068365720688873	0.3049455174710388	0.3049455174710388	1.231445739345787	1.231445739345787	0.2211338367817131	-0.02680880574764643	-0.4591044823257465	-0.2482977543628964
16.61839048159563	-0.1611648844433798	0.04668801136560277	0.1251561710900804	2.422147955195236	1.039960657535703	0.9705101386247598	-0.1224377476285112	0.05807985292509614	0.08138988037594738	0.632035383053979	0.07558517347717042	-0.1513081415214595	0.2119360969915837	0.2119360969915837	1.076908991727239	1.076908991727239	0.0513549730702212	-0.0002373517883635413	-0.4100586274629938	-0.2258440658881206
16.63545713119563	-0.1580000153478128	0.0119518761569619	0.1278951788753847	2.424685323961138	1.049718803360127	0.9694565412679352	-0.1894082565530815	0.07150774245075545	0.06637604525968734	0.6125013368769844	0.01226336937272966	-0.1889122647729608	0.1428261893345039	0.1428261893345039	0.9143809778545684	0.9143809778545684	-0.1197693939387777	0.02836074047350955	-0.3552022683320062	-0.1828943705244624
16.65252378079562	-0.1566325311200504	-0.034905652604513	0.1280338938737713	2.426849275015116	1.05588588534818	0.968251501958652	-0.2326104344975917	0.09505439460956243	0.04577424105925516	0.5954469131046687	-0.0540651211787035	-0.2143201067310632	0.1104791049170724	0.1104791049170724	0.7556561462952704	0.7556561462952704	-0.2674529458579116	0.06015368033993504	-0.2984917326711056	-0.1199921304152751
16.66959043039561	-0.154950266780831	-0.09166796415946446	0.1277140340907081	2.428513672094212	1.058607889546107	0.9668322608879081	-0.2555063269249755	0.127554760584843	0.02033709388325751	0.5828892357815469	-0.1219898348462672	-0.2268223035374712	0.1177834244907966	0.1177834244907966	0.6083004367709699	0.6083004367709699	-0.3797723896960024	0.09516781857350766	-0.2420176100684772	-0.04340409737290479
16.6866570799956	-0.1521720795421522	-0.1538650960322062	0.1276485852251094	2.429827969943112	1.059192478383857	0.9652660200758697	-0.2667904017951652	0.1651662593677896	-0.008037759387095963	0.5735026495122222	-0.1905442655704679	-0.2310649948617531	0.1513781349798055	0.1513781349798055	0.470640650625648	0.470640650625648	-0.4660524602434143	0.1321726022379348	-0.1861778755523177	0.03939481564409264
