ModelForces
version=1
nRows=51
nColumns=77
inDegrees=no

This file contains the forces exerted on a model during a simulation.

A force is a generalized force, meaning that it can be either a force (N) or a torque (Nm).

Units are S.I. units (second, meters, Newtons, ...)
If the header above contains a line with 'inDegrees', this indicates whether rotational values are in degrees (yes) or radians (no).

endheader
time	addbrev_r	addlong_r	addmagDist_r	addmagIsch_r	addmagMid_r	addmagProx_r	bflh_r	bfsh_r	edl_r	ehl_r	fdl_r	fhl_r	gaslat_r	gasmed_r	glmax1_r	glmax2_r	glmax3_r	glmed1_r	glmed2_r	glmed3_r	glmin1_r	glmin2_r	glmin3_r	grac_r	iliacus_r	perbrev_r	perlong_r	piri_r	psoas_r	recfem_r	sart_r	semimem_r	semiten_r	soleus_r	tfl_r	tibant_r	tibpost_r	vasint_r	vaslat_r	vasmed_r	pelvis_tx_residual	pelvis_ty_residual	pelvis_tz_residual	pelvis_tilt_residual	pelvis_list_residual	pelvis_rotation_residual	hip_flexion_r_reserve	hip_adduction_r_reserve	hip_rotation_r_reserve	knee_angle_r_reserve	ankle_angle_r_reserve	subtalar_angle_r_reserve	hip_flexion_l_torque	hip_adduction_l_torque	hip_rotation_l_torque	knee_angle_l_torque	ankle_angle_l_torque	subtalar_angle_l_torque	calcn_r_RightGRF_Fx	calcn_r_RightGRF_Fy	calcn_r_RightGRF_Fz	calcn_r_RightGRF_px	calcn_r_RightGRF_py	calcn_r_RightGRF_pz	calcn_r_RightGRF_Tx	calcn_r_RightGRF_Ty	calcn_r_RightGRF_Tz	calcn_l_LeftGRF_Fx	calcn_l_LeftGRF_Fy	calcn_l_LeftGRF_Fz	calcn_l_LeftGRF_px	calcn_l_LeftGRF_py	calcn_l_LeftGRF_pz	calcn_l_LeftGRF_Tx	calcn_l_LeftGRF_Ty	calcn_l_LeftGRF_Tz
     13.29999464	      9.16103490	     22.26167496	      6.26754978	      6.14227628	      6.24166761	      6.46147149	     12.06376581	      7.38582734	      8.58920763	      4.25030541	     15.94563994	     67.31222073	     76.34875101	    182.98749232	      9.40183063	     12.91252455	      8.89969936	    210.35022042	     19.75667130	      7.80121299	     42.03400849	     18.80003366	      5.26812015	      3.68176690	    155.80331450	      6.50816996	     13.07586237	      6.43152352	     75.67484327	    786.14610571	      3.48149853	     19.38083056	      6.79839076	    748.75189245	     50.90165056	     16.93529124	    226.71158293	    172.02246593	   1598.14314487	    434.24780899	    -28.52149731	   -179.48895256	    -23.31808082	      8.98044406	     25.64864637	     -1.85454936	      0.00860768	     -0.00330997	      0.00367234	     -0.01517192	     -0.00605189	      0.00519190	    -26.56050568	     -9.98983070	     13.30259313	     -1.05293389	      0.90882078	     -1.33985520	    120.04071997	    646.21946351	    -11.73735367	      0.11615456	     -0.01487665	      0.00496484	      0.00000000	      2.08384285	      0.00000000	      0.00000000	     -0.00000000	      0.00000000	     -0.20697124	     -2.02027809	     -0.78814242	      0.00000000	      0.00000000	      0.00000000
     13.31652796	      8.74606652	     14.75538031	      6.23528840	      6.06744564	      6.26257839	      6.52061985	     12.59624745	      7.74831763	      8.87340420	      4.43950471	     10.47142676	     41.13656996	     60.79535085	    152.77894190	      9.55701616	     13.16785072	      8.93786829	    154.41278361	     18.16542039	      7.93947651	     34.28038407	     18.67252443	      6.54225329	      3.72029908	    154.51516910	      6.36692632	     12.87067542	      6.34782931	    100.77608561	    607.49723229	      6.50320893	     21.07652095	      7.04874327	    527.05256649	     50.52708155	     18.18560909	    144.37875110	     57.41071689	    532.09653920	    146.40239365	     -7.02013352	     -8.85645336	     -0.36213170	     -1.00024017	      1.57375842	     -0.06480570	      0.01307368	     -0.00514796	      0.00182409	     -0.00509642	     -0.00290651	      0.00304547	    -20.91628822	     -5.82569868	     10.86717181	     -1.49111095	      1.09197763	     -1.19222042	     94.03982614	    376.01025167	     -8.61698598	      0.14379949	     -0.01198679	      0.00761404	      0.00000000	      1.21934181	      0.00000000	     -0.00000000	      0.00000000	     -0.00000000	     -0.56258517	     -1.95160082	     -0.86363325	      0.00000000	     -0.00000000	      0.00000000
     13.33306127	      8.50538589	     13.44182264	      6.25270337	      6.06569243	      6.30085107	      6.66069970	     12.91531536	     15.38620933	      9.17335388	      5.11068647	      6.35532368	     14.90592899	     46.75815473	    305.99352950	      9.93628568	     13.54413766	      9.02367737	    101.70282257	     19.49325081	     11.28447426	     26.25057319	     19.68001154	      9.43207375	      3.85649578	    152.55575119	      6.47260763	     12.62753215	      9.51012611	    134.82041807	    360.16532426	     12.58797861	     21.91973857	      7.21163335	     65.85028130	     45.73193434	     27.80746101	     40.01638431	     17.33823572	     51.83139349	     28.12616987	      9.04621571	     64.97596478	     14.31084817	     -6.10800770	    -14.48344709	      1.83479208	      0.01778035	     -0.00626558	     -0.00005497	      0.00773588	      0.00009974	      0.00081127	    -17.54215389	     -2.04736382	      9.29635828	     -0.39879669	      1.17717341	     -0.99225250	     52.91842289	    158.65281510	     -9.09718715	      0.17793333	     -0.00170506	      0.00681361	      0.00000000	      1.10045909	      0.00000000	      0.00000000	     -0.00000000	      0.00000000	     -0.89429025	     -1.81616197	     -0.96199203	      0.00000000	      0.00000000	      0.00000000
     13.34959459	     22.33767736	    153.06366458	      6.20244696	      6.03497799	      6.23441899	     23.80987535	     12.78821506	     82.44435846	     93.50099148	     14.72306326	      4.73215801	      9.52962650	     21.83457861	    201.26814160	     10.04133546	     13.89547942	      9.13003004	     13.05899323	     13.94226110	     37.71032450	      8.37737263	     25.42664071	     22.51939797	     26.87472547	    245.43033063	     21.06336861	     73.17146007	     53.53936184	    365.50216942	     24.32374023	     34.19289115	     21.86728927	      8.31308916	     45.30777054	     42.56519492	    236.43151712	     17.77653348	     17.51116797	     52.88800797	     28.58879945	     22.17836407	     64.98483795	      2.51933573	      1.58936557	     -6.39592795	      1.94810160	      0.04474405	     -0.00720060	     -0.00535585	      0.05105748	      0.01070242	     -0.00285635	    -19.00714252	      1.18817049	      8.94049483	      3.42053819	      1.10890484	     -0.74182609	     -0.02455018	     -0.05540643	      0.00850113	     -1.09776401	     -1.36475010	     -1.24647201	      0.00000000	     -0.00104399	      0.00000000	      0.00000000	     -0.00000000	      0.00000000	     -1.19525437	     -1.61094887	     -1.08247623	      0.00000000	      0.00000000	      0.00000000
     13.36612791	     53.53161477	    226.51145597	      6.20106081	      6.07071968	      6.73172948	     47.44467502	     12.66920694	     80.20441359	     86.82732167	     13.82829050	      4.89101654	     10.05229363	     19.73124333	    188.73527239	     10.47729869	     14.51811408	      9.35751301	     13.31734207	      8.59604011	     40.66161781	      5.26870956	     17.85892851	     24.06638112	     35.86290681	    223.69472813	     18.76340332	     66.13614141	     71.60426252	    394.91226949	     25.63731062	     31.33006824	    104.91997213	     22.06522060	     53.30095683	     20.63613743	    231.18150167	     19.01532160	     18.85798425	     56.73861516	     30.58771278	     -5.84960645	    -23.31037310	     -8.23621005	     -1.02146467	      6.47767076	     -0.60203138	      0.04814247	     -0.00383351	     -0.00649917	      0.05669723	      0.01204009	     -0.00288362	    -26.84922658	      4.03319377	      8.97714980	     10.93526246	      0.92783395	     -0.49688746	      0.00000000	      0.00000000	     -0.00000000	     -0.93501810	     -1.47652093	     -1.20664919	      0.00000000	      0.00000000	      0.00000000	     -0.00000000	      0.00000000	     -0.00000000	     -1.46042393	     -1.33289364	     -1.21304511	      0.00000000	     -0.00000000	      0.00000000
     13.38266122	     74.61101910	    282.08012037	      6.19941044	      6.11986161	     10.91931082	     61.73178983	     11.82182255	     77.83625830	     88.69014415	     14.64559339	      5.15018548	     10.67814964	     16.80700941	    203.07180738	     10.96640780	     15.21744906	      9.64714223	     13.67014598	      8.68670572	     31.34734815	      5.27254797	     17.14277750	     28.19981976	     40.09686536	    269.98252916	     19.57025823	     69.18731440	     91.42095576	    476.36865711	     27.09410941	     32.12579754	     46.07955405	     17.76981233	     62.80726314	     19.55621754	    251.33864223	     20.33615434	     20.52848692	     61.66543385	     33.06045735	    -12.45271842	    -33.42737035	     -9.60685285	     -1.31778903	      9.34402440	     -0.88338186	      0.05942131	     -0.00335689	     -0.00702522	      0.06174452	      0.01505567	     -0.00328087	    -37.39994232	      9.60618156	      7.14147558	     20.83768756	      0.70345560	     -0.19727422	      0.00000000	      0.00000000	     -0.00000000	     -0.79402616	     -1.54554022	     -1.18027736	      0.00000000	      0.00000000	      0.00000000	     -0.00000000	      0.00000000	     -0.00000000	     -1.69010323	     -0.98563732	     -1.32036655	      0.00000000	     -0.00000000	      0.00000000
     13.39919454	     84.87631339	    323.16953819	      6.20105236	      6.16873451	      8.96798886	     67.39703404	     11.11440548	     67.91032492	     61.97065163	     10.45716368	      5.38799745	     11.24369147	     26.83010085	     81.92724630	     11.44239578	     15.87631487	      9.96203494	     13.94909175	      9.07175808	     14.20736988	      5.48313728	     25.79340205	     37.37605025	     38.23285144	    378.26693150	     16.43906206	     59.86397346	    116.65402998	    616.93943743	     47.72319540	     35.03941998	     16.08329424	      6.44397899	     70.75160905	     44.59224296	    176.29343774	     21.43357808	     21.98396069	     66.07329028	     35.20976720	     -5.69508909	     -2.17800528	     -0.08876123	      0.55441467	      2.11870478	     -0.62850904	      0.07976799	     -0.00664763	     -0.00733150	      0.05819190	      0.01200657	     -0.00275831	    -46.86011861	     19.54654401	      3.03278681	     30.68833155	      0.37218343	      0.17604628	     -0.00000000	     -0.00000000	      0.00000000	     -0.66104857	     -1.58071953	     -1.17668908	      0.00000000	     -0.00000000	      0.00000000	      0.00000000	     -0.00000000	      0.00000000	     -1.88533900	     -0.59066898	     -1.36100140	      0.00000000	      0.00000000	      0.00000000
     13.41572786	     93.56576564	    347.75429817	      6.21335594	      6.20453328	     10.02522402	     68.98012903	     10.43359843	     67.23936153	     66.26938007	     11.43711080	      5.52189420	     11.61364549	     17.25616452	    108.03750194	     11.87284351	     16.43202442	     10.25730794	     14.13085548	      9.45544562	      9.98850162	      6.49703803	     25.29518230	     36.09161317	     39.38991023	    422.77677144	     18.25561595	     69.12245782	    117.92268196	    667.72132082	    174.21381733	     35.83189319	     13.76046960	      6.17903385	     75.34732558	     49.98756910	    196.24849652	     22.09220032	     22.95007464	     69.13296069	     36.62395408	      1.12705368	     15.81535273	      8.96937189	      2.04777585	     -5.96972249	     -1.79952358	      0.08826490	     -0.00742841	     -0.00629352	      0.05978252	      0.01385143	     -0.00319658	    -53.95278554	     29.91829416	     -1.15367070	     38.07173699	     -0.14549254	      0.47197917	     -0.00000000	     -0.00000000	      0.00000000	     -0.52165917	     -1.58895099	     -1.20215385	      0.00000000	     -0.00000000	      0.00000000	      0.00000000	     -0.00000000	      0.00000000	     -2.04006694	     -0.19458154	     -1.31262247	      0.00000000	      0.00000000	      0.00000000
     13.43226117	    102.76882812	    366.11422749	      6.21472199	      6.21419902	     17.60057812	     72.24026983	      9.68149218	     62.92778821	     61.08036603	     10.59994900	      5.58308601	     11.78905192	     17.79029083	     84.29874885	     12.27949713	     16.92111978	     10.49890950	     14.33311725	      9.88942255	     10.60482943	      7.10317527	     21.19532631	     31.98387711	     40.14018424	    417.97954663	     18.00341888	     70.59853791	    117.47540939	    662.41858578	    253.47561056	     33.90449969	     10.93070077	      5.94108454	     76.87033319	     46.28193614	    179.35474621	     22.29247181	     23.35690040	     70.58717447	     37.20277912	      4.63191707	     -2.87993834	      5.87874634	      1.48273261	     -5.79794856	     -2.41528381	      0.08892295	     -0.00600124	     -0.00535900	      0.05637422	      0.01243139	     -0.00314720	    -59.33972077	     32.69328564	     -3.19480744	     41.75651006	     -0.67822909	      0.43209450	      0.00000000	      0.00000000	     -0.00000000	     -0.36174649	     -1.57281649	     -1.25772257	      0.00000000	      0.00000000	      0.00000000	     -0.00000000	      0.00000000	     -0.00000000	     -2.14429285	      0.14292678	     -1.20092992	      0.00000000	     -0.00000000	      0.00000000
     13.44879449	    109.65922706	    373.46136246	      6.18952679	      6.20198889	     27.95474491	     75.79339260	      8.79811549	     54.81194204	     56.40019220	      9.49386837	      5.54073291	     11.79338574	     15.23432666	     60.80044466	     12.71299543	     17.44512673	     10.68585982	     14.73776772	     10.40657780	     11.29608818	      5.67257170	     17.38456993	     29.13015365	     39.68249436	    388.40635205	     17.15889394	     70.18732952	    123.09499525	    626.77468864	    325.80780454	     30.39231211	      7.40701771	      5.64598321	     76.35346597	     40.27716386	    159.53293552	     22.06261407	     23.19738443	     70.39450037	     36.94854397	      6.23745216	    -36.99518265	     -4.46131988	     -0.24705121	      1.12308547	     -0.55144786	      0.08561814	     -0.00349242	     -0.00483674	      0.04888270	      0.01055001	     -0.00299615	    -62.49387953	     26.76239540	     -3.48130619	     41.50342487	     -0.86599597	      0.09921089	      0.00000000	      0.00000000	     -0.00000000	     -0.17249086	     -1.53052615	     -1.33705555	      0.00000000	      0.00000000	      0.00000000	     -0.00000000	      0.00000000	     -0.00000000	     -2.19666259	      0.37683304	     -1.09102529	      0.00000000	     -0.00000000	      0.00000000
     13.46532781	    108.12513063	    359.26393812	      6.13095875	      6.18602463	     31.24066765	     74.12851711	      7.70370044	     44.60097927	     52.30212244	      8.51210726	      5.43628303	     11.67846836	     13.79212651	     34.91509010	     13.18786421	     18.06462534	     10.84196633	     15.41368362	     10.99691875	     12.02022559	      6.77694426	     19.57975775	     31.29076374	     36.72919418	    367.63001301	     16.47218480	     68.95671694	    136.04893982	    594.13172720	    364.28417443	     27.24532633	      3.97365018	      5.38481251	     75.17861196	     40.11366460	    140.61897101	     21.48492327	     22.72148477	     69.29694976	     36.27243719	      2.56574681	    -32.48962862	     -5.53642408	     -2.56392462	      4.53247158	      1.97393220	      0.08347224	     -0.00206186	     -0.00461738	      0.03974906	      0.00892461	     -0.00278174	    -61.04331375	     19.76084182	     -3.36590432	     37.61258025	     -0.55639078	     -0.15886024	     -0.00000000	     -0.00000000	      0.00000000	      0.04452510	     -1.46077590	     -1.42457181	      0.00000000	     -0.00000000	      0.00000000	      0.00000000	     -0.00000000	      0.00000000	     -2.20732592	      0.49458836	     -1.04316916	      0.00000000	      0.00000000	      0.00000000
     13.48186112	     92.98819490	    308.96370326	      6.05710011	      6.19401354	     23.82810344	     62.72824879	      6.36959696	     33.64467078	     51.28221532	      8.62818803	      5.33936966	     11.50526009	     13.09601652	     23.44294473	     13.64765331	     18.73231167	     11.01097751	     16.19236646	     11.55943664	     12.67559173	     16.84740120	     27.61269459	     36.60897023	     30.17153063	    348.80584208	     16.88918784	     69.58894832	    147.35922623	    550.01327834	    346.01688348	     24.51450284	      2.03163387	      5.18741806	     74.43530479	     43.34518227	    133.80421892	     20.69075401	     21.98089334	     67.45986420	     35.24898730	    -12.36704069	     66.26842929	      4.62283783	     -7.70461625	      1.65870621	      3.53256298	      0.08027253	     -0.00239962	     -0.00434612	      0.03042418	      0.00830285	     -0.00262668	    -52.81894733	     13.94200802	     -2.64095417	     30.91807480	      0.02674697	     -0.16617414	     -0.00000000	     -0.00000000	      0.00000000	      0.27678427	     -1.37027596	     -1.49884295	      0.00000000	     -0.00000000	      0.00000000	      0.00101809	     -0.00045914	      0.00005650	     -2.18912557	      0.51156449	     -1.07182063	      0.00000000	      0.00001556	      0.00000000
     13.49839444	     64.38384474	    226.63490554	      6.01198903	      6.25574065	      7.35988080	     41.48714826	      4.93418937	     24.25855943	     50.88896245	      8.17328873	      5.12183806	     11.29935358	     11.95383892	     19.81056821	     14.00343083	     19.33862071	     11.25351389	     16.83333050	     11.95552760	     13.12998353	     34.50493337	     40.55987849	     43.36085780	     20.88359837	    328.07668685	     16.58152740	     69.86064697	    148.16575487	    489.47851743	    296.50001977	     22.57228837	      1.45066424	      5.05935354	     74.43325831	     47.61743353	    131.33756044	     19.83972060	     20.84382385	     64.45138797	     33.64024254	     29.06323676	     42.57629588	      9.43546996	     31.40393152	     -7.36298132	     -0.72544039	      0.07467346	     -0.00522119	     -0.00382598	      0.02265197	      0.00816116	     -0.00245523	    -10.10426905	     -3.43557424	      2.59980344	    -21.58745673	      1.08028868	      1.34369785	      0.00000000	      0.00000000	     -0.00000000	      0.50566790	     -1.27604288	     -1.54188284	      0.00000000	      0.00000000	      0.00000000	    -67.79006860	    236.53049967	      0.95749187	      0.04723062	     -0.02782732	      0.00118010	      0.00000000	      0.63872692	      0.00000000
     13.51492776	     43.16348387	    170.19794681	      6.04337383	      6.39075982	      5.17311387	     25.73612286	      3.70589325	     16.38634527	     50.06126599	      8.01228039	      4.98192349	     11.12298080	     11.55540944	     18.40946952	     14.19737556	     19.79633433	     11.61956265	    109.34890635	     14.53962784	     13.97006734	     48.36434923	     49.74339650	     46.25290581	     13.42005560	    318.72514390	     16.37348094	     68.11558913	    150.36245917	    455.51028814	    254.30800006	     21.66634396	      1.46818207	      5.04999519	     74.88411972	     49.28713587	    129.41027455	     19.10450766	     19.64036538	     61.23906239	     31.94190290	    -11.76098454	    -35.13109628	     -3.98859044	     -8.18323611	     -1.12545309	      1.03333204	      0.07224317	     -0.00825991	     -0.00364394	      0.01595718	      0.00816849	     -0.00224992	    -44.84969727	    -49.22900884	     20.95767624	    -46.55339702	    -16.91923964	      8.49270010	      0.00000000	      0.00000000	     -0.00000000	      0.71261186	     -1.19941010	     -1.54700330	      0.00000000	      0.00000000	      0.00000000	    -59.03436740	    603.65125709	      9.46381866	      0.06852433	     -0.02349310	     -0.00140307	      0.00000000	      4.39504491	      0.00000000
     13.53146108	     34.38103073	    153.07065433	      6.16576279	      6.59877101	      5.13899248	     18.93668807	      2.93713326	      5.07224926	     48.79098682	      7.97256340	      4.87340296	     10.98122750	     11.43087127	     16.89343343	     14.23233172	     20.07710324	     12.10819942	    207.82643904	     43.18637073	     21.86983190	     54.62008073	     53.57998512	     45.33168929	      5.54896000	    329.71231071	     16.06722350	     64.27741808	    160.19731425	    468.82463345	    259.97127958	     19.16087842	      1.64969331	      5.15655099	     75.32705685	     50.66119097	    127.40716520	     18.57108019	     21.72958823	     68.12276281	     35.66958442	    -14.84966606	    -33.57992904	    -10.53764190	    -11.26081328	      5.16568897	     -0.21627139	      0.07618956	     -0.01067211	     -0.00410541	      0.00012040	      0.00817156	     -0.00203639	    -46.08525183	    -83.76595622	     35.65230763	    -85.47527086	    -43.01481832	     19.85564768	     -0.00000000	     -0.00000000	      0.00000000	      0.88256836	     -1.15859885	     -1.51862625	      0.00000000	     -0.00000000	      0.00000000	    -83.95453090	    897.97669992	     13.54453050	      0.09108627	     -0.02042132	     -0.00733420	      0.00000000	      7.08828244	      0.00000000
     13.54799439	     28.64439725	    147.83992393	      6.36054545	      6.86360559	      5.24605482	     14.75508113	      2.69722918	      4.88664611	     46.90403495	      7.80783271	      4.81060760	     10.86831006	     11.53548854	     14.72281635	     14.14674039	     20.18274114	     12.65375636	    248.30514256	     68.27673093	     47.74331835	     54.64177725	     53.70412019	     42.68457819	      3.40492768	    342.22282385	     15.48730158	     58.93538522	    174.79152472	    497.93367816	    249.58976410	     22.13115326	      1.84787890	      5.38018728	     75.46259055	     50.63964332	    124.05550671	     18.22591446	     26.36325062	    207.08302625	     54.39291956	      4.89263502	     -7.58502291	     -3.28656893	      2.64541408	      2.86204901	     -2.99479680	      0.08208130	     -0.01287951	     -0.00499258	     -0.00302733	      0.00802664	     -0.00182469	    -30.98628931	    -99.94250076	     44.11506423	   -128.78449546	    -70.80153314	     34.16103792	     -0.00000000	     -0.00000000	      0.00000000	      1.00471244	     -1.16628302	     -1.46535395	      0.00000000	     -0.00000000	      0.00000000	   -118.47985501	   1122.63070471	     18.16808012	      0.10926466	     -0.01763177	     -0.01629721	      0.00000000	      8.37327917	      0.00000000
     13.56452771	     17.08492518	    119.54289147	      6.59294668	      7.16275500	      5.42743028	      8.26183396	      3.01127873	      4.91665028	     44.44374756	      7.40773097	      4.74126694	     10.76560992	     11.80800746	     12.10437786	     13.96060212	     20.08784946	     13.14106486	    229.14977881	     73.28456328	     61.38944959	     45.75851838	     46.03093169	     34.91744384	      2.74284503	    306.95984486	     14.70600267	     54.08232076	    159.96603383	    460.44604417	    236.97290596	     23.31208161	      1.87358556	      5.69824768	     75.23673393	     45.76014142	    117.83617032	     17.99623294	     28.83748102	    285.93775865	     70.19401289	     16.02541844	     10.19532307	      8.72363672	      7.92555116	     -3.41805143	     -3.45696881	      0.07655397	     -0.01347126	     -0.00517780	     -0.00433565	      0.00765947	     -0.00164201	    -19.01083722	   -105.41267461	     47.73673191	   -163.38311997	    -94.58106031	     47.75043141	      0.00000000	      0.00000000	     -0.00000000	      1.07158492	     -1.22992838	     -1.39231246	      0.00000000	      0.00000000	      0.00000000	   -128.29143063	   1292.03976311	     26.39010897	      0.12034436	     -0.01455255	     -0.02610083	      0.00000000	      8.73711886	      0.00000000
     13.58106103	      7.62031284	     72.72389302	      6.82631324	      7.46689161	      5.63574476	      5.58526964	      4.05234438	      5.44543150	     42.56885531	      7.45876403	      4.79185004	     10.63904573	     12.21606271	     10.00030768	     13.65608252	     19.73461837	     13.43870697	    205.76828528	     63.11892334	     44.29123441	     37.06185202	     36.32029825	     25.29939921	      2.83670142	    245.08436343	     15.36571943	     52.32445924	    105.21118775	    365.93420998	    204.30391716	     21.08102682	      1.67567764	      6.06672376	     74.78729217	     39.46108935	    110.93906703	     17.80668799	     34.26687350	    335.61531189	     84.68263137	      6.45472461	     14.23754817	     11.59860545	      1.16107707	     -5.29816061	     -0.73145494	      0.06096392	     -0.01266209	     -0.00384264	     -0.00518892	      0.00726947	     -0.00154265	    -14.65910031	   -108.56245313	     48.56095852	   -179.75702577	   -111.80944009	     57.22952331	     -0.00000000	     -0.00000000	      0.00000000	      1.07647270	     -1.35010071	     -1.29850716	      0.00000000	     -0.00000000	      0.00000000	    -99.77530758	   1404.83173798	     36.60301836	      0.12601731	     -0.01107164	     -0.03404711	      0.00000000	      9.00077968	      0.00000000
     13.59759434	      6.46460965	     36.92117941	      7.03296059	      7.74164960	      5.84550802	      5.19621848	      6.07071583	      5.53364672	     43.32824312	      7.29049842	      4.71022717	     10.55165403	     12.77347643	      9.21171445	     13.22179245	     19.10406688	     13.45577994	    203.66128139	     49.56678412	     15.49296165	     33.56992816	     29.57374528	     17.62956522	      2.96938480	    194.64228140	     16.19291594	     56.78207725	     44.23483342	    272.77340333	    172.22167364	     17.16811452	      1.47669990	      6.43358496	     74.33696742	     35.26509211	    108.55511056	     17.70995641	     35.61691704	    368.75317765	     93.57297136	     -8.47588270	      9.05714578	      1.74586379	     -5.58327906	     -0.74883303	      1.71269371	      0.04481044	     -0.01089112	     -0.00169124	     -0.00593874	      0.00723714	     -0.00160352	    -12.65556880	   -110.63275675	     47.14400913	   -174.16470330	   -122.85474920	     61.57664530	     -0.00000000	     -0.00000000	      0.00000000	      1.01026775	     -1.51684286	     -1.18108136	      0.00000000	     -0.00000000	      0.00000000	    -43.49334147	   1447.82706598	     45.20387440	      0.13031683	     -0.00768108	     -0.03865284	      0.00000000	      9.70640719	      0.00000000
     13.61412766	      7.29025154	     36.12700636	      7.19597286	      7.95379157	      6.04347484	      5.32803360	      8.90390736	      6.33053130	     46.49618976	      8.13087955	      4.88791546	     10.48373209	     13.54243073	     10.15571343	     12.69550389	     18.27148130	     13.19137687	    223.86614398	     33.41362285	     11.12749873	     36.42922341	     26.26751317	     12.13240373	      3.14491709	    176.76890566	     19.18372723	     65.51769837	     11.46898858	    219.76831471	    155.72868864	     13.42445079	      1.49721791	      6.76779844	     74.05090900	     34.34392980	    111.88351723	     17.76085142	     36.88365850	    366.07923515	     94.37705490	    -10.95507384	     -0.36998069	     -9.70797207	     -4.91193652	      4.60864826	      1.54979838	      0.03389113	     -0.00800952	      0.00078566	     -0.00639960	      0.00762391	     -0.00179509	     -9.50133594	   -108.27801516	     42.81753453	   -148.50885515	   -128.32396592	     61.44115475	     -0.00000000	     -0.00000000	      0.00000000	      0.86158108	     -1.70761152	     -1.04321835	      0.00000000	     -0.00000000	      0.00000000	     21.71891667	   1410.04135783	     48.06043389	      0.13613991	     -0.00540381	     -0.03972722	      0.00000000	     10.76033087	      0.00000000
     13.63066098	      8.86543716	     54.89707751	      7.30701420	      8.07771468	      6.22153123	      5.36173176	     11.75036581	      5.98297439	     51.90670325	      8.17399941	      4.71525203	     10.55368055	     14.58994773	     13.40567947	     12.16832321	     17.39171984	     12.73260791	    263.96831186	     24.82340843	     10.25619698	     43.82205827	     26.32149878	      8.19574081	      3.31097355	    178.66457719	     21.61308227	     79.12706592	      9.31273495	    197.06709517	    157.80542572	     10.50780687	      1.80426959	      7.07054535	     73.90279945	     36.55420560	    120.56679885	     18.15602631	     29.89674562	    316.20216667	     81.09122585	     -1.61597570	     -9.92772097	     -9.97759550	      0.74187177	      4.72220274	      0.17016032	      0.02745954	     -0.00518140	      0.00280497	     -0.00615099	      0.00839216	     -0.00214987	     -5.83758787	    -98.99746965	     35.56798141	   -109.51656357	   -127.04991947	     57.44329329	     -0.00000000	     -0.00000000	      0.00000000	      0.62224377	     -1.88950114	     -0.89993261	      0.00000000	     -0.00000000	      0.00000000	     80.64096089	   1289.37649278	     42.51898677	      0.14395143	     -0.00529551	     -0.03737245	      0.00000000	     11.65194664	      0.00000000
     13.64719429	     17.77057107	     77.00353437	      7.39607937	      8.15616036	      6.45670440	      5.83175614	     13.91676091	      7.05555651	     56.75915345	      9.41654798	      4.84707917	     10.71002665	     15.86741582	     19.44735175	     11.72606877	     16.61937005	     12.20612858	    318.83770536	     28.02140433	      9.90966088	     53.33928156	     28.48088648	      7.65763225	      3.57388786	    178.03200257	     25.21716076	     92.26130692	      8.88051868	    169.17342310	    158.33396477	      8.03140831	      2.90078808	      7.37332740	     73.69233131	     38.98288105	    129.49680333	     18.78826425	     25.54042045	    217.60167662	     58.74476443	      5.95485829	    -13.75756353	      0.56440747	      5.17141142	     -0.46997779	     -0.43841114	      0.02132972	     -0.00267041	      0.00446438	     -0.00468241	      0.00911617	     -0.00256464	     -3.12138255	    -83.11864072	     26.73034923	    -66.04767357	   -117.13538342	     49.70894809	      0.00000000	      0.00000000	     -0.00000000	      0.29557598	     -2.02623205	     -0.77615043	      0.00000000	      0.00000000	      0.00000000	    122.44581023	   1091.89917292	     29.81183036	      0.15318261	     -0.00782406	     -0.03148616	      0.00000000	     11.87810583	      0.00000000
     13.66372761	     25.49022095	     96.31090708	      7.39820798	      8.12086468	      6.50471580	      5.67365237	     15.35613724	      7.14015141	     59.27554107	      9.41460478	      5.00376748	     10.93403272	     17.25532550	     27.20513706	     11.41098574	     16.03304443	     11.71064410	    347.01377924	     33.22629768	      9.73893476	     57.97762663	     28.86686565	      6.08564393	      3.69187407	    158.39647934	     26.19025718	     99.74925741	      8.85750259	    117.92539197	    127.08372244	      4.55682655	      6.26294195	      7.67454260	     73.29029180	     36.64295373	    135.80247265	     19.58006776	     16.70816604	     98.87754544	     31.40741626	      4.38835440	     -7.67066907	      9.70569948	      4.68778537	     -5.42941606	     -0.49631124	      0.01397634	     -0.00015959	      0.00546715	     -0.00224441	      0.00951746	     -0.00291704	     -1.42519826	    -62.28110360	     17.96154281	    -26.69559764	    -98.33876684	     38.61215938	      0.00000000	      0.00000000	     -0.00000000	     -0.09878215	     -2.08744566	     -0.69505853	      0.00000000	      0.00000000	      0.00000000	    139.03773219	    835.41439962	     14.90384785	      0.16413092	     -0.01233339	     -0.02203599	      0.00000000	     11.09465468	      0.00000000
     13.68026093	     28.68910886	     98.48048846	      7.42098885	      8.23344915	      6.59966412	      5.75852187	     16.47575007	     21.30955751	     56.96272866	      9.32193613	      5.14750786	     11.15022863	     18.62094917	     33.88147000	     11.23000968	     15.65936771	     11.32310842	    289.76069885	     29.71029224	      9.69460424	     48.57052589	     23.56250355	      4.95501120	      5.37478553	    121.37629050	     24.33021696	     93.94207606	      9.15272840	     72.23812343	     32.93948918	      5.17857939	     18.05892667	      9.85121272	     72.70215982	     27.43040473	    135.69006886	     20.23847968	     14.00294831	     44.81916390	     23.59845491	     -1.06019194	      5.34789128	      9.08134734	      0.05065474	     -5.53015765	     -0.83359690	      0.00826357	      0.00138892	      0.00487304	      0.00995705	      0.00926020	     -0.00293525	      0.16830666	    -37.39536527	     10.34261568	      1.74309280	    -72.90435757	     25.67028526	     -0.00000000	     -0.00000000	      0.00000000	     -0.52860649	     -2.05597849	     -0.66329403	      0.00000000	     -0.00000000	      0.00000000	    127.93260799	    554.11202617	      3.20761837	      0.17846765	     -0.01683199	     -0.00954285	      0.00000000	      9.15188921	      0.00000000
     13.69679424	     31.22722409	     89.41925869	     10.56988348	     23.45331568	     11.46739048	      6.55567418	     19.14072020	     10.71254691	     50.56654441	      8.79777643	      5.22839428	     11.27138636	     19.94509113	     38.23972211	     11.18099201	     15.49433552	     11.14042033	    150.48816052	     13.86535218	      9.75959116	     25.61682684	     10.94516987	      4.84508798	      6.63871928	     59.50798223	     19.88908208	     76.06153891	      9.65035846	     28.78204200	     16.58116670	      3.36427302	    102.19155669	     19.80389060	     72.03972749	     10.04871338	    130.54592984	     20.53725336	     14.59482267	     46.34320888	     24.48654530	     -3.62267220	     14.96039584	      1.34998923	     -5.82639814	     -0.85025773	     -0.93837605	      0.00193516	      0.00288923	      0.00308061	      0.00311154	      0.00850303	     -0.00251969	      2.53732999	    -10.77506037	      4.70471274	     16.33342488	    -45.25586652	     13.77310110	     -0.00000000	     -0.00000000	      0.00000000	     -0.95908358	     -1.93009439	     -0.66585465	      0.00000000	     -0.00000000	      0.00000000	     96.17473602	    295.33041526	     -2.64671369	      0.19867138	     -0.01827187	      0.00440519	      0.00000000	      6.29825701	      0.00000000
     13.71332756	     35.03902525	     73.01756656	     28.94779922	     23.86091015	     29.71315358	     22.74963160	     96.90169727	      8.05402825	     43.35722571	      8.05965221	      5.19384943	     11.23516914	     21.26550131	     41.54296844	     11.34715557	     16.19245514	     60.13652931	     13.29370349	      8.98648095	      9.84288781	      4.65602835	      4.71232414	      4.59536719	      9.21553290	     12.56834284	     14.99761434	     54.31318458	     10.23925599	     28.90193967	     16.98172839	      3.29130361	    134.64475503	     20.71296386	     71.31283816	      4.19357892	    123.72068010	     20.33533973	     15.71832924	     67.83731210	     27.89423550	     -4.85109150	     13.74523577	     -6.11760501	    -11.73591505	      4.89924187	     -0.39570421	     -0.00149646	      0.00401229	     -0.00089503	     -0.00139167	      0.00769235	     -0.00187291	      6.03192533	     12.40988686	      1.56678211	     19.60002791	    -20.91240546	      5.70738659	      0.00000000	      0.00000000	     -0.00000000	     -1.36075761	     -1.72106918	     -0.67686632	      0.00000000	      0.00000000	      0.00000000	     59.61284761	    102.73927420	     -3.73048441	      0.22710057	     -0.01296828	      0.01711724	      0.00000000	      3.33924511	      0.00000000
     13.72986088	     49.49240573	     48.74671650	     37.15284147	      7.70136934	     58.96359141	     86.95793483	    298.87577950	     17.81014804	     38.54614162	      7.79772317	      5.14265745	     10.99921071	     22.44330781	     44.68598217	     12.71024841	     43.08848899	    166.89213449	     12.95520140	      8.88072664	      9.81996260	      4.48209133	      4.59736936	      4.55579415	     25.98756954	     12.42062365	     12.54866805	     36.79792105	     96.93712291	    163.12337643	     17.12504882	     12.55198502	     47.05073045	     18.33084742	     70.44478244	      4.05241023	    117.34798850	     19.59908139	     14.70730686	     46.61103724	     24.40687816	     23.50811705	      3.45320669	     -9.99053275	     14.79857702	      9.01394430	     -1.87423740	      0.00405213	      0.00509301	     -0.01260776	      0.00540267	      0.00718047	     -0.00131791	     41.21210723	     23.34815978	     -1.27619237	     -0.97420026	      1.13356195	      0.11557288	      0.00000000	      0.00000000	     -0.00000000	     -1.71127850	     -1.44840917	     -0.67845373	      0.00000000	      0.00000000	      0.00000000	      0.00006512	      0.00006854	     -0.00000477	     -1.33399001	     -1.35394522	     -0.63924328	      0.00000000	      0.00000324	      0.00000000
     13.74639419	     47.17935017	     34.00084324	     41.01349869	      7.52363639	     62.58017855	     94.87556274	    380.78319352	     19.08656980	     37.36440292	      7.67514161	      4.95751450	     10.62373156	     23.13956013	     46.95002702	     12.59795237	     62.27566840	    187.36923300	     12.73950690	      8.81640245	      9.75966046	      4.38557197	      4.54460771	      4.53520171	     27.89658346	     12.53994107	     11.76174531	     28.42261844	    110.68724023	    164.40789223	     17.32033882	     13.29362796	    136.19360156	     26.27913016	     69.44899242	      3.99834050	    112.04401639	     18.58320878	     14.68183512	     45.97257783	     24.34189307	      2.22888133	    -26.55853440	     -1.60050803	      8.85343533	      0.88013579	     -1.35108918	      0.00289961	      0.00509139	     -0.01414430	      0.00593741	      0.00703905	     -0.00103408	     47.26614663	     31.77036680	     -0.94425207	     -1.72687827	      1.26285004	      0.21475374	     -0.00000000	     -0.00000000	      0.00000000	     -1.99415777	     -1.13576433	     -0.67325855	      0.00000000	     -0.00000000	      0.00000000	     -0.00000000	     -0.00000000	      0.00000000	     -1.10912423	     -1.51726979	     -0.61740236	      0.00000000	     -0.00000000	      0.00000000
     13.76292751	     36.21418144	     24.94305838	     37.18789789	      7.32635900	     50.85631835	     74.51454658	    361.06922592	     15.73302254	     38.08590707	      7.16120333	      4.64004386	     10.37542101	     23.02955198	     47.10206398	     12.16113602	     73.90589562	    158.80704268	     12.66697875	      8.77886361	      9.68723883	      4.36125502	      4.55322992	      4.55075222	     22.74663179	     12.77957842	     10.73611165	     26.65310720	     84.93900379	    109.99235032	     17.95739583	      8.99175136	    348.93126294	     35.50675460	     68.38444559	      4.07309801	    105.28109696	     17.89002604	     14.90108580	     46.33116430	     24.75112419	     -9.89606341	     -2.41843082	      8.24899012	     -0.67925705	     -7.34076509	      0.31081091	      0.00026738	      0.00432520	     -0.01110331	      0.00554033	      0.00695874	     -0.00097324	     50.23456730	     36.21736832	     -0.96317473	     -3.24727005	      1.48650543	      0.21355889	     -0.00000000	     -0.00000000	      0.00000000	     -2.19888926	     -0.81111557	     -0.68010116	      0.00000000	     -0.00000000	      0.00000000	     -0.00000000	     -0.00000000	      0.00000000	     -0.88926331	     -1.63306572	     -0.60457030	      0.00000000	     -0.00000000	      0.00000000
     13.77946083	     26.35194422	     20.87797746	     25.82450371	      7.13963882	     36.25614885	     56.13845261	    318.10044931	     23.08567622	     35.55873240	      6.76747655	      4.60957079	     10.16582360	     22.05794565	     44.76327340	     13.20957672	     59.73272196	    116.44254521	     12.77645907	      8.81744480	      9.66206172	      4.41441358	      4.63977235	      4.64882138	     19.45012097	     13.07788808	     10.71080815	     24.40258750	     68.70504463	     86.63414771	     18.94581163	      9.09973460	    558.00718985	     43.94369389	     67.14967494	      4.29309834	     93.84642557	     17.62968649	     15.29686909	     46.93577269	     25.29238172	    -12.22569947	     25.72995419	      9.07841794	     -7.01460984	     -7.67165426	      1.81274762	      0.00066915	      0.00330653	     -0.00857615	      0.00989262	      0.00630930	     -0.00088391	     50.28828132	     32.57560948	     -1.11039069	     -5.44397670	      1.72941833	      0.00369415	      0.00000000	      0.00000000	     -0.00000000	     -2.32444123	     -0.50988641	     -0.71398440	      0.00000000	      0.00000000	      0.00000000	      0.00000000	      0.00000000	     -0.00000000	     -0.68054554	     -1.71596494	     -0.58939473	      0.00000000	      0.00000000	      0.00000000
     13.79599414	     17.64236088	     19.51449288	     11.60936725	      7.06061387	     20.10124313	     42.38372981	    276.92840562	     38.37640754	     31.24074511	      6.37831234	      4.97458023	     10.42323977	     23.70255520	     47.76253492	     11.12842077	     24.70976358	     67.62431595	     13.06596258	      8.97932313	      9.75900489	      4.52454246	      4.79368881	      4.85626196	     18.22944482	     13.37709738	     10.66950023	     24.33056221	     70.06944005	     98.40135267	     20.87004808	     13.80958723	    695.70698085	     51.29374876	     65.63705142	      4.60542471	     85.77671106	     18.13286018	     16.17956871	     49.09498921	     26.58561690	     -2.62327374	     16.90950286	      0.03764892	     -5.67637472	      0.36198870	      0.99238378	      0.00415133	      0.00182669	     -0.00724122	      0.02024709	      0.00549598	     -0.00072938	     48.59711342	     19.30320228	     -0.11261622	     -8.14994571	      1.90117414	     -0.42332525	      0.00000000	      0.00000000	     -0.00000000	     -2.38431271	     -0.27172754	     -0.76711611	      0.00000000	      0.00000000	      0.00000000	      0.00000000	      0.00000000	     -0.00000000	     -0.47859130	     -1.78039465	     -0.56163130	      0.00000000	      0.00000000	      0.00000000
     13.81252746	      8.63108035	     12.89915535	      6.76916203	      6.77802228	      6.57061137	     22.09662764	    219.88222998	     52.29751864	     44.39866754	      8.07623201	      4.91142964	     10.56474622	     25.34668767	    113.18178734	     11.06079612	     15.07199513	     10.06148412	     13.50090249	      9.31076185	     10.13505457	      4.65459850	      4.99289700	      5.19988203	     16.46339296	     13.53132011	     10.55437277	     31.90454586	     61.66064024	    108.76932990	     23.99330775	     18.74782091	    725.92340503	     55.96803326	     63.65204849	      4.92586387	    120.26631287	     19.20488099	     17.90041561	     53.98270241	     29.16082917	     13.06784004	    -28.00229622	     -8.51213094	      1.38531728	      7.89177788	     -1.83594395	      0.00863620	     -0.00032362	     -0.00475265	      0.03351481	      0.00745870	     -0.00134735	     46.28453881	      3.07430805	      2.35608223	    -11.03368795	      1.96988544	     -0.86054314	     -0.00000000	     -0.00000000	      0.00000000	     -2.40479575	     -0.12700824	     -0.81149293	      0.00000000	     -0.00000000	      0.00000000	     -0.00000000	     -0.00000000	      0.00000000	     -0.27590358	     -1.83359731	     -0.51403531	      0.00000000	     -0.00000000	      0.00000000
     13.82906078	      7.26175960	     11.03142464	      6.69591870	      6.84572088	      6.10312157	      5.85392879	    141.77678991	     69.51757597	     58.44090974	     10.63306421	      5.23020663	     11.02888375	     76.13359193	    114.34691397	     11.40923387	     15.54312249	     10.04958739	     15.78412279	     13.66999042	     19.45410716	      5.44648046	     11.41267734	     14.29781509	     10.30896917	     67.21890091	     14.24194078	     50.56753561	     73.53365801	    107.07774466	     27.13870661	     27.91166506	    678.45853801	     54.56676459	     62.71255319	     15.73595244	    159.52466660	     20.60249578	     20.10599881	     60.46267240	     32.42483056	     19.34661083	    -60.10700200	     -8.23798094	      7.49165886	      7.75153654	     -2.73575928	      0.01530902	     -0.00656818	     -0.00157359	      0.05248571	      0.00956498	     -0.00227415	     43.45569173	     -6.03499815	      4.08023435	    -13.35445873	      1.97532622	     -1.04924795	      0.00000000	      0.00000000	     -0.00000000	     -2.41057854	     -0.08318454	     -0.82242546	      0.00000000	      0.00000000	      0.00000000	      0.00000000	      0.00000000	     -0.00000000	     -0.06902227	     -1.87435322	     -0.44559917	      0.00000000	      0.00000000	      0.00000000
     13.84559409	      6.93811249	     10.36191730	      6.78291266	      7.06251462	      6.05444268	      5.69181934	    113.25047761	     64.20868272	     59.74745329	     11.05096342	      5.55526643	     11.57967205	     59.51584237	    106.07652392	     11.90811990	     16.29084196	     10.54225271	     38.24819529	     19.77734218	     19.63585383	      8.43790858	     15.67181143	     17.67924342	      9.96544271	     82.94766072	     15.79435512	     61.88616522	     78.61883797	    120.59103087	     29.45045314	     28.08094966	    552.53156764	     49.86905936	     64.39243091	     22.32879713	    162.44556576	     22.01878755	     22.01378228	     66.21144455	     35.24420928	      5.21015892	     -8.85048900	     -1.03311219	      6.87006503	      0.58838503	      0.37947236	      0.01771923	     -0.00676900	     -0.00124007	      0.05428540	      0.00984337	     -0.00300575	     40.49227768	     -4.17845713	      2.66781371	    -14.51335297	      1.99881398	     -0.93237876	      0.00000000	      0.00000000	     -0.00000000	     -2.40993155	     -0.11995980	     -0.79995771	      0.00000000	      0.00000000	      0.00000000	      0.00000000	      0.00000000	     -0.00000000	      0.13875790	     -1.89709338	     -0.36560782	      0.00000000	      0.00000000	      0.00000000
     13.86212741	      6.55820524	      9.53338734	      6.92275387	      7.33055220	      6.03571184	      5.51428480	     94.42058638	     48.44755151	     50.62777822	      9.96168770	      5.77406940	     12.06238861	     19.18694903	    106.44230426	     12.36799946	     16.95591481	     11.02897807	     60.86305483	     23.70389358	     19.34134590	     10.03291487	     15.19803832	     16.42182112	      8.16789729	     65.72292566	     15.10699382	     62.35174471	     62.86160181	     91.25936421	     30.63769426	     21.52534457	    436.73972020	     42.42270211	     69.13010912	     20.06299947	    145.38142289	     22.98361224	     23.09396728	     69.61056578	     36.82720606	    -25.27135214	    174.85229243	      4.19154124	     -3.55433496	     -7.93589022	      3.19207840	      0.01421176	     -0.00530996	     -0.00065413	      0.04309079	      0.00916378	     -0.00311495	     39.60493089	      3.81492468	     -1.01625271	    -14.70747349	      2.13760346	     -0.71663058	     -0.10672746	     -0.45627280	      0.03127819	     -2.40689851	     -0.19342511	     -0.77095938	      0.00000000	     -0.03515047	      0.00000000	     -0.00000000	     -0.00000000	      0.00000000	      0.33843986	     -1.89888940	     -0.29134446	      0.00000000	     -0.00000000	      0.00000000
     13.87866073	      6.15224686	      8.66559897	      8.42414991	     28.12759573	      6.02789881	      5.31206055	    103.40027440	      5.90156221	      5.85191654	      3.75110524	     16.87137801	     62.99305629	     17.68357424	     32.21909707	    143.95406985	    288.21371791	     76.56670918	    239.57199485	    131.77374788	    141.20186650	     17.60774871	     22.79073209	     27.07026906	      2.98420967	     11.58735698	      4.59127733	     10.39640788	    106.76962763	     17.05968508	     30.72211368	      2.94145453	    195.05271601	     16.76058092	    276.66568352	      6.23760680	     69.73251131	    270.82172063	     93.15683181	    852.29670871	    226.73288208	    -25.47946483	      3.02512720	      6.75742809	    -15.96251197	     -3.56694694	     -3.90853174	     -0.01487525	     -0.00500966	      0.00110590	     -0.00452901	      0.00158876	      0.00328450	     42.69319900	     12.09028801	     -4.14184275	    -14.41002066	      2.41845414	     -0.62372284	    -37.46233176	    475.95699757	     -4.55294516	      0.08768146	     -0.02317589	      0.02291237	      0.00000000	      7.66938308	      0.00000000	     -0.00000000	     -0.00000000	      0.00000000	      0.51772054	     -1.88420241	     -0.23814553	      0.00000000	     -0.00000000	      0.00000000
     13.89519404	      5.83775529	      8.08740544	     12.16049700	     45.76305996	      5.97287975	      5.14846242	     55.21531835	      5.82851757	      5.22843693	      5.95745782	     50.85242771	    197.73641402	     20.56333371	     36.13041148	    161.56556793	    311.66391774	     78.30056975	    399.91935620	    190.34976458	    174.23835079	     32.03324649	     36.66732680	     38.39644542	      2.98462184	     11.22949783	      4.79966447	     11.06016899	     98.64454125	     16.78294396	     30.03223495	      2.91905411	     77.75285165	      8.69372373	   1042.20050338	     11.90302702	    189.36395777	    827.49712352	    257.14153044	   2343.17829657	    622.53668370	     13.47489141	    -57.13561803	     -1.98374595	      5.07427263	      2.54485991	      0.76242295	     -0.01961569	     -0.00632274	      0.00279131	     -0.01440603	      0.00694354	      0.01084321	     48.20177877	     19.44042870	     -5.92673205	    -13.95395883	      2.73032624	     -0.64550392	   -114.45329020	    891.18729875	     -2.13856537	      0.10673586	     -0.02047740	      0.02184254	      0.00000000	      5.69413883	      0.00000000	      0.00000000	      0.00000000	     -0.00000000	      0.66324691	     -1.86433096	     -0.21079573	      0.00000000	      0.00000000	      0.00000000
     13.91172736	      5.64751653	      7.83571946	     12.69651334	     56.90391489	      5.83659782	      5.02783594	     20.61039128	      5.97854398	      4.81227866	      7.91282533	     78.17974099	    317.87129537	     22.71044253	     38.95140375	    213.43532102	    389.29723328	     90.89733301	    545.89947407	    255.23504773	    229.16824720	     43.63993386	     51.93153761	     54.41256237	      3.03036096	     11.21491970	      5.12417015	     11.93932107	    136.10389152	     16.85863781	     30.23052774	      2.95780679	     22.51956217	      6.84320925	   1934.66533850	     16.84261810	    269.16540660	   1257.03660332	    407.13249353	   3694.34806538	    986.70440901	     23.96931333	    -40.30300750	     -2.48674609	      9.42168033	      1.24531520	      0.74764378	     -0.02680591	     -0.00950972	      0.00382924	     -0.02623261	      0.01390263	      0.01915880	     51.94511360	     26.19184612	     -7.90753853	    -13.20736793	      2.91138659	     -0.62064740	   -154.49393412	   1189.79408276	     -7.53426223	      0.11856886	     -0.02159210	      0.02291623	      0.00000000	      6.18260528	      0.00000000	      0.00000000	      0.00000000	     -0.00000000	      0.76212617	     -1.85363131	     -0.20409165	      0.00000000	      0.00000000	      0.00000000
     13.92826068	      5.61565818	      7.93688306	     10.50769316	     58.94442176	      5.64572614	      4.96127206	     15.07786381	      6.27651353	      4.67047019	     10.03072556	    102.04645180	    430.55192928	     76.10244577	     39.26136222	    269.29923299	    479.21594869	    103.82147928	    665.76154781	    306.45033301	    276.36344451	     53.28823390	     66.22626366	     68.69971194	      3.10442174	     11.58590616	      5.42945232	     12.64721902	    171.14096036	     17.29768869	     74.88344723	      3.03931706	     21.98966346	      6.69555542	   2698.96582977	     21.77595994	    363.36833715	   1604.95567241	    507.89919761	   4610.40262072	   1239.90073617	     12.41676220	     -4.53529785	      4.10482583	      4.99702518	     -2.49355738	      0.55228962	     -0.03472381	     -0.01395789	      0.00420526	     -0.03675390	      0.02158052	      0.02926435	     50.69452040	     29.80328373	    -10.79976270	    -11.49819458	      2.89151622	     -0.46957306	   -150.54022819	   1370.31936476	    -20.33262145	      0.12231829	     -0.02590631	      0.02709036	      0.00000000	      8.01364201	      0.00000000	     -0.00000000	     -0.00000000	      0.00000000	      0.80251219	     -1.86521039	     -0.20991861	      0.00000000	     -0.00000000	      0.00000000
     13.94479400	      5.75575610	      8.36303660	      9.57439934	     57.00171864	      5.46670572	      4.95912108	     14.48397756	      6.61577683	      4.84958745	     11.69775637	    120.83983762	    519.54423710	    267.54312524	     37.28004193	    305.56245722	    536.79467965	    110.96881204	    779.87981343	    340.61507802	    300.30681395	     64.22016833	     79.56866193	     77.48804047	      3.19037935	     12.24062757	      5.63585093	     12.99838951	    173.04780203	     17.98794391	    136.03939632	      3.13467633	     21.45629012	      6.69158669	   3224.85470090	     27.40318159	    493.82312167	   1855.75817029	    558.21649592	   5085.83817597	   1374.24697675	     -3.48390587	     17.06649931	      6.52593422	     -0.30155551	     -2.69302677	      1.06255629	     -0.04223519	     -0.01847738	      0.00438455	     -0.04496721	      0.02616249	      0.03970709	     44.30281027	     25.49503108	    -12.71616190	     -8.05519524	      2.72851530	     -0.29893171	   -111.71576922	   1452.24790760	    -34.37308209	      0.12198674	     -0.03129323	      0.03384478	      0.00000000	      9.60304857	      0.00000000	     -0.00000000	     -0.00000000	      0.00000000	      0.77373395	     -1.90652501	     -0.22334107	      0.00000000	     -0.00000000	      0.00000000
     13.96132731	      6.06176085	      9.04654969	      7.10058179	     48.37532250	      5.32457872	      5.03170620	     13.66390286	      6.91951062	      5.27179836	     11.08731265	    130.85424832	    563.37083312	    488.56558250	    197.79259232	    313.03610999	    542.74505571	     98.08892300	    912.28069116	    365.46360588	    306.19074984	     80.35706531	     94.30097146	     82.06994066	      3.28062731	     13.00841070	      5.74396281	     13.04912529	    154.90249432	     18.75141088	    198.31309955	      3.21915938	     20.62427153	      6.65756959	   3446.33199883	     40.13359938	    641.17250204	   1969.88430092	    561.82837087	   5146.98667437	   1394.13005677	    -11.36473379	     20.13789774	     -1.27420548	     -3.45275830	      1.89411750	      0.88281872	     -0.04691318	     -0.02291551	      0.00460822	     -0.04905891	      0.02342850	      0.04725458	     34.67399401	     10.65250496	    -10.76207197	     -2.77464951	      2.52635077	     -0.30378625	    -54.64618452	   1451.82862542	    -42.81694311	      0.12252001	     -0.03641627	      0.04153987	      0.00000000	     10.06407127	      0.00000000	      0.00000000	      0.00000000	     -0.00000000	      0.66724648	     -1.97527399	     -0.24403011	      0.00000000	      0.00000000	      0.00000000
     13.97786063	      6.50295038	      9.89458195	      6.09953689	     35.88258201	      5.26085448	      5.18763426	     12.88402449	      7.15708634	      5.71912480	      9.06217042	    130.95397565	    554.59532105	    568.82839199	    772.43816875	    297.60389717	    506.60099412	     64.06405497	   1087.92384246	    390.57179980	    303.71870028	    106.83809696	    112.80239698	     84.31940442	      3.37720557	     13.74656882	      5.82132486	     12.97385478	    129.74426674	     19.42686593	    264.23782290	      3.27821967	     19.77380805	      6.62468360	   3116.22706928	     65.83571910	    776.54134466	   1938.06033698	    537.15133683	   4948.63370168	   1341.70799142	    -10.61457561	     11.06839079	    -10.41549350	     -4.96674604	      5.83804512	     -0.47048920	     -0.04869950	     -0.02756751	      0.00523755	     -0.04933966	      0.01713258	      0.04964004	     23.55398639	    -11.99774932	     -3.48889565	      3.37053481	      2.33492192	     -0.61262358	      6.73422724	   1376.78814381	    -42.16309605	      0.12560747	     -0.04101397	      0.04809231	      0.00000000	      9.29856044	      0.00000000	     -0.00000000	     -0.00000000	     -0.00000000	      0.47967194	     -2.05736343	     -0.27416445	      0.00000000	      0.00000000	      0.00000000
     13.99439395	      7.02695665	     10.82355703	      5.88827261	     16.33028507	      5.30258923	      5.42475175	     12.27604114	      7.33053344	      6.15092086	      4.65941340	    121.35314005	    502.81533168	    558.33704801	   1057.13501608	    255.36594257	    415.71788836	      9.29715099	   1279.58712373	    407.76683493	    289.42162228	    144.39651774	    132.79968287	     83.32219339	      3.48314253	     14.38014601	      5.94833064	     12.93923046	    100.66996058	     19.90984604	    319.32314016	      3.30837354	     19.21364089	      6.62952507	   2650.70619496	    106.56597666	    800.49622553	   1768.56324787	    459.55166090	   4253.26732591	   1153.72289368	     -5.17904871	     -2.03432044	     -7.71497338	     -4.20577398	      3.21185122	     -1.67603217	     -0.04570543	     -0.03266266	      0.00629999	     -0.04348401	      0.00913222	      0.04652174	     11.66111070	    -35.28357468	      7.95609667	      8.66134738	      2.12614162	     -1.19062806	     62.43891644	   1229.00385362	    -33.06767390	      0.12995660	     -0.04476319	      0.05139648	      0.00000000	      7.65511280	      0.00000000	      0.00000000	      0.00000000	      0.00000000	      0.21759018	     -2.12931266	     -0.31549821	      0.00000000	     -0.00000000	      0.00000000
     14.01092726	      7.57836273	     11.77966298	      5.84166759	      5.98637931	      5.45781990	      5.72007889	     11.95016239	      7.44663075	      6.77570906	      4.00976061	    101.73534486	    410.97834954	    462.49386703	   1007.76476045	    174.27088828	    248.85343556	      8.62981430	   1398.44933350	    394.36471354	    250.95182838	    184.42546019	    146.13838565	     75.88324931	      3.59339010	     14.89907864	      6.16663600	     13.03808000	     68.30485442	     20.14430534	    485.16476405	      3.31450922	     19.14668045	      6.69505020	   2067.60008882	    155.55765297	    682.73945479	   1456.93758597	    329.02866558	   3056.74371314	    830.24507460	      3.04551326	    -11.78680026	      5.74325074	      0.56682374	     -4.00666971	     -1.53371264	     -0.03401977	     -0.03756450	      0.00752555	     -0.03134903	      0.00320591	      0.03851208	     -0.33996517	    -52.11373641	     20.58203695	     11.63633568	      1.86045413	     -1.85638073	    102.41107107	   1012.91779443	    -20.00182815	      0.13555817	     -0.04701240	      0.04960933	      0.00000000	      5.61903217	      0.00000000	      0.00000000	      0.00000000	      0.00000000	     -0.09901582	     -2.16598023	     -0.36816040	      0.00000000	     -0.00000000	      0.00000000
     14.02746058	      8.10271823	     12.71471677	      5.91228032	      5.82319463	      5.70700594	      6.02843770	     11.96065076	      7.53858582	      7.59253884	      4.28528075	     71.80769632	    283.42664969	    315.58646105	    734.05459016	     93.09338832	     64.81393709	      8.70318769	   1296.36968981	    336.96321762	    198.83551847	    196.10821815	    138.03470140	     60.64508781	      3.68997766	     34.95371233	      6.44579030	     13.26706924	     45.07105396	     20.18798110	    681.44582349	      3.91028287	     19.57582527	      6.81930916	   1488.52229559	    179.29163002	    448.98722909	   1007.94621823	    174.79376986	   1628.39106442	    443.89878302	     10.23991975	    -13.14724063	     14.15472922	      6.42250173	     -7.09274973	     -0.34886079	     -0.01639755	     -0.04047772	      0.00740885	     -0.01623122	     -0.00023765	      0.02677878	    -11.11113574	    -59.08315304	     30.89032559	     12.16434697	      1.54919483	     -2.36245971	    117.07210147	    746.59180286	     -9.08094787	      0.14668508	     -0.04627578	      0.04217100	      0.00000000	      3.66748928	      0.00000000	     -0.00000000	     -0.00000000	     -0.00000000	     -0.43898638	     -2.15050562	     -0.43237305	      0.00000000	      0.00000000	      0.00000000
     14.04399390	      8.53116787	     13.51620381	      6.07531870	      5.94867090	      6.00101594	      6.29917622	     12.23873918	      7.73917755	      8.41158173	      4.34567196	     38.20642418	    149.46943499	    176.48785253	    432.64702036	     24.56762547	     12.94817650	      8.94813847	    970.54422686	    245.66770512	    141.05725096	    163.69874536	    105.98396044	     41.50208703	      3.74873595	    168.64011769	      6.69232431	     13.53030054	     29.87736596	     20.00772103	    773.01107253	      9.72271727	     20.25213977	      6.96521069	    969.73446357	    158.48885190	    189.53998804	    527.43626454	     47.91408110	    433.80775304	    119.26435383	      9.13179904	     -4.74105499	      7.85442064	      6.28484714	     -2.37614817	      0.76885365	      0.00098182	     -0.03762512	      0.00556238	     -0.00405549	     -0.00204306	      0.01421305	    -19.13180912	    -56.33623858	     35.80045470	     11.45308725	      1.25173411	     -2.49587172	    103.74640095	    467.95922843	     -4.43952557	      0.16916958	     -0.03863764	      0.03049322	      0.00000000	      2.10877862	      0.00000000	     -0.00000000	     -0.00000000	     -0.00000000	     -0.76912372	     -2.07980258	     -0.51120488	      0.00000000	      0.00000000	      0.00000000
     14.06052721	      8.78611231	     13.99175702	      6.28226991	      6.15070105	      6.28061508	      6.50060518	     12.59948740	     57.33656027	      9.06150192	      4.77017500	     10.58782172	     40.15107444	    137.20814846	    397.63308309	      9.46324073	     13.25204125	      9.34999430	    570.43241629	    157.05818417	    104.01385434	    109.55772355	     74.36909251	     30.82405023	      3.75915408	    328.78317597	      6.83404798	     13.72472523	     38.30408118	    154.87050234	    491.32309233	     32.80689901	     20.78151015	      7.08059780	    312.52318041	    124.72391528	     55.52550153	    142.04120603	     17.85465455	     54.20903764	     29.07971861	     -0.86440293	     10.76586694	     -2.86001683	     -1.49352346	      2.04674880	      1.53453039	      0.03299763	     -0.03130994	      0.00014120	      0.03260682	     -0.00058403	      0.00386623	    -23.07716239	    -45.42258994	     33.38339275	     10.91960072	      1.03765209	     -2.17800167	     71.72294804	    226.06682872	     -5.83636277	      0.20340508	     -0.01877593	      0.01535954	      0.00000000	      0.95101614	      0.00000000	      0.00000000	      0.00000000	      0.00000000	     -1.06575453	     -1.96082200	     -0.61025731	      0.00000000	     -0.00000000	      0.00000000
     14.07706053	      8.83079704	     14.01789748	      6.48692377	      6.38142137	      6.50753998	      6.63052869	     12.82184426	     90.34269035	     63.45835422	      9.00695901	      4.06209362	      8.44229405	     87.79392622	    324.40390784	      9.72587975	     13.79506850	      9.84884537	    296.17713919	     97.59434450	     81.08194000	     64.87137416	     50.49700888	     23.58358502	      4.00719658	    354.05543617	     22.42971373	     80.51385223	     40.78113207	    335.14763135	     52.38094127	     41.03556176	     20.80637740	      7.12770872	     33.77131006	     85.71089423	    124.69910840	     14.70811708	     18.67610850	     56.48427723	     30.29621328	     -9.93314759	     26.23230405	     -3.49802247	    -10.51818915	     -1.77805550	      2.19884763	      0.04833077	     -0.02383319	     -0.00343087	      0.05706393	      0.00506131	     -0.00207611	    -22.77589700	    -29.15443754	     24.65497181	     11.18761692	      0.92643812	     -1.54034995	     38.17915966	     59.33700685	     -9.77306016	      0.24195692	      0.01411393	     -0.00635425	      0.00000000	      0.09749976	      0.00000000	     -0.00000000	     -0.00000000	     -0.00000000	     -1.32149664	     -1.80023399	     -0.73263855	      0.00000000	      0.00000000	      0.00000000
     14.09359385	      8.85773215	     93.53200836	      6.66151929	      6.59654777	      6.67861888	     11.65117375	     12.73531749	     94.46853846	    100.91581366	     15.20760496	      4.14073467	      8.60261887	     54.21225250	    178.90506554	     10.09426622	     14.42821973	     10.34628813	     44.97283494	     53.72217552	     80.01131410	     23.84186691	     34.56062215	     20.88223135	     27.64570800	    346.46289187	     24.96353796	     85.38537274	     52.16511640	    501.33919925	     35.39089423	     44.50963488	     19.95835501	      7.04420667	     40.07008676	     60.17613688	    245.21070195	     15.25983267	     19.92475582	     60.12920394	     32.13533873	      4.76359396	     10.86518296	     -3.73383890	      4.94378668	      1.02547101	      1.34958395	      0.06514961	     -0.01629811	     -0.00820902	      0.06582694	      0.01051206	     -0.00272359	    -20.56796945	    -11.01673947	     13.14029694	     12.48955943	      0.85645690	     -0.79314098	      0.00000073	      0.00000086	     -0.00000023	     -1.03293977	     -1.27999105	     -1.44438895	      0.00000000	     -0.00000000	      0.00000000	     -0.00000000	     -0.00000000	     -0.00000000	     -1.54295936	     -1.59696973	     -0.87174644	      0.00000000	      0.00000000	      0.00000000
     14.11012716	     31.05130666	    181.17870785	      6.80914234	      6.78564241	      6.88039944	     55.15254962	     13.19383645	     92.36303931	    100.73274650	     15.70424998	      4.45846697	      9.14531400	     45.42256559	    196.12207251	     10.54307507	     15.07102414	     10.78373920	     10.78290157	     33.10727083	     93.04689015	      4.48157647	     21.45006394	     17.97280683	     42.42869054	    210.81143627	     21.91894880	     70.00023316	     57.65004348	    454.20027164	     25.60560040	     39.82144883	    109.39145983	     23.95048931	     49.38063562	     27.43505411	    261.56649868	     16.53071964	     21.34177254	     64.39131159	     34.22100178	     -0.60502875	    -15.21732935	      1.84230922	      1.45790637	     -0.13331510	     -1.12199152	      0.05810082	     -0.00895655	     -0.01093675	      0.07027597	      0.01345318	     -0.00276910	    -21.50552370	      3.84838787	      4.14677620	     14.42008405	      0.73666549	     -0.16050364	     -0.00000000	     -0.00000000	      0.00000000	     -0.91622426	     -1.46714678	     -1.34576740	      0.00000000	      0.00000000	      0.00000000	      0.00000000	      0.00000000	      0.00000000	     -1.74060119	     -1.34614449	     -1.00822615	      0.00000000	     -0.00000000	      0.00000000
     14.12666048	     95.22447603	    314.65709179	      6.93344391	      6.95081774	     22.86057895	    142.52238150	     46.91683352	     94.84536680	     95.87653495	     15.55389197	      4.70379822	      9.91352968	     41.82511169	    188.95582540	     10.94206479	     15.65815652	     11.15925821	     10.81910898	     27.62559306	    171.13250651	      4.20204616	     16.04877445	     24.62834923	     64.74372643	    115.27347848	     18.55672522	     53.99541539	     66.57295059	    592.09870199	     26.37461147	     44.93474532	    110.75253439	     39.92680163	     61.61449832	      6.33572577	    267.81246430	     18.27289967	     22.63350721	     68.34682509	     36.13012260	      5.15975328	    -23.94813021	     -0.66326428	      2.98937286	      2.20038065	     -6.10125455	      0.07299849	     -0.00341725	     -0.02047989	      0.07915407	      0.01710956	     -0.00285880	    -26.25897024	     16.02293721	     -1.63517638	     16.64355774	      0.56468457	      0.36147149	     -0.00000000	     -0.00000000	      0.00000000	     -0.82549666	     -1.63242056	     -1.20859112	      0.00000000	      0.00000000	      0.00000000	      0.00000000	      0.00000000	      0.00000000	     -1.91581061	     -1.05195355	     -1.12101847	      0.00000000	     -0.00000000	      0.00000000
