Joint Reaction Loads
version=1
nRows=51
nColumns=10
inDegrees=no

This file contains the reaction forces and moments
applied to the specified body of a joint pair and expressed  in the specified reference frame.

Units are S.I. units (seconds, meters, Newtons, ...)
endheader
time	patellofemoral_r_on_patella_r_in_patella_r_fx	patellofemoral_r_on_patella_r_in_patella_r_fy	patellofemoral_r_on_patella_r_in_patella_r_fz	patellofemoral_r_on_patella_r_in_patella_r_mx	patellofemoral_r_on_patella_r_in_patella_r_my	patellofemoral_r_on_patella_r_in_patella_r_mz	patellofemoral_r_on_patella_r_in_patella_r_px	patellofemoral_r_on_patella_r_in_patella_r_py	patellofemoral_r_on_patella_r_in_patella_r_pz
     13.29999464	   3104.47601833	     41.80436884	     77.18031830	    -14.49572299	      8.64794431	    -83.22346184	      0.00000000	      0.00000000	      0.00000000
     13.31652796	   1997.81144326	    -53.34602113	     25.24186111	     -9.75830016	      5.61415351	    -51.23683481	      0.00000000	      0.00000000	      0.00000000
     13.33306127	   1161.42510885	    -76.62072173	     -1.47662552	     -6.00610438	      3.24150627	    -28.25086433	      0.00000000	      0.00000000	      0.00000000
     13.34959459	    622.68264483	    -62.98150741	     -9.14018677	     -3.43942401	      1.64315880	    -14.28475972	      0.00000000	      0.00000000	      0.00000000
     13.36612791	    350.14041416	    -44.12236253	     -8.85666317	     -2.09576237	      0.79011392	     -7.64009951	      0.00000000	      0.00000000	      0.00000000
     13.38266122	    288.11660003	    -38.59186815	     -8.49443036	     -1.81378089	      0.56186663	     -6.17370427	      0.00000000	      0.00000000	      0.00000000
     13.39919454	    356.49097555	    -43.48794145	     -7.92367346	     -2.14971849	      0.70834240	     -7.85756049	      0.00000000	      0.00000000	      0.00000000
     13.41572786	    474.37649949	    -43.58583670	     -2.34716672	     -2.59534950	      0.93809366	    -11.11530595	      0.00000000	      0.00000000	      0.00000000
     13.43226117	    601.36999203	    -28.72762399	     10.25367090	     -2.92180448	      1.08973633	    -15.14724117	      0.00000000	      0.00000000	      0.00000000
     13.44879449	    742.82065062	      5.31523168	     29.38013157	     -3.17408334	      1.15956524	    -20.06439773	      0.00000000	      0.00000000	      0.00000000
     13.46532781	    926.08527906	     65.31928500	     55.45761893	     -3.47654349	      1.21346502	    -26.57744561	      0.00000000	      0.00000000	      0.00000000
     13.48186112	   1177.09442736	    163.73615109	     90.53284232	     -3.89322684	      1.29271312	    -35.38074157	      0.00000000	      0.00000000	      0.00000000
     13.49839444	   1476.71468661	    313.23375005	    133.83745866	     -4.37231820	      1.37356859	    -45.87810577	      0.00000000	      0.00000000	      0.00000000
     13.51492776	   1775.35494823	    511.89056528	    180.33262204	     -4.85185412	      1.42013380	    -56.34170981	      0.00000000	      0.00000000	      0.00000000
     13.53146108	   2016.15378218	    718.42773962	    225.42180176	     -4.92399986	      1.27544096	    -64.74727656	      0.00000000	      0.00000000	      0.00000000
     13.54799439	   2154.53282731	    862.95505271	    265.68247450	     -4.72472419	      1.15896695	    -69.57248873	      0.00000000	      0.00000000	      0.00000000
     13.56452771	   2189.92086030	    871.63135044	    301.78453314	     -4.32675374	      1.06973671	    -71.16615610	      0.00000000	      0.00000000	      0.00000000
     13.58106103	   2178.14651700	    861.74680673	    320.44926870	     -4.15138592	      1.04198786	    -70.90961702	      0.00000000	      0.00000000	      0.00000000
     13.59759434	   2108.27172306	    828.70298216	    318.14879052	     -4.13570058	      1.06551227	    -68.48031757	      0.00000000	      0.00000000	      0.00000000
     13.61412766	   1974.54435902	    768.65097057	    295.33170511	     -4.16616815	      1.11155862	    -63.83079753	      0.00000000	      0.00000000	      0.00000000
     13.63066098	   1797.48596578	    690.10405926	    258.35580319	     -4.17206198	      1.15349268	    -57.75973354	      0.00000000	      0.00000000	      0.00000000
     13.64719429	   1619.66426264	    613.65743773	    216.61061348	     -4.17028593	      1.18297904	    -51.70404660	      0.00000000	      0.00000000	      0.00000000
     13.66372761	   1476.21680160	    555.54531764	    177.26072159	     -4.21534841	      1.20393666	    -46.78541385	      0.00000000	      0.00000000	      0.00000000
     13.68026093	   1370.22124255	    515.16743013	    141.97258166	     -4.33125144	      1.21685141	    -43.06604343	      0.00000000	      0.00000000	      0.00000000
     13.69679424	   1249.04845535	    435.46048250	    110.24517779	     -4.38592779	      1.22909163	    -38.91067472	      0.00000000	      0.00000000	      0.00000000
     13.71332756	   1086.04967841	    318.43421876	     81.58036372	     -4.39456167	      1.36781107	    -33.32416704	      0.00000000	      0.00000000	      0.00000000
     13.72986088	    885.16420205	    191.72170221	     55.12089892	     -3.84636632	      1.24937389	    -26.53515724	      0.00000000	      0.00000000	      0.00000000
     13.74639419	    692.09958937	     96.82642418	     31.05801064	     -3.33235006	      1.16553930	    -19.98816267	      0.00000000	      0.00000000	      0.00000000
     13.76292751	    545.36810098	     35.60846863	     12.01838190	     -2.94022071	      1.16826492	    -14.93081199	      0.00000000	      0.00000000	      0.00000000
     13.77946083	    443.90231968	     -1.93116099	     -2.48389601	     -2.66780458	      1.17485678	    -11.32069355	      0.00000000	      0.00000000	      0.00000000
     13.79599414	    359.70062091	    -22.72431586	    -11.98392097	     -2.43117734	      0.98898286	     -8.46430639	      0.00000000	      0.00000000	      0.00000000
     13.81252746	    265.24145678	    -28.84820063	    -13.47114475	     -2.08956119	      0.43987217	     -5.74548591	      0.00000000	      0.00000000	      0.00000000
     13.82906078	    162.08415816	    -23.21512462	     -6.94226734	     -1.57557037	     -0.30737166	     -3.25405494	      0.00000000	      0.00000000	      0.00000000
     13.84559409	    180.78494585	    -22.53392337	     -7.09032356	     -1.52116186	     -0.02060128	     -3.82763143	      0.00000000	      0.00000000	      0.00000000
     13.86212741	    624.73163271	    -38.25716518	    -30.46371148	     -3.50269743	      3.66414858	    -14.80668111	      0.00000000	      0.00000000	      0.00000000
     13.87866073	   1791.25701121	    -18.68390579	    -60.38916348	     -9.05131866	     12.38563605	    -45.09660841	      0.00000000	      0.00000000	      0.00000000
     13.89519404	   3621.56371246	    132.58971481	    -53.59382771	    -17.99205828	     24.65992796	    -95.31690905	      0.00000000	      0.00000000	      0.00000000
     13.91172736	   5660.35273778	    435.73370748	     -0.77097039	    -28.26751919	     36.64480737	   -153.71273498	      0.00000000	      0.00000000	      0.00000000
     13.92826068	   7323.49401282	    770.33028752	     67.21810286	    -36.83990415	     44.98582307	   -202.60961702	      0.00000000	      0.00000000	      0.00000000
     13.94479400	   8204.15591367	    977.78676526	    112.45380373	    -41.44482187	     48.50238964	   -228.90608526	      0.00000000	      0.00000000	      0.00000000
     13.96132731	   8218.13057813	    983.72175356	    119.02848405	    -41.52613788	     47.68089590	   -229.50228962	      0.00000000	      0.00000000	      0.00000000
     13.97786063	   7480.69026560	    814.04555489	     94.62698965	    -37.61713119	     43.14718203	   -207.87396395	      0.00000000	      0.00000000	      0.00000000
     13.99439395	   6183.85543886	    547.61694689	     57.95215929	    -30.71500889	     35.41980354	   -170.13089202	      0.00000000	      0.00000000	      0.00000000
     14.01092726	   4565.01812954	    274.39458108	     26.59077703	    -22.15756460	     25.53487816	   -123.68955262	      0.00000000	      0.00000000	      0.00000000
     14.02746058	   2929.66262616	     71.75064035	     10.05240445	    -13.71916572	     15.44188383	    -77.69160155	      0.00000000	      0.00000000	      0.00000000
     14.04399390	   1600.85575710	    -26.09944329	      7.45972296	     -7.16154493	      7.35999539	    -41.26975983	      0.00000000	      0.00000000	      0.00000000
     14.06052721	    764.26071465	    -44.93048042	     10.05837847	     -3.32718248	      2.47115575	    -19.02017335	      0.00000000	      0.00000000	      0.00000000
     14.07706053	    385.87673604	    -36.25171012	      8.39667940	     -1.87459570	      0.43828333	     -9.19301873	      0.00000000	      0.00000000	      0.00000000
     14.09359385	    308.35212579	    -31.40068620	      1.51540363	     -1.83922320	      0.14412619	     -7.10692692	      0.00000000	      0.00000000	      0.00000000
     14.11012716	    373.29917525	    -32.42507233	     -2.51994215	     -2.25753419	      0.51107817	     -8.71615895	      0.00000000	      0.00000000	      0.00000000
     14.12666048	    484.73979637	    -31.24231197	      0.54161848	     -2.65348018	      0.97111018	    -11.76418656	      0.00000000	      0.00000000	      0.00000000
