PassiveFiberForce
version=1
nRows=51
nColumns=5
inDegrees=no

This analysis gathers basic information about muscles during a simulation (e.g., forces, tendon lengths, moment arms, etc).
Units are S.I. units (second, meters, Newtons, ...)
If the header above contains a line with 'inDegrees', this indicates whether rotational values are in degrees (yes) or radians (no).

endheader
time	recfem_r	vaslat_r	vasint_r	vasmed_r
     14.77332626	    145.74612710	    141.24140059	     52.23175658	     86.34373483
     14.79039291	    132.87168223	    124.52664340	     45.79273109	     76.56336416
     14.80745956	    124.27988451	    113.35731689	     41.49773729	     69.94835780
     14.82452621	    123.43634579	    109.45440647	     39.93742902	     67.49979367
     14.84159286	    132.65154243	    113.02459520	     41.18661018	     69.39206999
     14.85865951	    154.23446448	    123.71995220	     45.13890809	     75.45006296
     14.87572616	    191.79728509	    141.38914030	     51.80329345	     85.59675833
     14.89279281	    250.76337895	    166.27241022	     61.40796199	    100.01842170
     14.90985946	    336.67836555	    198.45175643	     74.18009479	    118.81758017
     14.92692611	    452.43579768	    238.09359511	     90.44098965	    142.20185476
     14.94399276	    597.96558709	    286.24570931	    110.98126828	    171.10351506
     14.96105941	    751.93183346	    338.87477246	    134.56700640	    203.43819788
     14.97812606	    876.70200006	    389.66638495	    158.65423404	    235.54756916
     14.99519270	    942.46383418	    433.72632788	    180.81768164	    264.35577415
     15.01225935	    937.49252298	    467.96277895	    198.74328314	    287.16023627
     15.02932600	    869.35659167	    490.83329546	    210.21375901	    301.49132972
     15.04639265	    761.01492796	    498.25691184	    213.89997320	    306.01201745
     15.06345930	    636.78279966	    488.53838700	    209.38169570	    300.33220297
     15.08052595	    512.75417011	    463.30127422	    196.90321836	    284.60119499
     15.09759260	    397.70415264	    426.05637516	    177.63795164	    259.94304711
     15.11465925	    296.16075740	    377.44093282	    153.64272308	    228.57912583
     15.13172590	    209.89019387	    320.42837000	    127.15405908	    193.03503972
     15.14879255	    140.83088664	    260.64096194	    100.92217694	    156.78932316
     15.16585920	     91.27083585	    206.59814071	     78.33087809	    124.74652403
     15.18292585	     57.82586780	    160.38529481	     59.85683825	     97.77006836
     15.19999250	     37.04464490	    123.78535853	     45.70760882	     76.49103108
     15.21705915	     25.76291350	     98.81762339	     36.19899217	     61.82101783
     15.23412580	     20.66261250	     84.88784909	     30.81337421	     53.33543011
     15.25119245	     19.57101471	     80.52781243	     29.01715975	     50.41389287
     15.26825910	     21.16335050	     84.12608274	     30.26375126	     52.28496635
     15.28532575	     24.81017625	     94.89387322	     34.23002566	     58.46518099
     15.30239240	     30.25569823	    112.53106825	     40.78963445	     68.68228087
     15.31945905	     37.38778136	    136.50964763	     49.83996257	     82.59014960
     15.33652570	     45.83727883	    164.92755223	     60.85239179	     99.18803412
     15.35359235	     54.76603218	    193.45815412	     72.24038698	    115.98728843
     15.37065900	     63.67639155	    217.01896710	     81.90897044	    129.97529967
     15.38772565	     72.82738839	    231.90528194	     88.17212938	    138.91718711
     15.40479230	     82.75213408	    236.24643182	     90.08816110	    141.62348094
     15.42185894	     93.83653765	    230.55006501	     87.80129128	    138.35517716
     15.43892559	    105.80910570	    216.93404262	     82.23771008	    130.39838002
     15.45599224	    117.30555406	    197.72635347	     74.45984716	    119.18531724
     15.47305889	    125.88714520	    174.86165450	     65.35320119	    105.88523837
     15.49012554	    129.17148906	    150.56150507	     55.85276762	     91.78556721
     15.50719219	    126.74841247	    127.83408338	     47.11946986	     78.60578161
     15.52425884	    120.55154988	    109.34819162	     40.08964532	     67.81675102
     15.54132549	    114.07504523	     96.70709200	     35.26116038	     60.28842864
     15.55839214	    111.29735673	     90.52608770	     32.83991252	     56.44837538
     15.57545879	    115.93812693	     90.88419004	     32.88152897	     56.45397147
     15.59252544	    131.44719981	     97.74411256	     35.38188056	     60.32517998
     15.60959209	    161.08728026	    110.88623291	     40.25310685	     67.88785844
     15.62665874	    206.17188703	    129.10909393	     47.07502298	     78.38318778
