TendonPower
version=1
nRows=51
nColumns=5
inDegrees=no

This analysis gathers basic information about muscles during a simulation (e.g., forces, tendon lengths, moment arms, etc).
Units are S.I. units (second, meters, Newtons, ...)
If the header above contains a line with 'inDegrees', this indicates whether rotational values are in degrees (yes) or radians (no).

endheader
time	recfem_r	vaslat_r	vasint_r	vasmed_r
     14.77332626	     -0.00000000	     -0.00000000	     -0.00000000	     -0.00000000
     14.79039291	     -0.00000000	     -0.00000000	     -0.00000000	     -0.00000000
     14.80745956	     -0.00000000	     -0.00000000	     -0.00000000	     -0.00000000
     14.82452621	     -0.00000000	     -0.00000000	     -0.00000000	     -0.00000000
     14.84159286	     -0.00000000	     -0.00000000	     -0.00000000	     -0.00000000
     14.85865951	     -0.00000000	     -0.00000000	     -0.00000000	     -0.00000000
     14.87572616	     -0.00000000	     -0.00000000	     -0.00000000	     -0.00000000
     14.89279281	     -0.00000000	     -0.00000000	     -0.00000000	     -0.00000000
     14.90985946	     -0.00000000	     -0.00000000	     -0.00000000	     -0.00000000
     14.92692611	     -0.00000000	     -0.00000000	     -0.00000000	     -0.00000000
     14.94399276	     -0.00000000	     -0.00000000	     -0.00000000	     -0.00000000
     14.96105941	     -0.00000000	     -0.00000000	     -0.00000000	     -0.00000000
     14.97812606	     -0.00000000	     -0.00000000	     -0.00000000	     -0.00000000
     14.99519270	     -0.00000000	     -0.00000000	     -0.00000000	     -0.00000000
     15.01225935	     -0.00000000	     -0.00000000	     -0.00000000	     -0.00000000
     15.02932600	     -0.00000000	     -0.00000000	     -0.00000000	     -0.00000000
     15.04639265	     -0.00000000	     -0.00000000	     -0.00000000	     -0.00000000
     15.06345930	     -0.00000000	     -0.00000000	     -0.00000000	     -0.00000000
     15.08052595	     -0.00000000	     -0.00000000	     -0.00000000	     -0.00000000
     15.09759260	     -0.00000000	     -0.00000000	     -0.00000000	     -0.00000000
     15.11465925	     -0.00000000	     -0.00000000	     -0.00000000	     -0.00000000
     15.13172590	     -0.00000000	     -0.00000000	     -0.00000000	     -0.00000000
     15.14879255	     -0.00000000	     -0.00000000	     -0.00000000	     -0.00000000
     15.16585920	     -0.00000000	     -0.00000000	     -0.00000000	     -0.00000000
     15.18292585	     -0.00000000	     -0.00000000	     -0.00000000	     -0.00000000
     15.19999250	     -0.00000000	     -0.00000000	     -0.00000000	     -0.00000000
     15.21705915	     -0.00000000	     -0.00000000	     -0.00000000	     -0.00000000
     15.23412580	     -0.00000000	     -0.00000000	     -0.00000000	     -0.00000000
     15.25119245	     -0.00000000	     -0.00000000	     -0.00000000	     -0.00000000
     15.26825910	     -0.00000000	     -0.00000000	     -0.00000000	     -0.00000000
     15.28532575	     -0.00000000	     -0.00000000	     -0.00000000	     -0.00000000
     15.30239240	     -0.00000000	     -0.00000000	     -0.00000000	     -0.00000000
     15.31945905	     -0.00000000	     -0.00000000	     -0.00000000	     -0.00000000
     15.33652570	     -0.00000000	     -0.00000000	     -0.00000000	     -0.00000000
     15.35359235	     -0.00000000	     -0.00000000	     -0.00000000	     -0.00000000
     15.37065900	     -0.00000000	     -0.00000000	     -0.00000000	     -0.00000000
     15.38772565	     -0.00000000	     -0.00000000	     -0.00000000	     -0.00000000
     15.40479230	     -0.00000000	     -0.00000000	     -0.00000000	     -0.00000000
     15.42185894	     -0.00000000	     -0.00000000	     -0.00000000	     -0.00000000
     15.43892559	     -0.00000000	     -0.00000000	     -0.00000000	     -0.00000000
     15.45599224	     -0.00000000	     -0.00000000	     -0.00000000	     -0.00000000
     15.47305889	     -0.00000000	     -0.00000000	     -0.00000000	     -0.00000000
     15.49012554	     -0.00000000	     -0.00000000	     -0.00000000	     -0.00000000
     15.50719219	     -0.00000000	     -0.00000000	     -0.00000000	     -0.00000000
     15.52425884	     -0.00000000	     -0.00000000	     -0.00000000	     -0.00000000
     15.54132549	     -0.00000000	     -0.00000000	     -0.00000000	     -0.00000000
     15.55839214	     -0.00000000	     -0.00000000	     -0.00000000	     -0.00000000
     15.57545879	     -0.00000000	     -0.00000000	     -0.00000000	     -0.00000000
     15.59252544	     -0.00000000	     -0.00000000	     -0.00000000	     -0.00000000
     15.60959209	     -0.00000000	     -0.00000000	     -0.00000000	     -0.00000000
     15.62665874	     -0.00000000	     -0.00000000	     -0.00000000	     -0.00000000
