TendonForce
version=1
nRows=51
nColumns=5
inDegrees=no

This analysis gathers basic information about muscles during a simulation (e.g., forces, tendon lengths, moment arms, etc).
Units are S.I. units (second, meters, Newtons, ...)
If the header above contains a line with 'inDegrees', this indicates whether rotational values are in degrees (yes) or radians (no).

endheader
time	recfem_r	vaslat_r	vasint_r	vasmed_r
     14.77332626	   1008.99657225	    314.84984442	    111.38302695	    178.52623647
     14.79039291	    744.62754237	    257.62670498	     91.79856322	    145.37393898
     14.80745956	    495.69710819	    211.49592769	     76.00249798	    118.35064589
     14.82452621	    290.82265906	    184.51174778	     66.82175245	    102.16654115
     14.84159286	    171.44500007	    179.43987952	     65.25325371	     98.52058758
     14.85865951	    153.40688525	    192.63827543	     70.08942870	    105.36358877
     14.87572616	    204.16372687	    216.53515961	     78.86422154	    118.42722081
     14.89279281	    280.78875646	    245.28043483	     89.79149212	    134.48330823
     14.90985946	    368.37730039	    277.15418670	    102.49757669	    152.62608103
     14.92692611	    475.51562177	    314.02108610	    117.85491969	    173.97030671
     14.94399276	    611.82969227	    358.25640372	    137.06833023	    200.13121646
     14.96105941	    759.76159062	    405.83037871	    158.90880939	    229.07067387
     14.97812606	    881.40483091	    451.57960031	    181.26064455	    257.81843289
     14.99519270	    945.66548896	    491.29535137	    201.98646777	    283.79258356
     15.01225935	    940.11007528	    522.35809027	    218.91312999	    304.61268948
     15.02932600	    872.14693666	    542.88414002	    229.80144923	    317.88866866
     15.04639265	    764.73172179	    548.45715528	    233.11531077	    321.98523507
     15.06345930	    642.11382037	    537.26845681	    228.14684934	    315.99379558
     15.08052595	    520.27880926	    511.04086829	    215.04953037	    299.85395222
     15.09759260	    407.81142226	    473.25371824	    195.21527912	    275.05507283
     15.11465925	    308.82313596	    424.44507027	    170.96259787	    244.30068382
     15.13172590	    224.64559842	    367.47166888	    144.59903496	    210.16377792
     15.14879255	    157.24761002	    307.61232757	    118.81689304	    175.74747789
     15.16585920	    109.26321885	    253.63343453	     96.86133911	    145.49565779
     15.18292585	     76.54985745	    207.08466122	     78.32695962	    119.19951374
     15.19999250	     56.42180414	    173.89034701	     64.11599113	     98.96139659
     15.21705915	     46.01111851	    157.13678007	     54.97713437	     86.01441511
     15.23412580	     42.61863065	    151.33315949	     51.05779006	     79.32977261
     15.25119245	     44.83911590	    143.17155861	     52.41512955	     77.18232389
     15.26825910	     51.26647843	    126.81626557	     57.97957623	     79.84762082
     15.28532575	     59.62656263	    143.35984877	     65.71285564	     95.09490899
     15.30239240	     66.17250145	    309.35741785	     75.59814263	    139.98203286
     15.31945905	     69.87336809	    779.18088449	     97.39195824	    236.46373881
     15.33652570	     78.81128513	   1623.82558797	    153.88709980	    400.72035135
     15.35359235	    107.90953335	   2729.63910558	    264.97772389	    630.89070720
     15.37065900	    163.75089943	   3863.17205601	    422.37556360	    905.97684340
     15.38772565	    231.53481775	   4784.84203276	    582.81305223	   1181.84083162
     15.40479230	    282.74565333	   5319.85590988	    692.32475817	   1393.47153789
     15.42185894	    306.08635180	   5376.64269339	    718.36960527	   1474.53735758
     15.43892559	    333.33857621	   4922.56545892	    657.93224055	   1384.15671386
     15.45599224	    414.76269483	   4001.75792342	    529.72487970	   1134.55896625
     15.47305889	    548.98283724	   2794.75489940	    368.65080502	    799.14249019
     15.49012554	    659.11398407	   1611.10806367	    218.70433971	    480.54054745
     15.50719219	    662.98649928	    723.50864736	    112.76010355	    250.07915622
     15.52425884	    549.36553516	    233.93429018	     59.20369863	    123.39538880
     15.54132549	    377.34019360	     74.81396129	     45.39356247	     77.10445129
     15.55839214	    223.89457174	     96.64399138	     50.81362967	     74.94580946
     15.57545879	    139.73741092	    163.22212701	     59.61468662	     87.22287951
     15.59252544	    131.88577086	    204.18802525	     65.66668500	     98.62722767
     15.60959209	    172.99216923	    212.78916288	     70.07028412	    106.38177878
     15.62665874	    235.42556167	    206.90268421	     75.04091873	    112.83356987
