Static Optimization
version=1
nRows=51
nColumns=59
inDegrees=no
This file contains static optimization results.

endheader
time	addbrev_r	addlong_r	addmagDist_r	addmagIsch_r	addmagMid_r	addmagProx_r	bflh_r	bfsh_r	edl_r	ehl_r	fdl_r	fhl_r	gaslat_r	gasmed_r	glmax1_r	glmax2_r	glmax3_r	glmed1_r	glmed2_r	glmed3_r	glmin1_r	glmin2_r	glmin3_r	grac_r	iliacus_r	perbrev_r	perlong_r	piri_r	psoas_r	recfem_r	sart_r	semimem_r	semiten_r	soleus_r	tfl_r	tibant_r	tibpost_r	vasint_r	vaslat_r	vasmed_r	pelvis_tx_residual	pelvis_ty_residual	pelvis_tz_residual	pelvis_tilt_residual	pelvis_list_residual	pelvis_rotation_residual	hip_flexion_r_reserve	hip_adduction_r_reserve	hip_rotation_r_reserve	knee_angle_r_reserve	ankle_angle_r_reserve	subtalar_angle_r_reserve	hip_flexion_l_torque	hip_adduction_l_torque	hip_rotation_l_torque	knee_angle_l_torque	ankle_angle_l_torque	subtalar_angle_l_torque
     14.32666105	      0.01711195	      0.14896612	      0.01002156	      0.01001679	      0.01003762	      0.02723676	      0.01001344	      0.07112390	      0.01089842	      0.01034588	      0.01037217	      0.01029409	      0.13000586	      0.19151130	      0.01001861	      0.01000751	      0.01000604	      0.06422204	      0.06351605	      0.08407363	      0.06294446	      0.08017946	      0.06690473	      0.05120023	      0.28628451	      0.02146439	      0.04429263	      0.11509109	      0.29869108	      0.25875662	      0.10287770	      0.01001201	      0.01002940	      0.06908114	      0.12766423	      0.01006670	      0.01009862	      0.01001362	      0.01000446	      0.01000869	     -1.96839857	    -26.05184000	      3.43235762	      0.94546111	     -3.84641346	      4.21005150	      0.01922942	     -0.00689113	     -0.00558583	      0.00989001	     -0.00117896	     -0.00116089	     -0.18148616	      0.07684953	     -0.00789880	      0.08491437	      0.00672489	     -0.00004826
     14.34199437	      0.12622487	      0.28391486	      0.01005331	      0.01002480	      0.03213473	      0.14213129	      0.01002468	      0.05077871	      0.02029640	      0.01317956	      0.01137156	      0.01075683	      0.06214343	      0.19723698	      0.01003425	      0.01001158	      0.01001305	      0.01002738	      0.01269087	      0.08954200	      0.01012978	      0.02631004	      0.04996614	      0.09440553	      0.14346828	      0.02077777	      0.03578494	      0.15025249	      0.24573277	      0.16998940	      0.07403225	      0.01001727	      0.01004989	      0.01006640	      0.03364103	      0.01112967	      0.01019187	      0.01001787	      0.01000594	      0.01001154	     -2.55939795	     -1.44997293	      0.62500428	     -4.07835127	     -0.62547674	      1.72241710	      0.01523942	     -0.00060737	     -0.00815588	      0.00711375	     -0.00000939	     -0.00110787	     -0.20061757	      0.17669273	     -0.10371183	      0.11218065	      0.00630340	      0.00601756
     14.35732769	      0.22048671	      0.40614393	      0.04333089	      0.01004777	      0.15725913	      0.24200362	      0.01020067	      0.03963315	      0.02208648	      0.01346353	      0.01083437	      0.01035872	      0.03079972	      0.12021744	      0.01005789	      0.01001711	      0.01288221	      0.01001178	      0.01005195	      0.07353967	      0.01003305	      0.01013928	      0.03349386	      0.14048401	      0.04703063	      0.01477098	      0.01996162	      0.18153262	      0.22216919	      0.06439937	      0.05037853	      0.01003191	      0.01029325	      0.01003268	      0.01006967	      0.02263785	      0.01011700	      0.01002273	      0.01000756	      0.01001472	     -1.73605677	      8.10774048	     -2.54063489	     -4.10455574	      4.79538608	     -2.53075817	      0.01308864	      0.00466913	     -0.01019948	      0.00555552	      0.00062556	     -0.00068536	     -0.19087618	      0.26029900	     -0.15670579	      0.12644130	      0.00564503	      0.00976533
     14.37266100	      0.23756182	      0.44819139	      0.03027846	      0.01003797	      0.16054068	      0.24663073	      0.01005327	      0.04904461	      0.20536889	      0.05652092	      0.01005595	      0.01002732	      0.01001896	      0.01000918	      0.01001898	      0.01000921	      0.01003576	      0.01001018	      0.01002983	      0.01136652	      0.01003268	      0.01011863	      0.02512446	      0.14918875	      0.11131963	      0.09975196	      0.19433305	      0.16731019	      0.26905327	      0.10281204	      0.06164823	      0.01002666	      0.01011267	      0.01000385	      0.01008225	      0.18827528	      0.01001470	      0.01001833	      0.01000606	      0.01001190	      4.64261983	     10.84939452	     -3.94465476	      8.54536043	      4.27687741	     -3.20084527	      0.01643808	      0.00442625	     -0.00898503	      0.00685710	      0.00558487	     -0.00728204	     -0.14464601	      0.27013555	     -0.14185602	      0.12346759	      0.00302148	      0.00869881
     14.38799432	      0.14559583	      0.29916585	      0.01010052	      0.01003341	      0.06785450	      0.13296738	      0.01016046	      0.09027629	      0.06789605	      0.02417590	      0.01018486	      0.01007793	      0.02350973	      0.02661865	      0.01001429	      0.01000786	      0.01001361	      0.01001762	      0.01003276	      0.01004985	      0.01008000	      0.01033413	      0.01431331	      0.12017271	      0.16537544	      0.02202267	      0.03740924	      0.06740231	      0.22512262	      0.01003098	      0.07981469	      0.02749477	      0.03160174	      0.01000956	      0.01133145	      0.09229063	      0.01004996	      0.01001011	      0.01000332	      0.01000657	      6.86067809	     -0.42526391	     -0.67845026	      5.93462988	      2.25605453	     -2.65028533	      0.01452615	      0.00103180	     -0.00378547	      0.01243082	      0.00267448	     -0.00166234	     -0.10738603	      0.16883408	     -0.07176890	      0.12072534	     -0.00270166	      0.00356330
     14.40332764	      0.02357083	      0.13337547	      0.01002140	      0.01001855	      0.01003738	      0.01009101	      0.01002047	      0.11727748	      0.09591799	      0.03003282	      0.01011793	      0.01005557	      0.01827126	      0.03263386	      0.01000783	      0.01000448	      0.01000479	      0.16080884	      0.01005464	      0.01001896	      0.13506985	      0.06605164	      0.01123745	      0.04012473	      0.36053622	      0.03487120	      0.06535253	      0.01002494	      0.24787308	      0.01817535	      0.12025018	      0.01006781	      0.01009609	      0.01000654	      0.17720729	      0.11476716	      0.01003409	      0.01000839	      0.01000277	      0.01000549	      3.29788261	     -9.18546380	      5.45995995	      2.56067819	     -8.40543984	      2.59947419	      0.01731889	     -0.00687908	      0.00467950	      0.01571540	      0.00350365	     -0.00266929	     -0.14213808	     -0.02384012	      0.00849522	      0.14812893	     -0.01007037	     -0.00224871
     14.41866096	      0.01014101	      0.07161723	      0.01001507	      0.01001399	      0.01002255	      0.01004238	      0.01001673	      0.15242698	      0.12270123	      0.03825127	      0.01009763	      0.01004248	      0.01669257	      0.04130266	      0.01000671	      0.01000367	      0.01000365	      0.35942847	      0.01126660	      0.01002227	      0.21901194	      0.13169322	      0.03664052	      0.02737835	      0.44647435	      0.04319422	      0.08151139	      0.01002350	      0.28648856	      0.09015676	      0.15966924	      0.01007490	      0.01008235	      0.01000448	      0.27352556	      0.14854274	      0.01002633	      0.01000718	      0.01000239	      0.01000474	     -5.50545112	    -10.24956862	      7.26518111	     -6.41921957	    -11.57365669	      4.87849906	      0.02049471	     -0.01083148	      0.00610264	      0.01974398	      0.00480409	     -0.00336725	     -0.22933088	     -0.23664524	      0.06871700	      0.19287246	     -0.01381286	     -0.00693984
     14.43399428	      0.01111160	      0.10883716	      0.01001572	      0.01001316	      0.01002619	      0.01010532	      0.01001986	      0.16060835	      0.12334324	      0.04065506	      0.01010017	      0.01004045	      0.01254677	      0.03889195	      0.01000872	      0.01000430	      0.01000412	      0.27044806	      0.07283904	      0.01024251	      0.17445403	      0.15765384	      0.11691029	      0.06559824	      0.39094766	      0.03835757	      0.06947085	      0.06034040	      0.30776407	      0.16249485	      0.17279438	      0.01009681	      0.01011584	      0.01000372	      0.26365057	      0.16207844	      0.01002629	      0.01000761	      0.01000257	      0.01000506	     -9.74442276	      2.34020214	      0.67811347	    -11.12656241	     -0.90683376	      1.74365588	      0.02247311	     -0.00962804	      0.00023993	      0.02004743	      0.00557665	     -0.00307769	     -0.25135383	     -0.37664639	      0.10190459	      0.19634724	     -0.00876986	     -0.01201717
     14.44932759	      0.05564291	      0.19620125	      0.01002127	      0.01001525	      0.01004986	      0.03952924	      0.01002466	      0.12979105	      0.09661524	      0.03451800	      0.01018273	      0.01005215	      0.01110898	      0.01844557	      0.01001226	      0.01000564	      0.01000560	      0.07265304	      0.04438596	      0.04724205	      0.09160534	      0.12038420	      0.12253708	      0.09366689	      0.30400469	      0.02573743	      0.04088493	      0.21370301	      0.29485665	      0.20738618	      0.14810906	      0.01010725	      0.01013534	      0.01000417	      0.19547435	      0.14002858	      0.01003486	      0.01001013	      0.01000348	      0.01000676	     -0.06679100	     24.61049684	     -6.66315310	      8.23720678	      8.80696417	     -2.95507682	      0.02160217	     -0.00552300	     -0.00380200	      0.01560429	      0.00507399	     -0.00206910	     -0.07081000	     -0.31901327	      0.13954096	      0.05385114	      0.08842741	      0.03360602
     14.46466091	      0.14149907	      0.31760015	      0.01004554	      0.01002120	      0.03615388	      0.13985140	      0.01002708	      0.06245852	      0.08191685	      0.03115784	      0.01013186	      0.01005703	      0.01004148	      0.01002944	      0.01002051	      0.01000897	      0.01001097	      0.01001795	      0.01006617	      0.05353686	      0.01011173	      0.04441641	      0.09066318	      0.10995184	      0.19484322	      0.01857238	      0.02399415	      0.31208694	      0.27280227	      0.28286618	      0.09824682	      0.01006775	      0.01005423	      0.01000423	      0.09571881	      0.12840591	      0.01004349	      0.01002397	      0.01000855	      0.01001620	      7.89939176	     -0.98856578	     -6.08685641	      3.96365247	     10.52776527	     -4.51528460	      0.01957443	      0.00040060	     -0.00784541	      0.00722674	      0.00478236	     -0.00148431	     -0.14681233	     -0.30060698	      0.12031910	      0.00413346	      0.00177451	      0.05943698
     14.47999423	      0.19395644	      0.38295590	      0.01017001	      0.01002930	      0.10724424	      0.19060288	      0.01002428	      0.01059756	      0.08045774	      0.03086750	      0.01014063	      0.01005821	      0.01002137	      0.01001320	      0.01002506	      0.01001192	      0.01002323	      0.01000958	      0.01002543	      0.01031786	      0.01003749	      0.01015643	      0.03924873	      0.09724532	      0.13570910	      0.01838958	      0.02393410	      0.27980532	      0.25499065	      0.32220902	      0.05356617	      0.01006553	      0.01003325	      0.01000423	      0.02889278	      0.12677413	      0.01004397	      0.01288790	      0.02429776	      0.01480993	      6.31885084	     -9.79887733	      1.10573795	      4.36961990	     -0.76675066	     -1.86341821	      0.01736001	      0.00426929	     -0.00889499	     -0.00039309	      0.00471250	     -0.00146066	     -0.15587927	     -0.15071182	      0.08625475	     -0.14743658	     -0.04023868	      0.16632787
     14.49532755	      0.20789960	      0.38789310	      0.01415575	      0.01003717	      0.12643651	      0.19186823	      0.01002767	      0.01026999	      0.07890810	      0.02981040	      0.01014119	      0.01006067	      0.01002106	      0.01001308	      0.01001996	      0.01001106	      0.01002881	      0.01000828	      0.01001745	      0.01003443	      0.01003133	      0.01005888	      0.01021451	      0.09195604	      0.12709276	      0.02054339	      0.02921302	      0.15372511	      0.24200082	      0.25324657	      0.04285192	      0.01008572	      0.01003523	      0.01000446	      0.01041611	      0.12092233	      0.01004477	      0.02181105	      0.05848499	      0.03163227	     -1.98630590	     -4.70314381	      4.18814759	     -1.18944108	     -6.48121554	      1.62128420	      0.01530908	      0.00573730	     -0.00723475	     -0.00113359	      0.00440554	     -0.00156091	     -0.15846643	     -0.09306511	      0.09529934	     -0.30767783	     -0.13042460	      0.29055199
     14.51066087	      0.19769940	      0.35813922	      0.01728342	      0.01004133	      0.12022648	      0.17810601	      0.01002855	      0.01053727	      0.07668425	      0.02979230	      0.01031826	      0.01004419	      0.01002023	      0.01001271	      0.01001991	      0.01001146	      0.01003233	      0.01000822	      0.01001600	      0.01002622	      0.01003045	      0.01004721	      0.01010691	      0.07863044	      0.11959272	      0.02308025	      0.03190680	      0.08455351	      0.22767663	      0.21843403	      0.03831335	      0.01013490	      0.01003391	      0.01000461	      0.01054164	      0.11578310	      0.01004906	      0.02994969	      0.07925002	      0.04355664	     -6.43862436	      2.63475972	      1.72901010	     -5.13453208	     -3.74978531	      2.53596690	      0.01358459	      0.00596689	     -0.00622474	     -0.00177097	      0.00412351	     -0.00158862	     -0.14432471	     -0.16215956	      0.18212691	     -0.45056296	     -0.25480875	      0.43062816
     14.52599418	      0.15800781	      0.30343270	      0.01006581	      0.01002516	      0.05878308	      0.13862050	      0.01001846	      0.01015491	      0.07759288	      0.02918433	      0.01015720	      0.01006384	      0.01001987	      0.01001232	      0.01001728	      0.01000907	      0.01001268	      0.01001129	      0.01002089	      0.01003207	      0.01004835	      0.01008712	      0.01028868	      0.04859993	      0.16984363	      0.02258440	      0.03358882	      0.08750072	      0.25337932	      0.27762860	      0.05540358	      0.01007515	      0.01002237	      0.01000485	      0.04419343	      0.11678952	      0.01004753	      0.03293749	      0.08972290	      0.04933947	     -4.02911632	      4.11913561	     -0.57787061	     -3.50395693	     -0.03087758	      1.13704126	      0.01552316	      0.00321731	     -0.00574568	     -0.00221162	      0.00409775	     -0.00162367	     -0.12709969	     -0.28663981	      0.30427986	     -0.55372472	     -0.38995861	      0.58455679
     14.54132750	      0.08300892	      0.20905277	      0.01002323	      0.01001545	      0.01006280	      0.06146503	      0.01001105	      0.01037170	      0.08143522	      0.03160857	      0.01037168	      0.01004418	      0.01001815	      0.01001120	      0.01001342	      0.01000649	      0.01000627	      0.01009779	      0.01009718	      0.01008986	      0.03538914	      0.04826693	      0.04526157	      0.01261906	      0.26281181	      0.02525604	      0.03559970	      0.09310796	      0.29176119	      0.37650206	      0.08487371	      0.01005493	      0.01001454	      0.01000457	      0.15450273	      0.12225665	      0.01004813	      0.03213180	      0.08997940	      0.04703013	      0.38624131	      0.91761220	     -0.33562813	      0.03637239	      0.74849484	     -0.35519628	      0.01917217	     -0.00230280	     -0.00424673	     -0.00224857	      0.00427514	     -0.00169668	     -0.12008533	     -0.40795367	      0.40218156	     -0.60173343	     -0.51152880	      0.73585753
     14.55666082	      0.03452479	      0.14872366	      0.01001679	      0.01001257	      0.01003287	      0.01612089	      0.01000827	      0.01013963	      0.08731649	      0.03235684	      0.01014530	      0.01005953	      0.01001700	      0.01001016	      0.01001297	      0.01000598	      0.01000500	      0.10378353	      0.01936901	      0.01035263	      0.09268778	      0.09388841	      0.07386710	      0.01010559	      0.30412750	      0.02660065	      0.04103553	      0.10477231	      0.30989928	      0.42761261	      0.10305939	      0.01004341	      0.01001190	      0.01000446	      0.20606942	      0.12815704	      0.01004382	      0.02879835	      0.08461113	      0.04325995	      2.76184057	     -1.91233362	      0.65087937	      2.07645193	      0.11129716	     -0.79160756	      0.02093196	     -0.00548631	     -0.00375983	     -0.00215901	      0.00451534	     -0.00185533	     -0.11096039	     -0.50114535	      0.44504054	     -0.59190267	     -0.60476466	      0.85920862
     14.57199414	      0.01161065	      0.08496681	      0.01001604	      0.01001293	      0.01002627	      0.01029363	      0.01000758	      0.01041883	      0.09184740	      0.03412655	      0.01030178	      0.01005368	      0.01001605	      0.01000932	      0.01001466	      0.01000665	      0.01000513	      0.20486326	      0.06515810	      0.01528732	      0.11958613	      0.10819050	      0.07525557	      0.01007588	      0.28857014	      0.03050344	      0.04682470	      0.07760061	      0.27419359	      0.40301976	      0.09949936	      0.01003622	      0.01001207	      0.01000430	      0.20907722	      0.13079640	      0.01004293	      0.02436787	      0.06485034	      0.03414989	      2.55313736	     -1.92643440	      0.37374744	      2.16583648	      0.35341277	     -0.62685933	      0.01872773	     -0.00679929	     -0.00240602	     -0.00169607	      0.00467280	     -0.00200099	     -0.08712484	     -0.55112774	      0.42743061	     -0.52854469	     -0.66661029	      0.93309225
     14.58732746	      0.01010324	      0.02098067	      0.01001898	      0.01001670	      0.01002674	      0.01007337	      0.01000866	      0.01049887	      0.09396229	      0.03388604	      0.01021875	      0.01005625	      0.01001590	      0.01000901	      0.01001877	      0.01000869	      0.01000646	      0.25635536	      0.08885187	      0.01926597	      0.12638230	      0.10356423	      0.06326894	      0.01006767	      0.22934403	      0.03283005	      0.05235948	      0.03710456	      0.19389885	      0.31465224	      0.07625997	      0.01003031	      0.01001521	      0.01000437	      0.17946306	      0.12956310	      0.01004097	      0.01709209	      0.03845409	      0.02182423	      0.86509505	     -0.54171171	     -1.03300372	      1.07156925	      1.49629470	     -0.48032274	      0.01345532	     -0.00658287	     -0.00037634	     -0.00103371	      0.00469475	     -0.00211501	     -0.05131805	     -0.54427069	      0.35709282	     -0.42496087	     -0.69737496	      0.94859237
     14.60266077	      0.01006192	      0.01006677	      0.01002765	      0.01002771	      0.01003305	      0.01005483	      0.01001290	      0.01103162	      0.09283602	      0.03294590	      0.01015697	      0.01005705	      0.01001634	      0.01000916	      0.01003028	      0.01001415	      0.01001010	      0.25470433	      0.09235243	      0.02195071	      0.11431333	      0.08645437	      0.04719570	      0.01007175	      0.14792844	      0.03441804	      0.05622196	      0.01440864	      0.09850911	      0.19114118	      0.04440000	      0.01002778	      0.01002459	      0.01000460	      0.13107213	      0.12461557	      0.01004035	      0.01186779	      0.01309636	      0.01202372	     -0.97902423	      0.58104500	     -1.80124299	     -0.42776378	      1.82459282	     -0.26607957	      0.00727529	     -0.00527906	      0.00131998	     -0.00030279	      0.00455179	     -0.00217437	     -0.01067431	     -0.47575751	      0.25267617	     -0.30352363	     -0.69137413	      0.90550601
     14.61799409	      0.01013719	      0.01013004	      0.01011112	      0.01012146	      0.01011259	      0.01015265	      0.01011988	      0.03167898	      0.08940472	      0.03186072	      0.01037253	      0.01015421	      0.01005776	      0.01003386	      0.01013221	      0.01006777	      0.01004834	      0.21435758	      0.07247383	      0.01452182	      0.09352878	      0.06329476	      0.02940886	      0.01092203	      0.08287394	      0.03531596	      0.05844806	      0.01095442	      0.02966515	      0.04541855	      0.02712110	      0.01048660	      0.01052518	      0.01001332	      0.08030793	      0.11750937	      0.01010579	      0.01034030	      0.01013872	      0.01021722	     -1.65952695	      0.69434285	     -0.78632073	     -1.22174101	      0.35701388	      0.19497491	      0.00260634	     -0.00322193	      0.00247941	      0.00235808	      0.00428602	     -0.00219160	      0.03482413	     -0.36330034	      0.14421868	     -0.19007815	     -0.64431331	      0.81219121
     14.63332741	      0.01062568	      0.01043381	      0.01205278	      0.03609553	      0.01057677	      0.01014877	      0.01108815	      0.01141961	      0.08475731	      0.02996194	      0.01027663	      0.01006822	      0.01001668	      0.01000927	      0.01005531	      0.01005535	      0.01014988	      0.16514775	      0.04402228	      0.01000244	      0.07167128	      0.03837542	      0.01570259	      0.01047448	      0.02900966	      0.03468778	      0.05847419	      0.01004385	      0.01029981	      0.01101645	      0.01034964	      0.06095284	      0.02231973	      0.01000576	      0.03419704	      0.10972268	      0.01004162	      0.01322779	      0.01453393	      0.01366644	     -0.77634481	      0.09014656	      1.12693999	     -0.71066624	     -1.74661560	      0.60886322	     -0.00136295	     -0.00065745	      0.00356312	     -0.00014168	      0.00397686	     -0.00217239	      0.08632433	     -0.24353928	      0.05929693	     -0.10267286	     -0.56059975	      0.68318516
     14.64866073	      0.01338037	      0.01290229	      0.02505192	      0.05958061	      0.01416454	      0.01024977	      0.03813810	      0.01033777	      0.08002524	      0.02806458	      0.01013426	      0.01006238	      0.01001703	      0.01000922	      0.01010177	      0.01014244	      0.01864220	      0.12441007	      0.02291728	      0.01010522	      0.05699050	      0.02455055	      0.01075447	      0.01064220	      0.01853024	      0.03269441	      0.05575117	      0.01007073	      0.01013464	      0.01007930	      0.01011900	      0.10680710	      0.03727208	      0.01000614	      0.01801966	      0.10314046	      0.01004100	      0.01464277	      0.03562859	      0.01936188	      0.68466778	     -0.39721967	      2.13664413	      0.42158930	     -2.54778993	      0.49473453	     -0.00196418	      0.00059694	      0.00351884	     -0.00067061	      0.00370706	     -0.00208087	      0.13953049	     -0.15062046	      0.00861083	     -0.04699290	     -0.45392033	      0.53606499
     14.66399405	      0.02050306	      0.02262405	      0.03679106	      0.07052435	      0.02354113	      0.01029542	      0.06445437	      0.01033717	      0.07492526	      0.02655825	      0.01014134	      0.01006730	      0.01001771	      0.01000953	      0.01012825	      0.01018092	      0.04606073	      0.10654769	      0.01648628	      0.01010943	      0.04994073	      0.01908508	      0.01050565	      0.01125918	      0.01299507	      0.02943985	      0.04967007	      0.01006806	      0.01009175	      0.01006331	      0.01011300	      0.14714552	      0.04937416	      0.01000676	      0.01283414	      0.09761726	      0.01004446	      0.01640632	      0.04511250	      0.02368795	      1.25650309	     -0.07965870	      1.44464057	      0.70908822	     -1.37944664	     -0.19285817	     -0.00231488	      0.00114345	      0.00340958	     -0.00079669	      0.00348476	     -0.00189699	      0.18464769	     -0.09400036	     -0.01435471	     -0.01809270	     -0.34208725	      0.38900046
     14.67932736	      0.02716897	      0.03252744	      0.04444496	      0.07673000	      0.03141776	      0.01050154	      0.08683572	      0.01024440	      0.06898384	      0.02475485	      0.01015806	      0.01007456	      0.01001927	      0.01001031	      0.01018011	      0.01340704	      0.06504413	      0.09197873	      0.01314158	      0.01010043	      0.04372570	      0.01538410	      0.01035568	      0.01258172	      0.01081078	      0.02503803	      0.04074653	      0.01006162	      0.01008358	      0.01005406	      0.01010828	      0.18517451	      0.05922218	      0.01000743	      0.01090827	      0.09177177	      0.01005084	      0.01721328	      0.04711804	      0.02469413	      0.56986683	      1.02013379	     -0.17973545	     -0.04708294	      0.62003620	     -0.95271421	     -0.00251857	      0.00151026	      0.00326944	     -0.00077332	      0.00327722	     -0.00162105	      0.21669948	     -0.05727045	     -0.01976881	     -0.00840553	     -0.23925215	      0.25859234
     14.69466068	      0.03610319	      0.04620985	      0.04950030	      0.07791001	      0.03890150	      0.01305200	      0.10323726	      0.01096335	      0.06087114	      0.02306886	      0.01023108	      0.01005562	      0.01002238	      0.01001193	      0.01050148	      0.01958894	      0.07630712	      0.06995015	      0.01162727	      0.01009609	      0.03463619	      0.01346938	      0.01053801	      0.01778283	      0.01132879	      0.02115661	      0.02984723	      0.01005602	      0.01008436	      0.01004879	      0.01011915	      0.21495277	      0.06605750	      0.01000794	      0.01079018	      0.08282514	      0.01006518	      0.01579552	      0.03605606	      0.02006400	     -0.69629573	      1.80690579	     -1.38503005	     -0.98204876	      1.76256123	     -0.98107758	     -0.00244995	      0.00186946	      0.00299993	     -0.00051180	      0.00299313	     -0.00128436	      0.23518710	     -0.01673872	     -0.01322678	     -0.01016936	     -0.15319138	      0.15677776
     14.70999400	      0.04473035	      0.05950355	      0.05393865	      0.07834761	      0.04589342	      0.01453968	      0.11640401	      0.01053128	      0.05050033	      0.01908987	      0.01019741	      0.01010341	      0.01002942	      0.01001862	      0.01027997	      0.02162634	      0.08501969	      0.04804186	      0.01029636	      0.01008196	      0.02552091	      0.01080365	      0.01018543	      0.02096731	      0.01035561	      0.01573477	      0.02081884	      0.01005181	      0.01009560	      0.01004283	      0.01011646	      0.23598234	      0.07130122	      0.01001032	      0.01019477	      0.06891620	      0.01007781	      0.01185347	      0.01456003	      0.01250753	     -1.90866305	      0.67846499	     -1.18294216	     -1.78560909	      0.92235557	      0.11951651	     -0.00235876	      0.00220915	      0.00275117	     -0.00017795	      0.00253117	     -0.00098984	      0.23950503	      0.03731921	      0.00099345	     -0.01499800	     -0.08805378	      0.08748382
     14.72532732	      0.03815360	      0.05298399	      0.03885250	      0.05363065	      0.03581664	      0.01428501	      0.13266890	      0.01761953	      0.03805985	      0.01438337	      0.01022648	      0.01012472	      0.01006123	      0.01001500	      0.01019709	      0.01125278	      0.05792016	      0.02356455	      0.01018682	      0.01009264	      0.01500167	      0.01032213	      0.01018585	      0.02865975	      0.01041538	      0.01221550	      0.01623749	      0.01006211	      0.01014944	      0.01002805	      0.01020323	      0.27737585	      0.08201648	      0.01001428	      0.01015086	      0.05041265	      0.01009095	      0.01006428	      0.01002296	      0.01004165	      2.07639465	      3.38727038	     -0.21846842	      2.82609154	      0.41951337	      0.42484342	     -0.00144467	      0.00173791	      0.00187324	      0.00229769	      0.00188338	     -0.00076670	      0.27542192	      0.06592587	      0.01281014	     -0.05233467	      0.01003502	     -0.00522340
     14.74066064	      0.01554393	      0.02209925	      0.01187140	      0.01186286	      0.01282638	      0.01226009	      0.15241433	      0.04437720	      0.02926110	      0.01269625	      0.01025343	      0.01014065	      0.01020178	      0.01037188	      0.01020139	      0.01022893	      0.01137570	      0.01037297	      0.01021225	      0.01016557	      0.01062666	      0.01037349	      0.01028930	      0.03650761	      0.01128477	      0.01316882	      0.01806783	      0.01020542	      0.01124773	      0.01001615	      0.01591206	      0.32684427	      0.09587844	      0.01002065	      0.01013127	      0.03370555	      0.01009635	      0.01002162	      0.01000730	      0.01001350	      0.28043159	     -5.66712228	      1.52392960	      0.44354875	     -1.86680187	      1.20974199	      0.00007279	      0.00048239	      0.00025292	      0.00672023	      0.00134709	     -0.00074207	      0.24834893	      0.08354167	      0.01551953	     -0.04213475	      0.01021633	     -0.00640381
     14.75599395	      0.01004290	      0.01008714	      0.01004160	      0.01004497	      0.01003364	      0.01006018	      0.14988770	      0.07239048	      0.08092468	      0.02743766	      0.01025916	      0.01006894	      0.02125988	      0.04521956	      0.01142997	      0.01024603	      0.01001862	      0.03073688	      0.02754143	      0.03125495	      0.01628578	      0.02074971	      0.02145011	      0.03357039	      0.02329533	      0.02637403	      0.04421641	      0.04631600	      0.02288132	      0.01001125	      0.04454030	      0.35451183	      0.10342119	      0.01000820	      0.01199480	      0.09699117	      0.01003806	      0.01001130	      0.01000385	      0.01000707	     -0.35636373	     -8.24595300	      1.70211991	     -1.36751748	     -1.73658852	      0.33186939	      0.00175289	     -0.00210067	     -0.00079618	      0.01192917	      0.00385269	     -0.00211469	      0.22471535	      0.06677215	      0.01979837	     -0.03618481	      0.01163766	     -0.00959445
     14.77132727	      0.01008295	      0.01006566	      0.01007626	      0.01007086	      0.01007807	      0.01011264	      0.15936605	      0.07241210	      0.12010439	      0.03994635	      0.01007434	      0.01003564	      0.01190834	      0.07501166	      0.01064118	      0.01008683	      0.01004619	      0.03735584	      0.03176191	      0.03548825	      0.01534375	      0.02075422	      0.02144944	      0.03446815	      0.01886836	      0.03935519	      0.07096177	      0.04920999	      0.01632884	      0.01000839	      0.04406630	      0.34887749	      0.10917345	      0.01000487	      0.01057295	      0.14306284	      0.01002086	      0.01000948	      0.01000319	      0.01000596	     -0.69239392	      1.74747760	     -0.75991692	     -1.71051101	      1.47464032	     -1.23578539	      0.00150868	     -0.00213686	     -0.00071391	      0.01244446	      0.00578373	     -0.00354177	      0.20959117	      0.03160081	      0.02808473	     -0.03453081	      0.01360970	     -0.01392426
     14.78666059	      0.05326917	      0.08689886	      0.03949949	      0.07932853	      0.03468396	      0.01054348	      0.06912506	      0.01272264	      0.10222111	      0.04101370	      0.01008662	      0.01004011	      0.01001607	      0.01000268	      0.01005419	      0.01006219	      0.01309715	      0.14303711	      0.01108593	      0.01004565	      0.06922428	      0.02080890	      0.01016422	      0.02101030	      0.04643462	      0.02238395	      0.03648603	      0.01002474	      0.01014337	      0.01002099	      0.01014422	      0.17174475	      0.06384197	      0.01000438	      0.01797243	      0.16548458	      0.01002435	      0.01015918	      0.01005919	      0.01010697	      5.19482621	     13.72094586	     -2.72756925	     13.60831424	      1.51936320	      0.24241602	     -0.00139755	      0.00202063	      0.00513131	      0.00137964	      0.00584200	     -0.00248375	      0.20026456	      0.01267574	      0.03253801	     -0.03502004	      0.01520683	     -0.01699923
     14.80199391	      0.01006821	      0.01004323	      0.02728601	      0.08880186	      0.01016119	      0.01005396	      0.10177330	      0.01055427	      0.01620992	      0.01481927	      0.01143391	      0.01080881	      0.01006120	      0.01535033	      0.04435083	      0.09388337	      0.07013241	      0.24251825	      0.10255512	      0.03763859	      0.08688102	      0.05367464	      0.02299790	      0.01022656	      0.01014394	      0.01015415	      0.01012701	      0.01006322	      0.01003936	      0.01001862	      0.01009896	      0.18680487	      0.06573109	      0.01001624	      0.03048557	      0.06633805	      0.01396117	      0.01450321	      0.03872095	      0.02008762	     -0.00116092	      0.42189513	     -2.11516855	     -1.47833291	      2.94182759	     -0.66660784	     -0.00471218	     -0.00096210	      0.00453654	     -0.00030934	      0.00176292	      0.00066109	      0.18968579	      0.02963714	      0.01914236	     -0.03593452	      0.01580816	     -0.01724863
     14.81732723	      0.01003118	      0.01002002	      0.01046067	      0.06127924	      0.01005388	      0.01003315	      0.07300228	      0.01062995	      0.01040175	      0.01220248	      0.01712013	      0.02420152	      0.01032748	      0.06040826	      0.10307949	      0.15907315	      0.04363243	      0.32374293	      0.17728891	      0.12368378	      0.10624105	      0.08420961	      0.05706945	      0.01009481	      0.01008645	      0.01014174	      0.01008407	      0.02341106	      0.01003050	      0.01002453	      0.01010827	      0.13923516	      0.04366521	      0.01050656	      0.06054439	      0.02989221	      0.05833861	      0.03734748	      0.11543685	      0.05793113	     -3.26546987	     -2.00955706	      0.63738685	     -6.69795032	     -0.58910547	     -0.77151221	     -0.00549646	     -0.00366026	      0.00402951	     -0.00099275	      0.00055218	      0.00140847	      0.17583958	      0.06992295	     -0.01482659	     -0.03844239	      0.01555031	     -0.01504246
     14.83266054	      0.01002479	      0.01001598	      0.01017145	      0.03047992	      0.01004070	      0.01002759	      0.01998176	      0.01068605	      0.01030654	      0.01337042	      0.02934405	      0.05100208	      0.01252681	      0.01018529	      0.12090408	      0.16442112	      0.01164230	      0.38285716	      0.22270999	      0.16965030	      0.12335379	      0.10656359	      0.08003845	      0.01007432	      0.01007697	      0.01007753	      0.01003773	      0.06965323	      0.01002808	      0.01007179	      0.01014685	      0.06228440	      0.01595655	      0.10372504	      0.09055025	      0.03714797	      0.11806842	      0.06605567	      0.20287160	      0.10175255	     -2.71796960	     -0.64452708	      3.54956761	     -4.36929669	     -4.32349383	      0.13669635	     -0.00514667	     -0.00544888	      0.00386490	     -0.00187457	      0.00067670	      0.00300334	      0.16408529	      0.10273483	     -0.05414160	     -0.04542744	      0.01508066	     -0.01199024
     14.84799386	      0.01002174	      0.01001427	      0.01006065	      0.01195058	      0.01003137	      0.01002463	      0.01008366	      0.01013670	      0.01009766	      0.01207881	      0.04954002	      0.09154216	      0.02088557	      0.01016144	      0.12348256	      0.15195829	      0.01007518	      0.42430730	      0.24930820	      0.19285616	      0.13670066	      0.12175106	      0.09450062	      0.01004983	      0.01012372	      0.01003988	      0.01001947	      0.09317480	      0.01002963	      0.05618588	      0.01013564	      0.01012925	      0.01011599	      0.23412887	      0.11349594	      0.06638557	      0.20780656	      0.10224305	      0.31166291	      0.15669735	      0.21425012	     -0.36654087	      3.72445638	      0.97715350	     -4.40369592	      0.91425410	     -0.00464920	     -0.00647023	      0.00383769	     -0.00319571	      0.00136614	      0.00601291	      0.15874200	      0.10083727	     -0.07742022	     -0.05632693	      0.01491515	     -0.00959516
     14.86332718	      0.01002062	      0.01001334	      0.01006130	      0.01464131	      0.01003041	      0.01002356	      0.01005407	      0.01009014	      0.01006260	      0.01347807	      0.07700687	      0.14512635	      0.06873274	      0.03560387	      0.13037936	      0.15625764	      0.01008460	      0.45856791	      0.26685477	      0.20527075	      0.14777627	      0.13106267	      0.10188188	      0.01004214	      0.01010439	      0.01002243	      0.01001096	      0.09799665	      0.01002800	      0.11334611	      0.01010181	      0.01005167	      0.01007548	      0.41984171	      0.12272794	      0.11285153	      0.32260308	      0.14050143	      0.42616996	      0.21495297	      2.75574755	     -1.53087791	      0.50412979	      4.61656738	     -0.42585526	      0.82606348	     -0.00499154	     -0.00686762	      0.00404282	     -0.00482348	      0.00215440	      0.01062267	      0.15551917	      0.05425437	     -0.07324616	     -0.06555624	      0.01496968	     -0.00837073
     14.87866050	      0.01001886	      0.01001189	      0.01006186	      0.01794693	      0.01002924	      0.01002183	      0.01004347	      0.01006581	      0.01004315	      0.01329321	      0.11035005	      0.20948655	      0.14592918	      0.14494622	      0.14232524	      0.17127639	      0.01008762	      0.51137593	      0.29109710	      0.22000156	      0.16562384	      0.14380856	      0.11014925	      0.01003600	      0.01008390	      0.01001420	      0.01000702	      0.09730988	      0.01002485	      0.13785048	      0.01007997	      0.01003490	      0.01005624	      0.62016791	      0.13235529	      0.18846388	      0.46152046	      0.17354404	      0.52573517	      0.26602867	      2.75091555	     -1.88322384	     -3.54230376	      4.21967194	      4.25849736	      0.06225354	     -0.00590229	     -0.00740668	      0.00449799	     -0.00637852	      0.00290891	      0.01694076	      0.14368788	     -0.02681441	     -0.04335173	     -0.06558247	      0.01463572	     -0.00804909
     14.89399382	      0.01001624	      0.01001004	      0.01005487	      0.01793902	      0.01002586	      0.01001909	      0.01003831	      0.01005703	      0.01003306	      0.01267452	      0.13891353	      0.26524867	      0.24532280	      0.31029977	      0.15077405	      0.17768683	      0.01006845	      0.59706309	      0.32801548	      0.23963649	      0.19690550	      0.16602517	      0.12364213	      0.01003078	      0.01007751	      0.01001069	      0.01000535	      0.09585318	      0.01002205	      0.15274436	      0.01007160	      0.01003033	      0.01004876	      0.81323503	      0.15504816	      0.26583067	      0.58221920	      0.18898743	      0.57355710	      0.29092377	      0.41880166	     -0.63220407	     -4.71476455	      0.56023313	      5.42561455	     -0.65499635	     -0.00675495	     -0.00857791	      0.00519744	     -0.00724486	      0.00257087	      0.02317689	      0.11595319	     -0.11625571	      0.00300877	     -0.05342243	      0.01342787	     -0.00831475
     14.90932713	      0.01001380	      0.01000845	      0.01004187	      0.01099005	      0.01002159	      0.01001640	      0.01003240	      0.01005788	      0.01002781	      0.01045954	      0.15342976	      0.29575906	      0.34095350	      0.48788304	      0.14319671	      0.15574934	      0.01003817	      0.69707812	      0.36555432	      0.25388784	      0.23747217	      0.19364075	      0.13861030	      0.01002695	      0.01009988	      0.01000940	      0.01000478	      0.08982778	      0.01002096	      0.17296786	      0.01007687	      0.01002775	      0.01004317	      0.96292445	      0.19197033	      0.30333576	      0.64679916	      0.18063626	      0.55026721	      0.27958858	     -2.16578413	      1.21487805	     -1.75020622	     -3.49475036	      1.81616818	     -0.72251950	     -0.00687823	     -0.01029376	      0.00593479	     -0.00704524	      0.00068285	      0.02731556	      0.07533669	     -0.18523555	      0.05495345	     -0.03359138	      0.01155284	     -0.00919925
     14.92466045	      0.01001234	      0.01000758	      0.01003158	      0.01038654	      0.01001830	      0.01001478	      0.01002611	      0.01008588	      0.01002450	      0.01065488	      0.15332621	      0.29891166	      0.40252205	      0.61388384	      0.11141514	      0.09559464	      0.01002253	      0.75962887	      0.37966447	      0.24911432	      0.26976011	      0.21327080	      0.14636070	      0.01002508	      0.01272529	      0.01000921	      0.01000477	      0.07801282	      0.01002300	      0.21010413	      0.01026288	      0.01002429	      0.01003826	      1.03560672	      0.23036705	      0.28480692	      0.64988374	      0.14958394	      0.45779067	      0.23298317	     -2.72479896	      1.96581199	      2.58064945	     -4.52788056	     -3.22917623	     -0.15573828	     -0.00564909	     -0.01197115	      0.00618144	     -0.00580011	     -0.00179312	      0.02853499	      0.03205347	     -0.21922036	      0.10618636	     -0.01392589	      0.00974804	     -0.01095014
     14.93999377	      0.01001223	      0.01000764	      0.01002583	      0.01005777	      0.01001678	      0.01001478	      0.01002162	      0.01013901	      0.01002179	      0.01014716	      0.14308356	      0.28075431	      0.40907439	      0.64144781	      0.06488748	      0.01899702	      0.01001591	      0.73509639	      0.35512630	      0.22428344	      0.27243532	      0.21173732	      0.14131807	      0.01002559	      0.05061782	      0.01000970	      0.01000512	      0.06893892	      0.01003144	      0.25864543	      0.01143080	      0.01002025	      0.01003334	      1.01077389	      0.24874475	      0.22756814	      0.60609183	      0.10624914	      0.32666138	      0.16650687	     -1.06022524	      1.06288939	      4.30438196	     -1.87307884	     -5.06529245	      0.36721777	     -0.00305374	     -0.01278732	      0.00536827	     -0.00404092	     -0.00338499	      0.02697820	     -0.00527776	     -0.22293970	      0.15621273	      0.00064706	      0.00863650	     -0.01361486
     14.95532709	      0.01001461	      0.01000962	      0.01002286	      0.01003629	      0.01001731	      0.01001735	      0.01001661	      0.01053720	      0.01002035	      0.01012054	      0.12518764	      0.24430750	      0.35569627	      0.59563806	      0.01102168	      0.01004952	      0.01001150	      0.62602091	      0.28526580	      0.16521824	      0.24915006	      0.18945718	      0.12146998	      0.01003001	      0.12815991	      0.01001097	      0.01000588	      0.04880761	      0.01009898	      0.33740563	      0.02245516	      0.01001473	      0.01002744	      0.87437929	      0.24897762	      0.16364465	      0.52487046	      0.05931635	      0.18291249	      0.09337573	      1.07398340	     -0.26118258	      2.45083096	      1.86417932	     -2.70004249	      0.26594603	      0.00155055	     -0.01219054	      0.00396412	     -0.00219508	     -0.00325175	      0.02301813	     -0.03575629	     -0.21004095	      0.20404788	      0.01027512	      0.00831938	     -0.01674027
     14.97066041	      0.01002074	      0.01001536	      0.01002247	      0.01002899	      0.01002004	      0.01002382	      0.01001397	      0.01071406	      0.01002056	      0.01009332	      0.10207399	      0.19744045	      0.27709148	      0.43677287	      0.01003998	      0.01001631	      0.01000939	      0.47856161	      0.20384266	      0.10546050	      0.20881930	      0.15739907	      0.09837992	      0.01004083	      0.19551062	      0.01001338	      0.01000727	      0.03646403	      0.06351599	      0.39405265	      0.03923868	      0.01001174	      0.01002422	      0.69453950	      0.22863813	      0.10000405	      0.42118052	      0.02059335	      0.05889454	      0.03036517	      1.94092744	     -1.00034674	     -0.52395388	      3.54680848	      0.84415009	     -0.24894115	      0.00627958	     -0.01064121	      0.00222762	     -0.00068208	     -0.00243318	      0.01784887	     -0.06481021	     -0.19046656	      0.24294613	      0.01845936	      0.00847196	     -0.01950654
     14.98599372	      0.01004855	      0.01018075	      0.01002104	      0.01002118	      0.01002494	      0.01005553	      0.01001293	      0.04267473	      0.01002607	      0.01054755	      0.07237222	      0.13709066	      0.21973500	      0.32366060	      0.01002208	      0.01000966	      0.01000723	      0.33045210	      0.14097613	      0.07939797	      0.17128482	      0.14056072	      0.09570698	      0.01058777	      0.28861385	      0.01001889	      0.01001031	      0.06934977	      0.20044219	      0.33550569	      0.07926104	      0.01001146	      0.01002557	      0.45466072	      0.21235033	      0.06812923	      0.29293583	      0.01002852	      0.01000909	      0.01001767	      1.47802020	     -0.97274101	     -1.98980736	      2.58253827	      2.46551925	     -0.47989887	      0.01374578	     -0.00936885	     -0.00084188	      0.00527203	     -0.00097903	      0.01186315	     -0.09737638	     -0.16787677	      0.26487614	      0.02957049	      0.00868374	     -0.02128483
     15.00132704	      0.01023120	      0.07048162	      0.01002035	      0.01001814	      0.01002938	      0.01022080	      0.01001317	      0.08091569	      0.01004344	      0.01150308	      0.04263726	      0.07753666	      0.17048181	      0.28066844	      0.01001657	      0.01000725	      0.01000609	      0.25084160	      0.11231292	      0.07516937	      0.15430292	      0.13757737	      0.10111227	      0.03019905	      0.35395724	      0.01003219	      0.01001756	      0.09573374	      0.29413432	      0.22712307	      0.10498854	      0.01001287	      0.01003002	      0.22228336	      0.20006037	      0.05953859	      0.16890228	      0.01001380	      0.01000452	      0.01000875	      0.26727723	     -0.71249532	     -1.44187055	      0.17375189	      1.66088130	     -0.08552078	      0.01916475	     -0.00903870	     -0.00297228	      0.01067000	      0.00020977	      0.00654320	     -0.13264975	     -0.14277354	      0.26538908	      0.04709319	      0.00864144	     -0.02184848
     15.01666036	      0.01099635	      0.11746530	      0.01002192	      0.01001833	      0.01003578	      0.01085815	      0.01001430	      0.08723921	      0.01010287	      0.01216647	      0.02072927	      0.03305678	      0.12059223	      0.27396337	      0.01001475	      0.01000653	      0.01000593	      0.18959811	      0.08724267	      0.06481585	      0.13437940	      0.12598726	      0.09658200	      0.05110695	      0.36049149	      0.01006608	      0.01003618	      0.09585095	      0.32136103	      0.16415860	      0.10423765	      0.01001461	      0.01003498	      0.04997501	      0.17787054	      0.05681501	      0.07669599	      0.01001173	      0.01000384	      0.01000742	     -1.26502391	     -0.43219113	     -0.07915040	     -2.22590330	     -0.02441798	      0.58464930	      0.02056039	     -0.00847770	     -0.00378618	      0.01205791	      0.00082870	      0.00290098	     -0.16313909	     -0.11317912	      0.24263546	      0.07113818	      0.00805396	     -0.02092937
     15.03199368	      0.01990581	      0.14266318	      0.01002471	      0.01001942	      0.01004584	      0.01999585	      0.01001660	      0.08822931	      0.04342115	      0.02020787	      0.01051804	      0.01013731	      0.05441384	      0.21056590	      0.01001395	      0.01000625	      0.01000612	      0.12338842	      0.06154530	      0.05439067	      0.10891743	      0.11009966	      0.08977428	      0.06528503	      0.34645660	      0.01290162	      0.01309715	      0.09382248	      0.32946941	      0.10184743	      0.09911004	      0.01001790	      0.01004335	      0.01002386	      0.15093897	      0.07876751	      0.01006551	      0.01001072	      0.01000351	      0.01000678	     -2.45750276	     -0.15209960	      0.57464681	     -3.30826296	     -0.57320646	      0.77937497	      0.02066851	     -0.00767262	     -0.00435314	      0.01264543	      0.00192469	     -0.00054442	     -0.17610117	     -0.07569744	      0.19656628	      0.09711112	      0.00654663	     -0.01802797
     15.04732700	      0.03905976	      0.16676088	      0.01002768	      0.01002037	      0.01006926	      0.03941076	      0.01001939	      0.09020313	      0.07158861	      0.02697532	      0.01068274	      0.01013695	      0.02858294	      0.07022585	      0.01001327	      0.01000591	      0.01000623	      0.05828956	      0.03383199	      0.03925093	      0.08479971	      0.09397972	      0.08244269	      0.07777867	      0.33684101	      0.02219165	      0.03240047	      0.09120366	      0.33999467	      0.04758065	      0.09608195	      0.01002289	      0.01005620	      0.01001481	      0.12677212	      0.10022480	      0.01005109	      0.01000986	      0.01000322	      0.01000625	      0.44310008	      5.22875754	     -0.03696060	     -0.61283736	      0.19169242	      0.44298728	      0.02081545	     -0.00693669	     -0.00475500	      0.01320614	      0.00273580	     -0.00140951	     -0.16328211	     -0.03172082	      0.13559810	      0.11738891	      0.00374278	     -0.01323740
     15.06266031	      0.03817120	      0.13941148	      0.01003719	      0.01002652	      0.01008840	      0.03882215	      0.01003705	      0.08846564	      0.06852422	      0.02238685	      0.01016117	      0.01008600	      0.02744624	      0.03833562	      0.01001494	      0.01000705	      0.01000784	      0.01464702	      0.01220648	      0.01717989	      0.05555799	      0.06513151	      0.06019141	      0.07753488	      0.26400492	      0.01994512	      0.03364880	      0.06824249	      0.27620911	      0.01004425	      0.08082346	      0.01009750	      0.01025097	      0.01001405	      0.08140026	      0.08650617	      0.01005534	      0.01000978	      0.01000319	      0.01000624	     -0.72556642	     -0.33637638	     -1.19252639	      0.32483272	      2.30662522	     -0.33476040	      0.01653494	     -0.00526170	     -0.00380589	      0.01300411	      0.00266198	     -0.00150060	     -0.13291363	      0.00510447	      0.07703875	      0.13018718	     -0.00025687	     -0.00822482
     15.07799363	      0.03330293	      0.11495815	      0.01005212	      0.01003260	      0.01028994	      0.02835622	      0.01029816	      0.09008731	      0.06832078	      0.02331661	      0.01048436	      0.01010799	      0.02383782	      0.02830935	      0.01002133	      0.01000881	      0.01000960	      0.01165657	      0.01070318	      0.01059470	      0.04419278	      0.04217726	      0.03375870	      0.07445119	      0.22314304	      0.02045328	      0.03086774	      0.02439253	      0.22596914	      0.01001382	      0.07099031	      0.05461114	      0.03076317	      0.01001263	      0.05479158	      0.08489785	      0.01003620	      0.01000798	      0.01000257	      0.01000510	      0.04637460	     -2.37434733	      0.10168785	      0.81151166	     -0.20936005	     -0.42713518	      0.01327214	     -0.00428899	     -0.00215596	      0.01310360	      0.00294867	     -0.00151517	     -0.10828443	      0.05193330	      0.02382318	      0.13737783	     -0.00470601	     -0.00311647
     15.09332695	      0.01338155	      0.07535408	      0.01004115	      0.01008063	      0.01008472	      0.01014761	      0.01045415	      0.06841411	      0.07949413	      0.02549135	      0.01016664	      0.01004598	      0.01035560	      0.03147698	      0.01001322	      0.01000765	      0.01000833	      0.01277806	      0.01003945	      0.01002424	      0.09692925	      0.01051192	      0.01010475	      0.01895214	      0.30445109	      0.02259093	      0.03603367	      0.01003388	      0.13303044	      0.01000395	      0.03920701	      0.11608242	      0.05371426	      0.01000752	      0.06831683	      0.09354858	      0.01002486	      0.01000730	      0.01000316	      0.01000546	      0.97705085	     -1.75049637	      4.69450606	      0.43849464	     -8.22203329	      0.89807397	      0.00789341	     -0.00454793	      0.01051023	      0.00978846	      0.00377506	     -0.00190653	     -0.09662577	      0.11292653	     -0.02270411	      0.14500966	     -0.00813317	      0.00180780
