PennationAngle
version=1
nRows=51
nColumns=5
inDegrees=no

This analysis gathers basic information about muscles during a simulation (e.g., forces, tendon lengths, moment arms, etc).
Units are S.I. units (second, meters, Newtons, ...)
If the header above contains a line with 'inDegrees', this indicates whether rotational values are in degrees (yes) or radians (no).

endheader
time	recfem_r	vaslat_r	vasint_r	vasmed_r
     15.04665916	      0.18160776	      0.23360770	      0.05713959	      0.38054651
     15.06319248	      0.18147961	      0.23864229	      0.05835408	      0.38827181
     15.07972579	      0.18188902	      0.24421897	      0.05968584	      0.39676576
     15.09625911	      0.18244956	      0.25000849	      0.06105485	      0.40551529
     15.11279243	      0.18240083	      0.25508404	      0.06224486	      0.41313293
     15.12932574	      0.18094427	      0.25812126	      0.06295367	      0.41767553
     15.14585906	      0.17760657	      0.25791740	      0.06290615	      0.41737087
     15.16239238	      0.17244014	      0.25396265	      0.06198262	      0.41145329
     15.17892569	      0.16599520	      0.24674402	      0.06028456	      0.40059026
     15.19545901	      0.15912947	      0.23759787	      0.05810314	      0.38667368
     15.21199233	      0.15274153	      0.22818460	      0.05581674	      0.37215721
     15.22852564	      0.14715377	      0.21937610	      0.05363221	      0.35832229
     15.24505896	      0.14258377	      0.21171807	      0.05168994	      0.34603300
     15.26159228	      0.13950052	      0.20582797	      0.05015435	      0.33636931
     15.27812560	      0.13799154	      0.20160477	      0.04901915	      0.32926353
     15.29465891	      0.13799943	      0.19874645	      0.04823200	      0.32435672
     15.31119223	      0.13942324	      0.19692049	      0.04775559	      0.32139806
     15.32772555	      0.14211968	      0.19613897	      0.04756241	      0.32020189
     15.34425886	      0.14595912	      0.19641997	      0.04763114	      0.32062716
     15.36079218	      0.15092682	      0.19770250	      0.04795529	      0.32263691
     15.37732550	      0.15718343	      0.19985909	      0.04853884	      0.32626726
     15.39385881	      0.16509367	      0.20296533	      0.04938870	      0.33157309
     15.41039213	      0.17524618	      0.20723612	      0.05052580	      0.33870151
     15.42692545	      0.18827823	      0.21282745	      0.05197450	      0.34782990
     15.44345876	      0.20442135	      0.21969051	      0.05371100	      0.35882141
     15.45999208	      0.22275951	      0.22721598	      0.05557874	      0.37064985
     15.47652540	      0.24177265	      0.23475124	      0.05741654	      0.38230605
     15.49305871	      0.25918355	      0.24136492	      0.05900595	      0.39242693
     15.50959203	      0.27168560	      0.24563494	      0.06002190	      0.39891206
     15.52612535	      0.27680166	      0.24666113	      0.06026494	      0.40046493
     15.54265866	      0.27415280	      0.24452876	      0.05975944	      0.39723570
     15.55919198	      0.26541918	      0.24012221	      0.05870882	      0.39053233
     15.57572530	      0.25332955	      0.23464974	      0.05739198	      0.38215000
     15.59225861	      0.24047416	      0.22922621	      0.05607207	      0.37377489
     15.60879193	      0.22850329	      0.22459407	      0.05493180	      0.36655359
     15.62532525	      0.21826955	      0.22122521	      0.05409466	      0.36125190
     15.64185856	      0.21006615	      0.21941148	      0.05364108	      0.35837846
     15.65839188	      0.20362100	      0.21917393	      0.05358151	      0.35800112
     15.67492520	      0.19830541	      0.22030364	      0.05386445	      0.35979359
     15.69145852	      0.19345255	      0.22246989	      0.05440473	      0.36321601
     15.70799183	      0.18866201	      0.22531072	      0.05510903	      0.36767568
     15.72452515	      0.18400861	      0.22853838	      0.05590353	      0.37270702
     15.74105847	      0.17994450	      0.23198361	      0.05674509	      0.37804227
     15.75759178	      0.17699153	      0.23557975	      0.05761678	      0.38357904
     15.77412510	      0.17546251	      0.23931128	      0.05851457	      0.38929425
     15.79065842	      0.17525429	      0.24305910	      0.05940995	      0.39500455
     15.80719173	      0.17575527	      0.24641874	      0.06020757	      0.40009833
     15.82372505	      0.17595101	      0.24864331	      0.06073322	      0.40345831
     15.84025837	      0.17488584	      0.24897410	      0.06081122	      0.40395708
     15.85679168	      0.17228042	      0.24726401	      0.06040753	      0.40137623
     15.87332500	      0.16876522	      0.24431433	      0.05970850	      0.39691044
