PassiveFiberForce
version=1
nRows=51
nColumns=5
inDegrees=no

This analysis gathers basic information about muscles during a simulation (e.g., forces, tendon lengths, moment arms, etc).
Units are S.I. units (second, meters, Newtons, ...)
If the header above contains a line with 'inDegrees', this indicates whether rotational values are in degrees (yes) or radians (no).

endheader
time	recfem_r	vaslat_r	vasint_r	vasmed_r
     13.83332803	    139.51904170	    113.32749704	     42.87270198	     71.63160633
     13.84812802	    131.08575390	     96.74495773	     36.30533536	     61.55183720
     13.86292800	    122.25599203	     84.26003217	     31.33343779	     53.80270011
     13.87772799	    117.21349131	     77.56600926	     28.58441026	     49.44287328
     13.89252797	    120.04067271	     77.20893482	     28.31594846	     48.93771379
     13.90732796	    134.33628565	     83.20134581	     30.55519713	     52.37342336
     13.92212794	    164.58743617	     95.69269200	     35.34635487	     59.81811112
     13.93692793	    217.46547861	    114.95827304	     42.84020755	     71.38389268
     13.95172791	    303.30792113	    141.48502851	     53.41915315	     87.40569871
     13.96652790	    433.86143055	    174.75205415	     67.19940567	    107.74020326
     13.98132788	    615.88683996	    213.20196786	     83.83306575	    131.55512325
     13.99612787	    859.53792468	    257.43122697	    103.92917826	    159.61658996
     14.01092785	   1137.01624005	    302.20639429	    125.66806719	    189.11185281
     14.02572784	   1389.03010892	    343.34890173	    147.25096483	    217.64474147
     14.04052782	   1554.57457207	    387.64576938	    167.99322661	    244.80111192
     14.05532781	   1598.42629487	    437.29537260	    189.68697990	    274.15259957
     14.07012779	   1517.27623135	    488.68169624	    212.72423220	    305.34780911
     14.08492778	   1309.21498351	    534.26708050	    233.71085493	    333.65407134
     14.09972776	   1020.30371728	    560.38748587	    246.07667060	    350.18513578
     14.11452775	    729.41206461	    555.96809240	    244.27153955	    347.64378639
     14.12932773	    497.65108046	    523.32099349	    229.33801334	    327.45238294
     14.14412772	    339.17862454	    475.83822215	    207.81364854	    298.30786758
     14.15892770	    237.47662243	    425.85657124	    185.59976054	    268.22122043
     14.17372769	    170.14994439	    378.81545077	    165.15819539	    240.60330864
     14.18852767	    119.78288510	    337.33029769	    145.13285503	    214.50376293
     14.20332766	     81.71061407	    296.20982343	    123.86154221	    186.33266138
     14.21812765	     53.21000355	    249.79841089	    101.64032441	    156.15429761
     14.23292763	     33.56449371	    203.22753169	     80.63480753	    126.85730433
     14.24772762	     21.36731589	    162.57279427	     63.17925138	    101.87369821
     14.26252760	     14.39322621	    129.16173586	     49.39046086	     81.51034911
     14.27732759	     11.78379104	    106.71306975	     40.30898819	     67.73451574
     14.29212757	     12.26338273	     95.41597120	     35.68956181	     60.56159409
     14.30692756	     14.95019666	     93.67776520	     34.83854512	     59.16665278
     14.32172754	     19.34889468	     99.51944318	     37.00009255	     62.46407722
     14.33652753	     25.31888589	    111.06865256	     41.46390750	     69.32368882
     14.35132751	     32.83722191	    126.46095984	     47.55112262	     78.60120030
     14.36612750	     41.50283851	    143.42305361	     54.42861394	     88.94254508
     14.38092748	     50.45494316	    159.13664798	     60.96249486	     98.62349984
     14.39572747	     59.13947948	    170.71500032	     65.90078522	    105.84347524
     14.41052745	     68.03267855	    175.83106293	     68.17598015	    109.13831740
     14.42532744	     78.22112430	    172.91944999	     67.06694898	    107.52855373
     14.44012742	     90.11779384	    161.46019982	     62.37757527	    100.70577229
     14.45492741	    102.01985918	    142.50293642	     54.65413852	     89.33880018
     14.46972739	    110.07864234	    119.28616309	     45.34369801	     75.40465526
     14.48452738	    110.96419723	     96.38490590	     36.28701665	     61.57108295
     14.49932736	    105.38921690	     77.81611864	     28.89883615	     50.05869009
     14.51412735	     99.09848812	     66.24571080	     24.14436229	     42.53045705
     14.52892733	     98.33703045	     61.83415696	     22.21376870	     39.38436272
     14.54372732	    107.13851629	     63.54927088	     22.79626963	     40.18388230
     14.55852730	    127.91160183	     70.32898816	     25.42856706	     44.24848389
     14.57332729	    160.76744813	     80.70687823	     29.45070605	     50.53848833
