FiberLength
version=1
nRows=51
nColumns=5
inDegrees=no

This analysis gathers basic information about muscles during a simulation (e.g., forces, tendon lengths, moment arms, etc).
Units are S.I. units (second, meters, Newtons, ...)
If the header above contains a line with 'inDegrees', this indicates whether rotational values are in degrees (yes) or radians (no).

endheader
time	recfem_r	vaslat_r	vasint_r	vasmed_r
     16.71332504	      0.09826435	      0.10704993	      0.10903563	      0.10672245
     16.72852502	      0.09676325	      0.10416215	      0.10608339	      0.10409525
     16.74372501	      0.09473242	      0.10116402	      0.10305086	      0.10138584
     16.75892499	      0.09246157	      0.09834673	      0.10022424	      0.09885274
     16.77412498	      0.09053439	      0.09618742	      0.09806144	      0.09691029
     16.78932496	      0.08964230	      0.09518490	      0.09705512	      0.09600576
     16.80452495	      0.09034259	      0.09568480	      0.09755720	      0.09645709
     16.81972493	      0.09291885	      0.09779884	      0.09967566	      0.09836034
     16.83492492	      0.09734276	      0.10139378	      0.10328220	      0.10159285
     16.85012490	      0.10319684	      0.10606779	      0.10802776	      0.10582695
     16.86532489	      0.10958477	      0.11112722	      0.11326881	      0.11046580
     16.88052487	      0.11582964	      0.11621131	      0.11867471	      0.11522625
     16.89572486	      0.12105826	      0.12075612	      0.12368037	      0.11960616
     16.91092484	      0.12462990	      0.12430040	      0.12778564	      0.12316385
     16.92612483	      0.12669258	      0.12734354	      0.13105900	      0.12598884
     16.94132481	      0.12772950	      0.13025200	      0.13384956	      0.12851014
     16.95652480	      0.12837447	      0.13298749	      0.13653042	      0.13095556
     16.97172478	      0.12839790	      0.13543330	      0.13897973	      0.13319747
     16.98692477	      0.12701864	      0.13721120	      0.14078914	      0.13485059
     17.00212475	      0.12336680	      0.13790826	      0.14150441	      0.13550253
     17.01732474	      0.11714333	      0.13735596	      0.14093743	      0.13498583
     17.03252472	      0.10898780	      0.13571733	      0.13926726	      0.13346047
     17.04772471	      0.10030504	      0.13337338	      0.13691356	      0.13130618
     17.06292469	      0.09253459	      0.13068301	      0.13426806	      0.12889058
     17.07812468	      0.08629701	      0.12777405	      0.13146868	      0.12635731
     17.09332466	      0.08076776	      0.12466475	      0.12821935	      0.12353808
     17.10852464	      0.07527989	      0.12110326	      0.12407288	      0.11994761
     17.12372463	      0.06932707	      0.11643900	      0.11892074	      0.11544251
     17.13892461	      0.06327603	      0.11107862	      0.11321784	      0.11042087
     17.15412460	      0.05789500	      0.10561351	      0.10756296	      0.10541344
     17.16932458	      0.05380493	      0.10054611	      0.10242949	      0.10082962
     17.18452457	      0.05179193	      0.09691012	      0.09878569	      0.09756107
     17.19972455	      0.05200895	      0.09542588	      0.09729723	      0.09622340
     17.21492454	      0.05406369	      0.09629045	      0.09816474	      0.09700312
     17.23012452	      0.05719571	      0.09908247	      0.10096117	      0.09951383
     17.24532451	      0.06068327	      0.10295197	      0.10485563	      0.10299943
     17.26052449	      0.06417853	      0.10693799	      0.10892055	      0.10662028
     17.27572448	      0.06780168	      0.11028095	      0.11238318	      0.10968466
     17.29092446	      0.07202317	      0.11269505	      0.11491984	      0.11192062
     17.30612445	      0.07698446	      0.11410012	      0.11641101	      0.11323410
     17.32132443	      0.08222596	      0.11450365	      0.11684142	      0.11361312
     17.33652442	      0.08697457	      0.11402970	      0.11633601	      0.11316805
     17.35172440	      0.09057945	      0.11282968	      0.11506224	      0.11204606
     17.36692439	      0.09284570	      0.11102652	      0.11316322	      0.11037271
     17.38212437	      0.09396724	      0.10869008	      0.11072849	      0.10822266
     17.39732436	      0.09426496	      0.10593837	      0.10789526	      0.10570910
     17.41252434	      0.09410571	      0.10316778	      0.10507420	      0.10319463
     17.42772433	      0.09392086	      0.10104636	      0.10293246	      0.10127988
     17.44292431	      0.09413961	      0.10016143	      0.10204317	      0.10048361
     17.45812430	      0.09498884	      0.10063494	      0.10251875	      0.10090954
     17.47332428	      0.09625710	      0.10196704	      0.10386014	      0.10210977
