NormalizedFiberLength
version=1
nRows=51
nColumns=5
inDegrees=no

This analysis gathers basic information about muscles during a simulation (e.g., forces, tendon lengths, moment arms, etc).
Units are S.I. units (second, meters, Newtons, ...)
If the header above contains a line with 'inDegrees', this indicates whether rotational values are in degrees (yes) or radians (no).

endheader
time	recfem_r	vaslat_r	vasint_r	vasmed_r
     13.36666188	      1.17376189	      1.00801603	      1.03365642	      1.03885756
     13.38186186	      1.16996827	      0.98168791	      1.00690243	      1.01439470
     13.39706185	      1.16314248	      0.95556937	      0.98044231	      0.99013346
     13.41226183	      1.15793322	      0.93326353	      0.95775949	      0.96930578
     13.42746182	      1.16254673	      0.92060478	      0.94479958	      0.95740813
     13.44266180	      1.18456253	      0.92290436	      0.94716021	      0.95957453
     13.45786179	      1.22665543	      0.94196201	      0.96662321	      0.97744570
     13.47306177	      1.28566188	      0.97520330	      1.00033299	      1.00837671
     13.48826176	      1.35518567	      1.01749594	      1.04334168	      1.04769503
     13.50346174	      1.42722831	      1.06297718	      1.09029678	      1.09036289
     13.51866173	      1.49400031	      1.10677979	      1.13648950	      1.13198384
     13.53386171	      1.55395079	      1.14915528	      1.18229609	      1.17311977
     13.54906170	      1.59955382	      1.18655229	      1.22412445	      1.21045344
     13.56426168	      1.62440056	      1.21650992	      1.25928352	      1.24159906
     13.57946167	      1.62684842	      1.24326381	      1.28802379	      1.26703258
     13.59466165	      1.60793110	      1.26894904	      1.31262691	      1.28986791
     13.60986164	      1.57434582	      1.29109792	      1.33428356	      1.31014961
     13.62506162	      1.52830624	      1.30731489	      1.35040650	      1.32531597
     13.64026161	      1.47180161	      1.31472077	      1.35784415	      1.33231749
     13.65546159	      1.40753503	      1.31182149	      1.35492699	      1.32957148
     13.67066158	      1.33940097	      1.29961722	      1.34272514	      1.31808664
     13.68586156	      1.27158940	      1.28076496	      1.32412800	      1.30062131
     13.70106155	      1.20716719	      1.25776455	      1.30184771	      1.27983326
     13.71626153	      1.14313717	      1.23214986	      1.27694579	      1.25718888
     13.73146152	      1.07580083	      1.20560712	      1.24626699	      1.23008833
     13.74666150	      1.00504808	      1.17285208	      1.20859191	      1.19662897
     13.76186148	      0.93211619	      1.13310411	      1.16479541	      1.15741633
     13.77706147	      0.86452115	      1.09189453	      1.12066902	      1.11775959
     13.79226145	      0.80737999	      1.05304204	      1.07996303	      1.08100296
     13.80746144	      0.76501492	      1.01959409	      1.04548960	      1.04965351
     13.82266142	      0.74355603	      0.99609904	      1.02152441	      1.02777364
     13.83786141	      0.74500510	      0.98449102	      1.00974360	      1.01699606
     13.85306139	      0.76720236	      0.98437369	      1.00962466	      1.01688717
     13.86826138	      0.80474153	      0.99379591	      1.01918461	      1.02563425
     13.88346136	      0.85057623	      1.00990758	      1.03558644	      1.04061944
     13.89866135	      0.89808876	      1.02940497	      1.05555484	      1.05882364
     13.91386133	      0.94280379	      1.04891051	      1.07567942	      1.07711726
     13.92906132	      0.98310397	      1.06548161	      1.09290940	      1.09272598
     13.94426130	      1.01976637	      1.07713384	      1.10510820	      1.10374244
     13.95946129	      1.05440576	      1.08284655	      1.11111589	      1.10915832
     13.97466127	      1.08778935	      1.08217323	      1.11040686	      1.10851943
     13.98986126	      1.11901027	      1.07494045	      1.10280635	      1.10166576
     14.00506124	      1.14517170	      1.06079816	      1.08802620	      1.08830808
     14.02026123	      1.16194740	      1.03898077	      1.06541486	      1.06779401
     14.03546121	      1.16608507	      1.00926558	      1.03493124	      1.04002137
     14.05066120	      1.15842579	      0.97357157	      0.99868036	      1.00686217
     14.06586118	      1.14527893	      0.93715185	      0.96172520	      0.97294764
     14.08106117	      1.13764974	      0.90838660	      0.93219978	      0.94585449
     14.09626115	      1.14695417	      0.89534077	      0.91861891	      0.93342701
     14.11146114	      1.17678451	      0.89983858	      0.92331797	      0.93772327
     14.12666112	      1.21962293	      0.91571197	      0.93976610	      0.95279045
