TendonLength
version=1
nRows=51
nColumns=5
inDegrees=no

This analysis gathers basic information about muscles during a simulation (e.g., forces, tendon lengths, moment arms, etc).
Units are S.I. units (second, meters, Newtons, ...)
If the header above contains a line with 'inDegrees', this indicates whether rotational values are in degrees (yes) or radians (no).

endheader
time	recfem_r	vaslat_r	vasint_r	vasmed_r
     13.36666188	      0.47977114	      0.24414329	      0.22253769	      0.22100402
     13.38186186	      0.47977114	      0.24414329	      0.22253769	      0.22100402
     13.39706185	      0.47977114	      0.24414329	      0.22253769	      0.22100402
     13.41226183	      0.47977114	      0.24414329	      0.22253769	      0.22100402
     13.42746182	      0.47977114	      0.24414329	      0.22253769	      0.22100402
     13.44266180	      0.47977114	      0.24414329	      0.22253769	      0.22100402
     13.45786179	      0.47977114	      0.24414329	      0.22253769	      0.22100402
     13.47306177	      0.47977114	      0.24414329	      0.22253769	      0.22100402
     13.48826176	      0.47977114	      0.24414329	      0.22253769	      0.22100402
     13.50346174	      0.47977114	      0.24414329	      0.22253769	      0.22100402
     13.51866173	      0.47977114	      0.24414329	      0.22253769	      0.22100402
     13.53386171	      0.47977114	      0.24414329	      0.22253769	      0.22100402
     13.54906170	      0.47977114	      0.24414329	      0.22253769	      0.22100402
     13.56426168	      0.47977114	      0.24414329	      0.22253769	      0.22100402
     13.57946167	      0.47977114	      0.24414329	      0.22253769	      0.22100402
     13.59466165	      0.47977114	      0.24414329	      0.22253769	      0.22100402
     13.60986164	      0.47977114	      0.24414329	      0.22253769	      0.22100402
     13.62506162	      0.47977114	      0.24414329	      0.22253769	      0.22100402
     13.64026161	      0.47977114	      0.24414329	      0.22253769	      0.22100402
     13.65546159	      0.47977114	      0.24414329	      0.22253769	      0.22100402
     13.67066158	      0.47977114	      0.24414329	      0.22253769	      0.22100402
     13.68586156	      0.47977114	      0.24414329	      0.22253769	      0.22100402
     13.70106155	      0.47977114	      0.24414329	      0.22253769	      0.22100402
     13.71626153	      0.47977114	      0.24414329	      0.22253769	      0.22100402
     13.73146152	      0.47977114	      0.24414329	      0.22253769	      0.22100402
     13.74666150	      0.47977114	      0.24414329	      0.22253769	      0.22100402
     13.76186148	      0.47977114	      0.24414329	      0.22253769	      0.22100402
     13.77706147	      0.47977114	      0.24414329	      0.22253769	      0.22100402
     13.79226145	      0.47977114	      0.24414329	      0.22253769	      0.22100402
     13.80746144	      0.47977114	      0.24414329	      0.22253769	      0.22100402
     13.82266142	      0.47977114	      0.24414329	      0.22253769	      0.22100402
     13.83786141	      0.47977114	      0.24414329	      0.22253769	      0.22100402
     13.85306139	      0.47977114	      0.24414329	      0.22253769	      0.22100402
     13.86826138	      0.47977114	      0.24414329	      0.22253769	      0.22100402
     13.88346136	      0.47977114	      0.24414329	      0.22253769	      0.22100402
     13.89866135	      0.47977114	      0.24414329	      0.22253769	      0.22100402
     13.91386133	      0.47977114	      0.24414329	      0.22253769	      0.22100402
     13.92906132	      0.47977114	      0.24414329	      0.22253769	      0.22100402
     13.94426130	      0.47977114	      0.24414329	      0.22253769	      0.22100402
     13.95946129	      0.47977114	      0.24414329	      0.22253769	      0.22100402
     13.97466127	      0.47977114	      0.24414329	      0.22253769	      0.22100402
     13.98986126	      0.47977114	      0.24414329	      0.22253769	      0.22100402
     14.00506124	      0.47977114	      0.24414329	      0.22253769	      0.22100402
     14.02026123	      0.47977114	      0.24414329	      0.22253769	      0.22100402
     14.03546121	      0.47977114	      0.24414329	      0.22253769	      0.22100402
     14.05066120	      0.47977114	      0.24414329	      0.22253769	      0.22100402
     14.06586118	      0.47977114	      0.24414329	      0.22253769	      0.22100402
     14.08106117	      0.47977114	      0.24414329	      0.22253769	      0.22100402
     14.09626115	      0.47977114	      0.24414329	      0.22253769	      0.22100402
     14.11146114	      0.47977114	      0.24414329	      0.22253769	      0.22100402
     14.12666112	      0.47977114	      0.24414329	      0.22253769	      0.22100402
