Inverse Dynamics Generalized Forces
inDegrees=no
nColumns=21
nRows=50
DataType=double
version=3
OpenSimVersion=4.5.2-2025-05-03-6a4c6ec41
endheader
time	pelvis_tilt_moment	pelvis_list_moment	pelvis_rotation_moment	pelvis_tx_force	pelvis_ty_force	pelvis_tz_force	hip_flexion_r_moment	hip_adduction_r_moment	hip_rotation_r_moment	hip_flexion_l_moment	hip_adduction_l_moment	hip_rotation_l_moment	knee_angle_r_moment	knee_angle_r_beta_force	knee_angle_l_moment	knee_angle_l_beta_force	ankle_angle_r_moment	ankle_angle_l_moment	subtalar_angle_r_moment	subtalar_angle_l_moment
16.33332565	40.89061000057932	-49.91062755811825	7.241459554903827	-130.7048432392314	-240.9876800982566	137.613849228886	12.45081761883923	-111.8132914066963	1.09597180960111	35.21805319670287	0.6597813629495441	4.1020003292572	-10.06644862252292	-0.1242821788747459	2.683384539799311	0.01910808598672188	-117.2674376071523	4.120890461721685	39.93129876422114	-1.744411733093432
16.34892563	14.05315462896803	-39.17305135860867	11.22525156983102	-59.6654169549825	-84.10626801162131	88.90656085908709	22.59727162669649	-66.4571909268994	-2.421050699288713	-0.1784951197356524	0.4413973385562535	9.710605647685041	8.563426939606515	-0.1161821588722259	-2.739247581935434	0.05734227396240645	-82.69477364011566	3.196949705158497	27.28332892387352	-1.733445608486835
16.36452560999999	-0.410908738970346	-21.69844854785226	9.072167117885328	-3.36983679189852	12.64399892037951	36.9971016711132	40.64406891643679	-18.08084295113803	-5.52287855444064	-34.79194631107832	2.649967694181123	14.04065064465432	17.72917579297006	-0.1049613471062044	-3.830228911801568	0.09158328656767997	-49.74797567037694	2.436988115913046	15.89029401371479	-1.712982545987003
16.38012558999999	-0.7401059945011919	1.658178671131449	-0.008901222914689755	26.4012192085809	36.38694147685418	-11.43733034531598	65.87951637180885	28.86911552912877	-7.444187009906039	-66.19498931309373	8.665355737683967	16.26375387869238	15.06873995784961	-0.09012024415123215	2.50489081486736	0.1148398171139382	-21.81522651773829	1.920260300387265	7.127428290218987	-1.63583947514101
16.39572556999999	3.961596799285923	21.09121256960522	-10.19553808981858	26.45559362781564	19.53383468868266	-40.91781497041284	89.81895748374447	62.3047214175619	-7.016356552203145	-91.75160997334433	18.26403181466459	16.39838455633176	5.521613124583295	-0.07438435324677194	16.79785409810808	0.119377339008644	-2.748617656489752	1.526065452911757	1.802632434359596	-1.395244088837583
16.41132554999999	4.074100622873598	25.28010756305525	-13.45710534331008	6.996718876407782	-0.144448090130362	-39.75048481708709	105.0091810485384	70.86131391169593	-3.436670254975688	-110.5219253448318	29.45639671687919	15.25468485670286	-4.626913394972658	-0.0617060307295293	36.41084980922795	0.1022106931772569	6.244662497516819	0.9583913164374614	-0.5570136311514124	-0.8836146800184788
16.42692552999998	-0.9511930994235627	12.04056640886112	-6.541615511465888	-12.14033095585395	-9.640788918774717	-12.68185880259157	111.4043001442799	53.99406337054974	2.344133105086424	-122.5372146905857	38.84950626304695	13.81054890788689	-12.78260363674956	-0.05422315606821038	56.47937943886942	0.06833065678801171	7.727750471775452	0.0614460077906703	-1.323176787194438	-0.1770006379198712
16.44252550999998	-4.369474890463596	-8.342710676749334	5.693650770517241	-15.16598948713259	-15.56800560245354	19.59087075493072	113.5539224262802	24.26210388282444	7.137006257316013	-127.0544245714675	43.037954759184	12.54875810505357	-19.47962462129226	-0.05070047674137857	72.09078432913456	0.02899350888708402	5.978043398812948	-0.7653439542478524	-1.656502458904448	0.2722760748440415
16.45812548999998	-1.784794461576396	-21.18043599590265	14.09467219445232	-2.702807375378765	-20.24053942584455	35.23163693270515	113.553229179157	-0.9779853226506229	7.204643813033416	-122.8392150379147	40.51666600459041	11.32304369308751	-24.94505111983964	-0.04782743547870204	80.2877654542298	-0.00383903443504219	4.204923555547818	-0.5741102924789732	-1.903052971480938	-0.2533584002161153
16.47372546999998	3.837090246283737	-19.05872477451727	12.81450498675007	10.41993484696769	-12.66495040315046	27.0514189128023	109.2808898402322	-11.01430283430778	1.173116646687133	-110.557557203625	32.29517641111558	9.799718318535982	-27.99232369693035	-0.04341320929341604	80.40740108171644	-0.02350655849526049	3.508512995277652	1.240460010017485	-1.896161607932946	-2.040924085872578
16.48932544999997	6.549785233947619	-6.129153554407822	3.679422269502327	10.84722470616415	13.59185239165979	4.998845639515928	99.24686879041367	-6.41730450744444	-8.470879728064672	-94.69819538859286	20.22310915714463	8.085667799292974	-27.95306611562404	-0.03867669143727208	72.55737424932582	-0.03118436610322896	3.604689252190101	3.38513334712146	-1.540753612275316	-3.86032072904788
16.50492542999997	4.082808143123182	7.342827872075909	-6.219922637271915	-0.3099005547792216	41.22286945972486	-14.76340128938453	86.60241961788057	5.306225415483379	-16.88649176455779	-82.34786468398792	4.855571602843831	7.019917845828295	-26.29550069735313	-0.03725805645360445	55.83973211822935	-0.03320015593598789	3.940661019184897	1.732991702131267	-1.037624043580869	-2.451951195731517
16.52052540999997	-0.723734421416774	13.16637409991544	-10.68216559010239	-10.52166096257221	41.70406349095057	-21.73861290225079	76.98366295078381	16.72130119553015	-20.15084677664827	-78.33724562954032	-14.28648586130449	7.783810588213205	-25.73074886671159	-0.04152137827704587	28.28033168723768	-0.03535225283510739	4.246876047188608	-9.368874574611883	-0.6943714194514262	6.247345996091948
16.53612538999997	-3.401768318118537	9.306594523928343	-8.529975629893865	-9.993320079943409	10.57047991987448	-14.66142605833433	73.25298631953686	23.62943837929096	-17.48466083051732	-80.54307011146346	-36.59393611940607	11.136136252025	-28.0021076522659	-0.04946366012654202	-11.28520782553096	-0.03892194404229962	4.509151646154049	-33.52646637512885	-0.6656417871865379	24.36111252943616
16.55172536999996	-1.938763775281969	-0.4798976355297284	-2.959522444747263	-0.5949447472405945	-22.52106498498488	0.7477928400013192	73.36870393441005	24.07283538437977	-10.88900641705284	-81.33021517505385	-60.2313754257776	17.12225290448541	-32.65258523833862	-0.05511317391728126	-60.89367303598853	-0.04151463057950917	4.771278167735894	-69.05917050583302	-0.8957844935383241	50.03331828852819
16.56732534999996	1.682498644346081	-8.947263498129068	1.954043555014937	8.23444067163128	-26.96719700707248	14.46294197537945	73.03833330823092	17.03347289878779	-3.142148908275398	-74.99044678984457	-84.61541974044707	25.37558029736542	-37.48923375866758	-0.05221210524206557	-114.3797198207323	-0.04148218878453491	5.037598721085283	-109.1542314975845	-1.246525304281024	78.08507158769842
16.58292532999996	3.636337316949991	-9.40035913725891	3.989665883645612	9.454169703652109	-4.810989910613258	16.49530566256622	69.61206598785631	3.100504176827645	3.836167281439043	-62.67490415941192	-110.6707802410103	35.00288666799399	-39.86115189034431	-0.03833281040689441	-162.2758520528432	-0.04151158119737054	5.276992545016556	-145.4973283084684	-1.626655520235857	102.7071820657781
16.59852530999996	2.249326373146551	-1.108493261745123	3.232851988166339	3.699580455487015	16.31024902255503	4.660538820501766	63.44936523406763	-14.26398888237957	9.235824300538708	-49.20617368064879	-136.4812105378764	43.77625465616892	-37.78744218555951	-0.01638136899522424	-194.3686139019119	-0.04786507850123653	5.439465302483142	-172.2426189172562	-2.005765009352885	119.8639445608092
16.61412528999995	-0.4281185713219182	8.586593311470642	1.213951868347855	-3.233291428550597	16.04430408764385	-10.9912702954734	56.27740452553737	-29.19809008234084	12.69714591933666	-36.84332814687701	-153.9167834664347	48.1088698347459	-30.64410977629657	0.007513520832451286	-202.843415287189	-0.06569853400772523	5.454302373628568	-187.3430585733922	-2.344838525434342	128.0442929034868
16.62972526999995	-1.29405480766585	10.04887536865309	-0.1700810782772852	-6.399593590494718	-0.626366409908808	-15.59520252916267	48.68810568393803	-35.95867419187176	13.74740327188721	-23.90463274535876	-152.6697877627351	44.95024943767773	-19.41874682037054	0.02805599470331195	-184.8556833598187	-0.09430199637443715	5.234831359914587	-191.1487809986554	-2.545096410905111	127.6374286782807
16.64532524999995	0.1254722557265406	1.191270771881412	0.149247823298707	-5.276208559319329	-14.46179683738653	-4.433580230461287	39.06581695303957	-31.73957168055478	11.90015167518553	-8.649656604016862	-129.2952590989546	34.28786960875943	-6.42455166323095	0.04382634300475895	-143.868248772615	-0.1262175771960903	4.713105027701546	-184.3734257515375	-2.476117297492963	119.8361302246967
16.66092522999995	1.351764814125077	-9.317460552885029	1.463092240989633	-2.408190004943818	-13.53438768011763	10.90782755713662	24.67981723821164	-18.01290051432442	7.312761547759163	7.703653910920207	-91.72990655466887	19.72079606298533	5.617224425700561	0.05730267383970003	-89.50098957434753	-0.1510415412118201	3.899777056818329	-167.2565622537304	-2.068736167918591	105.8147966278223
16.67652520999994	0.2581643700547935	-10.59128662236718	1.746570611670872	0.3237684262813381	-2.052370268655134	14.28582889545218	3.868942281244014	0.1069328824246236	1.411355207154759	22.91148451640716	-53.81990058575379	6.333081605630949	14.86857599886506	0.07204684769769117	-35.55000083462036	-0.1610580193363044	2.93563059286377	-140.2029421287268	-1.405248200220723	86.6214337314166
16.69212518999994	-1.993403513776641	-1.358634369931278	-0.3142920664148641	3.238523909508045	8.164258535221494	2.789412994988793	-22.61427671194171	16.08525455362874	-3.281779800440188	37.78813079881223	-25.15122825996938	-2.286412983124649	21.40402067158953	0.0890678904404439	4.132078457349419	-0.1548321140897723	2.076630447258878	-105.153469258501	-0.7239362768623441	63.8014947925133
16.70772516999994	-2.057492099368278	8.3687587332828	-3.645964919360682	6.639418365229933	10.61882003299293	-10.00420977696062	-52.23177206801129	25.11500247701989	-4.460874487483451	56.58885073073021	-6.221351248744584	-5.530727942386981	27.29335762020428	0.104872764478038	21.08524541787376	-0.1369793831926875	1.56250136889369	-66.6607165447752	-0.2932619341457192	40.13354901686925
16.72332514999994	1.388707692501751	8.174387378558652	-5.400403959209423	8.264672045230769	7.981229162666297	-9.520619896772139	-82.41801061275559	26.8486289005134	-1.751391915035723	82.23177508539706	7.516074585654974	-5.133179757181955	35.45993533975704	0.1127402276295996	16.23353957927462	-0.1150719262376957	1.399760255999323	-31.48434159334081	-0.2136318621441319	19.44519656783793
16.73892512999993	5.46928380118439	-1.471855256865308	-3.536794566213704	4.979253883374675	5.52914482594458	3.533223017201072	-111.4229505712514	25.47595122355404	2.736765148629842	111.6651243470741	18.49636302018235	-3.431091935069104	47.78893773887212	0.1066842481923631	-1.041147321528217	-0.09584282811467559	1.217912246604848	-6.025095118338162	-0.3088900758222217	5.061815456306262
16.75452510999993	6.21027452116687	-10.09995953511004	0.8937506481516451	-2.206569735520561	3.281512226085583	14.60484912847042	-137.3486590103549	26.02518799671911	5.8645454587537	137.1217577491431	24.30577904223492	-1.894104544609016	63.66526387933173	0.08553863193578576	-19.07221605350958	-0.08254714543567714	0.4122472051223408	7.054773092527851	-0.2492532398255658	-2.061795287603423
16.77012508999993	3.115162112032118	-8.797253031061041	4.119949838570451	-6.944122530171606	-3.790331744312641	11.67494888242073	-156.8824637016552	29.59573843848375	5.789617489104671	151.8604988832458	21.15185292890034	-0.7598148453311176	80.09376071037124	0.05429566545041836	-30.6102331602025	-0.0745085716079664	-1.353807460391302	10.03732621148854	0.1416180774841516	-3.721982316624506
16.78572506999993	-0.6234406097681456	0.9501886279429413	2.943526311347172	-3.776815899941541	-16.7277516813798	-2.856914368294507	-165.9071418222629	32.58170528759314	3.023508940667226	154.245161214422	9.075777074660042	0.2311437526506473	93.39404264498293	0.02172089478687646	-34.87446680312917	-0.06889327094102909	-3.542995667020933	7.953394575434682	0.6472330581840607	-2.923125537285188
16.80132504999992	-1.708704603093671	10.29981752293174	-1.91392658875504	5.13157627487573	-25.22491854428502	-16.78478591665106	-162.1620546387377	31.00172384541422	-0.4751894374211967	147.5198298913447	-6.655348043186118	0.9083604406941446	100.9469148684495	-0.004215699296625146	-34.98396984462805	-0.06356296134055139	-4.621993113367356	5.217728443277246	0.7406685798696693	-1.950868388523711
16.81692502999992	0.4952423239729493	12.60057097573603	-6.01442015370904	11.36408300661	-14.70559598851433	-20.74786645142709	-147.8257591796488	24.24447525964236	-2.739963268639737	137.1052812678326	-18.94974505557828	0.5799557535724302	101.2790569324758	-0.02011411115022492	-34.44189026167164	-0.0589799021325051	-3.015667281446644	3.899610878383921	0.03002145686759583	-1.632865777981347
16.83252500999992	3.632063691569003	7.900115437613246	-5.28403802182428	8.33334318954935	14.65745345357218	-13.70539832168807	-129.5957789849163	12.93334298127757	-2.301762595375223	127.3722789150723	-23.29741735398974	-1.153027083556345	92.53378867427224	-0.02756528370808177	-35.04164410928642	-0.05757260575907757	0.9099260283613568	4.066970517181019	-1.129375301690436	-1.80572354066375
16.84812498999992	3.922726537572478	-0.1902294695320432	-0.07264870106081778	-2.604944886481416	39.83278095054663	0.615631890821362	-115.1777785216768	-5.308566399099361	1.90454099347235	119.3190394330457	-19.62657100617785	-3.614656924275867	71.35952136024558	-0.03009287727483433	-36.41254166041583	-0.06095655618951984	3.127713859262907	4.92915183618372	-1.219732539137514	-2.070129840931112
16.86372496999991	-0.2632929187549571	-8.143768134296588	5.191899297908079	-13.22009797749984	35.48054254036325	16.60393627444352	-107.534129116618	-33.94566635546454	10.09273757630934	110.7626257772667	-11.37466711891259	-5.25748197144217	34.12729940723214	-0.02951308248493995	-36.86118920030817	-0.06746255101416401	-3.377852452154094	5.710971816485474	2.192572921015078	-2.198712551583545
16.87932494999991	-5.298173449244093	-12.42265020677389	6.531563597871566	-14.60909388702391	3.855681767307231	25.86390522016131	-101.7919150842105	-70.52224444942716	20.833203617246	98.97096244080038	-3.366090982602788	-4.840460263635642	-19.78928173617683	-0.02520230186764734	-34.85212920973129	-0.07231530663671455	-24.72047163451328	6.002950512258477	11.3091152173001	-2.159720988581498
16.89492492999991	-4.934103198233561	-9.685482640267576	4.070692316552585	-3.963599507427812	-25.37000137676741	20.09618734260416	-89.7001898176039	-105.4668724141033	31.3501989774315	83.17136899666498	0.298580008861927	-2.533067800535411	-85.03891017012121	-0.01685674846295069	-30.02013630934939	-0.07027911577177601	-61.4925504057738	5.754437264601658	26.58878429805467	-1.992927636856708
16.91052490999991	2.098543993439732	-0.4440488690451603	0.9822595568924209	12.04363777096348	-27.91264676034107	0.01617064536244128	-68.38157010853928	-130.5730949559817	39.18974344249558	64.69171472774666	-2.181423452536313	0.1704274794783998	-150.3707245865527	-0.00780496255127208	-23.04448086069051	-0.05840766050063518	-107.4872627871921	5.119208806602365	46.03527527757643	-1.729583409822806
16.9261248899999	9.128127486307598	8.842942797415269	-0.3394013319204069	20.97447709893602	-8.534731755973667	-20.80970074754243	-43.19030928506663	-146.3024634889122	43.45354303218969	45.4124882706413	-9.725128268257231	1.753881868606902	-202.5919359499595	-0.005294772271539449	-14.89584996087797	-0.03709922229674836	-152.8705773056884	4.301906660838976	65.87770003001295	-1.402617270382478
16.9417248699999	8.53102305989478	10.86313594703277	-0.3192958853519992	14.91571761058956	10.82256541589749	-26.39804594992736	-21.18388246095178	-157.9184415286009	44.15175195213619	26.79634727814522	-19.17713434044188	2.045304286915713	-231.947003924171	-0.01683150221659319	-6.457133550728777	-0.009658931453785895	-188.7017885810754	3.483827209127377	81.99806887248933	-1.090542733257329
16.9573248499999	0.5577983211784807	5.452278223508854	-0.9008886764026426	-1.588367601461558	17.42660386524741	-14.212027887045	-3.849988527848595	-165.9738705972451	40.87736971624734	10.24323472309429	-27.17788902871991	2.4220419519331	-235.0487694619274	-0.04502784980143652	1.225718249804707	0.01883082908503866	-209.3471266318169	2.818932786182029	91.10711015408245	-0.9193548913717008
16.9729248299999	-7.011772094774105	0.1047535676952873	-2.992502572546766	-15.30381292317571	16.00751641270024	2.183056090940454	11.99878362446695	-164.1200104579873	33.05911485051826	-2.540559334607569	-31.81436445279082	4.644689468316617	-213.936363642541	-0.08463973320580039	6.713105063152454	0.04329349852130405	-212.3868800102435	2.431997165148829	91.35717478250623	-0.9945987097657538
16.98852480999989	-7.741954760966911	0.6222266484836787	-5.1412958332112	-16.79424402012213	14.38208150299957	8.580085667901287	27.25984967109262	-147.0909554892296	21.74830714857455	-10.31030471807681	-32.78223459500587	9.205057411930071	-173.501014603014	-0.1239252931528459	8.60035445168262	0.06094408123684902	-197.7784309500525	2.377259321361544	82.59937154458385	-1.30599295238169
17.00412478999989	-3.108334317630116	2.698782020611359	-4.393827092805181	-8.302875028842747	7.85596062062683	6.432765508067867	37.01752462077741	-118.4415632463934	10.38184515076247	-13.55311773312199	-30.24928928770711	14.50302576979074	-120.3454622971253	-0.1498572592885919	6.492091532249045	0.07267339254794213	-167.5699211490197	2.593545562608908	66.41110011192622	-1.689529349833904
17.01972476999989	0.4932971114439985	-3.839722645433535	1.020032224204214	0.7489943390583036	-17.0260297287811	9.891310477663025	35.50895084225554	-87.96502380851626	2.823877623148539	-14.66052252696069	-24.16128276326611	17.74136553511855	-63.41601230225442	-0.1545332489706766	1.772583598240961	0.08180391962783694	-126.1467394914354	2.927583396985323	45.8912723820735	-1.91055019014583
17.03532474999989	-0.2867542384676006	-20.79036377830817	8.903676671941037	4.040898368473762	-59.79826279633073	25.47386493024567	24.09297897419169	-61.46536085336982	0.2618840913158924	-16.32896684328305	-15.32737893538173	17.18727014185272	-13.64256506240169	-0.1390887643410524	-2.580019191451299	0.09030050378930907	-80.45853105102188	3.244799407332816	25.2217659462124	-1.839918911823462
17.05092472999988	-2.728713444349048	-33.01492719018341	13.00156873879237	2.68860538605824	-86.27936939211844	37.41053057354975	12.49769335340288	-34.64260380512732	0.1135459112418449	-19.32706001130716	-7.167843218467838	14.0169206888552	19.61140848308349	-0.1125191798907067	-3.270208617818096	0.0952660347199985	-39.43431766534002	3.549743025375245	8.836708893776716	-1.588475239287106
17.06652470999988	-2.436550570776607	-16.87818209851963	6.774612165263218	1.200465865978473	-37.87211295664086	16.50832444069402	11.3833535872978	2.293456795971665	-1.871585720160989	-21.79534447874067	-5.231332579510324	11.78454921131722	33.06195148179981	-0.08602740911206386	1.670049493637475	0.08965804487980251	-11.40633115505533	3.992633567901109	-0.01832598277130437	-1.453353208940875
17.08212468999988	1.89278351877783	40.39865057865467	-11.78722830353655	2.250036730952039	124.5528881796099	-54.56157833851206	24.38323359404827	54.76842510705108	-8.255368795662239	-21.26802385036494	-13.30290783141432	13.48932066502467	30.43739295185232	-0.06651864212026207	11.97382358586614	0.06838507707563028	0.3578799883007393	4.718531439871886	-0.885708593129626	-1.67616747918039
17.09772466999988	8.604332795305288	127.7552310660208	-38.49721845845558	5.422534957075014	374.8592693848477	-163.0838230955811	46.7523608810567	118.5481367244661	-18.13274377166758	-17.74071624873473	-29.19032485619492	18.7653953535875	19.3666704962423	-0.05333574907932076	25.44283560822878	0.03504116326469651	0.8015673992468688	5.684962978869248	3.348306173309715	-2.213032858871583
