PennationAngle
version=1
nRows=51
nColumns=5
inDegrees=no

This analysis gathers basic information about muscles during a simulation (e.g., forces, tendon lengths, moment arms, etc).
Units are S.I. units (second, meters, Newtons, ...)
If the header above contains a line with 'inDegrees', this indicates whether rotational values are in degrees (yes) or radians (no).

endheader
time	recfem_r	vaslat_r	vasint_r	vasmed_r
     13.49999407	      0.19694030	      0.23116871	      0.05689719	      0.37893589
     13.51639405	      0.19500915	      0.23670487	      0.05822969	      0.38744814
     13.53279404	      0.19376629	      0.24241489	      0.05958892	      0.39614801
     13.54919402	      0.19273736	      0.24762577	      0.06081663	      0.40401614
     13.56559400	      0.19109277	      0.25133107	      0.06168250	      0.40956954
     13.58199399	      0.18809940	      0.25261019	      0.06198007	      0.41147884
     13.59839397	      0.18343856	      0.25102751	      0.06161178	      0.40911585
     13.61479396	      0.17718159	      0.24668099	      0.06059491	      0.40259462
     13.63119394	      0.16963610	      0.24001831	      0.05902024	      0.39250646
     13.64759392	      0.16131953	      0.23172513	      0.05703180	      0.37979494
     13.66399391	      0.15288138	      0.22256671	      0.05479563	      0.36554089
     13.68039389	      0.14481354	      0.21303359	      0.05241937	      0.35040047
     13.69679387	      0.13800757	      0.20420616	      0.05016530	      0.33608703
     13.71319386	      0.13318249	      0.19702186	      0.04827383	      0.32417533
     13.72959384	      0.13046886	      0.19162563	      0.04680065	      0.31499497
     13.74599382	      0.12983680	      0.18780810	      0.04574115	      0.30849585
     13.76239381	      0.13115764	      0.18505994	      0.04504586	      0.30431057
     13.77879379	      0.13413934	      0.18317538	      0.04460526	      0.30154172
     13.79519377	      0.13855581	      0.18213858	      0.04436266	      0.30000602
     13.81159376	      0.14432953	      0.18201180	      0.04433292	      0.29981738
     13.82799374	      0.15139536	      0.18278313	      0.04451361	      0.30096210
     13.84439373	      0.15961608	      0.18434525	      0.04487796	      0.30326284
     13.86079371	      0.16890396	      0.18662183	      0.04543178	      0.30662919
     13.87719369	      0.17923469	      0.18968512	      0.04625461	      0.31162885
     13.89359368	      0.19069100	      0.19386142	      0.04741807	      0.31882890
     13.90999366	      0.20350380	      0.19963919	      0.04897051	      0.32854937
     13.92639364	      0.21848298	      0.20738805	      0.05098508	      0.34128077
     13.94279363	      0.23639214	      0.21721823	      0.05346884	      0.35708683
     13.95919361	      0.25648768	      0.22836229	      0.05621585	      0.37459022
     13.97559359	      0.27845095	      0.24047047	      0.05912773	      0.39319460
     13.99199358	      0.30077390	      0.25274860	      0.06201223	      0.41168521
     14.00839356	      0.31991835	      0.26344078	      0.06447973	      0.42753025
     14.02479355	      0.33182337	      0.27038453	      0.06607392	      0.43777150
     14.04119353	      0.33267132	      0.27147206	      0.06632379	      0.43937596
     14.05759351	      0.32133155	      0.26593944	      0.06505345	      0.43121632
     14.07399350	      0.30116337	      0.25540953	      0.06262920	      0.41564500
     14.09039348	      0.27817850	      0.24323617	      0.05978321	      0.39739262
     14.10679346	      0.25769043	      0.23267594	      0.05726145	      0.38126100
     14.12319345	      0.24163227	      0.22534801	      0.05547945	      0.36989709
     14.13959343	      0.22901275	      0.22124121	      0.05446827	      0.36345543
     14.15599341	      0.21842934	      0.21978745	      0.05410814	      0.36116084
     14.17239340	      0.20898661	      0.22020518	      0.05421174	      0.36182098
     14.18879338	      0.20053465	      0.22173839	      0.05459117	      0.36423841
     14.20519336	      0.19336670	      0.22383390	      0.05510771	      0.36752885
     14.22159335	      0.18773270	      0.22613389	      0.05567191	      0.37112337
     14.23799333	      0.18360248	      0.22832313	      0.05620631	      0.37452942
     14.25439332	      0.18073750	      0.23000456	      0.05661505	      0.37713589
     14.27079330	      0.17887769	      0.23075864	      0.05679789	      0.37830226
     14.28719328	      0.17785259	      0.23036216	      0.05670179	      0.37768920
     14.30359327	      0.17755729	      0.22895690	      0.05636055	      0.37551280
     14.31999325	      0.17787516	      0.22700684	      0.05588530	      0.37248326
