TendonLength
version=1
nRows=51
nColumns=5
inDegrees=no

This analysis gathers basic information about muscles during a simulation (e.g., forces, tendon lengths, moment arms, etc).
Units are S.I. units (second, meters, Newtons, ...)
If the header above contains a line with 'inDegrees', this indicates whether rotational values are in degrees (yes) or radians (no).

endheader
time	recfem_r	vaslat_r	vasint_r	vasmed_r
     13.49999407	      0.52240351	      0.26185944	      0.24065188	      0.23794331
     13.51639405	      0.52240351	      0.26185944	      0.24065188	      0.23794331
     13.53279404	      0.52240351	      0.26185944	      0.24065188	      0.23794331
     13.54919402	      0.52240351	      0.26185944	      0.24065188	      0.23794331
     13.56559400	      0.52240351	      0.26185944	      0.24065188	      0.23794331
     13.58199399	      0.52240351	      0.26185944	      0.24065188	      0.23794331
     13.59839397	      0.52240351	      0.26185944	      0.24065188	      0.23794331
     13.61479396	      0.52240351	      0.26185944	      0.24065188	      0.23794331
     13.63119394	      0.52240351	      0.26185944	      0.24065188	      0.23794331
     13.64759392	      0.52240351	      0.26185944	      0.24065188	      0.23794331
     13.66399391	      0.52240351	      0.26185944	      0.24065188	      0.23794331
     13.68039389	      0.52240351	      0.26185944	      0.24065188	      0.23794331
     13.69679387	      0.52240351	      0.26185944	      0.24065188	      0.23794331
     13.71319386	      0.52240351	      0.26185944	      0.24065188	      0.23794331
     13.72959384	      0.52240351	      0.26185944	      0.24065188	      0.23794331
     13.74599382	      0.52240351	      0.26185944	      0.24065188	      0.23794331
     13.76239381	      0.52240351	      0.26185944	      0.24065188	      0.23794331
     13.77879379	      0.52240351	      0.26185944	      0.24065188	      0.23794331
     13.79519377	      0.52240351	      0.26185944	      0.24065188	      0.23794331
     13.81159376	      0.52240351	      0.26185944	      0.24065188	      0.23794331
     13.82799374	      0.52240351	      0.26185944	      0.24065188	      0.23794331
     13.84439373	      0.52240351	      0.26185944	      0.24065188	      0.23794331
     13.86079371	      0.52240351	      0.26185944	      0.24065188	      0.23794331
     13.87719369	      0.52240351	      0.26185944	      0.24065188	      0.23794331
     13.89359368	      0.52240351	      0.26185944	      0.24065188	      0.23794331
     13.90999366	      0.52240351	      0.26185944	      0.24065188	      0.23794331
     13.92639364	      0.52240351	      0.26185944	      0.24065188	      0.23794331
     13.94279363	      0.52240351	      0.26185944	      0.24065188	      0.23794331
     13.95919361	      0.52240351	      0.26185944	      0.24065188	      0.23794331
     13.97559359	      0.52240351	      0.26185944	      0.24065188	      0.23794331
     13.99199358	      0.52240351	      0.26185944	      0.24065188	      0.23794331
     14.00839356	      0.52240351	      0.26185944	      0.24065188	      0.23794331
     14.02479355	      0.52240351	      0.26185944	      0.24065188	      0.23794331
     14.04119353	      0.52240351	      0.26185944	      0.24065188	      0.23794331
     14.05759351	      0.52240351	      0.26185944	      0.24065188	      0.23794331
     14.07399350	      0.52240351	      0.26185944	      0.24065188	      0.23794331
     14.09039348	      0.52240351	      0.26185944	      0.24065188	      0.23794331
     14.10679346	      0.52240351	      0.26185944	      0.24065188	      0.23794331
     14.12319345	      0.52240351	      0.26185944	      0.24065188	      0.23794331
     14.13959343	      0.52240351	      0.26185944	      0.24065188	      0.23794331
     14.15599341	      0.52240351	      0.26185944	      0.24065188	      0.23794331
     14.17239340	      0.52240351	      0.26185944	      0.24065188	      0.23794331
     14.18879338	      0.52240351	      0.26185944	      0.24065188	      0.23794331
     14.20519336	      0.52240351	      0.26185944	      0.24065188	      0.23794331
     14.22159335	      0.52240351	      0.26185944	      0.24065188	      0.23794331
     14.23799333	      0.52240351	      0.26185944	      0.24065188	      0.23794331
     14.25439332	      0.52240351	      0.26185944	      0.24065188	      0.23794331
     14.27079330	      0.52240351	      0.26185944	      0.24065188	      0.23794331
     14.28719328	      0.52240351	      0.26185944	      0.24065188	      0.23794331
     14.30359327	      0.52240351	      0.26185944	      0.24065188	      0.23794331
     14.31999325	      0.52240351	      0.26185944	      0.24065188	      0.23794331
