TendonPower
version=1
nRows=51
nColumns=5
inDegrees=no

This analysis gathers basic information about muscles during a simulation (e.g., forces, tendon lengths, moment arms, etc).
Units are S.I. units (second, meters, Newtons, ...)
If the header above contains a line with 'inDegrees', this indicates whether rotational values are in degrees (yes) or radians (no).

endheader
time	recfem_r	vaslat_r	vasint_r	vasmed_r
     44.90500000	     -0.00000000	     -0.00000000	     -0.00000000	     -0.00000000
     44.94410000	     -0.00000000	     -0.00000000	     -0.00000000	     -0.00000000
     44.98320000	     -0.00000000	     -0.00000000	     -0.00000000	     -0.00000000
     45.02230000	     -0.00000000	     -0.00000000	     -0.00000000	     -0.00000000
     45.06140000	     -0.00000000	     -0.00000000	     -0.00000000	     -0.00000000
     45.10050000	     -0.00000000	     -0.00000000	     -0.00000000	     -0.00000000
     45.13960000	     -0.00000000	     -0.00000000	     -0.00000000	     -0.00000000
     45.17870000	     -0.00000000	     -0.00000000	     -0.00000000	     -0.00000000
     45.21780000	     -0.00000000	     -0.00000000	     -0.00000000	     -0.00000000
     45.25690000	     -0.00000000	     -0.00000000	     -0.00000000	     -0.00000000
     45.29600000	     -0.00000000	     -0.00000000	     -0.00000000	     -0.00000000
     45.33510000	     -0.00000000	     -0.00000000	     -0.00000000	     -0.00000000
     45.37420000	     -0.00000000	     -0.00000000	     -0.00000000	     -0.00000000
     45.41330000	     -0.00000000	     -0.00000000	     -0.00000000	     -0.00000000
     45.45240000	     -0.00000000	     -0.00000000	     -0.00000000	     -0.00000000
     45.49150000	     -0.00000000	     -0.00000000	     -0.00000000	     -0.00000000
     45.53060000	     -0.00000000	     -0.00000000	     -0.00000000	     -0.00000000
     45.56970000	     -0.00000000	     -0.00000000	     -0.00000000	     -0.00000000
     45.60880000	     -0.00000000	     -0.00000000	     -0.00000000	     -0.00000000
     45.64790000	     -0.00000000	     -0.00000000	     -0.00000000	     -0.00000000
     45.68700000	     -0.00000000	     -0.00000000	     -0.00000000	     -0.00000000
     45.72610000	     -0.00000000	     -0.00000000	     -0.00000000	     -0.00000000
     45.76520000	     -0.00000000	     -0.00000000	     -0.00000000	     -0.00000000
     45.80430000	     -0.00000000	     -0.00000000	     -0.00000000	     -0.00000000
     45.84340000	     -0.00000000	     -0.00000000	     -0.00000000	     -0.00000000
     45.88250000	     -0.00000000	     -0.00000000	     -0.00000000	     -0.00000000
     45.92160000	     -0.00000000	     -0.00000000	     -0.00000000	     -0.00000000
     45.96070000	     -0.00000000	     -0.00000000	     -0.00000000	     -0.00000000
     45.99980000	     -0.00000000	     -0.00000000	     -0.00000000	     -0.00000000
     46.03890000	     -0.00000000	     -0.00000000	     -0.00000000	     -0.00000000
     46.07800000	     -0.00000000	     -0.00000000	     -0.00000000	     -0.00000000
     46.11710000	     -0.00000000	     -0.00000000	     -0.00000000	     -0.00000000
     46.15620000	     -0.00000000	     -0.00000000	     -0.00000000	     -0.00000000
     46.19530000	     -0.00000000	     -0.00000000	     -0.00000000	     -0.00000000
     46.23440000	     -0.00000000	     -0.00000000	     -0.00000000	     -0.00000000
     46.27350000	     -0.00000000	     -0.00000000	     -0.00000000	     -0.00000000
     46.31260000	     -0.00000000	     -0.00000000	     -0.00000000	     -0.00000000
     46.35170000	     -0.00000000	     -0.00000000	     -0.00000000	     -0.00000000
     46.39080000	     -0.00000000	     -0.00000000	     -0.00000000	     -0.00000000
     46.42990000	     -0.00000000	     -0.00000000	     -0.00000000	     -0.00000000
     46.46900000	     -0.00000000	     -0.00000000	     -0.00000000	     -0.00000000
     46.50810000	     -0.00000000	     -0.00000000	     -0.00000000	     -0.00000000
     46.54720000	     -0.00000000	     -0.00000000	     -0.00000000	     -0.00000000
     46.58630000	     -0.00000000	     -0.00000000	     -0.00000000	     -0.00000000
     46.62540000	     -0.00000000	     -0.00000000	     -0.00000000	     -0.00000000
     46.66450000	     -0.00000000	     -0.00000000	     -0.00000000	     -0.00000000
     46.70360000	     -0.00000000	     -0.00000000	     -0.00000000	     -0.00000000
     46.74270000	     -0.00000000	     -0.00000000	     -0.00000000	     -0.00000000
     46.78180000	     -0.00000000	     -0.00000000	     -0.00000000	     -0.00000000
     46.82090000	     -0.00000000	     -0.00000000	     -0.00000000	     -0.00000000
     46.86000000	     -0.00000000	     -0.00000000	     -0.00000000	     -0.00000000
