FiberPassivePower
version=1
nRows=51
nColumns=5
inDegrees=no

This analysis gathers basic information about muscles during a simulation (e.g., forces, tendon lengths, moment arms, etc).
Units are S.I. units (second, meters, Newtons, ...)
If the header above contains a line with 'inDegrees', this indicates whether rotational values are in degrees (yes) or radians (no).

endheader
time	recfem_r	vaslat_r	vasint_r	vasmed_r
     44.90500000	    -18.94822300	     -9.90692916	     -2.71767905	     -4.14106732
     44.94410000	    -24.81226631	    -12.83407030	     -3.55190524	     -5.36482820
     44.98320000	    -32.34799279	    -16.56771804	     -4.63237946	     -6.92649950
     45.02230000	    -41.32693522	    -21.25115470	     -6.01575028	     -8.88988223
     45.06140000	    -51.66887870	    -27.18350480	     -7.81227438	    -11.40437866
     45.10050000	    -62.76651932	    -34.38402908	    -10.05933709	    -14.50103953
     45.13960000	    -71.50613414	    -41.96781201	    -12.53561680	    -17.79713114
     45.17870000	    -74.70262976	    -49.17037958	    -15.05120840	    -20.97084920
     45.21780000	    -69.65177475	    -55.20959756	    -17.38957132	    -23.71347558
     45.25690000	    -54.38802981	    -58.49107923	    -19.03406814	    -25.33989651
     45.29600000	    -32.20339718	    -58.17683633	    -19.62948382	    -25.45089868
     45.33510000	     -8.39748951	    -54.30015506	    -19.06078589	    -24.00786937
     45.37420000	     12.81609078	    -47.57300470	    -17.43975350	    -21.26793512
     45.41330000	     27.40302348	    -39.75515791	    -15.28618955	    -17.98080859
     45.45240000	     33.22024656	    -32.76844160	    -13.26126344	    -15.00997312
     45.49150000	     32.60075654	    -27.17065771	    -11.60890720	    -12.62357313
     45.53060000	     29.36981457	    -22.76047825	    -10.30563382	    -10.74637948
     45.56970000	     25.62305441	    -19.35428410	     -9.31796490	     -9.30654020
     45.60880000	     21.66022557	    -16.72981988	     -8.57917263	     -8.20928080
     45.64790000	     17.42714282	    -14.64359970	     -7.99322676	     -7.34360840
     45.68700000	     13.29329402	    -13.32293453	     -7.49535369	     -6.64564734
     45.72610000	      9.75992149	    -12.64716704	     -6.96457748	     -6.00850228
     45.76520000	      6.80090979	    -11.56950453	     -6.17257154	     -5.23545083
     45.80430000	      3.98616526	     -9.52702697	     -4.91810338	     -4.14112321
     45.84340000	      1.15787587	     -6.33331265	     -3.18584172	     -2.67932481
     45.88250000	     -1.52210710	     -2.35409587	     -1.16750636	     -0.98257754
     45.92160000	     -3.89135313	      1.77649398	      0.88002425	      0.74070351
     45.96070000	     -5.81583879	      5.67576979	      2.84504116	      2.39292513
     45.99980000	     -7.53703128	      9.15438059	      4.70142638	      3.95663748
     46.03890000	     -9.89106957	     11.78875479	      6.26032873	      5.30183256
     46.07800000	    -13.32529476	     13.28745434	      7.30007818	      6.28653724
     46.11710000	    -17.22616303	     14.06059853	      7.90752192	      7.00545920
     46.15620000	    -20.90315284	     15.52500079	      8.45904015	      7.78051360
     46.19530000	    -24.46173269	     18.26637235	      9.30989097	      8.94499963
     46.23440000	    -27.80866321	     22.29927735	     10.60471159	     10.68234867
     46.27350000	    -29.22425583	     27.73935578	     12.31235324	     13.02341288
     46.31260000	    -26.66152360	     34.07089190	     14.17181058	     15.71726877
     46.35170000	    -19.86956980	     40.35453600	     15.82571526	     18.34002161
     46.39080000	     -9.61004113	     45.95328520	     17.11079280	     20.62316115
     46.42990000	      3.68469108	     50.40122571	     17.95704565	     22.37019137
     46.46900000	     20.10577406	     53.47800351	     18.33109317	     23.49536017
     46.50810000	     37.60494925	     54.62179017	     18.07868187	     23.77167315
     46.54720000	     53.51974609	     53.69809169	     17.20826380	     23.16860232
     46.58630000	     66.11046736	     50.99645839	     15.86577594	     21.83578133
     46.62540000	     74.22832385	     46.96949244	     14.22686162	     19.98276988
     46.66450000	     75.52540122	     41.67070364	     12.32277710	     17.62623213
     46.70360000	     68.01230941	     34.88428024	     10.09724826	     14.66553723
     46.74270000	     56.17537045	     27.95048950	      7.93708629	     11.69720450
     46.78180000	     44.17952025	     21.85760787	      6.10708778	      9.13799594
     46.82090000	     32.72916013	     16.46038031	      4.53648200	      6.88036561
     46.86000000	     23.47421159	     12.11091323	      3.30295007	      5.07029221
