Joint Reaction Loads
version=1
nRows=51
nColumns=10
inDegrees=no

This file contains the reaction forces and moments
applied to the specified body of a joint pair and expressed  in the specified reference frame.

Units are S.I. units (seconds, meters, Newtons, ...)
endheader
time	patellofemoral_r_on_patella_r_in_patella_r_fx	patellofemoral_r_on_patella_r_in_patella_r_fy	patellofemoral_r_on_patella_r_in_patella_r_fz	patellofemoral_r_on_patella_r_in_patella_r_mx	patellofemoral_r_on_patella_r_in_patella_r_my	patellofemoral_r_on_patella_r_in_patella_r_mz	patellofemoral_r_on_patella_r_in_patella_r_px	patellofemoral_r_on_patella_r_in_patella_r_py	patellofemoral_r_on_patella_r_in_patella_r_pz
     12.15999535	   1078.68663176	   -144.45391633	     -5.26188141	     -5.34053710	      3.41564901	    -26.36318431	      0.00000000	      0.00000000	      0.00000000
     12.17666200	    727.88647948	   -117.08345757	    -14.37331763	     -3.94962480	      2.27367541	    -16.82128444	      0.00000000	      0.00000000	      0.00000000
     12.19332865	    472.32665771	    -86.32534095	    -16.74578615	     -2.83921067	      1.42220051	    -10.31585599	      0.00000000	      0.00000000	      0.00000000
     12.20999530	    319.22357129	    -62.49808320	    -15.45794627	     -2.11683178	      0.89398323	     -6.68261148	      0.00000000	      0.00000000	      0.00000000
     12.22666195	    260.20347963	    -51.67084740	    -13.93887282	     -1.82954436	      0.66842634	     -5.39159979	      0.00000000	      0.00000000	      0.00000000
     12.24332860	    281.53363056	    -52.79199409	    -12.14504223	     -1.90629312	      0.68690381	     -6.04800607	      0.00000000	      0.00000000	      0.00000000
     12.25999525	    360.65074388	    -56.35079499	     -7.37505781	     -2.17717860	      0.83857060	     -8.38939606	      0.00000000	      0.00000000	      0.00000000
     12.27666190	    475.11890406	    -50.10919548	      2.71630372	     -2.49060252	      1.01192491	    -12.15742556	      0.00000000	      0.00000000	      0.00000000
     12.29332855	    615.60740150	    -26.99867382	     18.24355400	     -2.80481303	      1.15470225	    -17.12820814	      0.00000000	      0.00000000	      0.00000000
     12.30999520	    787.08481108	     19.19742464	     38.55866555	     -3.16477065	      1.27926084	    -23.40612096	      0.00000000	      0.00000000	      0.00000000
     12.32666185	   1009.35506287	     95.97674627	     64.31225100	     -3.63847141	      1.42103112	    -31.48735940	      0.00000000	      0.00000000	      0.00000000
     12.34332850	   1274.00878448	    213.52000544	     95.34703522	     -4.20195603	      1.56583861	    -41.08163976	      0.00000000	      0.00000000	      0.00000000
     12.35999515	   1552.70775714	    374.86585319	    129.86002061	     -4.80417491	      1.68419417	    -51.16904701	      0.00000000	      0.00000000	      0.00000000
     12.37666180	   1815.16132874	    567.64907364	    165.41543703	     -5.32647249	      1.72716414	    -60.55841166	      0.00000000	      0.00000000	      0.00000000
     12.39332845	   2021.71264573	    743.91822711	    201.23173504	     -5.18287666	      1.56716287	    -67.96369317	      0.00000000	      0.00000000	      0.00000000
     12.40999510	   2142.31458696	    849.75354472	    234.08551199	     -5.13694416	      1.56713830	    -72.34239597	      0.00000000	      0.00000000	      0.00000000
     12.42666175	   2193.48130437	    880.86640539	    259.55898993	     -4.93907630	      1.54235291	    -74.42430795	      0.00000000	      0.00000000	      0.00000000
     12.44332840	   2182.56361351	    882.09157979	    269.06458526	     -4.86005165	      1.54931465	    -74.15301398	      0.00000000	      0.00000000	      0.00000000
     12.45999505	   2103.57006186	    849.28270033	    260.76501256	     -4.85036782	      1.57541969	    -71.34403811	      0.00000000	      0.00000000	      0.00000000
     12.47666170	   1967.57283531	    786.73966203	    237.48638375	     -4.84313548	      1.59947974	    -66.45106858	      0.00000000	      0.00000000	      0.00000000
     12.49332835	   1802.10381066	    708.45774850	    205.16245707	     -4.81955627	      1.61035149	    -60.48384256	      0.00000000	      0.00000000	      0.00000000
     12.50999500	   1635.30621301	    629.36425818	    169.47432001	     -4.80936636	      1.60987159	    -54.43760262	      0.00000000	      0.00000000	      0.00000000
     12.52666165	   1479.60496630	    553.84669010	    134.02490082	     -4.82284285	      1.59532580	    -48.77301329	      0.00000000	      0.00000000	      0.00000000
     12.54332830	   1314.43171147	    447.67708036	    102.66088628	     -4.76660666	      1.57645663	    -42.91020450	      0.00000000	      0.00000000	      0.00000000
     12.55999495	   1132.38268393	    327.93957091	     75.47964969	     -4.74104464	      1.67570436	    -36.47145416	      0.00000000	      0.00000000	      0.00000000
     12.57666160	    938.20697527	    204.12387077	     53.45826665	     -4.13280020	      1.51755212	    -29.71221388	      0.00000000	      0.00000000	      0.00000000
     12.59332825	    760.07006648	    109.87819986	     34.28438279	     -3.59054205	      1.37591201	    -23.43825356	      0.00000000	      0.00000000	      0.00000000
     12.60999490	    615.19825852	     44.30859088	     18.30371087	     -3.16886347	      1.33034470	    -18.25054501	      0.00000000	      0.00000000	      0.00000000
     12.62666155	    513.43904527	     -0.05885321	      4.83313232	     -2.89012413	      1.39584795	    -14.39860204	      0.00000000	      0.00000000	      0.00000000
     12.64332820	    425.93880366	    -29.56254153	     -7.15021460	     -2.63411012	      1.41305038	    -11.05986296	      0.00000000	      0.00000000	      0.00000000
     12.65999485	    340.70219801	    -44.86789361	    -16.24874837	     -2.37607896	      1.23298076	     -8.01195796	      0.00000000	      0.00000000	      0.00000000
     12.67666150	    255.35603738	    -45.78643153	    -19.69276901	     -2.11873879	      0.78095220	     -5.36414945	      0.00000000	      0.00000000	      0.00000000
     12.69332815	    189.07721428	    -39.39660861	    -17.92706483	     -1.96914578	      0.20201234	     -3.57421012	      0.00000000	      0.00000000	      0.00000000
     12.70999480	    221.21182639	    -46.29485484	    -21.06741786	     -2.31336409	      0.23803182	     -4.16789282	      0.00000000	      0.00000000	      0.00000000
     12.72666145	    528.67977353	    -90.40892532	    -41.81876701	     -3.85041968	      2.45120667	    -11.33781688	      0.00000000	      0.00000000	      0.00000000
     12.74332810	   1304.95994980	   -162.74949562	    -70.23201022	     -7.24846800	      8.32244522	    -31.14802566	      0.00000000	      0.00000000	      0.00000000
     12.75999475	   2557.86844614	   -192.04707154	    -74.04592764	    -12.55728183	     17.38494097	    -65.85787960	      0.00000000	      0.00000000	      0.00000000
     12.77666140	   3946.68352230	   -131.53221426	    -43.44914254	    -18.56658682	     26.58057004	   -106.50588732	      0.00000000	      0.00000000	      0.00000000
     12.79332805	   4978.61365594	    -31.88199608	     -4.64906833	    -23.19740795	     32.68959342	   -137.76305039	      0.00000000	      0.00000000	      0.00000000
     12.80999470	   5346.21727415	     14.14479400	     14.32341542	    -24.86188216	     34.41856363	   -149.15073120	      0.00000000	      0.00000000	      0.00000000
     12.82666135	   5033.30627278	    -22.05103509	      7.07629174	    -23.38903158	     32.06080375	   -139.73562372	      0.00000000	      0.00000000	      0.00000000
     12.84332800	   4213.80554615	    -98.30590718	    -15.34440942	    -19.67651700	     26.58425357	   -115.15405905	      0.00000000	      0.00000000	      0.00000000
     12.85999465	   3120.79192812	   -157.78380303	    -37.62068638	    -14.86783181	     19.32482922	    -83.05470593	      0.00000000	      0.00000000	      0.00000000
     12.87666130	   2008.48974879	   -169.75842835	    -48.35105151	     -9.99719502	     12.01499361	    -51.34927662	      0.00000000	      0.00000000	      0.00000000
     12.89332795	   1103.61562388	   -138.07742217	    -43.91782750	     -5.89840185	      6.21766522	    -26.55888303	      0.00000000	      0.00000000	      0.00000000
     12.90999460	    525.44822551	    -88.44288377	    -29.83220734	     -3.09629836	      2.62329905	    -11.61409982	      0.00000000	      0.00000000	      0.00000000
     12.92666125	    249.22242434	    -50.84020856	    -16.94273603	     -1.65044183	      0.93563909	     -4.99023653	      0.00000000	      0.00000000	      0.00000000
     12.94332790	    167.12692212	    -37.13858772	    -12.06839854	     -1.21474909	      0.41931057	     -3.09725147	      0.00000000	      0.00000000	      0.00000000
     12.95999455	    175.57731970	    -39.17640479	    -15.04238456	     -1.34388335	      0.43585133	     -3.19130387	      0.00000000	      0.00000000	      0.00000000
     12.97666120	    210.93480862	    -46.69768416	    -17.17452459	     -1.54725045	      0.57087824	     -3.87675310	      0.00000000	      0.00000000	      0.00000000
     12.99332785	    247.48252930	    -54.45826339	    -15.16828189	     -1.63387445	      0.65940159	     -4.68177553	      0.00000000	      0.00000000	      0.00000000
