FiberActivePower
version=1
nRows=51
nColumns=5
inDegrees=no

This analysis gathers basic information about muscles during a simulation (e.g., forces, tendon lengths, moment arms, etc).
Units are S.I. units (second, meters, Newtons, ...)
If the header above contains a line with 'inDegrees', this indicates whether rotational values are in degrees (yes) or radians (no).

endheader
time	recfem_r	vaslat_r	vasint_r	vasmed_r
     12.15999535	      8.32554383	     39.39327323	     10.57920188	     12.99517262
     12.17666200	     16.09769852	     34.82296719	      9.47664785	     11.88186663
     12.19332865	     10.52199542	     19.79837643	      5.58504263	      7.24208369
     12.20999530	      2.53769956	      5.80423646	      1.77681360	      2.44833298
     12.22666195	     -0.86761019	     -1.68318722	     -0.57901590	     -0.85707649
     12.24332860	     -2.44139545	     -7.57931726	     -2.66623727	     -3.97725901
     12.25999525	     -6.06474719	    -15.53773285	     -5.22785804	     -7.54653904
     12.27666190	     -9.42521119	    -21.87266116	     -7.23473281	    -10.19176563
     12.29332855	     -9.58869155	    -22.75619521	     -7.60986829	    -10.60644208
     12.30999520	     -7.92336261	    -20.60285763	     -7.06587171	     -9.84143635
     12.32666185	     -6.29759120	    -18.51551442	     -6.52615952	     -9.14764307
     12.34332850	     -4.42931222	    -14.81755441	     -5.38518232	     -7.54252679
     12.35999515	     -2.95791458	    -11.32085940	     -4.25670541	     -5.95372197
     12.37666180	     -1.84692790	     -8.68432883	     -3.29908641	     -4.61557885
     12.39332845	     -0.88221957	     -7.58679888	     -2.39002585	     -3.33619065
     12.40999510	     -0.16592609	     -6.16319605	     -1.84484857	     -2.75290547
     12.42666175	      0.30590029	     -4.69696965	     -1.41687035	     -2.14226431
     12.44332840	      0.72245007	     -2.91140924	     -0.88503810	     -1.35188747
     12.45999505	      1.07281728	     -0.82872497	     -0.25330031	     -0.38963286
     12.47666170	      1.40410547	      1.19612780	      0.36633340	      0.56577110
     12.49332835	      1.77414692	      2.85152489	      0.87015502	      1.34431934
     12.50999500	      2.15716490	      4.10806735	      1.23921942	      1.90839457
     12.52666165	      2.49092117	      5.07454884	      1.50947289	      2.31411559
     12.54332830	      2.92683932	      5.77898051	      1.85790201	      2.74083487
     12.55999495	      3.34015123	      6.07338495	      2.26883430	      3.34501644
     12.57666160	      3.71513476	      7.15127423	      2.82308542	      4.08125010
     12.59332825	      4.05309489	      9.83446938	      3.81623887	      5.43201134
     12.60999490	      4.30178247	     16.15494419	      5.28137771	      7.64591080
     12.62666155	      4.35513437	     25.79069891	      6.70461933	     10.18881695
     12.64332820	      4.18477775	     34.94247162	      7.66357476	     12.36889042
     12.65999485	      3.66344288	     31.94884932	      7.18853255	     11.60793171
     12.67666150	      2.50342550	     14.56152149	      5.51476287	      7.66129641
     12.69332815	      0.07841156	      0.53514101	      2.49183609	      2.58219639
     12.70999480	     -3.84006177	     -1.52199730	     -3.47683186	     -3.46240873
     12.72666145	     -7.65279408	    -58.38387465	    -13.37907697	    -19.35620776
     12.74332810	     -8.90654112	   -244.00821087	    -27.69497077	    -55.40844779
     12.75999475	     -7.31865484	   -453.61092872	    -44.21451944	    -97.59198312
     12.77666140	     -5.53091661	   -476.36709285	    -49.31929322	   -105.68588418
     12.79332805	     -5.22526873	   -282.92118210	    -32.23744307	    -65.22318371
     12.80999470	     -5.35541911	    -14.10842850	     -1.71136535	     -3.31583660
     12.82666135	     -5.17825391	    197.66489966	     24.40691880	     46.40239564
     12.84332800	     -4.79443442	    300.81830556	     36.63285435	     70.11825707
     12.85999465	     -3.30187339	    308.39659165	     36.56961736	     72.05481209
     12.87666130	     -0.42134104	    248.55436534	     28.70743552	     58.95598125
     12.89332795	      1.85591767	    154.99059747	     17.57708701	     37.48525128
     12.90999460	      2.11584829	     68.15454189	      7.97537456	     16.87152542
     12.92666125	      1.49973851	     17.92050417	      2.94991393	      4.96275404
     12.94332790	      0.91224592	      3.26950457	      1.66625222	      1.83184398
     12.95999455	     -0.62255232	      1.68360155	      0.88661633	      1.08728337
     12.97666120	     -3.89515605	     -3.20415478	     -1.26728236	     -1.73882119
     12.99332785	     -7.98744328	    -12.07216908	     -4.17590979	     -5.97219810
