MomentArm_knee_angle_r
version=1
nRows=51
nColumns=5
inDegrees=no

This analysis gathers basic information about muscles during a simulation (e.g., forces, tendon lengths, moment arms, etc).
Units are S.I. units (second, meters, Newtons, ...)
If the header above contains a line with 'inDegrees', this indicates whether rotational values are in degrees (yes) or radians (no).

endheader
time	recfem_r	vaslat_r	vasint_r	vasmed_r
     12.15999535	     -0.04628948	     -0.04265933	     -0.04126571	     -0.04022023
     12.17666200	     -0.04703694	     -0.04382413	     -0.04217630	     -0.04135389
     12.19332865	     -0.04779750	     -0.04487813	     -0.04319195	     -0.04256368
     12.20999530	     -0.04842026	     -0.04563272	     -0.04404607	     -0.04353371
     12.22666195	     -0.04851899	     -0.04574388	     -0.04418166	     -0.04368462
     12.24332860	     -0.04790022	     -0.04500845	     -0.04333195	     -0.04272537
     12.25999525	     -0.04680871	     -0.04350325	     -0.04190622	     -0.04102117
     12.27666190	     -0.04528892	     -0.04124426	     -0.04028503	     -0.03901440
     12.29332855	     -0.04240123	     -0.03759710	     -0.03748586	     -0.03582234
     12.30999520	     -0.03969022	     -0.03426830	     -0.03499878	     -0.03303727
     12.32666185	     -0.03826095	     -0.03236479	     -0.03391921	     -0.03177965
     12.34332850	     -0.03413583	     -0.02796075	     -0.03030715	     -0.02803081
     12.35999515	     -0.02964775	     -0.02341427	     -0.02645011	     -0.02415611
     12.37666180	     -0.02578370	     -0.02013010	     -0.02328136	     -0.02102467
     12.39332845	     -0.02186102	     -0.02023671	     -0.02005490	     -0.01785717
     12.40999510	     -0.01950312	     -0.02028393	     -0.01929816	     -0.01808943
     12.42666175	     -0.02066149	     -0.02120915	     -0.02040765	     -0.01922640
     12.44332840	     -0.02215807	     -0.02246211	     -0.02184196	     -0.02064066
     12.45999505	     -0.02313495	     -0.02328288	     -0.02277579	     -0.02154333
     12.47666170	     -0.02300948	     -0.02317614	     -0.02265441	     -0.02142660
     12.49332835	     -0.02184515	     -0.02219525	     -0.02153785	     -0.02034416
     12.50999500	     -0.02035203	     -0.02094699	     -0.02010289	     -0.01891885
     12.52666165	     -0.01970981	     -0.02017505	     -0.01914522	     -0.01792430
     12.54332830	     -0.02366714	     -0.02027758	     -0.02091242	     -0.01869693
     12.55999495	     -0.02756315	     -0.02059934	     -0.02404916	     -0.02178200
     12.57666160	     -0.03161000	     -0.02455220	     -0.02741930	     -0.02512027
     12.59332825	     -0.03613230	     -0.02928378	     -0.03141615	     -0.02916742
     12.60999490	     -0.03961290	     -0.03323762	     -0.03452691	     -0.03244224
     12.62666155	     -0.04092082	     -0.03522421	     -0.03563108	     -0.03376546
     12.64332820	     -0.04439364	     -0.03964110	     -0.03910098	     -0.03763144
     12.65999485	     -0.04649157	     -0.04281008	     -0.04137392	     -0.04035605
     12.67666150	     -0.04789240	     -0.04489955	     -0.04321474	     -0.04259008
     12.69332815	     -0.04890213	     -0.04606310	     -0.04460225	     -0.04414959
     12.70999480	     -0.04889262	     -0.04606371	     -0.04460311	     -0.04415053
     12.72666145	     -0.04791213	     -0.04495738	     -0.04327671	     -0.04266171
     12.74332810	     -0.04662270	     -0.04310834	     -0.04159532	     -0.04063370
     12.75999475	     -0.04514752	     -0.04082871	     -0.03998633	     -0.03865918
     12.77666140	     -0.04320882	     -0.03827022	     -0.03802871	     -0.03642324
     12.79332805	     -0.04167417	     -0.03638720	     -0.03651764	     -0.03475295
     12.80999470	     -0.04123294	     -0.03583646	     -0.03608985	     -0.03427821
     12.82666135	     -0.04153534	     -0.03621762	     -0.03638477	     -0.03460573
     12.84332800	     -0.04251132	     -0.03742780	     -0.03734870	     -0.03567109
     12.85999465	     -0.04395793	     -0.03924759	     -0.03879823	     -0.03728691
     12.87666130	     -0.04532610	     -0.04112343	     -0.04019881	     -0.03891135
     12.89332795	     -0.04650540	     -0.04293916	     -0.04146847	     -0.04047471
     12.90999460	     -0.04777654	     -0.04478598	     -0.04309488	     -0.04245089
     12.92666125	     -0.04925240	     -0.04643696	     -0.04520263	     -0.04480067
     12.94332790	     -0.04992919	     -0.04680298	     -0.04656312	     -0.04617182
     12.95999455	     -0.05012054	     -0.04670763	     -0.04714938	     -0.04669459
     12.97666120	     -0.05003865	     -0.04674990	     -0.04699415	     -0.04656119
     12.99332785	     -0.04975854	     -0.04679481	     -0.04632603	     -0.04594697
