TendonLength
version=1
nRows=51
nColumns=5
inDegrees=no

This analysis gathers basic information about muscles during a simulation (e.g., forces, tendon lengths, moment arms, etc).
Units are S.I. units (second, meters, Newtons, ...)
If the header above contains a line with 'inDegrees', this indicates whether rotational values are in degrees (yes) or radians (no).

endheader
time	recfem_r	vaslat_r	vasint_r	vasmed_r
     12.15999535	      0.47640649	      0.24155702	      0.22089248	      0.21892268
     12.17666200	      0.47640649	      0.24155702	      0.22089248	      0.21892268
     12.19332865	      0.47640649	      0.24155702	      0.22089248	      0.21892268
     12.20999530	      0.47640649	      0.24155702	      0.22089248	      0.21892268
     12.22666195	      0.47640649	      0.24155702	      0.22089248	      0.21892268
     12.24332860	      0.47640649	      0.24155702	      0.22089248	      0.21892268
     12.25999525	      0.47640649	      0.24155702	      0.22089248	      0.21892268
     12.27666190	      0.47640649	      0.24155702	      0.22089248	      0.21892268
     12.29332855	      0.47640649	      0.24155702	      0.22089248	      0.21892268
     12.30999520	      0.47640649	      0.24155702	      0.22089248	      0.21892268
     12.32666185	      0.47640649	      0.24155702	      0.22089248	      0.21892268
     12.34332850	      0.47640649	      0.24155702	      0.22089248	      0.21892268
     12.35999515	      0.47640649	      0.24155702	      0.22089248	      0.21892268
     12.37666180	      0.47640649	      0.24155702	      0.22089248	      0.21892268
     12.39332845	      0.47640649	      0.24155702	      0.22089248	      0.21892268
     12.40999510	      0.47640649	      0.24155702	      0.22089248	      0.21892268
     12.42666175	      0.47640649	      0.24155702	      0.22089248	      0.21892268
     12.44332840	      0.47640649	      0.24155702	      0.22089248	      0.21892268
     12.45999505	      0.47640649	      0.24155702	      0.22089248	      0.21892268
     12.47666170	      0.47640649	      0.24155702	      0.22089248	      0.21892268
     12.49332835	      0.47640649	      0.24155702	      0.22089248	      0.21892268
     12.50999500	      0.47640649	      0.24155702	      0.22089248	      0.21892268
     12.52666165	      0.47640649	      0.24155702	      0.22089248	      0.21892268
     12.54332830	      0.47640649	      0.24155702	      0.22089248	      0.21892268
     12.55999495	      0.47640649	      0.24155702	      0.22089248	      0.21892268
     12.57666160	      0.47640649	      0.24155702	      0.22089248	      0.21892268
     12.59332825	      0.47640649	      0.24155702	      0.22089248	      0.21892268
     12.60999490	      0.47640649	      0.24155702	      0.22089248	      0.21892268
     12.62666155	      0.47640649	      0.24155702	      0.22089248	      0.21892268
     12.64332820	      0.47640649	      0.24155702	      0.22089248	      0.21892268
     12.65999485	      0.47640649	      0.24155702	      0.22089248	      0.21892268
     12.67666150	      0.47640649	      0.24155702	      0.22089248	      0.21892268
     12.69332815	      0.47640649	      0.24155702	      0.22089248	      0.21892268
     12.70999480	      0.47640649	      0.24155702	      0.22089248	      0.21892268
     12.72666145	      0.47640649	      0.24155702	      0.22089248	      0.21892268
     12.74332810	      0.47640649	      0.24155702	      0.22089248	      0.21892268
     12.75999475	      0.47640649	      0.24155702	      0.22089248	      0.21892268
     12.77666140	      0.47640649	      0.24155702	      0.22089248	      0.21892268
     12.79332805	      0.47640649	      0.24155702	      0.22089248	      0.21892268
     12.80999470	      0.47640649	      0.24155702	      0.22089248	      0.21892268
     12.82666135	      0.47640649	      0.24155702	      0.22089248	      0.21892268
     12.84332800	      0.47640649	      0.24155702	      0.22089248	      0.21892268
     12.85999465	      0.47640649	      0.24155702	      0.22089248	      0.21892268
     12.87666130	      0.47640649	      0.24155702	      0.22089248	      0.21892268
     12.89332795	      0.47640649	      0.24155702	      0.22089248	      0.21892268
     12.90999460	      0.47640649	      0.24155702	      0.22089248	      0.21892268
     12.92666125	      0.47640649	      0.24155702	      0.22089248	      0.21892268
     12.94332790	      0.47640649	      0.24155702	      0.22089248	      0.21892268
     12.95999455	      0.47640649	      0.24155702	      0.22089248	      0.21892268
     12.97666120	      0.47640649	      0.24155702	      0.22089248	      0.21892268
     12.99332785	      0.47640649	      0.24155702	      0.22089248	      0.21892268
