FiberPassivePower
version=1
nRows=51
nColumns=5
inDegrees=no

This analysis gathers basic information about muscles during a simulation (e.g., forces, tendon lengths, moment arms, etc).
Units are S.I. units (second, meters, Newtons, ...)
If the header above contains a line with 'inDegrees', this indicates whether rotational values are in degrees (yes) or radians (no).

endheader
time	recfem_r	vaslat_r	vasint_r	vasmed_r
     12.76666105	     13.97405403	     14.71795762	      5.38705079	      8.32968729
     12.78399437	      8.42516556	      8.28241349	      3.06687769	      4.76161100
     12.80132768	      1.98760446	      2.07132361	      0.77373078	      1.20329313
     12.81866100	     -5.84820817	     -4.65515599	     -1.73659289	     -2.70016995
     12.83599431	    -15.60719380	    -12.41177629	     -4.57643124	     -7.09706579
     12.85332763	    -27.99833460	    -21.25731602	     -7.73079546	    -11.89846735
     12.87066095	    -43.99295404	    -30.73970909	    -11.13602100	    -16.87904115
     12.88799426	    -66.46374257	    -41.38060889	    -15.21298960	    -22.57173351
     12.90532758	    -96.20093298	    -52.77889743	    -19.96358087	    -28.88331061
     12.92266089	   -129.26681202	    -63.58531051	    -24.95319871	    -35.07516695
     12.93999421	   -167.25163673	    -77.55699833	    -31.80689606	    -43.61103106
     12.95732753	   -175.08299154	    -82.86371019	    -35.91178923	    -47.79102210
     12.97466084	   -134.86858578	    -77.23331443	    -35.71824984	    -46.10090443
     12.99199416	    -61.67249937	    -65.41205495	    -32.34204830	    -40.64673802
     13.00932747	     18.43644722	    -55.63080279	    -26.30455877	    -32.28287173
     13.02666079	     81.08117762	    -42.90724701	    -18.41280143	    -22.50322715
     13.04399411	    113.41724324	    -26.50293967	    -11.05584153	    -13.92816559
     13.06132742	    121.17078550	     -7.89805537	     -3.30344403	     -4.15894469
     13.07866074	    114.15381252	     11.12134999	      4.65039999	      5.85502190
     13.09599405	     99.56479983	     28.41611445	     11.84684886	     14.92773922
     13.11332737	     84.57661554	     42.96227419	     18.64251616	     22.53022930
     13.13066069	     72.99533769	     53.83370016	     25.65381945	     31.54114755
     13.14799400	     64.74168042	     62.84424954	     31.00471178	     38.99819661
     13.16532732	     58.61818185	     74.01692897	     34.25207546	     44.19683400
     13.18266063	     51.81271671	     80.35690081	     34.91936975	     46.40538905
     13.19999395	     41.56718608	     76.99221492	     31.67984805	     43.35997873
     13.21732727	     29.25108518	     63.54559164	     25.02247698	     35.09397701
     13.23466058	     19.92462388	     51.09825234	     19.40073503	     27.97897678
     13.25199390	     12.20482808	     36.65172186	     13.54822931	     20.00105913
     13.26932721	      6.32993518	     22.36691250	      8.13779054	     12.21711674
     13.28666053	      1.87795687	      9.72715139	      3.52370854	      5.34181376
     13.30399385	     -2.01995183	     -1.50654232	     -0.54554146	     -0.82905307
     13.32132716	     -6.05438285	    -11.84979213	     -4.29458068	     -6.49929380
     13.33866048	    -10.42248219	    -21.21263245	     -7.72938349	    -11.57915810
     13.35599379	    -14.44034990	    -28.26127024	    -10.44177862	    -15.42168077
     13.37332711	    -16.66177624	    -30.60539088	    -11.51411444	    -16.73608091
     13.39066043	    -16.37623170	    -26.57602083	    -10.18059384	    -14.57169348
     13.40799374	    -14.81732088	    -17.16576266	     -6.66951077	     -9.44098045
     13.42532706	    -13.22208392	     -4.38324377	     -1.71498417	     -2.41557481
     13.44266037	    -11.46533257	      9.17163326	      3.58266988	      5.05192326
     13.45999369	     -8.48044157	     20.73723613	      8.02157677	     11.39268495
     13.47732701	     -3.45960948	     28.46841476	     10.83937350	     15.59452513
     13.49466032	      2.45041659	     31.15869131	     11.64616993	     17.02409139
     13.51199364	      6.96738092	     29.05060386	     10.66265550	     15.84448807
     13.52932695	      8.79238008	     23.88064769	      8.66265615	     13.07706836
     13.54666027	      7.63361693	     17.32500266	      6.27688254	      9.59677235
     13.56399359	      3.50476424	     10.27513487	      3.74163232	      5.76579465
     13.58132690	     -3.19563452	      3.21652857	      1.17683935	      1.81929698
     13.59866022	    -12.35604333	     -3.78615438	     -1.38413247	     -2.13880141
     13.61599353	    -24.88132865	    -11.16664436	     -4.06018757	     -6.24761796
     13.63332685	    -42.03181071	    -19.39474160	     -7.02400163	    -10.71969547
