FiberForce
version=1
nRows=51
nColumns=5
inDegrees=no

This analysis gathers basic information about muscles during a simulation (e.g., forces, tendon lengths, moment arms, etc).
Units are S.I. units (second, meters, Newtons, ...)
If the header above contains a line with 'inDegrees', this indicates whether rotational values are in degrees (yes) or radians (no).

endheader
time	recfem_r	vaslat_r	vasint_r	vasmed_r
     12.76666105	    641.02237149	    149.40185776	     58.60340891	     93.00771971
     12.78399437	    475.07761068	    142.38764443	     53.67259520	     86.97849616
     12.80132768	    315.12770789	    140.16963687	     50.78855035	     83.91868402
     12.81866100	    190.31013775	    144.86105843	     51.08733545	     85.33896505
     12.83599431	    130.67823861	    156.56080624	     54.69873833	     91.35387059
     12.85332763	    138.37953326	    174.17996091	     61.01870122	    101.14216497
     12.87066095	    184.42923723	    196.36433618	     69.25400680	    113.67895863
     12.88799426	    243.00516795	    223.18458643	     79.33850535	    128.93969922
     12.90532758	    312.52359500	    255.16184136	     91.66949633	    147.37983868
     12.92266089	    404.27816093	    292.34127891	    106.61621477	    169.18822055
     12.93999421	    529.23931072	    337.22972712	    125.56436291	    196.13406212
     12.95732753	    679.36548698	    386.84698720	    147.94693566	    226.96777919
     12.97466084	    815.89709917	    434.99129300	    171.31644834	    258.06142694
     12.99199416	    901.33126280	    477.47903174	    193.48859484	    286.67759667
     13.00932747	    917.98617932	    513.56473810	    212.56562217	    310.63119415
     13.02666079	    870.59911816	    543.18459569	    226.88243271	    328.18621094
     13.04399411	    781.83282022	    563.27895581	    236.07779948	    339.81135263
     13.06132742	    676.97223898	    572.08330250	    240.26503817	    345.00204269
     13.07866074	    573.36746222	    568.75461659	    239.07126872	    343.29767611
     13.09599405	    480.98385385	    553.86950815	    232.74797688	    335.02900740
     13.11332737	    402.42203059	    528.97586051	    221.79569199	    321.07631076
     13.13066069	    334.97898648	    496.02564131	    205.89623273	    301.13013612
     13.14799400	    275.00600860	    457.03531389	    185.81332607	    275.33404866
     13.16532732	    220.26090692	    409.43396340	    162.97968085	    245.18589285
     13.18266063	    170.47893128	    355.38577233	    138.83397127	    212.32657219
     13.19999395	    128.27614313	    301.63566080	    115.63730970	    179.94551249
     13.21732727	     97.33742906	    258.18788067	     96.39490391	    152.86924544
     13.23466058	     75.97509479	    224.42503424	     80.72564641	    130.85464519
     13.25199390	     63.99041426	    197.52856630	     69.38886180	    114.73884528
     13.26932721	     60.53333710	    173.15003866	     63.86225301	    105.65564207
     13.28666053	     61.94657510	    157.92797765	     65.58533354	    105.05209775
     13.30399385	     62.80413791	    198.36749743	     76.52606043	    118.76095794
     13.32132716	     62.88545743	    397.28550846	    100.76907832	    162.03011165
     13.33866048	     76.82271268	    877.06473662	    147.75420254	    262.02493726
     13.35599379	    128.91564846	   1683.65765429	    229.35213446	    446.28044023
     13.37332711	    226.29926242	   2699.77197618	    344.92472835	    712.19338650
     13.39066043	    343.57267450	   3669.77537959	    469.43504960	   1002.49475250
     13.40799374	    448.19736484	   4339.90797511	    564.00964268	   1222.28431244
     13.42532706	    525.61360711	   4560.47118647	    596.71072932	   1287.75186444
     13.44266037	    572.66656464	   4313.99407694	    557.28579577	   1180.32203031
     13.45999369	    580.94792409	   3685.60505233	    459.02509403	    958.97784300
     13.47732701	    537.80671884	   2817.73547263	    331.19512074	    712.01950627
     13.49466032	    446.15603159	   1892.36655642	    208.97118373	    499.19433967
     13.51199364	    331.19658788	   1083.21935143	    118.72992787	    333.32674037
     13.52932695	    226.36025495	    506.46671828	     68.67932460	    207.93937341
     13.54666027	    156.74902544	    195.63487316	     50.78952824	    123.67167599
     13.56399359	    129.07042991	     99.62681183	     50.10327379	     83.23970874
     13.58132690	    133.24207927	    120.33181663	     54.53314977	     78.00704829
     13.59866022	    152.52258995	    166.18382934	     58.59019007	     89.31077137
     13.61599353	    175.19788597	    188.00490186	     61.74136528	    100.58338883
     13.63332685	    199.66688370	    183.01161073	     64.78812682	    106.68625329
