FiberForce
version=1
nRows=51
nColumns=5
inDegrees=no

This analysis gathers basic information about muscles during a simulation (e.g., forces, tendon lengths, moment arms, etc).
Units are S.I. units (second, meters, Newtons, ...)
If the header above contains a line with 'inDegrees', this indicates whether rotational values are in degrees (yes) or radians (no).

endheader
time	recfem_r	vaslat_r	vasint_r	vasmed_r
     14.19999493	    752.44946095	    581.97534586	    137.35920089	    233.36273940
     14.21412825	    537.66544917	    419.86236591	    104.59303370	    177.65990109
     14.22826157	    372.02432404	    286.89201776	     77.97459814	    132.08703996
     14.24239489	    262.86181425	    196.42938072	     60.50964865	    101.85836864
     14.25652821	    208.57673823	    152.13511665	     53.06075338	     88.55219047
     14.27066153	    203.66105653	    149.44358321	     54.69375311	     90.51305380
     14.28479485	    235.03086078	    175.46664017	     62.91360120	    103.31664161
     14.29892816	    286.94953475	    214.60802668	     74.96259013	    122.05063541
     14.31306148	    353.15067410	    256.56969824	     89.24210407	    143.70936927
     14.32719480	    441.20014338	    299.71399922	    105.88492230	    168.08010726
     14.34132812	    568.49388455	    349.90618758	    126.94425698	    197.98504480
     14.35546144	    736.14516835	    407.29348854	    152.43769439	    232.98222392
     14.36959476	    915.41438199	    467.71134779	    180.63669643	    270.38831400
     14.38372808	   1068.38285710	    525.68317540	    209.20654261	    307.06542719
     14.39786140	   1162.63900791	    575.80112153	    235.51696899	    339.74236226
     14.41199472	   1178.86202418	    616.40755922	    256.97874429	    365.47581838
     14.42612804	   1119.92973784	    647.00701437	    272.44491783	    383.43462432
     14.44026136	   1003.68811266	    666.12368989	    281.75782105	    394.21465330
     14.45439468	    852.57708461	    672.06509740	    284.73189440	    397.64727400
     14.46852799	    690.48541608	    663.94273711	    281.19683322	    393.20444033
     14.48266131	    537.80655758	    642.39459723	    271.19252122	    381.24337425
     14.49679463	    406.62430785	    609.10382761	    254.98014122	    361.82688758
     14.51092795	    300.12194494	    565.94895199	    233.06310976	    334.89110162
     14.52506127	    216.73677685	    513.61555046	    206.94760934	    302.01103986
     14.53919459	    153.25689628	    454.37445329	    178.93785550	    266.01183947
     14.55332791	    105.71001531	    392.44736711	    150.56461128	    228.68342120
     14.56746123	     71.44482945	    332.67240055	    123.11187498	    191.34394628
     14.58159455	     49.79631548	    283.20183748	     99.12613449	    157.27486809
     14.59572787	     37.75853470	    241.69528818	     78.61475743	    126.19387202
     14.60986119	     32.71419101	    199.08114262	     61.50041429	     98.83288141
     14.62399451	     32.82627623	    145.61899627	     50.28344876	     81.98844504
     14.63812783	     34.57702226	     74.78222740	     49.34660309	     88.20879376
     14.65226114	     35.10248953	     24.10003725	     66.83886928	    137.01671332
     14.66639446	     36.49255430	    118.74674501	    110.38843573	    243.10127601
     14.68052778	     49.43160448	    531.02532883	    180.48973630	    404.12719506
     14.69466110	     92.42038585	   1340.13660886	    269.11097293	    604.29399967
     14.70879442	    183.72528014	   2402.63773931	    361.88204493	    819.32708824
     14.72292774	    326.51494563	   3393.18637337	    441.55358140	   1012.22642328
     14.73706106	    501.08969431	   4007.44437018	    492.01704353	   1135.26899233
     14.75119438	    670.21535110	   4088.85346864	    499.64903985	   1144.06578934
     14.76532770	    791.79267644	   3661.87252360	    460.65203203	   1029.74318756
     14.77946102	    829.59638110	   2888.61678595	    384.41622513	    826.79534474
     14.79359434	    765.37524676	   1985.32444183	    288.49795526	    590.09930482
     14.80772766	    617.98290730	   1161.85447154	    193.69266511	    372.99547123
     14.82186097	    435.86518734	    549.54119041	    116.19263455	    208.12685726
     14.83599429	    270.90286111	    190.28308258	     64.89485677	    106.98007620
     14.85012761	    156.85438884	     51.97572041	     40.72318719	     63.93106901
     14.86426093	    104.42458355	     56.78735002	     37.38471242	     61.01707738
     14.87839425	    105.72246608	    115.03589446	     44.82419526	     75.97049666
     14.89252757	    142.52042573	    161.56787362	     54.28958835	     91.72872109
     14.90666089	    197.03215229	    180.97618583	     62.45633586	    103.06871061
