ActiveFiberForce
version=1
nRows=51
nColumns=5
inDegrees=no

This analysis gathers basic information about muscles during a simulation (e.g., forces, tendon lengths, moment arms, etc).
Units are S.I. units (second, meters, Newtons, ...)
If the header above contains a line with 'inDegrees', this indicates whether rotational values are in degrees (yes) or radians (no).

endheader
time	recfem_r	vaslat_r	vasint_r	vasmed_r
    143.06000000	    292.11024717	    498.29180214	     98.77343726	    177.95894893
    143.07616000	    192.66248665	    328.90475163	     67.92552659	    121.38967421
    143.09232000	    112.14943762	    190.27055506	     42.66773358	     74.88696893
    143.10848000	     52.90559209	     96.35796486	     25.84797156	     43.67915228
    143.12464000	     13.79736025	     50.79336379	     18.25070568	     29.29376948
    143.14080000	     -1.12677743	     45.70537217	     18.23915727	     28.70968748
    143.15696000	     20.13612863	     61.45264779	     21.90726324	     34.80668145
    143.17312000	     88.04852722	     77.15993226	     25.28375555	     40.45973619
    143.18928000	    185.56622253	     82.79262764	     26.49720325	     42.41254601
    143.20544000	    257.78525579	     79.72278104	     25.75227772	     41.13694458
    143.22160000	    260.31538457	     74.45327689	     24.38438997	     39.00412219
    143.23776000	    195.04107383	     69.12625970	     22.66831010	     36.50581906
    143.25392000	    110.44115764	     64.42219819	     20.89108824	     34.00348820
    143.27008000	     45.85090766	     60.53899432	     19.32379859	     31.78747060
    143.28624000	     11.86867814	     57.61801813	     18.00374619	     29.78604710
    143.30240000	      1.40795070	     54.80288573	     17.03488126	     28.17527594
    143.31856000	      3.24906524	     52.39920559	     16.55806782	     27.04986251
    143.33472000	      9.76804171	     50.64562863	     16.35789707	     26.35085672
    143.35088000	     18.32992208	     49.63072187	     16.30208435	     26.10696042
    143.36704000	     30.54547303	     49.23708566	     16.20657941	     26.15165587
    143.38320000	     47.73055470	     49.06714510	     15.75394246	     25.99520786
    143.39936000	     65.98059888	     48.54144431	     15.09861094	     25.36062646
    143.41552000	     75.98998817	     45.89655389	     14.42000064	     24.37683585
    143.43168000	     70.61359604	     42.24591339	     13.89046210	     23.29386550
    143.44784000	     54.81700131	     40.68780564	     14.09188339	     23.31813534
    143.46400000	     36.47415720	     43.80864510	     15.02833243	     24.80720351
    143.48016000	     22.76529940	     52.68206434	     16.42830434	     27.45172119
    143.49632000	     18.01557479	     65.46912586	     18.28027739	     30.86476844
    143.51248000	     21.23672187	     67.77994167	     18.99620017	     31.50817429
    143.52864000	     27.79313844	     38.65805849	     17.06006232	     26.13417492
    143.54480000	     27.49508294	    -12.24670217	     15.00292459	     20.48178534
    143.56096000	     15.81414092	      3.31089459	     23.20249003	     37.45675443
    143.57712000	     10.79047039	    225.17888901	     53.72811697	    105.52081470
    143.59328000	     59.69884354	    721.59319273	    107.15201788	    230.46280555
    143.60944000	    211.62437927	   1391.14361612	    168.22678759	    381.59069333
    143.62560000	    466.41495432	   2027.51039836	    219.54303152	    515.43117017
    143.64176000	    760.31857389	   2462.83966842	    255.02285576	    606.79837493
    143.65792000	    994.86895866	   2635.02923264	    277.33020910	    653.55501535
    143.67408000	   1083.38061736	   2576.86300385	    287.38507915	    662.51429326
    143.69024000	   1005.02375328	   2358.84668855	    278.79823229	    633.38690938
    143.70640000	    824.30761365	   2028.64541622	    243.50860883	    557.09579926
    143.72256000	    637.12779852	   1603.88423751	    183.14113478	    432.44686638
    143.73872000	    494.20138110	   1117.10496203	    113.30047015	    282.07739773
    143.75488000	    384.89632759	    646.05485221	     55.19026243	    146.16120582
    143.77104000	    280.98564009	    283.81630812	     21.86499242	     57.05838067
    143.78720000	    176.92694840	     79.96139734	     11.86583069	     20.26976257
    143.80336000	     89.20918383	     15.62778102	     14.75552254	     18.58158524
    143.81952000	     33.62883220	     30.11178917	     20.57272035	     29.76974382
    143.83568000	     12.33024843	     62.95238247	     24.35726555	     39.21158965
    143.85184000	     15.33558926	     78.66998763	     25.25563298	     41.77628179
    143.86800000	     28.67342191	     72.72339154	     24.21520328	     38.77946872
