FiberActivePower
version=1
nRows=51
nColumns=5
inDegrees=no

This analysis gathers basic information about muscles during a simulation (e.g., forces, tendon lengths, moment arms, etc).
Units are S.I. units (second, meters, Newtons, ...)
If the header above contains a line with 'inDegrees', this indicates whether rotational values are in degrees (yes) or radians (no).

endheader
time	recfem_r	vaslat_r	vasint_r	vasmed_r
    143.06000000	     33.74242917	    106.47560293	     21.44683140	     34.34308960
    143.07616000	     29.98985288	     76.57894973	     15.80889457	     25.27896012
    143.09232000	     17.66655608	     41.86164200	      9.25368602	     14.60255892
    143.10848000	      5.45730029	     15.68835077	      4.13833956	      6.30150084
    143.12464000	     -0.00621416	      3.53764081	      1.26287586	      1.82248698
    143.14080000	     -0.04203821	     -2.12470535	     -0.83781232	     -1.18257512
    143.15696000	     -5.92006300	    -10.31570079	     -3.63032553	     -5.15737734
    143.17312000	    -32.89563014	    -20.83272761	     -6.80357010	     -9.69472890
    143.18928000	    -79.14046597	    -28.00777788	     -9.08673987	    -12.88115449
    143.20544000	   -109.74809958	    -28.73183232	     -9.60664750	    -13.47174758
    143.22160000	   -103.45467804	    -27.61883820	     -9.59989230	    -13.42301549
    143.23776000	    -60.05362545	    -23.19872286	     -8.34020654	    -11.65058625
    143.25392000	    -18.44243622	    -16.97921271	     -6.29759785	     -8.78915245
    143.27008000	     -0.88468727	    -11.65676991	     -4.45165297	     -6.21968844
    143.28624000	      1.16706760	     -8.46649725	     -2.89852929	     -4.03486125
    143.30240000	     -0.16931808	     -5.48143197	     -1.65424448	     -2.39283537
    143.31856000	      0.11555977	     -2.67330611	     -0.81774297	     -1.18143543
    143.33472000	      1.85248728	     -0.08174867	     -0.02559839	     -0.03657822
    143.35088000	      4.25297944	      2.24747132	      0.71486668	      1.01598584
    143.36704000	      7.70718050	      4.32633077	      1.37430240	      1.96658170
    143.38320000	     12.95926344	      6.25011522	      2.14255224	      3.02149648
    143.39936000	     19.53523871	      7.98488997	      2.89042091	      4.21913969
    143.41552000	     25.34426597	     10.30468315	      3.59216427	      5.36539676
    143.43168000	     27.26749510	     12.12003364	      4.26041320	      6.42136570
    143.44784000	     22.61046180	     13.17442113	      4.79304272	      7.17786362
    143.46400000	     14.40095210	     14.92817235	      5.25308031	      7.86854665
    143.48016000	      7.67442949	     17.90685330	      5.52732014	      8.42142946
    143.49632000	      4.56737530	     17.96675865	      4.88628540	      7.50355272
    143.51248000	      3.02769558	     10.10889187	      2.80377439	      4.19821922
    143.52864000	     -0.72989609	     -0.19001161	     -0.08405934	     -0.11549779
    143.54480000	     -5.67692003	      1.36443622	     -2.27557115	     -2.80267494
    143.56096000	     -5.93403761	     -1.76527472	     -5.61178210	     -8.09272822
    143.57712000	     -5.31355491	    -58.19974074	    -13.90976886	    -24.28178932
    143.59328000	    -21.91557669	   -160.05998290	    -24.05191081	    -45.97107317
    143.60944000	    -61.32916596	   -217.44534184	    -26.79209362	    -53.92031019
    143.62560000	   -102.16916711	   -179.26255176	    -19.88603784	    -41.33666582
    143.64176000	   -127.53704338	    -85.39761100	     -9.08603079	    -19.12194627
    143.65792000	   -136.90137374	     10.47208751	      1.13293487	      2.36141278
    143.67408000	   -129.36712051	     87.17046494	      9.97587648	     20.35520715
    143.69024000	   -102.74438290	    144.86621526	     17.50721419	     35.25614238
    143.70640000	    -66.52864912	    180.84414433	     22.07901134	     44.88194041
    143.72256000	    -35.95514542	    184.40255300	     21.26762661	     44.75565035
    143.73872000	    -16.40460342	    151.60711982	     15.38745193	     34.27419186
    143.75488000	     -5.02994705	     96.35555212	      8.11809551	     19.36234439
    143.77104000	      0.62543032	     43.28408570	      3.19725607	      7.62072187
    143.78720000	      1.35044599	     11.13956751	      1.56706615	      2.42718622
    143.80336000	     -0.54992396	      1.53236690	      1.58751370	      1.77833404
    143.81952000	     -1.61040715	      1.69151443	      1.17448653	      1.52501960
    143.83568000	     -1.55901217	     -1.32000609	     -0.50857069	     -0.73471092
    143.85184000	     -3.48701766	     -9.36813665	     -2.98904481	     -4.42632690
    143.86800000	     -9.16373217	    -16.61109601	     -5.47627138	     -7.83697135
