MuscleActuatorPower
version=1
nRows=51
nColumns=5
inDegrees=no

This analysis gathers basic information about muscles during a simulation (e.g., forces, tendon lengths, moment arms, etc).
Units are S.I. units (second, meters, Newtons, ...)
If the header above contains a line with 'inDegrees', this indicates whether rotational values are in degrees (yes) or radians (no).

endheader
time	recfem_r	vaslat_r	vasint_r	vasmed_r
    143.06000000	     48.00920529	    141.05282547	     34.70505450	     53.32628594
    143.07616000	     46.82217457	    108.85844300	     27.89641204	     42.94776979
    143.09232000	     32.58581882	     68.20492527	     18.93177194	     28.99873480
    143.10848000	     14.26847256	     33.01988392	     10.43903127	     15.80228516
    143.12464000	     -0.04230446	     10.35209460	      3.73388996	      5.57734485
    143.14080000	    -11.22982318	     -6.43437925	     -2.40040860	     -3.55881807
    143.15696000	    -31.83052082	    -26.49787352	     -9.50843437	    -14.03632410
    143.17312000	    -79.82785923	    -50.35207277	    -17.63980073	    -25.82633637
    143.18928000	   -155.59019703	    -72.35261491	    -25.75502216	    -37.16470799
    143.20544000	   -220.09573171	    -87.00479089	    -32.27795163	    -45.55730782
    143.22160000	   -249.55501134	   -102.00931516	    -39.85454854	    -55.10720959
    143.23776000	   -213.16485264	   -106.92804832	    -44.37546564	    -59.78652751
    143.25392000	   -120.11602316	    -96.77166750	    -43.09429397	    -56.30883623
    143.27008000	    -13.74540251	    -79.61544909	    -38.15924230	    -48.48232074
    143.28624000	     71.65170586	    -66.58495141	    -30.03409945	    -37.16487842
    143.30240000	    114.55887968	    -48.75329139	    -19.77306344	    -25.05447832
    143.31856000	    117.67968348	    -26.17666655	    -10.64494542	    -13.52687936
    143.33472000	    102.68164119	     -0.85129556	     -0.34803789	     -0.44149520
    143.35088000	     85.01172803	     23.92088333	      9.77942397	     12.40269510
    143.36704000	     71.66136803	     45.27299450	     18.41992151	     23.41451772
    143.38320000	     64.76321573	     62.38946539	     28.04991652	     34.56730871
    143.39936000	     62.34367304	     74.76889463	     36.27063681	     45.94891695
    143.41552000	     61.48770762	     92.74299245	     41.84079304	     54.62993560
    143.43168000	     57.72750472	    104.01633680	     43.84441435	     59.27315802
    143.44784000	     45.43476757	     97.66933064	     38.96296984	     54.39814669
    143.46400000	     29.83140828	     82.56281102	     31.24352719	     45.01326261
    143.48016000	     17.23502635	     66.99741234	     23.67878922	     35.25947935
    143.49632000	      9.59504494	     47.37730126	     15.55680468	     23.67613250
    143.51248000	      5.01932298	     23.17839156	      7.55246610	     11.49500357
    143.52864000	     -1.04365354	     -0.58035033	     -0.22630051	     -0.33486692
    143.54480000	     -8.24291445	    -10.62904699	     -6.63359277	     -9.49992084
    143.56096000	    -11.16083380	    -23.55087589	    -13.51110952	    -20.10098960
    143.57712000	    -13.61176256	    -86.40522661	    -24.22147878	    -39.70093269
    143.59328000	    -32.87475671	   -188.87953784	    -34.78018029	    -61.73620406
    143.60944000	    -73.37140641	   -240.59429809	    -35.56089176	    -66.60894233
    143.62560000	   -113.66529386	   -193.51338423	    -25.35498579	    -49.16150499
    143.64176000	   -137.98993151	    -91.23266968	    -11.34152460	    -22.33002307
    143.65792000	   -146.69596128	     11.14838300	      1.39484969	      2.73338598
    143.67408000	   -138.86357713	     92.85442530	     12.17218444	     23.47998439
    143.69024000	   -111.69184571	    154.85736773	     21.34652325	     40.74323501
    143.70640000	    -74.17896646	    194.63460538	     27.33511139	     52.44690834
    143.72256000	    -41.63947240	    201.03217392	     27.54212970	     53.86633652
    143.73872000	    -19.88660171	    169.69707587	     22.13667055	     44.17216083
    143.75488000	     -6.42959852	    114.47795633	     14.80118037	     29.26807017
    143.77104000	      0.86446420	     60.10399841	      9.33561976	     16.81995577
    143.78720000	      2.16252152	     25.33711578	      6.71903264	     10.23087571
    143.80336000	     -1.20162664	     11.77341762	      5.30093346	      7.45063082
    143.81952000	     -6.73645961	      6.65822479	      2.97790244	      4.29260311
    143.83568000	    -15.13942678	     -3.09266455	     -1.15224802	     -1.72259868
    143.85184000	    -30.80793031	    -19.78914785	     -6.76771854	    -10.19830040
    143.86800000	    -56.60272834	    -37.92393258	    -13.21062890	    -19.55016742
