PassiveFiberForceAlongTendon
version=1
nRows=51
nColumns=5
inDegrees=no

This analysis gathers basic information about muscles during a simulation (e.g., forces, tendon lengths, moment arms, etc).
Units are S.I. units (second, meters, Newtons, ...)
If the header above contains a line with 'inDegrees', this indicates whether rotational values are in degrees (yes) or radians (no).

endheader
time	recfem_r	vaslat_r	vasint_r	vasmed_r
    143.06000000	    119.72670133	    152.08795513	     58.71367717	     88.30574273
    143.07616000	    103.64550422	    128.36738924	     49.19754884	     74.82987003
    143.09232000	     89.82284440	    109.21316106	     41.64858345	     63.95187861
    143.10848000	     80.84421921	     96.38634403	     36.62286468	     56.58207734
    143.12464000	     78.63389343	     90.62079703	     34.31542135	     53.11430232
    143.14080000	     84.78473563	     92.03821461	     34.76372833	     53.68753329
    143.15696000	    101.54215950	    100.72460419	     38.01556200	     58.40124079
    143.17312000	    133.01362109	    117.20474651	     44.32886036	     67.57256293
    143.18928000	    185.60591223	    142.33643281	     54.21363064	     81.76972886
    143.20544000	    265.07837020	    176.12560828	     67.96309464	    101.10113452
    143.22160000	    373.78642966	    219.06619670	     86.16133348	    126.05349089
    143.23776000	    503.92314777	    270.43433342	    109.09579155	    156.71070371
    143.25392000	    614.69883551	    322.51144943	    133.91218690	    188.84191093
    143.27008000	    663.57047667	    369.12099489	    157.77979689	    218.82091196
    143.28624000	    636.99735380	    408.54749718	    178.34207575	    243.96052317
    143.30240000	    555.01203943	    440.62225264	    193.44985980	    262.14825423
    143.31856000	    454.24295586	    461.38830726	    202.75058803	    273.70316566
    143.33472000	    360.78985351	    468.36024640	    205.95691371	    277.65185252
    143.35088000	    283.49822856	    460.65844398	    202.63751722	    273.47348787
    143.36704000	    221.89358017	    439.51803463	    193.36929251	    261.88409479
    143.38320000	    172.35886125	    407.25802210	    178.36153452	    243.74875259
    143.39936000	    131.56559487	    367.07530120	    157.55761735	    218.26069640
    143.41552000	     97.29561429	    317.51069012	    132.45156030	    186.69597277
    143.43168000	     67.92110026	    259.10334055	    104.98245971	    151.08286792
    143.44784000	     44.27168063	    199.79629814	     78.86034541	    116.10025091
    143.46400000	     27.86487875	    150.47754801	     58.27617944	     87.74262822
    143.48016000	     17.30238280	    112.60811561	     43.13250195	     66.19100314
    143.49632000	     12.08708027	     88.94190093	     33.86193279	     52.61486468
    143.51248000	     10.63097182	     77.86854496	     29.46217261	     45.98315427
    143.52864000	     11.76057548	     76.71374458	     28.88719413	     44.97855399
    143.54480000	     14.78314034	     83.23539618	     31.29705471	     48.45232512
    143.56096000	     19.50225660	     95.76963870	     36.04775740	     55.44526784
    143.57712000	     26.07568718	    112.54502986	     42.51260169	     64.92870142
    143.59328000	     34.51690694	    130.83826501	     49.72787923	     75.39055145
    143.60944000	     44.16456229	    147.08694433	     56.28940383	     84.77710184
    143.62560000	     53.88779831	    158.52696926	     61.00391427	     91.44219877
    143.64176000	     62.94176602	    164.43313259	     63.48365928	     94.92282270
    143.65792000	     71.33559678	    165.52933720	     63.97871848	     95.62075075
    143.67408000	     79.38317019	    162.82640254	     62.90140804	     94.12465666
    143.69024000	     87.10511841	    157.02355105	     60.55627345	     90.85154931
    143.70640000	     94.06540851	    148.60286912	     57.16283620	     86.08864972
    143.72256000	     99.67350596	    138.16728829	     52.98650180	     80.18419992
    143.73872000	    103.52969255	    126.51924337	     48.36613651	     73.59677200
    143.75488000	    105.45723900	    114.46271638	     43.63059173	     66.78283694
    143.77104000	    105.52800851	    102.77402472	     39.08213100	     60.17359949
    143.78720000	    104.44231140	     92.41857022	     35.07026674	     54.28185369
    143.80336000	    104.05428607	     84.69109527	     32.06409047	     49.81446791
    143.81952000	    107.35790764	     80.99582665	     30.59247442	     47.58083837
    143.83568000	    117.67561128	     82.36524649	     31.05765312	     48.20459463
    143.85184000	    137.29440597	     88.90739440	     33.50105445	     51.75959369
    143.86800000	    165.51636578	     99.21636683	     37.38609056	     57.43327347
