ActiveFiberForce
version=1
nRows=51
nColumns=5
inDegrees=no

This analysis gathers basic information about muscles during a simulation (e.g., forces, tendon lengths, moment arms, etc).
Units are S.I. units (second, meters, Newtons, ...)
If the header above contains a line with 'inDegrees', this indicates whether rotational values are in degrees (yes) or radians (no).

endheader
time	recfem_r	vaslat_r	vasint_r	vasmed_r
    145.92400000	    163.94510983	    128.33628261	     27.47510240	     44.33736520
    145.94304000	    113.74849240	    107.73986441	     26.33243059	     42.67448648
    145.96208000	     71.65030466	     90.28749672	     25.62221070	     41.63500689
    145.98112000	     43.31551730	     79.94888901	     25.70209263	     41.75013346
    146.00016000	     32.21813235	     78.23410512	     26.57077891	     43.03035077
    146.01920000	     33.89964849	     82.48196448	     27.86575841	     44.93908262
    146.03824000	     37.95363637	     87.95120574	     29.10655233	     46.74915836
    146.05728000	     37.83675975	     91.60394996	     30.00517491	     48.02930822
    146.07632000	     33.78104600	     92.71778399	     30.36419846	     48.51307810
    146.09536000	     28.37655615	     91.35103282	     29.92668598	     47.84415962
    146.11440000	     23.39211216	     88.52777709	     28.89187927	     46.39381672
    146.13344000	     18.93847407	     83.46904967	     27.02050808	     43.75702993
    146.15248000	     15.58926560	     76.68051559	     24.55718588	     40.23255924
    146.17152000	     13.80762845	     70.06537197	     22.14872410	     36.77961202
    146.19056000	     13.22763100	     64.68750533	     20.04966565	     33.75064421
    146.20960000	     12.87554002	     60.57635887	     18.43889186	     31.43829164
    146.22864000	     11.83455992	     57.40605577	     17.37863849	     29.95880700
    146.24768000	     11.19329428	     55.05692302	     16.64771276	     28.85609090
    146.26672000	     14.94549922	     53.53689623	     16.19887933	     28.15610028
    146.28576000	     27.82265881	     52.77788090	     16.01970801	     27.84612494
    146.30480000	     51.96677417	     52.51952695	     15.94862339	     27.77181718
    146.32384000	     81.43660317	     52.44662981	     15.80921709	     27.43871069
    146.34288000	    100.44307638	     52.04336884	     15.72211637	     27.14659893
    146.36192000	     94.23437045	     51.46295093	     15.75914672	     27.01701403
    146.38096000	     67.77668216	     51.20528118	     16.03452244	     27.23695245
    146.40000000	     41.71602197	     52.70359957	     17.04615812	     28.67674944
    146.41904000	     25.10978370	     53.23453095	     17.77761251	     29.64196527
    146.43808000	     20.57117560	     55.87972607	     18.76809274	     31.03039662
    146.45712000	     22.48831590	     63.11603743	     20.35817050	     33.48062754
    146.47616000	     25.86631746	     73.71984591	     22.98910265	     37.86002769
    146.49520000	     28.43575984	     77.40103832	     25.62467881	     42.37381640
    146.51424000	     30.13178665	     63.74851785	     25.09430985	     41.39307506
    146.53328000	     31.65694999	     57.85658046	     20.19655473	     33.14255726
    146.55232000	     33.41315367	    166.26240719	     20.06424450	     36.27737139
    146.57136000	     35.48568200	    579.17747577	     48.09626065	     99.96278639
    146.59040000	     37.61757073	   1453.39915881	    129.42034080	    282.18251710
    146.60944000	     38.93369536	   2698.90977302	    264.23465159	    592.11475446
    146.62848000	     38.10034976	   3919.92412772	    414.25741090	    947.24375207
    146.64752000	     35.66188921	   4699.57314061	    526.57813398	   1216.27023806
    146.66656000	     35.27881051	   4864.92889702	    564.28719434	   1303.22653500
    146.68560000	     40.80391111	   4440.20460219	    512.88780945	   1179.31515730
    146.70464000	     50.93387283	   3557.13163806	    386.54969482	    891.32713685
    146.72368000	     58.08480262	   2465.53100977	    236.15542395	    559.77575052
    146.74272000	     55.47960601	   1467.85210315	    122.35781124	    311.50776786
    146.76176000	     44.76959915	    759.07226389	     68.49653141	    187.55332243
    146.78080000	     34.05125145	    355.37758162	     53.01790787	    138.40569710
    146.79984000	     29.37263024	    167.08431215	     45.43214147	    103.33343871
    146.81888000	     30.65341398	     97.17778420	     35.04594430	     66.52878314
    146.83792000	     34.45893455	     81.76800679	     26.78353452	     41.98750564
    146.85696000	     37.52505137	     83.48092690	     25.04851378	     37.30065316
    146.87600000	     38.61966488	     84.72266975	     28.15150950	     45.37457063
