Static Optimization
version=1
nRows=51
nColumns=59
inDegrees=no
This file contains static optimization results.

endheader
time	addbrev_r	addlong_r	addmagDist_r	addmagIsch_r	addmagMid_r	addmagProx_r	bflh_r	bfsh_r	edl_r	ehl_r	fdl_r	fhl_r	gaslat_r	gasmed_r	glmax1_r	glmax2_r	glmax3_r	glmed1_r	glmed2_r	glmed3_r	glmin1_r	glmin2_r	glmin3_r	grac_r	iliacus_r	perbrev_r	perlong_r	piri_r	psoas_r	recfem_r	sart_r	semimem_r	semiten_r	soleus_r	tfl_r	tibant_r	tibpost_r	vasint_r	vaslat_r	vasmed_r	pelvis_tx_residual	pelvis_ty_residual	pelvis_tz_residual	pelvis_tilt_residual	pelvis_list_residual	pelvis_rotation_residual	hip_flexion_r_reserve	hip_adduction_r_reserve	hip_rotation_r_reserve	knee_angle_r_reserve	ankle_angle_r_reserve	subtalar_angle_r_reserve	hip_flexion_l_torque	hip_adduction_l_torque	hip_rotation_l_torque	knee_angle_l_torque	ankle_angle_l_torque	subtalar_angle_l_torque
    145.92400000	      0.20484120	      0.18163945	      0.01002353	      0.01006236	      0.01003604	      0.01001740	      0.01000525	      0.01037438	      0.01011528	      0.01018823	      0.01062431	      0.01477004	      0.11314637	      0.01000112	      0.01000198	      0.01000125	      0.01000183	      0.01004073	      0.01000537	      0.01000286	      0.13368236	      0.01001510	      0.01000892	      0.01001956	      1.00543900	      0.01039994	      0.01058012	      0.01000272	      0.50505692	      0.03911339	      0.01264354	      0.01000759	      0.01001523	      0.26843298	      0.03595608	      0.01006713	      0.01554961	      0.01175253	      0.02874000	      0.01566226	      0.55101911	    -36.76493821	    -12.03839545	     -1.07181424	     28.28919395	      7.67362680	      0.00633601	     -0.00896729	      0.05115040	     -0.00023553	     -0.00145437	      0.00021556	     -0.17340792	      0.11090305	      0.07893665	      0.05693112	      0.00755577	     -0.01442024
    145.94304000	      0.19849173	      0.26633818	      0.01019151	      0.01047278	      0.06046953	      0.01024559	      0.01001120	      0.01072595	      0.02758551	      0.01517914	      0.01059297	      0.01018368	      0.01006622	      0.36457348	      0.01000393	      0.01000251	      0.01000402	      0.01002034	      0.01000868	      0.01000531	      0.01273877	      0.01002184	      0.01001644	      0.01006973	      0.49806349	      0.01159550	      0.01139291	      0.01000632	      0.27112426	      0.02377963	      0.01130082	      0.01001430	      0.01003233	      0.01002288	      0.01009086	      0.04978121	      0.01006403	      0.01764539	      0.04898415	      0.02615885	      0.58518024	      3.35818196	      1.41377526	      2.29178620	     -3.69497501	      1.81043693	      0.00591705	     -0.00111614	      0.02421450	     -0.00039197	      0.00116151	     -0.00022256	     -0.23642137	      0.19988000	     -0.03674897	      0.09933360	      0.00534451	     -0.00695882
    145.96208000	      0.21752589	      0.38067549	      0.10783989	      0.01156156	      0.22282870	      0.28137303	      0.01009657	      0.01089426	      0.63664211	      0.24834661	      0.01003814	      0.01001401	      0.01000366	      0.88786219	      0.01014656	      0.01009075	      0.21437210	      0.01002089	      0.01014098	      0.07713449	      0.01006749	      0.02105663	      0.05683178	      0.13363412	      0.04698368	      0.11298357	      0.15369924	      0.17883488	      0.15486168	      0.23350236	      0.01129167	      0.01002216	      0.01014641	      0.01000121	      0.01023858	      0.99593535	      0.01001005	      0.01848803	      0.05016576	      0.02697214	     -4.40587311	     11.29266113	      4.06911783	     -9.94431261	     -8.21364229	    -14.61958582	      0.01181212	      0.00496306	     -0.00778512	     -0.00039007	      0.02383487	     -0.00765775	     -0.23163764	      0.20758301	     -0.06513792	      0.11933438	      0.00664934	     -0.00558712
    145.98112000	      0.17251497	      0.29821284	      0.01099596	      0.01006987	      0.09888744	      0.10086832	      0.01001759	      0.02526292	      0.07591835	      0.02707844	      0.01025714	      0.01006977	      0.07591233	      0.01000363	      0.01000789	      0.01000453	      0.01000718	      0.01002967	      0.01002089	      0.01001427	      0.01168733	      0.01009159	      0.01005906	      0.04956498	      0.34065799	      0.02198992	      0.03361133	      0.01002142	      0.26098975	      0.04447857	      0.02562652	      0.01001785	      0.01005518	      0.01000942	      0.01167095	      0.10017050	      0.01004882	      0.01002926	      0.01000778	      0.01001619	      1.20389191	      4.03623360	     -4.01117332	      2.15650408	      3.92200579	      2.30123154	      0.01231823	     -0.00021119	      0.00804860	      0.00354527	      0.00268480	     -0.00125979	     -0.18528993	      0.17060818	     -0.05607647	      0.12093476	      0.00895144	     -0.00666910
    146.00016000	      0.16062466	      0.23055495	      0.04281622	      0.02852106	      0.10800894	      0.03267604	      0.01004178	      0.03490310	      0.06149843	      0.02119554	      0.01021293	      0.01008304	      0.01913241	      0.01004886	      0.01000510	      0.01000326	      0.01000665	      0.01001464	      0.01000890	      0.01000563	      0.01010231	      0.01002123	      0.01001383	      0.01601883	      0.35209711	      0.02120208	      0.03469197	      0.01000498	      0.20540114	      0.01001065	      0.01361166	      0.02820030	      0.01295066	      0.01001213	      0.01004016	      0.07120211	      0.01004787	      0.01001231	      0.01000390	      0.01000752	      0.84863108	     -4.85756221	      1.11205438	      1.08344567	     -0.39360176	      0.06967948	      0.00586726	      0.00113316	      0.01796643	      0.00503361	      0.00220668	     -0.00127068	     -0.17993214	      0.14648199	     -0.04494784	      0.12930616	      0.00831058	     -0.00691295
    146.01920000	      0.13300575	      0.23276085	      0.01024016	      0.01006621	      0.07961754	      0.09909086	      0.01002586	      0.02828313	      0.12587509	      0.04070364	      0.01007780	      0.01003702	      0.01002520	      0.06202011	      0.01000919	      0.01000526	      0.01000938	      0.01003482	      0.01002566	      0.01001718	      0.01205360	      0.01015487	      0.01007803	      0.05534555	      0.25062534	      0.03739079	      0.06586475	      0.01001983	      0.21488017	      0.01978161	      0.02676442	      0.01002922	      0.01008207	      0.01000483	      0.01374168	      0.15032070	      0.01002210	      0.01002411	      0.01000775	      0.01001512	     -1.01225776	     -1.87406680	      2.88588552	     -1.11911857	     -3.40191523	     -1.49840530	      0.01104743	     -0.00000320	      0.00429459	      0.00396034	      0.00491142	     -0.00271703	     -0.20026092	      0.11197418	     -0.02588258	      0.14090424	      0.00506623	     -0.00723601
    146.03824000	      0.14904557	      0.28667739	      0.01014291	      0.01003645	      0.07351699	      0.13345558	      0.01001998	      0.05622232	      0.07831275	      0.02504508	      0.01021865	      0.01007828	      0.01062216	      0.01040397	      0.01001101	      0.01000545	      0.01000751	      0.01035722	      0.01013234	      0.01007073	      0.05091007	      0.04788549	      0.04555140	      0.09631938	      0.27735700	      0.03056977	      0.05480768	      0.01960575	      0.26377985	      0.02019786	      0.05269374	      0.01002177	      0.01013270	      0.01001258	      0.08061774	      0.07820381	      0.01004015	      0.01001265	      0.01000403	      0.01000804	     -2.90075720	      2.56215471	     -0.00049470	     -4.31271213	      0.56169101	     -0.24409461	      0.01567416	     -0.00070589	     -0.00015528	      0.00755057	      0.00293591	     -0.00203914	     -0.21084725	      0.07070776	     -0.00697359	      0.14564493	      0.00029796	     -0.00722026
    146.05728000	      0.15493373	      0.30718924	      0.01005676	      0.01003102	      0.04855254	      0.12291849	      0.01002118	      0.07275190	      0.08570507	      0.02464988	      0.01009206	      0.01004588	      0.01071267	      0.01019305	      0.01000986	      0.01000482	      0.01000636	      0.06549123	      0.01025697	      0.01006021	      0.09340050	      0.07906805	      0.06921516	      0.10026203	      0.33752397	      0.03443974	      0.06471996	      0.01299095	      0.30446351	      0.02703040	      0.07006736	      0.01003144	      0.01008207	      0.01000735	      0.12378743	      0.07931352	      0.01002572	      0.01000986	      0.01000314	      0.01000635	     -0.81760081	      2.00440399	     -1.64562934	     -2.50113940	      3.10867935	      2.50331956	      0.01754658	     -0.00192551	      0.00039291	      0.00920808	      0.00313830	     -0.00236362	     -0.23520117	      0.04594842	      0.00932353	      0.15688662	     -0.00552380	     -0.00579696
    146.07632000	      0.14904798	      0.30231635	      0.01003897	      0.01002629	      0.01653362	      0.09827780	      0.01001926	      0.08613533	      0.09564651	      0.02645008	      0.01008021	      0.01004062	      0.01098655	      0.01303105	      0.01000898	      0.01000425	      0.01000507	      0.16258910	      0.01549417	      0.01007187	      0.12687714	      0.09412611	      0.06903573	      0.09303918	      0.38637395	      0.03858299	      0.07371824	      0.01016948	      0.33191199	      0.02903586	      0.08340771	      0.01003539	      0.01007347	      0.01000685	      0.15054314	      0.08483251	      0.01002226	      0.01000902	      0.01000291	      0.01000587	      3.98623007	     -5.75729649	     -0.02241610	      4.77060052	     -0.50229587	      3.35717793	      0.01802714	     -0.00337798	      0.00168824	      0.01017420	      0.00342500	     -0.00270212	     -0.30039176	      0.06103935	      0.02293623	      0.18700163	     -0.01017651	     -0.00320649
    146.09536000	      0.17802832	      0.35972671	      0.01003881	      0.01002515	      0.02754456	      0.12540958	      0.01002119	      0.09438500	      0.10217318	      0.02845137	      0.01007204	      0.01003655	      0.01066962	      0.01346694	      0.01001099	      0.01000486	      0.01000519	      0.18454527	      0.06002322	      0.01160919	      0.12867983	      0.10812583	      0.09116388	      0.11372906	      0.38364197	      0.03855035	      0.07471244	      0.06038209	      0.33831969	      0.07683872	      0.08990623	      0.01005040	      0.01009961	      0.01000623	      0.15578225	      0.09422491	      0.01001961	      0.01000941	      0.01000310	      0.01000621	      5.25851952	    -12.69831414	      0.80098375	      9.68081444	     -3.52278937	     -0.28789887	      0.01909939	     -0.00273489	     -0.00004662	      0.01045247	      0.00373206	     -0.00291885	     -0.37169590	      0.11792167	      0.02870010	      0.21788290	     -0.00960229	     -0.00088225
    146.11440000	      0.24697914	      0.48054240	      0.01005699	      0.01002647	      0.09221014	      0.20683433	      0.01002367	      0.07705418	      0.10494490	      0.03098254	      0.01006734	      0.01003376	      0.01009533	      0.01010319	      0.01002038	      0.01000764	      0.01000699	      0.09907665	      0.07073779	      0.09087983	      0.09128391	      0.10241109	      0.10189868	      0.14709601	      0.32467789	      0.03501178	      0.06840800	      0.19655129	      0.31772289	      0.18867132	      0.08188885	      0.01006078	      0.01009843	      0.01000538	      0.13844573	      0.10951959	      0.01001797	      0.01001285	      0.01000435	      0.01000856	      0.99746984	      5.79127295	      1.50370992	      6.49847957	     -3.59392754	     -6.61558508	      0.02018754	      0.00030672	     -0.00419742	      0.00807779	      0.00405442	     -0.00294119	     -0.38786788	      0.19331839	      0.01857845	      0.21771487	     -0.00278414	     -0.00029485
    146.13344000	      0.27667412	      0.52578387	      0.01019912	      0.01003191	      0.15290024	      0.26817253	      0.01002715	      0.02816575	      0.10690472	      0.03369827	      0.01006494	      0.01003176	      0.01003189	      0.01002504	      0.01868554	      0.01003754	      0.01001865	      0.01009972	      0.05048124	      0.15142749	      0.02987602	      0.07615038	      0.09370108	      0.14972529	      0.19500379	      0.03149276	      0.06190168	      0.28346236	      0.23882041	      0.28168988	      0.05351199	      0.01007273	      0.01006189	      0.01000435	      0.09766363	      0.12860936	      0.01001713	      0.01003956	      0.01001428	      0.01002695	     -9.18264135	     35.43682414	     -6.28959270	    -15.83763788	     17.99836880	     -1.72866795	      0.01816475	      0.00370400	     -0.00872610	      0.00281839	      0.00444256	     -0.00292156	     -0.16298588	     -0.03351667	      0.00450996	      0.02963226	      0.06127261	     -0.08280478
    146.15248000	      0.24441473	      0.44475081	      0.02470529	      0.01004650	      0.16550684	      0.25531300	      0.01003723	      0.01068699	      0.10145586	      0.03420002	      0.01007043	      0.01003300	      0.01002325	      0.01002263	      0.03140991	      0.03147389	      0.01492752	      0.01002740	      0.01010340	      0.06465271	      0.01015661	      0.02887678	      0.05128274	      0.12074751	      0.09566062	      0.02785554	      0.05415463	      0.21924681	      0.16017265	      0.21579352	      0.02836258	      0.01010747	      0.01006217	      0.01000373	      0.04441117	      0.13646339	      0.01001860	      0.01309203	      0.02275390	      0.01475132	    -17.53099713	    -63.57505319	      1.99591400	    -40.01915440	    -13.80943136	      5.30511467	      0.01325260	      0.00507319	     -0.00839323	     -0.00025756	      0.00449731	     -0.00264423	     -0.45043504	     -0.53855793	      0.14317816	     -0.12552840	      0.08119669	     -0.13167424
    146.17152000	      0.20472949	      0.36009506	      0.03894755	      0.01006467	      0.15326913	      0.22135704	      0.01005551	      0.01028113	      0.09020015	      0.03291761	      0.01008798	      0.01003896	      0.01002279	      0.01003236	      0.01012260	      0.01143514	      0.08343393	      0.01001968	      0.01004078	      0.01011768	      0.01008285	      0.01033727	      0.01994220	      0.10039850	      0.05248734	      0.02197992	      0.04024234	      0.14900669	      0.11873035	      0.13707915	      0.01989639	      0.01014699	      0.01008119	      0.01000353	      0.01454874	      0.13550900	      0.01002422	      0.01463343	      0.03790456	      0.02091845	     26.23926230	      3.47459432	     19.42414463	     52.68287479	    -33.82004309	     -7.44097367	      0.00973558	      0.00513525	     -0.00686019	     -0.00058675	      0.00436216	     -0.00203715	     -0.32800376	      0.52982372	     -0.32547105	     -0.30069267	     -0.07046776	      0.12524487
    146.19056000	      0.16633449	      0.29064255	      0.03654160	      0.01007678	      0.12848059	      0.18409528	      0.01006392	      0.01021853	      0.07506519	      0.03019748	      0.01012255	      0.01005088	      0.01002354	      0.01004486	      0.01006691	      0.01023500	      0.09088213	      0.01001696	      0.01003024	      0.01004843	      0.01006674	      0.01014680	      0.01049220	      0.07959724	      0.03140332	      0.01491094	      0.02129136	      0.11092734	      0.09494130	      0.10530652	      0.01501906	      0.01016291	      0.01008103	      0.01000374	      0.01045360	      0.12658962	      0.01003693	      0.01981107	      0.05557404	      0.02915281	    -26.62420018	     16.78596989	    -13.25179793	    -60.73994022	     26.40271643	      7.18217691	      0.00749689	      0.00467689	     -0.00593654	     -0.00109418	      0.00409262	     -0.00123104	      0.06583331	     -1.03923519	      0.65891664	     -0.62753761	     -0.36684733	      0.43890348
    146.20960000	      0.03593560	      0.07477928	      0.01008801	      0.01006154	      0.01025398	      0.02515512	      0.01003647	      0.01021324	      0.05863301	      0.02631179	      0.01017882	      0.01007111	      0.01002635	      0.01005655	      0.01006162	      0.01003262	      0.01002966	      0.01042791	      0.01025025	      0.01017722	      0.01219856	      0.01373230	      0.01285440	      0.01035157	      0.05905175	      0.01108818	      0.01055041	      0.02075496	      0.06188855	      0.08113863	      0.01396938	      0.01016326	      0.01005319	      0.01000445	      0.03618185	      0.11118957	      0.01006312	      0.01698283	      0.05287795	      0.02454476	     -2.17528671	     -3.01658628	     -9.70532421	      0.91684437	     13.97235845	      2.16497141	      0.00360180	      0.00003358	     -0.00044243	     -0.00116979	      0.00362461	     -0.00052761	      0.07341294	     -0.77225680	      0.53948526	     -0.88797582	     -0.54387088	      0.94238165
    146.22864000	      0.01089304	      0.01013406	      0.01007738	      0.01191840	      0.01006653	      0.01005607	      0.01002732	      0.01042314	      0.05420399	      0.02468265	      0.01026574	      0.01005540	      0.01002709	      0.01005599	      0.01002221	      0.01000978	      0.01001198	      0.34923320	      0.13186342	      0.01078412	      0.11207214	      0.04661947	      0.01182129	      0.01006222	      0.13099375	      0.01430668	      0.01292610	      0.01001736	      0.05974218	      0.01708225	      0.01051747	      0.01043532	      0.01006024	      0.01000501	      0.04944774	      0.09877365	      0.01006896	      0.01835710	      0.05259478	      0.02518694	     14.67827441	     -1.82836057	     -1.84400900	     30.89295033	     -0.97798401	      1.99277902	     -0.00009275	     -0.00218168	      0.00884458	     -0.00124263	      0.00307677	     -0.00055105	      0.03888140	     -0.79622026	      0.54540300	     -0.97999352	     -0.67802846	      1.34402445
    146.24768000	      0.01908318	      0.01259414	      0.01006309	      0.01154192	      0.01006405	      0.01005711	      0.01001965	      0.01050104	      0.06192291	      0.02529174	      0.01035129	      0.01007030	      0.01002509	      0.01004407	      0.01001707	      0.01000790	      0.01000985	      0.49171680	      0.19745974	      0.01799395	      0.16236456	      0.08076763	      0.02244226	      0.01005867	      0.18084571	      0.01904474	      0.02448298	      0.01001514	      0.09147698	      0.02764698	      0.01057963	      0.01026963	      0.01004650	      0.01000516	      0.07950054	      0.09765719	      0.01007213	      0.01814724	      0.05063959	      0.02463389	     -2.16320604	     -5.74752005	      4.58918559	    -11.35057681	     -6.40409649	      3.30811895	      0.00087768	     -0.00205348	      0.01101408	     -0.00124085	      0.00281276	     -0.00100286	     -0.04067385	     -1.37716511	      0.78872469	     -0.89318320	     -0.73308012	      1.46496093
    146.26672000	      0.04741338	      0.06314434	      0.01006462	      0.01017213	      0.01009548	      0.01015475	      0.01001779	      0.01044532	      0.07030283	      0.02717748	      0.01041139	      0.01008065	      0.01002223	      0.01002928	      0.01001946	      0.01000977	      0.01001203	      0.39315632	      0.15348790	      0.01233332	      0.13813439	      0.07677162	      0.02962772	      0.01008425	      0.16792755	      0.02343375	      0.03551602	      0.01002219	      0.10464040	      0.05961072	      0.01142781	      0.01011850	      0.01004207	      0.01000505	      0.08267672	      0.10489717	      0.01006032	      0.01779207	      0.04896689	      0.02402072	     10.26601144	     -5.83316178	      4.45511680	     18.98689642	     -0.68192916	      0.71199000	      0.00252545	     -0.00069036	      0.00806018	     -0.00123577	      0.00291981	     -0.00125815	      0.04034331	     -0.85061784	      0.53108197	     -0.71673756	     -0.76444838	      1.59807007
    146.28576000	      0.08661801	      0.11514695	      0.01125298	      0.01819430	      0.02607851	      0.03064654	      0.01002819	      0.01023601	      0.07390169	      0.02837451	      0.01025158	      0.01007618	      0.01002029	      0.01001874	      0.01002323	      0.01001433	      0.01002468	      0.18318518	      0.03937794	      0.01006114	      0.07445238	      0.03162446	      0.01077397	      0.01051363	      0.10986405	      0.02520515	      0.03916248	      0.01002478	      0.08293357	      0.03316267	      0.01026683	      0.01011369	      0.01007562	      0.01000518	      0.03568653	      0.10948656	      0.01006095	      0.01749263	      0.05045712	      0.02431298	     -7.91190633	      8.04950669	     -2.97600556	    -13.92789728	      3.64089933	     -9.90147570	      0.00186426	      0.00171143	      0.00491655	     -0.00129835	      0.00300932	     -0.00133341	      0.06129026	     -0.81344780	      0.56609176	     -0.36793921	     -0.83601460	      1.44338511
    146.30480000	      0.09742565	      0.11878330	      0.05694728	      0.06981607	      0.07474908	      0.06254468	      0.01078517	      0.01029560	      0.07194884	      0.02802383	      0.01027335	      0.01007877	      0.01001978	      0.01001359	      0.01003322	      0.01002609	      0.01075886	      0.03568341	      0.01016132	      0.01004491	      0.02513206	      0.01072622	      0.01010981	      0.02071706	      0.04658792	      0.02533306	      0.03977167	      0.01002455	      0.04037012	      0.01013347	      0.01011249	      0.01472883	      0.01661138	      0.01000559	      0.01022003	      0.10703811	      0.01006086	      0.01723993	      0.04502610	      0.02258030	     -3.17138964	      6.45898829	     -2.48667708	     -1.37973459	      1.68236464	      4.96708426	     -0.00004226	      0.00310743	      0.00295217	     -0.00114250	      0.00289075	     -0.00132336	      0.09068435	     -0.35810821	     -0.03536853	     -0.14379867	     -0.73950930	      1.13704434
    146.32384000	      0.07855766	      0.09387582	      0.05779913	      0.06292802	      0.06988457	      0.05978085	      0.02453203	      0.01017289	      0.06985365	      0.02706644	      0.01020869	      0.01008118	      0.01001912	      0.01001104	      0.01004788	      0.01004220	      0.03695762	      0.01038181	      0.01014078	      0.01005757	      0.01134360	      0.01030517	      0.01012261	      0.02099166	      0.01712182	      0.02582233	      0.04266780	      0.01003195	      0.02026794	      0.01008870	      0.01011588	      0.03182275	      0.02214858	      0.01000620	      0.01016169	      0.10313342	      0.01005989	      0.01865212	      0.05037702	      0.02687360	      6.25660370	     -4.26652692	      2.82121466	     13.73524068	     -3.99479424	      6.75555332	     -0.00051219	      0.00284989	      0.00146789	     -0.00119976	      0.00270327	     -0.00136735	      0.06368640	     -0.02510234	     -0.17707307	      0.06151187	     -0.67535540	      0.90661537
    146.34288000	      0.05585545	      0.07470843	      0.02728285	      0.01036467	      0.05930637	      0.09188795	      0.04225891	      0.01061632	      0.06952943	      0.02719085	      0.01038889	      0.01008232	      0.01002139	      0.01001208	      0.01021283	      0.03241491	      0.08623071	      0.01001127	      0.01002093	      0.01003143	      0.01003273	      0.01003826	      0.01004435	      0.03111109	      0.01007009	      0.02697031	      0.04484505	      0.01009381	      0.02980038	      0.04057069	      0.02063142	      0.01003694	      0.01058742	      0.01000659	      0.01004394	      0.10222909	      0.01005344	      0.01327326	      0.01522390	      0.01391873	     -2.22199538	     -6.46967395	     -1.01999048	     -8.28714792	      2.25715611	     -4.72487781	      0.00127747	      0.00241720	     -0.00495926	     -0.00019112	      0.00258686	     -0.00142285	      0.06027625	     -0.20366392	      0.00215223	      0.16012382	     -0.54276942	      0.59548087
    146.36192000	      0.05715020	      0.10071885	      0.01010891	      0.01002461	      0.04345732	      0.14588533	      0.07829266	      0.07562880	      0.07052340	      0.02814925	      0.01053789	      0.01011206	      0.01014258	      0.01016019	      0.01146396	      0.09702027	      0.07530396	      0.01000486	      0.01001002	      0.01001871	      0.01001353	      0.01001772	      0.01002438	      0.07017546	      0.01004740	      0.02736073	      0.04527276	      0.03619797	      0.09279058	      0.10248923	      0.11266566	      0.01004773	      0.01068080	      0.01000816	      0.01002644	      0.10377035	      0.01006215	      0.01004755	      0.01001459	      0.01002912	     -4.69878810	     -1.61927031	     -3.49670480	    -10.85016839	      4.89463618	     -3.79997383	      0.00532053	      0.00231105	     -0.01247344	      0.00446288	      0.00254982	     -0.00144396	      0.05667728	     -0.13530044	     -0.00123509	      0.13942312	     -0.32883380	      0.34430885
    146.38096000	      0.04857967	      0.10222028	      0.01006641	      0.01002240	      0.01943662	      0.13288353	      0.10063393	      0.11637278	      0.07436902	      0.02856591	      0.01018315	      0.01008061	      0.01031251	      0.01203407	      0.02066212	      0.10210727	      0.02949626	      0.01000562	      0.01001210	      0.01002509	      0.01001521	      0.01002064	      0.01003090	      0.08118998	      0.01006356	      0.02685783	      0.04567988	      0.06291594	      0.10945506	      0.04345002	      0.13821468	      0.01096955	      0.01577813	      0.01000698	      0.01003113	      0.10939554	      0.01005675	      0.01002604	      0.01000886	      0.01001671	      2.80154399	     -3.14928539	     -0.75466529	      9.04505661	      4.71982371	      0.45568978	      0.00636818	      0.00163049	     -0.01252568	      0.00722515	      0.00266537	     -0.00146081	      0.09466834	      0.13230745	      0.06722421	      0.08710979	     -0.19799572	      0.23893836
    146.40000000	      0.04157451	      0.09747139	      0.01006182	      0.01002337	      0.01181551	      0.11475557	      0.10220047	      0.11362633	      0.07439869	      0.02844551	      0.01018559	      0.01008349	      0.01072230	      0.01285594	      0.04312441	      0.10750753	      0.01220426	      0.01000695	      0.01001552	      0.01003623	      0.01001834	      0.01002583	      0.01004230	      0.07534352	      0.01008163	      0.02504962	      0.04100480	      0.06889954	      0.10210837	      0.01048916	      0.12975204	      0.05585288	      0.02731839	      0.01000717	      0.01003816	      0.11004006	      0.01006028	      0.01002179	      0.01000728	      0.01001391	     -0.02621655	     10.32597528	     -0.33668709	     -0.67496300	     -3.16243081	      1.39334778	      0.00615318	      0.00119975	     -0.01125199	      0.00793828	      0.00273515	     -0.00133017	      0.09237779	      0.07431248	      0.01252762	      0.01977737	     -0.00522182	      0.00719669
    146.41904000	      0.04713554	      0.10264912	      0.01007230	      0.01002573	      0.01658387	      0.11563621	      0.12388092	      0.10012299	      0.06960478	      0.02666899	      0.01027016	      0.01009793	      0.01179285	      0.01175787	      0.05691816	      0.12241360	      0.02461835	      0.01000784	      0.01001770	      0.01004358	      0.01002044	      0.01002925	      0.01005011	      0.07106600	      0.01008047	      0.02144643	      0.03233480	      0.06374048	      0.08835837	      0.01006776	      0.11430781	      0.11354896	      0.04013120	      0.01000792	      0.01003976	      0.10280191	      0.01006994	      0.01001877	      0.01000617	      0.01001185	      2.64135376	     -2.72861403	      4.66287310	      4.72147533	     -6.54526954	      3.58036632	      0.00554762	      0.00143321	     -0.01049490	      0.00823887	      0.00268862	     -0.00110777	      0.14030316	      0.14905326	      0.03389808	     -0.00123238	      0.00484872	     -0.00322840
    146.43808000	      0.03442304	      0.07319214	      0.01010985	      0.01003707	      0.01747389	      0.08564650	      0.14083917	      0.07619735	      0.06250968	      0.02366414	      0.01025138	      0.01010013	      0.01096721	      0.01028806	      0.05195067	      0.10568856	      0.03457686	      0.01001126	      0.01002552	      0.01006483	      0.01002878	      0.01004158	      0.01007242	      0.05881382	      0.01008993	      0.01871752	      0.02558182	      0.04737411	      0.05439791	      0.01003400	      0.07903436	      0.18444048	      0.05557123	      0.01000834	      0.01004954	      0.08952763	      0.01007536	      0.01001873	      0.01000610	      0.01001173	      0.45180158	     -4.06439955	      1.23967869	      0.18316447	     -1.37871812	      0.40193996	      0.00364399	      0.00112907	     -0.00749795	      0.00745661	      0.00252663	     -0.00093325	      0.24774606	      0.06912961	      0.03138157	     -0.05371353	      0.01691782	     -0.01858324
    146.45712000	      0.01082188	      0.01163959	      0.01049117	      0.01007905	      0.01167805	      0.01948592	      0.14399091	      0.04786382	      0.05669810	      0.02140877	      0.01024601	      0.01009609	      0.01009209	      0.01001688	      0.03943289	      0.06624446	      0.02980244	      0.01003645	      0.01008448	      0.01002742	      0.01007194	      0.01008835	      0.01011915	      0.03504179	      0.01011722	      0.01758733	      0.02412826	      0.02704270	      0.01176488	      0.01002308	      0.03198623	      0.25650919	      0.07385557	      0.01000809	      0.01008515	      0.07683168	      0.01007511	      0.01002295	      0.01000753	      0.01001436	     -1.40113716	      0.54407064	     -1.42265106	     -2.57609816	      2.66201603	     -2.75948063	      0.00076362	      0.00004330	     -0.00272072	      0.00544237	      0.00235272	     -0.00087994	      0.33410801	     -0.01047427	      0.02178497	     -0.09015679	      0.02050666	     -0.02498520
    146.47616000	      0.01008115	      0.01006232	      0.01151064	      0.01451677	      0.01020300	      0.01009815	      0.15199081	      0.03567793	      0.05030370	      0.01929577	      0.01026373	      0.01010234	      0.01307984	      0.01000829	      0.04761253	      0.05932330	      0.02534552	      0.04006906	      0.03448556	      0.03952026	      0.01350364	      0.01517133	      0.01637939	      0.02059893	      0.01012916	      0.01774246	      0.02510379	      0.02451855	      0.01010231	      0.01001744	      0.01266908	      0.30141200	      0.08731064	      0.01000965	      0.01022200	      0.06486369	      0.01007534	      0.01002538	      0.01000845	      0.01001590	     -0.60318494	      3.87994245	     -0.46000507	     -0.52250885	      1.55064995	     -1.80834343	     -0.00107199	     -0.00109280	      0.00000688	      0.00452991	      0.00209124	     -0.00087115	      0.35011240	     -0.00620463	      0.00617477	     -0.08786954	      0.01523559	     -0.02038346
    146.49520000	      0.01007439	      0.01005843	      0.01729030	      0.03087115	      0.01091764	      0.01008185	      0.15371556	      0.03042091	      0.07924565	      0.03009775	      0.01032984	      0.01006318	      0.01002821	      0.03917317	      0.04247422	      0.05297873	      0.03576308	      0.07346726	      0.04679522	      0.04112809	      0.02339509	      0.02146880	      0.01975430	      0.02035693	      0.01017911	      0.02409814	      0.03483633	      0.01858303	      0.01008289	      0.01001526	      0.01173729	      0.29722983	      0.09055284	      0.01000642	      0.01070281	      0.10769697	      0.01004491	      0.01002850	      0.01000951	      0.01001775	      1.37443879	     -0.55957936	      0.79421440	      2.53875193	     -1.22426517	      1.21961769	     -0.00170440	     -0.00094416	      0.00085010	      0.00403285	      0.00336475	     -0.00137054	      0.30544367	      0.03297173	     -0.01621942	     -0.05988353	      0.00911669	     -0.01391446
    146.51424000	      0.01008308	      0.01006494	      0.01907286	      0.03855339	      0.01087877	      0.01008534	      0.14100026	      0.02571493	      0.10441725	      0.03895562	      0.01012985	      0.01005023	      0.01001437	      0.06882496	      0.03328742	      0.04082984	      0.03636755	      0.08804094	      0.04958792	      0.03681390	      0.02837895	      0.02264049	      0.01867681	      0.01809412	      0.01016850	      0.03029142	      0.04929601	      0.01288297	      0.01008326	      0.01001478	      0.01074559	      0.26847121	      0.08543465	      0.01000535	      0.01061543	      0.14448023	      0.01003286	      0.01002862	      0.01000975	      0.01001804	      1.51415685	    -11.18081122	     -0.95009023	      2.05523434	     -0.47744083	      2.03487307	     -0.00188340	     -0.00074845	      0.00133216	      0.00351235	      0.00431868	     -0.00196807	      0.25031578	      0.02589779	     -0.02571810	     -0.03188570	      0.00817108	     -0.01312039
    146.53328000	      0.01009372	      0.01010096	      0.01008251	      0.01008466	      0.01007837	      0.01009537	      0.11966717	      0.06245485	      0.03892857	      0.01487546	      0.01018316	      0.01009945	      0.01067058	      0.01002844	      0.01392695	      0.01018779	      0.01004794	      0.05852295	      0.04007741	      0.03978270	      0.02071153	      0.02410409	      0.02459200	      0.03004964	      0.02548646	      0.01828769	      0.03223592	      0.04156302	      0.01856204	      0.01001011	      0.03795347	      0.27520109	      0.08838757	      0.01001619	      0.01147393	      0.04105511	      0.01006137	      0.01001074	      0.01000357	      0.01000673	     -2.30498484	    -10.80901281	     -3.14217179	     -4.08288484	      3.06116438	     -0.21943875	      0.00128706	     -0.00168356	     -0.00032963	      0.00913374	      0.00136380	     -0.00106492	      0.22339096	     -0.04589087	     -0.00476764	     -0.02156869	      0.01214025	     -0.01746268
    146.55232000	      0.01013479	      0.01010208	      0.01039622	      0.01236800	      0.01019807	      0.01012950	      0.11366451	      0.03123916	      0.12346321	      0.04590062	      0.01008102	      0.01003787	      0.01001810	      0.08654431	      0.01649681	      0.01432685	      0.01044053	      0.05690497	      0.03313007	      0.02569312	      0.01857380	      0.01581582	      0.01357897	      0.01845937	      0.01032028	      0.04134796	      0.07589173	      0.01129530	      0.01016709	      0.01001395	      0.01106859	      0.22188709	      0.07319064	      0.01000463	      0.01024945	      0.16799040	      0.01002228	      0.01002063	      0.01000688	      0.01001310	     -6.27713022	     26.59688199	      0.90490214	     -9.89973319	      1.22562102	     -1.52574337	     -0.00066817	     -0.00067755	      0.00067050	      0.00450307	      0.00481249	     -0.00295077	      0.22934895	     -0.10764047	      0.01141350	     -0.03468427	      0.01816025	     -0.02109648
    146.57136000	      0.01002340	      0.01001680	      0.01017851	      0.06447777	      0.01003986	      0.01002306	      0.09143209	      0.01038782	      0.13018335	      0.04537178	      0.01006747	      0.01003223	      0.01001668	      0.01001338	      0.15167098	      0.14112472	      0.01116582	      0.39726424	      0.24965430	      0.21366095	      0.11892231	      0.10765502	      0.09724174	      0.01009055	      0.01008914	      0.05816733	      0.11334375	      0.09485662	      0.01003291	      0.01001860	      0.01010020	      0.20140359	      0.05497295	      0.01000413	      0.06074605	      0.15314081	      0.01001790	      0.01191667	      0.02926796	      0.01556488	      5.58305615	     24.63857681	      7.55783902	     13.00410532	    -10.21891093	     -2.71836928	     -0.00478019	     -0.00558196	      0.00393550	     -0.00018928	      0.00466113	     -0.00398347	      0.25126927	     -0.08485915	     -0.03920209	     -0.06431312	      0.02358011	     -0.01996138
    146.59040000	      0.01001609	      0.01001203	      0.01009195	      0.05819333	      0.01002627	      0.01001640	      0.07927542	      0.01030149	      0.01009955	      0.01485813	      0.05025405	      0.08344552	      0.01045369	      0.01294543	      0.26060933	      0.25262091	      0.01078101	      0.51366382	      0.35025533	      0.32871640	      0.14503144	      0.14494389	      0.14302149	      0.01006093	      0.01005841	      0.01004931	      0.01002400	      0.18042162	      0.01002446	      0.01002000	      0.01008815	      0.17547078	      0.04081148	      0.01733919	      0.08420192	      0.11723698	      0.21044372	      0.05408215	      0.17207445	      0.08510520	      7.09754391	    -49.02788721	     -0.58835052	      9.78428553	     -1.54643976	     -0.12862188	     -0.00597696	     -0.00870996	      0.00384637	     -0.00113624	      0.00165808	      0.00454542	      0.24733574	     -0.03497692	     -0.11863943	     -0.08435931	      0.02511370	     -0.01516946
    146.60944000	      0.01005043	      0.01003957	      0.01042426	      0.01802898	      0.01007359	      0.01004905	      0.01027146	      0.01064191	      0.01003973	      0.03578313	      0.14619581	      0.24448673	      0.02922527	      0.01004549	      0.06499945	      0.05155811	      0.01047375	      0.17274729	      0.11152953	      0.09707097	      0.05126029	      0.04910789	      0.04545723	      0.01016701	      0.01053862	      0.01001528	      0.01000710	      0.04617392	      0.01008176	      0.04356043	      0.01053878	      0.01022626	      0.01050272	      0.14688077	      0.03737709	      0.33628293	      0.61763036	      0.08349621	      0.26391320	      0.12992231	    -10.92058761	     33.27129983	     -8.86349365	    -28.23573837	     22.55220457	      7.20429102	     -0.00152751	     -0.00268722	      0.00151487	     -0.00172860	      0.00607311	      0.01460979	      0.17794460	     -0.05801111	     -0.09918080	     -0.07299972	      0.02081318	     -0.01000663
    146.62848000	      0.01001123	      0.01000852	      0.01005955	      0.09572389	      0.01001786	      0.01001051	      0.01045140	      0.01015522	      0.01003213	      0.04001106	      0.17159925	      0.29458804	      0.07604648	      0.01010892	      0.24703343	      0.14849093	      0.01002915	      0.94873940	      0.57204170	      0.45260822	      0.29557635	      0.26509373	      0.22381227	      0.01003803	      0.01028369	      0.01001013	      0.01000479	      0.16660903	      0.01002019	      0.01001770	      0.01005396	      0.12120079	      0.01662681	      0.36765449	      0.18463859	      0.38741299	      0.72222385	      0.12540227	      0.39128648	      0.19369942	      3.99018805	     14.19826740	      1.55217227	     14.40914968	     -7.46271147	     -1.68808367	     -0.00775841	     -0.01269884	      0.01001705	     -0.00275722	      0.00805928	      0.01939835	      0.08476403	     -0.10955068	      0.03183072	     -0.04871907	      0.01438288	     -0.00786390
    146.64752000	      0.01001169	      0.01000843	      0.01017307	      0.14003915	      0.01002099	      0.01001067	      0.01053655	      0.01008569	      0.01002702	      0.04176684	      0.18843990	      0.33373725	      0.13505914	      0.04266916	      0.17857921	      0.07660548	      0.01003608	      0.97841563	      0.55078666	      0.39632896	      0.31935120	      0.26558447	      0.20361747	      0.01003556	      0.01101554	      0.01000751	      0.01000366	      0.10049763	      0.01001950	      0.01001653	      0.01004124	      0.12580098	      0.01835494	      0.60092010	      0.18327785	      0.43586825	      0.78508439	      0.17971177	      0.55630785	      0.27711782	      1.15419997	     -5.37128850	      1.21110216	      6.67206627	     -4.44866649	     -1.39106908	     -0.00886157	     -0.01109038	      0.01208268	     -0.00434514	      0.00886466	      0.02368963	      0.03948365	     -0.07997461	      0.14168784	     -0.03740489	      0.01094870	     -0.00961684
    146.66656000	      0.01002946	      0.01001775	      0.03617532	      0.13846901	      0.01007206	      0.01002335	      0.01041487	      0.01006399	      0.01002524	      0.02557215	      0.16818457	      0.30691541	      0.18961282	      0.17637457	      0.02459366	      0.01017751	      0.01048769	      0.52493789	      0.25755745	      0.14435402	      0.18260847	      0.12823360	      0.07928844	      0.01005421	      0.01080917	      0.01000777	      0.01000388	      0.01025624	      0.01003243	      0.01003769	      0.01004393	      0.04727477	      0.01186372	      0.75617748	      0.07929522	      0.37726426	      0.69810135	      0.21073912	      0.65142488	      0.32629972	     -8.61714313	     -5.23951408	      1.01220342	    -21.27589339	      0.89322052	     -0.52736336	     -0.00646026	     -0.00360941	      0.00887320	     -0.00553101	      0.00589234	      0.02246238	      0.03510421	      0.02757027	      0.14417793	     -0.03208719	      0.01053915	     -0.01203371
    146.68560000	      0.01016620	      0.01003389	      0.04604167	      0.19209450	      0.01018972	      0.01002512	      0.01004610	      0.01006159	      0.01002602	      0.01018271	      0.09556033	      0.18976230	      0.22119478	      0.33470583	      0.01002070	      0.01001154	      0.01002522	      0.77376500	      0.28076253	      0.03745311	      0.30712824	      0.16984896	      0.06001573	      0.01004968	      0.15965853	      0.01001384	      0.01000715	      0.01002302	      0.01006981	      0.01002351	      0.01003574	      0.06827496	      0.01459999	      0.81000570	      0.14579310	      0.09285665	      0.40410745	      0.20545370	      0.63725317	      0.32049139	      3.47132175	     -3.58735258	      1.74282709	      4.77791301	      0.79273796	      0.33335415	     -0.00642241	     -0.00165977	      0.01751151	     -0.00565373	     -0.00114611	      0.01332982	      0.03108604	      0.13016761	      0.06358793	     -0.01910122	      0.01052562	     -0.01209886
    146.70464000	      0.08405105	      0.01134271	      0.04448085	      0.22399031	      0.01047629	      0.01002598	      0.01002562	      0.01007163	      0.01002701	      0.01004926	      0.01796922	      0.06426671	      0.24523540	      0.47283457	      0.01000945	      0.01000573	      0.01001218	      0.92037060	      0.23041207	      0.01002982	      0.40043856	      0.17245640	      0.01189599	      0.01004561	      0.33176745	      0.01007116	      0.01004968	      0.01000994	      0.02252009	      0.01001693	      0.01003350	      0.10270914	      0.01884796	      0.83299079	      0.19320204	      0.01001532	      0.08057599	      0.17210093	      0.53687920	      0.27075443	      8.86791296	      1.96472001	     -0.55516866	     19.60335338	      0.29824910	      3.82221032	     -0.00588448	     -0.00033389	      0.02612597	     -0.00482245	     -0.00803107	      0.00312111	      0.01883130	      0.17590073	     -0.02625325	     -0.00132210	      0.00983158	     -0.01072956
    146.72368000	      0.03843781	      0.03551875	      0.01085643	      0.03313426	      0.01062557	      0.01010745	      0.01003133	      0.01011236	      0.01002809	      0.01004186	      0.01063742	      0.02655257	      0.25289437	      0.50838999	      0.01002594	      0.01001617	      0.01002771	      0.19816199	      0.02408927	      0.01005041	      0.09585327	      0.03163871	      0.01025381	      0.01009539	      0.11997507	      0.02574361	      0.07731726	      0.01002693	      0.03601372	      0.11996978	      0.01012346	      0.01003227	      0.01007217	      0.78762065	      0.06427957	      0.01001091	      0.01037057	      0.10680774	      0.33535741	      0.16945383	     -5.07250372	      4.80449093	     -5.18954777	     -9.73798962	      5.94225474	     -1.87524955	     -0.00023244	     -0.00019912	      0.00690060	     -0.00300708	     -0.00944212	     -0.00011627	      0.00396622	      0.16814594	     -0.06455884	      0.01187903	      0.00890823	     -0.01061140
    146.74272000	      0.01342818	      0.02540814	      0.01064614	      0.01016261	      0.01191285	      0.02192203	      0.01007979	      0.01035882	      0.01003195	      0.01004688	      0.01060450	      0.01968151	      0.22404638	      0.44990877	      0.03174887	      0.04463696	      0.01386816	      0.01008815	      0.01079810	      0.02489566	      0.01010819	      0.01111384	      0.01496685	      0.01144772	      0.01041141	      0.04057057	      0.10370413	      0.05371308	      0.01692358	      0.15105508	      0.01271952	      0.01003311	      0.01008723	      0.67507725	      0.01262849	      0.01001191	      0.01022212	      0.05002786	      0.15788495	      0.07994546	     -5.61703960	     -0.20165269	      0.87347316	    -11.23336649	     -1.83936488	     -5.95778805	      0.00115092	      0.00009129	     -0.00206954	     -0.00140378	     -0.00808806	     -0.00075782	     -0.01261879	      0.13567740	     -0.04890064	      0.01595789	      0.00854704	     -0.01198350
    146.76176000	      0.06797889	      0.06276468	      0.01316797	      0.05226110	      0.01428566	      0.01009589	      0.01005188	      0.01064933	      0.01003447	      0.01006501	      0.01464065	      0.04112492	      0.18043887	      0.31962133	      0.01001369	      0.01000916	      0.01001780	      0.12870812	      0.01004587	      0.01001789	      0.08386266	      0.01010676	      0.01004453	      0.01011284	      0.16965812	      0.01026397	      0.01029996	      0.01001318	      0.04836460	      0.01006344	      0.01011216	      0.01510484	      0.01113939	      0.55400680	      0.02717355	      0.01001921	      0.04619504	      0.02619030	      0.08123627	      0.04145628	     -2.66180447	     -2.45867355	      1.63760772	     -6.46273160	     -1.03253875	     -0.99323159	     -0.00076441	      0.00012317	      0.01083099	     -0.00071132	     -0.00515468	      0.00128962	     -0.03077224	      0.10393783	     -0.02508701	      0.01452509	      0.00908037	     -0.01239846
    146.78080000	      0.15726151	      0.05537477	      0.01156967	      0.22948595	      0.01015868	      0.01001314	      0.01001294	      0.01234040	      0.01003891	      0.01016220	      0.02233710	      0.04985882	      0.13450329	      0.08729602	      0.01000296	      0.01000198	      0.01000345	      0.50258970	      0.01000893	      0.01000364	      0.34779063	      0.01002536	      0.01000978	      0.01002179	      0.76594134	      0.01009579	      0.01004424	      0.01000307	      0.14590099	      0.01000818	      0.01004470	      0.25977596	      0.03417616	      0.43544958	      0.07306381	      0.01003278	      0.07637936	      0.02147850	      0.05659657	      0.02992493	      5.13207953	     -1.62478545	      0.64224085	     10.51214387	     -0.10791112	      7.61597145	     -0.00708700	     -0.00278677	      0.05344308	     -0.00048286	     -0.00322825	      0.00213926	     -0.04291820	      0.07960823	     -0.02522734	      0.01498517	      0.01033171	     -0.01094797
    146.79984000	      0.04070290	      0.05350472	      0.01003749	      0.01014462	      0.01004042	      0.01002441	      0.01002188	      0.06791930	      0.01008611	      0.01032215	      0.01432238	      0.02236749	      0.25628228	      0.01001084	      0.01000628	      0.01000392	      0.01000497	      0.24306839	      0.01002087	      0.01000852	      0.17429133	      0.01008542	      0.01002550	      0.01008323	      0.44952509	      0.01060930	      0.01037042	      0.01000814	      0.15424421	      0.01001051	      0.02740945	      0.15134432	      0.02570215	      0.20629055	      0.08006258	      0.01005930	      0.03017957	      0.01001312	      0.01000427	      0.01000814	      5.09192852	     -0.87304634	     -1.22428025	     10.92115254	      0.96034974	      5.23050363	      0.00270683	     -0.00459594	      0.02170844	      0.00873101	     -0.00156463	      0.00064005	     -0.03910856	      0.07175647	     -0.05518045	      0.02389184	      0.01176829	     -0.00916659
    146.81888000	      0.13455855	      0.23526665	      0.05562812	      0.01014379	      0.12505217	      0.18797962	      0.03695841	      0.01626727	      0.10133987	      0.07203071	      0.01270810	      0.01025374	      0.01001434	      0.46637807	      0.03533053	      0.04974833	      0.15621858	      0.01002043	      0.01011912	      0.07345018	      0.01005046	      0.01030098	      0.04139752	      0.09138718	      0.01012450	      0.01004985	      0.01002464	      0.17087389	      0.08342400	      0.01707016	      0.01720945	      0.01007946	      0.01171271	      0.01000586	      0.01008257	      0.36583973	      0.03619645	      0.01004720	      0.01001646	      0.01003033	     -3.98812835	      2.54301054	     -0.83911744	     -9.21105308	     -0.53392197	     -9.05842159	      0.00586346	      0.00351720	     -0.00719299	      0.00213224	      0.00648922	      0.00235693	     -0.03447649	      0.09792605	     -0.10033124	      0.04543907	      0.01235211	     -0.00826455
    146.83792000	      0.13329657	      0.16288154	      0.04120796	      0.11103119	      0.05740560	      0.01004214	      0.01003624	      0.01312233	      0.05223336	      0.01949548	      0.01047520	      0.01012543	      0.02802370	      0.01000519	      0.01000508	      0.01000360	      0.01000674	      0.01005006	      0.01000834	      0.01000460	      0.05569404	      0.01001909	      0.01001074	      0.01006297	      0.36088636	      0.01978925	      0.03062675	      0.01000369	      0.07925001	      0.01001409	      0.01009818	      0.12352850	      0.02869693	      0.01001812	      0.01006391	      0.05847834	      0.01005514	      0.01074719	      0.01028532	      0.01052031	     -0.17865263	      6.59623714	     -2.03330406	      2.86836300	      2.72988785	      2.11034625	     -0.00144437	      0.00125554	      0.02583962	      0.00051650	      0.00171872	     -0.00109109	     -0.06437654	      0.14999681	     -0.12871943	      0.08202707	      0.01074028	     -0.00770464
    146.85696000	      0.14108618	      0.19270244	      0.04556451	      0.06311831	      0.08455281	      0.01204630	      0.01010318	      0.02562828	      0.08331978	      0.02639402	      0.01010253	      0.01005303	      0.01003865	      0.02773549	      0.01000616	      0.01000433	      0.01000909	      0.01002313	      0.01000971	      0.01000574	      0.01074469	      0.01002314	      0.01001317	      0.01155267	      0.26521653	      0.02773808	      0.05067275	      0.01000422	      0.10709705	      0.01001123	      0.01048195	      0.12958588	      0.04623594	      0.01000835	      0.01005037	      0.09195084	      0.01003082	      0.01002610	      0.01000909	      0.01001718	     -0.27094405	     -1.47712097	      1.77718393	      0.05027068	     -1.39884423	      0.80955489	      0.00162029	      0.00189372	      0.01661565	      0.00359140	      0.00296185	     -0.00198400	     -0.11699925	      0.14717646	     -0.09984879	      0.11063738	      0.00757215	     -0.00757763
    146.87600000	      0.10266091	      0.22230318	      0.01004503	      0.01003165	      0.01077880	      0.06428465	      0.01004513	      0.10073061	      0.10629434	      0.03276111	      0.01006761	      0.01003333	      0.01241802	      0.01000783	      0.01001106	      0.01000575	      0.01000689	      0.02819375	      0.01008032	      0.01003665	      0.06828471	      0.04248574	      0.01796743	      0.08801014	      0.29301043	      0.04229333	      0.08183266	      0.01006656	      0.24794330	      0.01001015	      0.07936409	      0.05099400	      0.03073553	      0.01000475	      0.07556461	      0.11119690	      0.01001822	      0.01000662	      0.01000212	      0.01000417	      5.68225789	     -9.60374197	     -4.13878559	      3.57705507	      5.39284313	      6.53287515	      0.01305019	     -0.00296237	      0.00148877	      0.01415873	      0.00407378	     -0.00316075	     -0.15490818	      0.07670175	     -0.04982410	      0.12100211	      0.00417333	     -0.00797330
