PassiveFiberForceAlongTendon
version=1
nRows=51
nColumns=5
inDegrees=no

This analysis gathers basic information about muscles during a simulation (e.g., forces, tendon lengths, moment arms, etc).
Units are S.I. units (second, meters, Newtons, ...)
If the header above contains a line with 'inDegrees', this indicates whether rotational values are in degrees (yes) or radians (no).

endheader
time	recfem_r	vaslat_r	vasint_r	vasmed_r
     11.87332986	     85.39591602	     86.27079908	     32.36583373	     50.36320957
     11.88839651	     84.22988647	     81.72102040	     30.61077872	     47.73838293
     11.90346316	     83.69986803	     79.47161419	     29.71645239	     46.36609979
     11.91852981	     85.82651931	     81.12303111	     30.29718608	     47.15777816
     11.93359647	     92.89448914	     87.85345082	     32.80022793	     50.79818144
     11.94866312	    107.18880745	    100.54266908	     37.55445458	     57.78459841
     11.96372977	    131.32469195	    119.91016825	     44.87912951	     68.51781636
     11.97879642	    168.64737565	    146.44939157	     55.13304823	     83.35796866
     11.99386307	    221.94624240	    179.55202139	     68.31176493	    102.07167658
     12.00892972	    292.11107814	    217.71211552	     84.02712048	    123.87150079
     12.02399638	    381.43047012	    261.15810858	    102.58362988	    149.08970839
     12.03906303	    484.38231077	    307.47242882	    123.23819508	    176.55097611
     12.05412968	    584.39895416	    353.04546792	    144.57408687	    204.23166178
     12.06919633	    660.65758560	    395.66620533	    165.60325597	    230.88376552
     12.08426298	    692.23085186	    433.58856577	    185.34641565	    255.37184410
     12.09932963	    666.97371267	    466.43768341	    202.40232474	    276.09450673
     12.11439629	    592.00633000	    492.69647430	    215.15708282	    291.28679682
     12.12946294	    493.09723471	    508.70793533	    222.54092380	    300.15594317
     12.14452959	    397.10530600	    511.80273891	    224.02021358	    301.94221091
     12.15959624	    317.67459638	    501.04427088	    219.31630500	    296.12354051
     12.17466289	    255.18113571	    477.72038855	    208.48012766	    283.18152896
     12.18972954	    203.89027384	    444.73405936	    191.96394369	    263.21176560
     12.20479620	    158.72323714	    404.69995732	    171.03912609	    237.39708962
     12.21986285	    117.60878946	    356.66522083	    147.23761858	    207.36868638
     12.23492950	     81.15038008	    301.99721276	    121.73216539	    174.35570233
     12.24999615	     51.67983035	    244.14143528	     96.21609502	    140.40833454
     12.26506280	     31.30562786	    190.42710479	     73.64355471	    109.64184068
     12.28012945	     18.30956379	    143.11800791	     54.65235714	     83.03548703
     12.29519610	     11.26951050	    105.54902495	     40.07104704	     62.02466130
     12.31026276	      8.44461925	     80.30331882	     30.33827033	     47.64816453
     12.32532941	      8.36180792	     66.75892602	     24.94098845	     39.49489648
     12.34039606	     10.08445480	     62.63153017	     23.16889953	     36.64802872
     12.35546271	     13.11352226	     65.67631020	     24.26853269	     38.06494858
     12.37052936	     17.31786066	     74.80972424	     27.74253236	     43.10804298
     12.38559601	     22.76440697	     89.47405027	     33.29045056	     51.35282990
     12.40066267	     29.38707603	    108.37907265	     40.46075295	     62.01002721
     12.41572932	     36.80210972	    129.00931469	     48.40625410	     73.67748188
     12.43079597	     44.19142299	    147.41455217	     55.66264650	     84.18873306
     12.44586262	     50.97072109	    159.44280668	     60.52311425	     91.15878543
     12.46092927	     57.42548115	    162.67814247	     61.91849049	     93.16954400
     12.47599592	     64.37891898	    157.10027483	     59.79098270	     90.18870727
     12.49106258	     72.25737691	    144.51292151	     54.88914759	     83.24482635
     12.50612923	     80.26482108	    127.63886956	     48.35212761	     73.89042291
     12.52119588	     86.23774671	    109.29232399	     41.31855522	     63.70453815
     12.53626253	     87.82454389	     91.85346395	     34.66443541	     53.94183698
     12.55132918	     84.64596921	     77.17916486	     29.01468271	     45.55413219
     12.56639583	     79.40097346	     66.78798697	     24.91384867	     39.40025300
     12.58146249	     75.79442458	     61.26070073	     22.65235206	     35.93849184
     12.59652914	     76.44158825	     60.39015293	     22.23761531	     35.19044565
     12.61159579	     82.25444945	     63.46304691	     23.40275283	     36.78763958
     12.62666244	     92.22680575	     69.11826958	     25.56626570	     39.89344717
