Joint Reaction Loads
version=1
nRows=51
nColumns=10
inDegrees=no

This file contains the reaction forces and moments
applied to the specified body of a joint pair and expressed  in the specified reference frame.

Units are S.I. units (seconds, meters, Newtons, ...)
endheader
time	patellofemoral_r_on_patella_r_in_patella_r_fx	patellofemoral_r_on_patella_r_in_patella_r_fy	patellofemoral_r_on_patella_r_in_patella_r_fz	patellofemoral_r_on_patella_r_in_patella_r_mx	patellofemoral_r_on_patella_r_in_patella_r_my	patellofemoral_r_on_patella_r_in_patella_r_mz	patellofemoral_r_on_patella_r_in_patella_r_px	patellofemoral_r_on_patella_r_in_patella_r_py	patellofemoral_r_on_patella_r_in_patella_r_pz
    143.56000000	    563.49675620	   -172.49750714	      4.34780861	     -2.86100609	      0.92356257	    -11.84136811	      0.00000000	      0.00000000	      0.00000000
    143.57576000	    456.62177825	   -142.56372166	     -8.12678163	     -2.75540840	      0.92877547	     -9.17262951	      0.00000000	      0.00000000	      0.00000000
    143.59152000	    368.38677780	   -113.98671743	    -15.94313588	     -2.59183051	      0.92845434	     -7.26612317	      0.00000000	      0.00000000	      0.00000000
    143.60728000	    311.59556805	    -93.50044320	    -17.08856499	     -2.37804101	      0.93422658	     -6.23194806	      0.00000000	      0.00000000	      0.00000000
    143.62304000	    306.90850556	    -87.48710820	    -18.48242241	     -2.43702952	      1.00037727	     -6.43371931	      0.00000000	      0.00000000	      0.00000000
    143.63880000	    385.73879345	   -101.80496661	    -11.87427990	     -2.67765517	      1.10948022	     -8.79436458	      0.00000000	      0.00000000	      0.00000000
    143.65456000	    571.26468492	   -130.10125820	      5.52676068	     -3.14973743	      1.25811754	    -14.54174321	      0.00000000	      0.00000000	      0.00000000
    143.67032000	    833.62470769	   -148.51470410	     33.94441149	     -3.69915559	      1.41832751	    -23.46546185	      0.00000000	      0.00000000	      0.00000000
    143.68608000	   1084.39603250	   -131.48699178	     64.68621837	     -4.14988706	      1.57111501	    -32.90470818	      0.00000000	      0.00000000	      0.00000000
    143.70184000	   1263.69806097	    -76.52607949	     88.62046443	     -4.50032652	      1.72793575	    -40.39615788	      0.00000000	      0.00000000	      0.00000000
    143.71760000	   1396.55665841	     -1.08199342	    105.68683224	     -4.87119717	      1.90591837	    -46.16128636	      0.00000000	      0.00000000	      0.00000000
    143.73336000	   1524.98452698	     85.15677712	    120.88842697	     -5.30869208	      2.07844951	    -51.52013709	      0.00000000	      0.00000000	      0.00000000
    143.74912000	   1658.54710859	    175.87864796	    138.22719270	     -5.71256608	      2.20837432	    -56.89192414	      0.00000000	      0.00000000	      0.00000000
    143.76488000	   1768.51068055	    256.80334806	    154.83829053	     -5.97652676	      2.28115391	    -61.24251335	      0.00000000	      0.00000000	      0.00000000
    143.78064000	   1818.61764350	    308.21668983	    164.96317584	     -6.04442393	      2.30117958	    -63.24346672	      0.00000000	      0.00000000	      0.00000000
    143.79640000	   1787.61425542	    316.57261856	    163.54453756	     -5.94360280	      2.28321322	    -62.13155722	      0.00000000	      0.00000000	      0.00000000
    143.81216000	   1675.52951633	    281.10479996	    150.27306005	     -5.69111561	      2.23391656	    -57.93319900	      0.00000000	      0.00000000	      0.00000000
    143.82792000	   1498.57575966	    214.88145147	    127.34990644	     -5.33663007	      2.15567826	    -51.28299860	      0.00000000	      0.00000000	      0.00000000
    143.84368000	   1281.73090550	    135.10866224	     99.86408167	     -4.87268905	      2.03670567	    -43.14926516	      0.00000000	      0.00000000	      0.00000000
    143.85944000	   1046.09236816	     57.39394366	     71.87496848	     -4.29536141	      1.85837717	    -34.37135388	      0.00000000	      0.00000000	      0.00000000
    143.87520000	    811.31974694	     -5.62918455	     45.80495030	     -3.65185561	      1.60782734	    -25.71918823	      0.00000000	      0.00000000	      0.00000000
    143.89096000	    610.97261529	    -48.52699639	     23.58393748	     -3.09283660	      1.31286793	    -18.30162995	      0.00000000	      0.00000000	      0.00000000
    143.90672000	    449.09626929	    -71.36403761	      5.47148851	     -2.68115043	      0.98805682	    -12.27590400	      0.00000000	      0.00000000	      0.00000000
    143.92248000	    336.47959397	    -80.29427874	     -8.13516735	     -2.48705304	      0.72181748	     -7.95023768	      0.00000000	      0.00000000	      0.00000000
    143.93824000	    266.60335760	    -78.83564453	    -18.15327937	     -2.42989766	      0.59831310	     -5.22402848	      0.00000000	      0.00000000	      0.00000000
    143.95400000	    228.74865664	    -69.47106578	    -25.68540600	     -2.38584390	      0.64568122	     -3.98658873	      0.00000000	      0.00000000	      0.00000000
    143.96976000	    206.96092559	    -57.06457641	    -30.12962051	     -2.21709288	      0.82035363	     -3.70535608	      0.00000000	      0.00000000	      0.00000000
    143.98552000	    183.74126189	    -45.55498793	    -29.40658140	     -1.85655975	      0.97147155	     -3.56636458	      0.00000000	      0.00000000	      0.00000000
    144.00128000	    151.92290348	    -38.26558357	    -23.52977704	     -1.46496090	      0.83017315	     -2.99639694	      0.00000000	      0.00000000	      0.00000000
    144.01704000	    136.46971856	    -40.63024963	    -18.77583036	     -1.61270525	      0.24817989	     -2.36940378	      0.00000000	      0.00000000	      0.00000000
    144.03280000	    228.40598060	    -75.35928347	    -25.52367934	     -3.15255907	     -0.37103818	     -3.63992399	      0.00000000	      0.00000000	      0.00000000
    144.04856000	    615.07421133	   -185.32465539	    -39.75571365	     -6.30509430	      0.34055561	    -11.86972962	      0.00000000	      0.00000000	      0.00000000
    144.06432000	   1512.57118813	   -366.29824416	    -43.83473708	    -10.58561256	      4.92787044	    -35.54452406	      0.00000000	      0.00000000	      0.00000000
    144.08008000	   2942.43013795	   -521.29093411	      6.27393475	    -14.80766012	     15.11064377	    -78.46287581	      0.00000000	      0.00000000	      0.00000000
    144.09584000	   4543.67990384	   -568.15658383	    113.62560401	    -18.24166325	     28.45588806	   -129.90828360	      0.00000000	      0.00000000	      0.00000000
    144.11160000	   5764.85764350	   -522.75776569	    219.39446512	    -20.73668182	     39.04812313	   -170.95495889	      0.00000000	      0.00000000	      0.00000000
    144.12736000	   6211.48457210	   -477.22374558	    274.53581258	    -21.45168804	     42.10761432	   -186.95586595	      0.00000000	      0.00000000	      0.00000000
    144.14312000	   5802.89435335	   -481.64161562	    255.53107645	    -20.19236889	     37.14154064	   -174.30314251	      0.00000000	      0.00000000	      0.00000000
    144.15888000	   4772.86107986	   -510.57550852	    192.42720791	    -17.17251986	     27.47103196	   -140.78792428	      0.00000000	      0.00000000	      0.00000000
    144.17464000	   3498.49396920	   -505.13922871	    116.08055163	    -13.45440870	     17.37860199	    -99.56850082	      0.00000000	      0.00000000	      0.00000000
    144.19040000	   2328.13758461	   -443.55117731	     54.38045262	     -9.81378657	      9.66826864	    -62.61056062	      0.00000000	      0.00000000	      0.00000000
    144.20616000	   1430.16900233	   -344.24894421	     17.11252183	     -6.63602623	      4.86631024	    -35.45648557	      0.00000000	      0.00000000	      0.00000000
    144.22192000	    823.61249267	   -234.93477035	      0.94140989	     -4.14316993	      2.28526682	    -18.47794234	      0.00000000	      0.00000000	      0.00000000
    144.23768000	    467.63257031	   -145.89118205	     -6.18111669	     -2.59608296	      1.10139609	     -9.53020486	      0.00000000	      0.00000000	      0.00000000
    144.25344000	    293.60233351	    -92.97498079	    -11.48415366	     -1.92546180	      0.69677864	     -5.60562692	      0.00000000	      0.00000000	      0.00000000
    144.26920000	    232.35888312	    -71.39585714	    -15.80270589	     -1.80117083	      0.67007528	     -4.33451969	      0.00000000	      0.00000000	      0.00000000
    144.28496000	    231.75610993	    -69.33393520	    -22.51020856	     -2.04240018	      0.79468404	     -4.33118107	      0.00000000	      0.00000000	      0.00000000
    144.30072000	    256.48863895	    -77.11262030	    -24.08228717	     -2.23155703	      0.89796198	     -4.82114928	      0.00000000	      0.00000000	      0.00000000
    144.31648000	    291.53381539	    -89.09586060	    -21.19199732	     -2.32684618	      0.95392905	     -5.59763519	      0.00000000	      0.00000000	      0.00000000
    144.33224000	    333.97503393	   -100.93006112	    -16.15467434	     -2.40246844	      0.99017644	     -6.74663431	      0.00000000	      0.00000000	      0.00000000
    144.34800000	    385.50127189	   -110.00652330	     -9.37220997	     -2.47960710	      1.02963698	     -8.39500209	      0.00000000	      0.00000000	      0.00000000
