inDegrees=no
DataType=double
version=3
OpenSimVersion=4.6-2026-03-27-4e5ffda9c
endheader
time	/jointset/ground_pelvis/pelvis_tilt/value	/jointset/ground_pelvis/pelvis_list/value	/jointset/ground_pelvis/pelvis_rotation/value	/jointset/ground_pelvis/pelvis_tx/value	/jointset/ground_pelvis/pelvis_ty/value	/jointset/ground_pelvis/pelvis_tz/value	/jointset/hip_r/hip_flexion_r/value	/jointset/hip_r/hip_adduction_r/value	/jointset/hip_r/hip_rotation_r/value	/jointset/hip_l/hip_flexion_l/value	/jointset/hip_l/hip_adduction_l/value	/jointset/hip_l/hip_rotation_l/value	/jointset/walker_knee_r/knee_angle_r/value	/jointset/patellofemoral_r/knee_angle_r_beta/value	/jointset/walker_knee_l/knee_angle_l/value	/jointset/patellofemoral_l/knee_angle_l_beta/value	/jointset/ankle_r/ankle_angle_r/value	/jointset/ankle_l/ankle_angle_l/value	/jointset/subtalar_r/subtalar_angle_r/value	/jointset/subtalar_l/subtalar_angle_l/value	/jointset/ground_pelvis/pelvis_tilt/speed	/jointset/ground_pelvis/pelvis_list/speed	/jointset/ground_pelvis/pelvis_rotation/speed	/jointset/ground_pelvis/pelvis_tx/speed	/jointset/ground_pelvis/pelvis_ty/speed	/jointset/ground_pelvis/pelvis_tz/speed	/jointset/hip_r/hip_flexion_r/speed	/jointset/hip_r/hip_adduction_r/speed	/jointset/hip_r/hip_rotation_r/speed	/jointset/hip_l/hip_flexion_l/speed	/jointset/hip_l/hip_adduction_l/speed	/jointset/hip_l/hip_rotation_l/speed	/jointset/walker_knee_r/knee_angle_r/speed	/jointset/patellofemoral_r/knee_angle_r_beta/speed	/jointset/walker_knee_l/knee_angle_l/speed	/jointset/patellofemoral_l/knee_angle_l_beta/speed	/jointset/ankle_r/ankle_angle_r/speed	/jointset/ankle_l/ankle_angle_l/speed	/jointset/subtalar_r/subtalar_angle_r/speed	/jointset/subtalar_l/subtalar_angle_l/speed	/forceset/addbrev_r/activation	/forceset/addlong_r/activation	/forceset/addmagDist_r/activation	/forceset/addmagIsch_r/activation	/forceset/addmagMid_r/activation	/forceset/addmagProx_r/activation	/forceset/bflh_r/activation	/forceset/bfsh_r/activation	/forceset/edl_r/activation	/forceset/ehl_r/activation	/forceset/fdl_r/activation	/forceset/fhl_r/activation	/forceset/gaslat_r/activation	/forceset/gasmed_r/activation	/forceset/glmax1_r/activation	/forceset/glmax2_r/activation	/forceset/glmax3_r/activation	/forceset/glmed1_r/activation	/forceset/glmed2_r/activation	/forceset/glmed3_r/activation	/forceset/glmin1_r/activation	/forceset/glmin2_r/activation	/forceset/glmin3_r/activation	/forceset/grac_r/activation	/forceset/iliacus_r/activation	/forceset/perbrev_r/activation	/forceset/perlong_r/activation	/forceset/piri_r/activation	/forceset/psoas_r/activation	/forceset/recfem_r/activation	/forceset/sart_r/activation	/forceset/semimem_r/activation	/forceset/semiten_r/activation	/forceset/soleus_r/activation	/forceset/tfl_r/activation	/forceset/tibant_r/activation	/forceset/tibpost_r/activation	/forceset/vasint_r/activation	/forceset/vaslat_r/activation	/forceset/vasmed_r/activation
143.56	-0.08105507401872554	-0.2362085473579597	1.515976226569573	0.7973919777512498	0.9958251144869953	-1.205482325408945	0.05879604801137269	-0.1083235830070653	0.01449114925973538	0.6516498230961432	-0.0325453014531373	-0.01185683951253508	0.3281883160909955	0.3281883160909955	0.9697567614229294	0.9697567614229294	0.0986149229721569	0.03624319457270768	-0.3533467643958307	-0.5622180774059043	-4.528401676898108	-1.567052990208222	1.090643030289153	-0.2723434284334586	0.464609490414249	-0.1895339644019784	-2.074251078268452	-5.330123546151192	1.557541801258213	0.7548090494808006	5.301295744515079	-3.268797958311425	-3.387790739188498	-3.387790739188498	-10.60518931083341	-10.60518931083341	5.268088734663417	-6.156964770018192	1.726920200285903	-4.7357900417853	0.03366138437973329	0.04749679937741697	0.01198020800835553	0.01449845584439787	0.0128616309057605	0.01304836871593661	0.01098065986497739	0.02002300749489821	0.01072139836462395	0.01055245671418598	0.01192005932491258	0.01092300962876868	0.01032165922646001	0.2346177558212923	0.01151984430179363	0.01089680907432729	0.01100613942415301	0.1914396580735934	0.04858386709457419	0.01622145241632681	0.0910565207138446	0.0684705110086367	0.05987402684968575	0.01550888025394303	0.1128039807161094	0.1797976419523473	0.5072354403225742	0.1194500362451846	0.03958490287255664	0.1170893755148217	0.03316148631899516	0.01061181151496171	0.01181690807605653	0.06295897188598924	0.1028069273253576	0.9517121499263763	0.3324326585890641	0.01850562509238396	0.01595021825171312	0.01910565944857168
143.57576	-0.1496499520914769	-0.2540865634660602	1.521332303499945	0.7937148380030635	1.002765081059817	-1.208683035486435	0.02414279796197629	-0.1926844759117478	0.03521164689986887	0.6478633708531044	0.04460605757985404	-0.06331900024331191	0.2867727751882479	0.2867727751882479	0.7900011339726747	0.7900011339726747	0.1446512519309817	-0.0525506260772122	-0.282567178451919	-0.610004650389585	-3.979792460265665	-1.095918851434391	0.4408996603366689	-0.2354430994589496	0.4030664486626746	-0.1988720363078161	-2.003921129750083	-4.889228467380849	1.660122893055577	-0.228801332086293	4.656489795027558	-2.914266902938614	-1.927820881961227	-1.927820881961227	-11.08787708886955	-11.08787708886955	2.235079413078141	-5.334010461783902	3.696293126372992	-2.051507189228125	0.06482111252290121	0.07545091484330525	0.02061867793549947	0.03213480374199357	0.02963288073233014	0.01916086873635057	0.01108732609660595	0.02142235984928259	0.1133732711237273	0.07266175720114194	0.01106034071171393	0.01050519842736951	0.02312200570516353	0.1998428623402754	0.01094011296567291	0.01055297369731721	0.01004052531769933	0.1327595757895455	0.03402373345910591	0.0137978342527803	0.08473034666202361	0.04427438389825963	0.03945907682701758	0.01596682546954387	0.1498814379584507	0.125706278313266	0.4448470391934835	0.07919131832132517	0.06878178245763172	0.0787559186813241	0.02261529292194066	0.03253814218818771	0.02061993363271875	0.05697502097402857	0.06470042453421156	0.8201148583504758	0.2279555129017723	0.01571730399870454	0.01382579101316777	0.01592328617354397
143.59152	-0.2085714642789126	-0.2687803707958321	1.525224049734633	0.7901987890153888	1.008781315030638	-1.211846837240547	-0.007112262252158372	-0.2661492519384426	0.05864000447382213	0.639014342837826	0.1134990433772848	-0.1080930166005735	0.2641593730435908	0.2641593730435908	0.6139177649394246	0.6139177649394246	0.1665406044218455	-0.1345673902005161	-0.2121948076171135	-0.6325912472244284	-3.155541841259936	-0.6940182226282534	0.06878093052589457	-0.2090325896948064	0.3215865508265394	-0.2003241633148738	-1.782485095050989	-4.028350103980733	1.769828546063925	-0.9699236990216094	3.855050891646261	-2.412090724777204	-0.2061997575772907	-0.2061997575772907	-11.04982386867447	-11.04982386867447	-0.5317762127400419	-4.697338972865638	4.637041841208618	0.3834618424052311	0.0966254284883124	0.1170453465810382	0.0259180591158315	0.04198116789043031	0.04342965536516802	0.03040747675933702	0.0113178017550385	0.02987905920238867	0.1909347140241042	0.1132884792819974	0.01061290511615201	0.01028412703896721	0.02942253247920748	0.1560894316744411	0.01047007107891367	0.0102832235304627	0.00994561497385656	0.07823817578521963	0.02154276719067659	0.01175153082985355	0.07381567378603243	0.02344895028388419	0.02141365780568282	0.0234001442564747	0.1801658805284284	0.08591058404301773	0.3650290754426272	0.04185800954105803	0.09997966523507568	0.04285716631460786	0.01945360202899341	0.05462636525436532	0.0305272287919175	0.0480922276428196	0.03214903931039934	0.6670267981448007	0.1327389221104877	0.01323601904978885	0.01198967332634801	0.01315280572787712
143.60728	-0.2499339058736619	-0.2785022742415709	1.528477771704408	0.7868916266532692	1.013157691534685	-1.214892359308022	-0.03213804819704927	-0.318900153066456	0.08627029642185463	0.6233071177571821	0.1675614616535379	-0.1415880357393144	0.2732112628369825	0.2732112628369825	0.4479906757323635	0.4479906757323635	0.150253678773609	-0.2085061951760762	-0.1485174360481059	-0.6200329329675738	-1.963505890592618	-0.3790176975454092	0.09542775360772626	-0.1969982419862253	0.212687485995933	-0.1900418766661407	-1.374946009738882	-2.580901153962946	1.908536740615532	-1.358495902701886	2.829893354075638	-1.724694079651621	1.798077440983004	1.798077440983004	-10.20080864510059	-10.20080864510059	-2.855421421656406	-4.441373989186239	4.085701604387089	2.108556702610123	0.1267872570619488	0.1767532862893322	0.02585118635853413	0.04045636892530559	0.05083733229356547	0.04835232087641404	0.01165326578647795	0.04680938707717537	0.2252120298768424	0.1214610673137584	0.01110416137532177	0.01049238790629365	0.02745237265684961	0.1053840194587403	0.01018884815571246	0.01013473059155567	0.01110856715945928	0.03521056966497277	0.01304130136843219	0.01044350310607134	0.05938101865063579	0.01127981629881045	0.01021686880840697	0.03972041544597774	0.203037291714937	0.06688886964116178	0.275332066508119	0.01357532655137628	0.1354983860713938	0.0143098795262955	0.02836557618209863	0.07235873762847261	0.03920507191473124	0.03599265208286655	0.01422062254222212	0.4985805148333513	0.0600085879187076	0.01137733561906854	0.01069249744264534	0.01116665610003536
143.62304	-0.2691914918961913	-0.2828624319617757	1.533925136451218	0.7837419066922425	1.015491058905457	-1.217701364546967	-0.0494953591520431	-0.3440133306644951	0.1184043507932622	0.6025151944657278	0.2028700532465219	-0.1617263474746717	0.3178324261116536	0.3178324261116536	0.3016011858976594	0.3016011858976594	0.09545523606676135	-0.2795632110167368	-0.1034023429339694	-0.5830125282349792	-0.5422038555002522	-0.09641813491800552	0.4194223787545395	-0.1935503954166107	0.08346825996277012	-0.1696427786992587	-0.8871781909060671	-0.7222687800765797	2.099523304170524	-1.45961181916146	1.626820307482849	-0.8861397716359799	3.831513154823685	3.831513154823685	-8.548430656294752	-8.548430656294752	-4.612675901709392	-4.640831942421181	2.282371520411508	2.593574279116752	0.1513509036692856	0.2479119252849096	0.0205528788420666	0.03026077597370321	0.04891721266593563	0.06998796304482377	0.01178003587566167	0.06784392225505542	0.2154794626871138	0.102974687772482	0.01282319684688833	0.0112398382868817	0.02186537534653278	0.06157796268679022	0.01010552687317927	0.01009773463248632	0.01276878491441389	0.01157298240854042	0.009410417843155315	0.01007186073250999	0.04915100279577295	0.01379214357456845	0.01160281782538616	0.06077244868880835	0.2269556206649432	0.06402126277589719	0.2064777269835785	0.00293840819637447	0.1783763750501688	0.0001737798891891847	0.05023241878029931	0.07792710280581885	0.04149411338057102	0.02336788475414629	0.02123825048820534	0.3485248142981993	0.02022036893803093	0.01032009608567369	0.01002908081444842	0.01012282182872805
143.6388	-0.2658382340447124	-0.2816674595508116	1.543631984359173	0.7807377932517157	1.015662274573802	-1.220169314508425	-0.05972781106392436	-0.3394865438097531	0.1543477286939361	0.5795497222775667	0.2180180934502028	-0.1672837068012453	0.393833823440393	0.393833823440393	0.1846843577566065	0.1846843577566065	0.01281753469643567	-0.3549188616156462	-0.08821683802315314	-0.5455201714881208	0.8509709946454405	0.2475455779015295	0.7658534193248625	-0.1850566563093516	-0.05251223265504755	-0.1441305834055025	-0.4771043012189592	1.145273699271268	2.279892588085215	-1.445007017533687	0.3486962782254457	0.1168380322420124	5.546784351722784	5.546784351722784	-6.289108468443099	-6.289108468443099	-5.636389540405938	-5.083373129659976	-0.09665748995391443	1.671739319008882	0.1694994747704146	0.3195344606354646	0.012283629464126	0.01818212766003453	0.03780076415200594	0.09070955482403827	0.01111182528307634	0.08852506078033742	0.1829596399764747	0.07585249690579401	0.01520948021487924	0.01225539645908554	0.0202151117417293	0.0397408675283671	0.01014907942125359	0.01010292315261923	0.01272219210574577	0.009965997312982627	0.009844480533191678	0.01050038324784593	0.05199222535051353	0.03371891752455014	0.02873753194194254	0.08072128174013873	0.2639176133788436	0.0673040804163003	0.1829190740487491	0.01658291950063911	0.2307570076125834	0.006712844670739557	0.08295174464491278	0.06729240632213132	0.03446594842918936	0.01381034699595613	0.05734226450393985	0.2515236418189236	0.01110474564386982	0.009962166125726752	0.0098670234760372	0.009842172168160183
143.65456	-0.2427819659841315	-0.2740260902565421	1.55605140607885	0.7780456604490172	1.013720540582012	-1.222242019033714	-0.06481941777990752	-0.3090862971085778	0.1915017676664348	0.5560387470695627	0.2132415001548471	-0.1558158483000582	0.4925053006814099	0.4925053006814099	0.1053027464388971	0.1053027464388971	-0.08093113131993959	-0.4370896114819875	-0.1074300172731689	-0.5300734158790364	1.996912720925926	0.7047298888088044	0.8203775282368033	-0.1567606011571814	-0.18495141731539	-0.1177511897127556	-0.215651382356438	2.607777021359376	2.254925861646034	-1.461959728493772	-0.9037367492169415	1.351946485474103	6.727730327270088	6.727730327270088	-3.655489136159891	-3.655489136159891	-5.741805940807831	-5.310713664110095	-2.321645683280146	-0.1396398342535598	0.1873683801963499	0.3860344037300903	0.005166581236406818	0.0100195872024967	0.02458275158203494	0.1099897909074057	0.009319560394009246	0.1087665625625456	0.158403547735655	0.0568507662912868	0.01685170998648572	0.01290553145965847	0.02634841613323965	0.04327857304614536	0.01020997058156415	0.01006954553300826	0.00857295140082519	0.02444377893088619	0.01210414573479835	0.01120894350182271	0.06921805522420869	0.06613274180583097	0.05780072451253204	0.09805698585480109	0.3159695281740428	0.0706492628581377	0.1964694869626808	0.05303149264464133	0.2894651520301387	0.03444885510264274	0.1216676472229608	0.04560889149433722	0.02242277593319655	0.009104463747415711	0.1132170062700361	0.2158620920196945	0.01802293693670004	0.009988527367740963	0.009943217820689123	0.009936253417423959
143.67032	-0.2048794381643826	-0.2589432090218241	1.565598969561282	0.7760066431799733	1.009769918272373	-1.223898283445239	-0.06635937934871181	-0.2611733512070135	0.2247149913409559	0.5321026264912656	0.1899696021103952	-0.1238044700543862	0.6047439349154695	0.6047439349154695	0.06850596629588032	0.06850596629588032	-0.1680536207325304	-0.5206461176236978	-0.1564883048451826	-0.5445906352783465	2.782640029819959	1.208250105227308	0.4014307793632795	-0.1028882353547579	-0.309834028816219	-0.09078960932597592	-0.008156882663615972	3.415505983420684	1.842708032063498	-1.524811267296368	-2.00919713431425	2.778232667063587	7.386188058214039	7.386188058214039	-0.8552351497019065	-0.8552351497019065	-4.897571201125423	-4.934340187924093	-3.892147293140495	-1.79175402404253	0.2164958249336429	0.4510788428645213	0.005287927832973258	0.007334311636680851	0.02539909631312384	0.1351526924474201	0.00736264975578277	0.129385522461952	0.1592086175006119	0.05138496659975793	0.01656191469905568	0.01268704295156462	0.03672947534126739	0.0603146298196162	0.01019923200531138	0.009980313163807819	0.001058646072147893	0.04151743858763629	0.01340077901990305	0.01142047718748356	0.0900091380293483	0.097087094299008	0.08647540822658789	0.1172195118093935	0.3648527232255842	0.07326313804149837	0.2138815077259785	0.09803555937291188	0.342740926523371	0.07288384145070612	0.1567516616030757	0.02434203461212564	0.01604145544570387	0.00835950136399792	0.1650735546169841	0.219580586463895	0.02484248517337398	0.01009847400538422	0.01003973753815879	0.01007194641818206
143.68608	-0.1578104033472512	-0.2370140819972552	1.565479366982956	0.7749438167816469	1.003940183281762	-1.225097894759247	-0.06362469934222641	-0.2059426801238381	0.2480390580562243	0.5080627495980069	0.1517880573015844	-0.07011161777289071	0.7237713832845865	0.7237713832845865	0.07585724701504075	0.07585724701504075	-0.2344314242680519	-0.5951007384181223	-0.2245109214835231	-0.5788311955204219	3.161420307761431	1.578210016098934	-0.4023177403809859	-0.03455690542602739	-0.4241810598497538	-0.06001788727265743	0.3441462546603657	3.548918571458178	1.076505935903664	-1.512935579036745	-2.761019843249843	4.070955770239433	7.681102496478625	7.681102496478625	1.883448432987477	1.883448432987477	-3.346025281735059	-3.940807894318342	-4.644134293779876	-2.335861174121922	0.2658112595028506	0.5214877569770634	0.01932733224845707	0.008347499113491395	0.05892044766246158	0.1776707653497988	0.008138339695102879	0.1453101630860379	0.1770407083405929	0.05468208775431923	0.01457567448127428	0.01177924038218817	0.04336385897051267	0.07272307187628924	0.01009263536710875	0.009928896164430264	-0.002513651643208591	0.04563523917744922	0.01157069148715915	0.0105118517362564	0.0967299415923959	0.1089729188668775	0.09895672228620742	0.1441320689135642	0.377982942321487	0.07411922569282474	0.2096116380711366	0.1281908874661543	0.3738606462700457	0.1016890496214037	0.1742011572447932	0.01234990192822688	0.02468005709076055	0.009347454219888385	0.1844961143714915	0.2305648314275884	0.02405866720748532	0.01017324488366178	0.01007987027173612	0.01013127430867222
143.70184	-0.1078554179372118	-0.2115562801311166	1.552233264250248	0.774892455512226	0.9964635277831515	-1.225756644934836	-0.05329534457809129	-0.1523976366321711	0.2579867842699893	0.4859194624319207	0.1060264575564628	-0.0007264317305529233	0.8453858651582464	0.8453858651582464	0.1244594356952072	0.1244594356952072	-0.2728164497375785	-0.6513249863354179	-0.2992539304871095	-0.6127390044699044	3.102170840857276	1.633848230078484	-1.236414618442974	0.02286102848960758	-0.5186910806180435	-0.02289992279763148	0.978934748694354	3.178388336976789	0.2006668508323998	-1.296043388395914	-2.902107453635892	4.65976048178223	7.743364429012551	7.743364429012551	4.24396939734914	4.24396939734914	-1.536636207773424	-2.675365448381154	-4.699731331966698	-1.603284490533405	0.3311081173406792	0.5954203382029054	0.04973810947109526	0.01068941014038752	0.1298777757352375	0.2413988748930492	0.01532559587023472	0.146737086250807	0.1893234535347959	0.05928728659306816	0.01243241003318937	0.01099255015706246	0.04068916801917752	0.06996457236990558	0.009962101819369379	0.01008463074510226	0.01048553903950646	0.0292501136060111	0.006798923158371065	0.008759661310681335	0.0786340373407359	0.09255066789322311	0.08693675380581872	0.1795787468938371	0.3321060159078401	0.07148616782019439	0.1853919448802504	0.1258862146132221	0.3718529314033109	0.1032902365326957	0.163925912740392	0.01001337680600748	0.04777557069476144	0.01030245631003598	0.1573133664406865	0.2303937270004981	0.01782816203340069	0.01025515507186911	0.01009757358901664	0.01017359167647984
143.7176	-0.06179746973414523	-0.1878107616239799	1.528729255953026	0.7754764840953501	0.9877908117847782	-1.225790422703012	-0.03131928329096071	-0.1063826517724119	0.254994461052239	0.4686363907685736	0.06349224523189388	0.06951791340276212	0.9661165163569944	0.9661165163569944	0.2054426271355266	0.2054426271355266	-0.2836132314531773	-0.6863248745932983	-0.3713355751357983	-0.6309978229404155	2.617707352767433	1.332198671529657	-1.682872240092991	0.04532976044796713	-0.5762765548462305	0.01801997887448635	1.844985088466903	2.561317438230459	-0.5469332400851655	-0.8977721625782433	-2.312449512337643	4.071072233657628	7.553447921452079	7.553447921452079	5.829865620572083	5.829865620572083	0.0662118146894333	-1.558710993958002	-4.333688454439397	-0.3392766037735807	0.3904457495832916	0.6547135405780306	0.08934423082178468	0.01295966349925209	0.2161987961462401	0.3115398774621665	0.03003277799132017	0.1297193563654412	0.1828147516803082	0.06049229787008605	0.01155823592857725	0.01105575680719905	0.03010393062661653	0.05546185011156544	0.009982713277613943	0.01055352798005164	0.04841450708447825	0.00361207140616248	0.003365768738790386	0.007962795566674105	0.04397787892977938	0.05717998672901092	0.05803902532371045	0.215441889100096	0.2379684949634364	0.06852103886130598	0.1594507549888757	0.09409831497423989	0.3406175776974075	0.07760683664681386	0.1306713298869555	0.01170787588450338	0.07349432366557303	0.01063462912910336	0.09845278230465623	0.2218145711210495	0.01181352549614637	0.01039672866635849	0.01014452091476352	0.01028299197872811
143.73336	-0.02565496760597246	-0.1704501760864947	1.502899457659327	0.7760821148163305	0.9786558908055312	-1.225198495432922	0.004338187614035156	-0.07011912613433345	0.2417244554165578	0.4573606037000909	0.03474041414763852	0.1218206191856711	1.080941095402577	1.080941095402577	0.3035979533493642	0.3035979533493642	-0.273097081717452	-0.7033114127798961	-0.4360715760333088	-0.6330250619629185	1.851923421143929	0.8194897429754074	-1.55061006009612	0.02861357421517931	-0.5773032806489191	0.05516419091780178	2.716943565478778	1.943702335233374	-1.110234909361781	-0.5529817990584767	-1.202319256111418	2.38115350905503	6.964049579648275	6.964049579648275	6.312603549973581	6.312603549973581	1.161095936923523	-0.7898804388494263	-3.829584570520671	0.401627097766948	0.4128544951615924	0.670160053621227	0.1218159495980201	0.01458669603677865	0.2770500755587831	0.3567777260327455	0.04757876335571143	0.1043770816883643	0.1644547896705232	0.05728662995985323	0.01208369482604956	0.01193200243473132	0.01815541001977689	0.04019084287228158	0.01035541073304609	0.01121603350506014	0.1024952964487383	0.0004321665652265647	0.009059497158240384	0.01090503323291175	0.01899836144771179	0.02793635011128122	0.0317142078843813	0.2366262300273124	0.1423167629246587	0.07297668163771481	0.1458651153753739	0.05416552530296802	0.2968269032072562	0.04255581263984361	0.09454248912157615	0.01307118099903506	0.08706699073613035	0.01054330225563493	0.04678633341042517	0.2171865631040503	0.009246312981410428	0.0105458405546655	0.01022147660703031	0.01044554020384071
143.74912	-0.00215941169723713	-0.1610826956026981	1.48269202887901	0.7762412481777623	0.9700522470697669	-1.224106074796331	0.05196411600080454	-0.04269335589104447	0.2204408505607096	0.448859673754076	0.02454762378272361	0.1435382984934506	1.182392422950885	1.182392422950885	0.4003174981475788	0.4003174981475788	-0.2500677685024372	-0.7072747786793503	-0.4928256065071174	-0.6308675326952288	1.100787596421233	0.3481059049542152	-1.021143976856725	-0.006229489457361883	-0.5070925577656422	0.0808364587270602	3.332546594361788	1.503955433096736	-1.572184617420995	-0.5836790143363733	-0.08969645948285006	0.3409729123118457	5.833198231665123	5.833198231665123	5.657297884900886	5.657297884900886	1.686451325635975	-0.1919223352754196	-3.3687989467952	0.117484932021725	0.3782537633512981	0.619849163845462	0.1305323187202429	0.01527846443079278	0.2796244045585009	0.3475240042957466	0.05863405259038414	0.09009292024771606	0.1514484871346784	0.0515955577092639	0.01299939701054237	0.01284499539181108	0.01070559965309711	0.03118436721171346	0.01111235774557802	0.01172357701056027	0.145506400840131	0.05578205061308565	0.02996309550982882	0.01904632694856144	0.03162272510647714	0.02878966328086316	0.02399740035075663	0.2289661878191238	0.09941739030534189	0.08775921718277196	0.1472482296137531	0.02728607698843849	0.2584986473621345	0.01859792577829335	0.07723192161514876	0.01575763526385034	0.08171871353114744	0.01036147040019885	0.03939331018855198	0.222557539625039	0.009623439215556825	0.01058549844916246	0.01027915592626707	0.01055320590139524
143.76488	0.0110488471470841	-0.157676868335255	1.471010682638843	0.7759388489337076	0.9631067756592263	-1.222724342025192	0.1066158599078567	-0.02102727110535565	0.1922016610636637	0.4357544432904533	0.02885859067343485	0.1362776246646471	1.261761828440461	1.261761828440461	0.4794749767771583	0.4794749767771583	-0.2224272031165842	-0.6991183361235496	-0.5427874011169307	-0.6373279777712751	0.6679966084109319	0.1036162227469756	-0.509467802716506	-0.02671071695432246	-0.3647354264957513	0.09201011137675164	3.562334015392294	1.311848413714761	-1.993946807920085	-1.164087032276937	0.498382155195164	-1.076127285798123	4.157069875506273	4.157069875506273	4.203745095188288	4.203745095188288	1.782930739715545	0.6798207209259917	-2.9811648175306	-0.7672890070132984	0.2947915174682256	0.5087261968063053	0.1102009730468281	0.01497922121993002	0.2222287060830587	0.2781955997492904	0.05595314187082942	0.1005976954237344	0.1553437734804678	0.04769805424759367	0.01323858599144193	0.01298926776640076	0.008972986076575035	0.02725227224455284	0.0119494625308131	0.01174387463103189	0.1505125359772476	0.1810766750053906	0.06283873070297658	0.02990453434731948	0.09061231881127088	0.06471499750517103	0.03484010622506128	0.1897094203235299	0.1318693500285323	0.1045774249008944	0.1602037285873867	0.0191282510917972	0.2356537991677621	0.0133621616062211	0.08577179152957812	0.02568990671622738	0.06243649607055223	0.01023130829694726	0.08474132547778798	0.2332930243854069	0.01081195438729745	0.01048786965892822	0.01027079385494495	0.01051639777799197
143.78064	0.02014449246397019	-0.15663172395544	1.464560005678374	0.7756034831694344	0.9588169317162918	-1.221270655456101	0.1627981434268426	-0.00147421181936258	0.1579544013412179	0.4101085499319929	0.03734905418407301	0.1148503571256632	1.311636971530443	1.311636971530443	0.5323268085960547	0.5323268085960547	-0.1950776809739089	-0.6733576690214179	-0.586598687092592	-0.6549724110822988	0.6478349104912074	0.0643206514691058	-0.3558872490459795	-0.01113120475617482	-0.1710803127268696	0.09054625274710063	3.502891528446797	1.302912745979015	-2.33378517380352	-2.159116371870528	0.3839435192188155	-1.334708041661381	2.109137060378433	2.109137060378433	2.465194973607874	2.465194973607874	1.671157223490474	2.151801458564606	-2.579376331575739	-1.368965760896252	0.1974231673138674	0.3717773255599267	0.07141263864814125	0.01397929934022948	0.1345374043608532	0.1750401902685884	0.0410160539811022	0.1325371184443785	0.1751686718358487	0.05027378204807462	0.01253619901460442	0.0122215668579437	0.01034685367404973	0.02401748819394375	0.01237642534243905	0.01125632248892194	0.1144485366459747	0.3432622511431054	0.09307207621349943	0.03749960918620476	0.175677449796603	0.1173357122758513	0.04983184425901646	0.13272614572278	0.2132823751133508	0.1104866732089137	0.1806744226162874	0.02122717744199545	0.228638785753649	0.01993152108823869	0.1086620237009351	0.04682254114512298	0.04096559995432909	0.01014260125182311	0.1567285550494767	0.2420114591090365	0.01129566833946979	0.01040195941771152	0.01019686107886508	0.01036300028760286
143.7964	0.0310195182284418	-0.1560587339492695	1.456985300352708	0.775816369374932	0.9577131646480812	-1.219915941617626	0.2175858902215678	0.01833342636795305	0.1197496075692937	0.3680387892459834	0.04016394642156857	0.09785914031821676	1.328145178259632	1.328145178259632	0.5577849094941376	0.5577849094941376	-0.1698789721253773	-0.622253477744937	-0.6232459666620698	-0.675798789180733	0.858639266824986	0.02328543082136841	-0.6243713004174756	0.04022912006374423	0.03391917922853599	0.08018159243205691	3.403590076027499	1.331452971329603	-2.492546543546019	-3.188919272420622	-0.165307708210208	-0.5957210328635922	-0.0393899919430184	-0.0393899919430184	0.8205046235286444	0.8205046235286444	1.512245321252022	4.068864041973728	-2.066854301632977	-1.224658131732629	0.1251068671214274	0.2532163799339223	0.03311572707243927	0.01255184289151903	0.05616337134654802	0.08042847414627806	0.02313759410295461	0.1679830109704636	0.2008477023458964	0.06017871949068591	0.01141366624510693	0.0110800635683922	0.01176194147999495	0.01964523620398976	0.01220447397536647	0.01058492929579193	0.06090320482512268	0.4767538256760881	0.1037871736671025	0.03710381622762306	0.2473840667540349	0.1574849980478766	0.05415614525686779	0.0816279069241221	0.2886066721210862	0.1010766056340444	0.203910414384277	0.02327019809221589	0.229678431372761	0.02655653728212311	0.1269816846848164	0.07618888593729808	0.02828108701249867	0.01007168617300297	0.2139186285752433	0.2464901638049081	0.01087159303379834	0.01052873192154377	0.01010332918525624	0.01022306906785849
143.81216	0.04557128854022927	-0.1575207875932638	1.443030878066812	0.7770099396323374	0.9596659783772669	-1.21877584682544	0.271681554145673	0.03864620201220333	0.08086087999658063	0.3118494462359371	0.03360334174904013	0.0973829232090463	1.311439658933564	1.311439658933564	0.5587494995971574	0.5587494995971574	-0.1472518683492284	-0.5430887454824359	-0.6509118220408896	-0.6907027115614375	1.005765848358368	-0.2287095534557677	-1.148071310520989	0.1120624469369077	0.2090599628251451	0.06411936321341917	3.457057284553072	1.289399701394539	-2.409360397477639	-3.881043507350332	-0.6897608390659645	0.5262249713845377	-2.065633544718653	-2.065633544718653	-0.6174756064586111	-0.6174756064586111	1.334480510775961	5.849756681293219	-1.454704055693024	-0.6607347551736659	0.09525658343704184	0.1769106569698738	0.009253746124836995	0.01056001924824259	0.01150213842816538	0.02482499843004893	0.01157618791503308	0.1873866984791373	0.2215222848800885	0.07210481111285723	0.010594231818983	0.01023466566100297	0.01203873858846147	0.0151848564380732	0.0118299155514594	0.01013301491787428	0.01900605506009301	0.5247864278534832	0.08960917378003531	0.02987122950420881	0.2720643940805371	0.1646956168375028	0.04500740800683913	0.05403007132190878	0.3148434573924361	0.08529603523339942	0.2238530455219623	0.02202403172856157	0.225072422826118	0.02659921419572798	0.1289330687498244	0.1049405485534254	0.02921774726797605	0.01003329518301552	0.2277041045287669	0.2491691046813569	0.01014409492553896	0.01085993399781612	0.0100590082174463	0.01023769537923472
143.82792	0.06137101573624619	-0.1646866329762341	1.420694542854229	0.7793509585135687	0.9640157209873188	-1.217925148344045	0.3272666091564352	0.05840917969589443	0.04467598967295865	0.2481409330669836	0.02054151565408774	0.1140299754547342	1.26407777559779	1.26407777559779	0.5383682435026604	0.5383682435026604	-0.1280674939285029	-0.4417088603072677	-0.6691149130632967	-0.6977178583163099	0.9220623748205393	-0.7184235922764602	-1.685700609394197	0.1859964438675022	0.3326356320457485	0.04403300747835327	3.619152153283161	1.182054152104977	-2.141286006551373	-4.101919030504388	-0.9041034301618256	1.358866384299785	-3.908283215814643	-3.908283215814643	-1.891639709281786	-1.891639709281786	1.064348991428175	6.954780725474667	-0.8939595101676643	-0.2685687140532977	0.09872681549756609	0.1355254175272311	0.001695002191137718	0.008088363940749698	-8.271319982771762e-05	0.01011690669987283	0.008844325340099201	0.1806086503105689	0.2336240968414479	0.07867835561311717	0.01052689462347539	0.01000976292084574	0.01176323387463975	0.01196361081288427	0.01181766894992613	0.01008918892001267	0.001791186923018535	0.4794598590759335	0.06129949898454593	0.02164887275198117	0.2449443919079718	0.1390685593920074	0.03104899322315592	0.05001708427950936	0.2878505300751004	0.07590904084936843	0.2363873866735273	0.02029827000488474	0.2017134990493776	0.02109294290033964	0.1147547235636091	0.1249139975532309	0.04008506742836217	0.01004650149967831	0.1977915314034673	0.2521162016136209	0.009827354641326995	0.01104393040342857	0.0101455033854184	0.01048779435214399
143.84368	0.07469471270856885	-0.1800974520297843	1.391449772634766	0.7827464522992956	0.9699434314637927	-1.217424639828668	0.3842264054629687	0.07688005968561692	0.01297342760743082	0.1836242490992822	0.006098546733829926	0.1386447525821354	1.188443228379313	1.188443228379313	0.499106205209369	0.499106205209369	-0.1144571351283258	-0.3292624246202706	-0.680242419089308	-0.7005337992218061	0.6783043087985104	-1.262143419735882	-2.012015830791373	0.2447810428948974	0.4085330855520063	0.01958513245585898	3.619126398410604	1.098886033268835	-1.85173403701883	-3.988996025011146	-0.8601080735059957	1.477142190532014	-5.656971235303497	-5.656971235303497	-3.006088631683069	-3.006088631683069	0.6270706326279328	7.282020611914487	-0.5702994617947708	-0.1832410785281446	0.1158184039719344	0.1081569029515258	0.004165864862654599	0.006902272747896133	0.005671485039349873	0.0170951722919269	0.01088221404614216	0.1493280185547622	0.2422062883999729	0.07747746646864784	0.01124363778241613	0.01032608592678519	0.01167614262534541	0.01029955469032925	0.01220615348320844	0.0103386560299632	0.003269460538858587	0.3857129753801304	0.03638271579273673	0.01713555385820562	0.1927119997049967	0.09800331996646908	0.02177647797585317	0.05524226206442915	0.2360800588065602	0.07722011082059146	0.2429244785055296	0.02063609632898773	0.1574500820757158	0.01475084852204385	0.09116569595982973	0.1348283153720292	0.05119473800861738	0.01009077096859463	0.1463254970864775	0.2550884345746953	0.0103374684935213	0.01061313292058019	0.01042471840986256	0.01094430069607027
143.85944	0.08402953698977399	-0.2027477117766375	1.359778220400803	0.7868584497934561	0.976801855422944	-1.217350488680349	0.4379379652026455	0.09456995862923254	-0.01474487085278978	0.1219068464385317	-0.007095728320295273	0.1584420610950277	1.085340264548398	1.085340264548398	0.4444080725195891	0.4444080725195891	-0.1090377204006869	-0.2161115126084029	-0.6886022545227432	-0.700629404846782	0.4760285333221537	-1.603689528919671	-1.964466815852132	0.2738759354231122	0.4535857510341162	-0.01069125199901757	3.169252951574867	1.112053900861664	-1.657978840495639	-3.787738833928001	-0.8002295284721197	0.8475643463983108	-7.403373130442393	-7.403373130442393	-3.82698312184823	-3.82698312184823	0.04277439048367937	7.094272392128529	-0.5156457028174499	0.01670406950063641	0.1324383733478886	0.08643159174709822	0.01051599587190552	0.01074671709662117	0.01517820361580602	0.02675550857895691	0.01222944938386812	0.1039061626323257	0.2524880380028425	0.07260883281137137	0.0123551320615477	0.01087826740114708	0.01137971456902775	0.009964838968733992	0.01244847975322807	0.01059753971983692	0.01033003179685639	0.3022455468068188	0.02522969626252204	0.01628238832630153	0.1506746599916303	0.06201241796322225	0.01936769105693283	0.05552249891672523	0.1915457222950675	0.08516987690428671	0.247706597064128	0.02192653205038532	0.1059751263649262	0.01100435072870328	0.06488571404641758	0.1402949061304563	0.05513307988027632	0.01009959176993153	0.09904843391491935	0.2578574798424235	0.01155517148936937	0.009625697557925488	0.01084575526468147	0.01143455171181825
143.8752	0.09095630742574178	-0.2282324884581936	1.331866605481728	0.7911712847234456	0.9841899230174705	-1.217795174444708	0.4807083421840718	0.1126720387537833	-0.03947584593661531	0.06323593840731949	-0.02011207810417	0.1638073315005825	0.955266883645578	0.955266883645578	0.380690256022663	0.380690256022663	-0.1131482022334907	-0.1090536822520977	-0.6968359112124016	-0.6922773254849	0.4386695147318634	-1.590809741379521	-1.517976607975985	0.2679053647664716	0.4791342365002773	-0.04656825981443884	2.205284086221185	1.192622136341882	-1.479733871539691	-3.649522391770008	-0.8870289351785763	-0.2067128061085711	-9.065937323570649	-9.065937323570649	-4.133742424743208	-4.133742424743208	-0.5488407745784264	6.612065301448127	-0.4866015072955155	0.8406650290493617	0.1436612269094888	0.08173933442899373	0.01865966850997693	0.02273850745313394	0.02580363511726433	0.03456490749535601	0.01125635897241596	0.0591220793094907	0.2609889841521011	0.06960182881815047	0.01317935181398542	0.01130954363633046	0.009601576706925376	0.01066897674248794	0.01208955475444879	0.0106653523713384	0.01445189738776178	0.2540623184480255	0.0253463664788527	0.01620425613648563	0.13384299989086	0.04139094729679038	0.0198643996122124	0.04872281280317151	0.1655400882143553	0.09683023987087026	0.2501750316887164	0.02151228144560588	0.06877155489266155	0.01017464379351461	0.0413851954679118	0.148462948429739	0.05376062082546884	0.01000662478589637	0.06913435718095617	0.2615310321995137	0.01267398962413812	0.009415923227341395	0.01117822254201252	0.01175784484743053
143.89096	0.09805602073680975	-0.2510664240003415	1.31312100072727	0.7951739034903015	0.9917956517776096	-1.218820222831576	0.5059503074841177	0.1315563150896489	-0.06000251218084204	0.006711353257822308	-0.03530706602260742	0.1525615003439766	0.8016174473373135	0.8016174473373135	0.3176637384853461	0.3176637384853461	-0.1254428541127335	-0.01383870930923255	-0.7019347564658002	-0.6647924486720469	0.5120895649886577	-1.257928408201731	-0.8210793974035527	0.2352302733735852	0.4827192551368519	-0.08365837595709745	0.9591749275059401	1.222229225789284	-1.111256029749619	-3.539029797100655	-1.076272789018456	-1.170464322213268	-10.35047653376635	-10.35047653376635	-3.749321624182535	-3.749321624182535	-0.9614316716826694	5.707848420912335	-0.04570302806883431	2.419627153677772	0.1507691042929177	0.1080440296511359	0.02849987474897343	0.04129569349839601	0.04142012782056045	0.0472224760768969	0.01207528785062319	0.02911832005116165	0.2589968459760271	0.0705906650924967	0.01314663692231991	0.01135215468599757	0.006074019102631901	0.01178429568594334	0.01132735381124631	0.01063052017826814	0.01474724610094381	0.2229740574713066	0.02735430766283532	0.01504671475982528	0.1298134210318353	0.03347187756288762	0.01921349698060848	0.04299431520404556	0.1488368083190074	0.1131323380563568	0.241933917721277	0.01877343836064974	0.05914842328342618	0.01076801451916148	0.02583546697993729	0.1633194374287754	0.05520724272631423	0.009834166213924848	0.05416471457267407	0.2654751420374621	0.01240372756951227	0.01252601293309863	0.01112186677317785	0.01197685862721476
143.90672	0.1061985977312499	-0.2673972953034396	1.305750263922628	0.798560518971174	0.9992043261397929	-1.220387803486907	0.5120577442234234	0.1497029120995892	-0.07262398629696187	-0.04700708933286796	-0.05325050837977661	0.1303174315014985	0.6331795476197239	0.6331795476197239	0.2666060658316386	0.2666060658316386	-0.1421524781359146	0.0604556987037223	-0.6942646096365175	-0.6094565337107702	0.5319917319891823	-0.7819951410225644	-0.1204180735054705	0.1929195161946593	0.4534949112119962	-0.1138970722118825	-0.1738688674766905	1.073914363428319	-0.4681670843271969	-3.282788587161795	-1.192561102172404	-1.588058585001457	-10.88956461751189	-10.88956461751189	-2.650107219188278	-2.650107219188278	-1.096390501323376	4.003112724055686	1.156006569268932	4.370486040705439	0.158401980835239	0.1609557667980178	0.03859910271321999	0.05929080659845838	0.06294839462977768	0.06963982352965301	0.02196742915105241	0.02129973062021465	0.2439302949552339	0.07414724842341511	0.01223609518687502	0.01093537480427129	0.003738562124044467	0.01193332057088336	0.01082113758794027	0.01080740364365939	0.01411869510889754	0.1802339550081621	0.02492026251378516	0.01336807139112203	0.1178843521593305	0.02987956847594293	0.01678733763989152	0.04555820281719671	0.1302190910655387	0.1312625450477219	0.2139441543388948	0.01573874514381631	0.07265329598182078	0.01147413480765925	0.02148170735023878	0.1851094678942174	0.06427997938494096	0.009760892272199501	0.0447258942839249	0.2643956642988999	0.00985634173959057	0.02079542797994891	0.01059137514521706	0.0125055703795816
143.92248	0.1134102333872179	-0.2764549891115778	1.308058023125865	0.8013044256247319	1.005839267374426	-1.222323237572736	0.5034752672145817	0.1638232262282386	-0.07407871517308161	-0.09437060390758774	-0.07147238148674229	0.1069563731903822	0.4637863955226201	0.4637863955226201	0.237568675234415	0.237568675234415	-0.1593839659449517	0.1006152758176921	-0.6616433840320742	-0.5261708083160586	0.343545798959653	-0.3648300668447035	0.366184648268093	0.1568827454643215	0.3832074599666518	-0.1288318826787718	-0.8519202548029773	0.6789487095753879	0.2888798200498791	-2.703097436400642	-1.065043057264625	-1.328155322644291	-10.44400283025389	-10.44400283025389	-0.996993387022812	-0.996993387022812	-1.053409589105823	1.301873661546975	3.058116295877332	5.972498535857182	0.1700352353038952	0.2164632909394499	0.04606632843183354	0.06896493733940443	0.08466878248227862	0.09712097074127621	0.04568681735737252	0.03235470586796767	0.2213036152311174	0.07721570086119769	0.01102703277675679	0.01023750453903186	0.008798866390845523	0.009521494195003873	0.010978425434501	0.01131345336795768	0.01448362610339009	0.1192606021291982	0.01872219519655023	0.0125787542954612	0.09087158621774552	0.02489997583078299	0.0142603666415224	0.05550631839886969	0.1102550481402323	0.1406899531774811	0.1681271693236224	0.0145509768217598	0.09300185606737695	0.0118948994122298	0.02642484155889701	0.2122573513502591	0.07850418794978417	0.01005096131533884	0.03452934894769637	0.2522067641998963	0.006023096682426664	0.03241861255790159	0.00996611097700819	0.01364192669790678
143.93824	0.115671311686982	-0.2801206875534668	1.31563092149101	0.8035842559666682	1.011058604859691	-1.224340318148754	0.4886165301821547	0.1699820115601564	-0.06451770375275555	-0.1298265357758189	-0.08523715534270228	0.0911516304965642	0.3092425492651191	0.3092425492651191	0.2369753916291102	0.2369753916291102	-0.17640657032665	0.09417717512546317	-0.5972486106919495	-0.4260219887295248	-0.1173718796237215	-0.1214636314362399	0.5335037171647695	0.1355233025260561	0.2734959537867892	-0.1236386704506208	-0.9451341909695228	0.05533418058242601	0.8970494168779599	-1.752675031274273	-0.6095779217593986	-0.6341744847532272	-9.019250426735862	-9.019250426735862	0.9258555174393608	0.9258555174393608	-1.129052904080103	-2.068924772774204	5.056361521205321	6.521052407510504	0.1829094173496533	0.2494803762093691	0.0488349925380423	0.06795827032447223	0.09823634452919031	0.1187325879272057	0.08096341098265654	0.0508446276393609	0.1948738172289751	0.07629508530389278	0.01046236917238194	0.009737979692496819	0.02657486741908266	0.004769600543005523	0.01139536515002091	0.01160485608142264	0.01512159021671579	0.05635378303997658	0.01276348082942985	0.01289313196018545	0.05834900737682781	0.0181192974957714	0.01286625416674174	0.06665117823398095	0.09799059136483407	0.1320276597740739	0.1218643774391889	0.01505466440545902	0.1068659559599938	0.01195602849834779	0.03395816119803334	0.2433795638546195	0.09308143639391693	0.01076574128936283	0.02379327027601067	0.2299833208446234	0.004874460984529064	0.04138341284505277	0.01002563895971121	0.01493416097277271
143.954	0.108817190954848	-0.2811608334173866	1.323400434337088	0.805646796690204	1.014316620628233	-1.226122539450693	0.4761449871023634	0.1651609283644764	-0.04739333573328725	-0.148360644014545	-0.08929216036375452	0.08680929405117283	0.1834734087794422	0.1834734087794422	0.2666812131106304	0.2666812131106304	-0.1977969972256579	0.03637424703674509	-0.5070535643361901	-0.3283129181263018	-0.7956372683100381	-0.03586879258260296	0.4046104155085265	0.1289320363921752	0.1355321214684835	-0.09964699212700717	-0.5633374980038771	-0.6920906420419141	1.228650857751032	-0.5664201965464357	0.1508821356870282	0.1338496468164248	-6.836089270544657	-6.836089270544657	2.824060789804745	2.824060789804745	-1.668922919268657	-5.361435733375817	6.196486057034046	5.68266987235838	0.189052797896225	0.2514598084824802	0.04669048868573621	0.05962268111243955	0.09825990468965742	0.1257285520655869	0.1193536092996259	0.06586963789915633	0.162666513384424	0.06896894876117186	0.01160543834181471	0.01024106108575042	0.05497255262722523	0.002221619171282154	0.01099319256981719	0.01061935393684734	0.01433655996594327	0.01114547287616191	0.009326172986600732	0.0129213227623578	0.03405575388724334	0.01204196632065818	0.01241261184493167	0.07419098809964909	0.0991498588802245	0.1094707497954355	0.09947011802952024	0.01517960896598514	0.1121868273458494	0.01127522667837567	0.03811997479935793	0.2782382038266636	0.1060781028183097	0.01139266640398494	0.01589192541632125	0.2076945694092879	0.01206207118287964	0.0415237194040408	0.01136687805708252	0.01517630421457747
143.96976	0.09043679668042588	-0.2813356852328842	1.32750787152715	0.8076894175295016	1.015275745573231	-1.227422021719589	0.4717469052635007	0.1485293752779438	-0.02660273310099502	-0.1480565473630219	-0.07959062086022223	0.09356581294560454	0.0960463958101507	0.0960463958101507	0.3245602234053449	0.3245602234053449	-0.2324600735876043	-0.06629805019822749	-0.4116939756104511	-0.2535682913253653	-1.542336100364313	0.002721884025216406	0.09829829314457764	0.1315362028141636	-0.01603735130903108	-0.06391589659782251	0.03797454852343979	-1.408136011238072	1.378435695228307	0.6022574419639949	1.101521797992787	0.7701678501799223	-4.198176502316914	-4.198176502316914	4.481619944948192	4.481619944948192	-2.836116791466672	-7.805969897881424	5.651417659557262	3.648316813580813	0.182088720202511	0.2308140528688598	0.04045800643110468	0.0483782867900289	0.08469716131556769	0.1165553887604013	0.1515894879852468	0.0741027064290762	0.1288039240142234	0.05701610595281541	0.01507188430671087	0.0125798375772101	0.0822385427455499	0.01085301401048592	0.009017847350294872	0.007936534470562157	0.01203131721117236	-0.00540180583045119	0.007943702408019499	0.01107631590514684	0.02456226535602523	0.009163434076928401	0.0122735014740319	0.07721571451458555	0.1093673838660432	0.09064443415889085	0.116235328037141	0.01337251358639427	0.1135104416839357	0.009476865829792807	0.03863208275448961	0.3160231895527525	0.1177178166400537	0.01084021137783437	0.01293530557690339	0.196206426172286	0.02970360217829074	0.03185003558692913	0.0133973141932539	0.01321657212022125
143.98552	0.06087202031123196	-0.2804452962089553	1.326372767826508	0.8098015781883067	1.013817397881278	-1.228126541071654	0.4768562272865973	0.121766589130011	-0.003785377230162189	-0.1310737060180772	-0.05451293236113958	0.1090932438510177	0.05198910063094028	0.05198910063094028	0.4059181123860363	0.4059181123860363	-0.2892089700913785	-0.1976944816546727	-0.3401398291877874	-0.2162898279142738	-2.180267659789606	0.1193556447909343	-0.2285244649176622	0.136128818411876	-0.1690571827552089	-0.02581825658671323	0.59934372780973	-1.949604439408061	1.540854112294632	1.512572626823151	2.063803257980297	1.215294338280864	-1.358896444183318	-1.358896444183318	5.790091462152269	5.790091462152269	-4.435785933351553	-8.93223264260287	3.234390381563423	1.001303660629463	0.1612239815284231	0.1996901446155449	0.03167884461749151	0.03692418303069758	0.06237408707304008	0.09579966676866845	0.1721453036001064	0.07807849473769782	0.1150842584813138	0.04810708850790017	0.01993091681291698	0.0169088345828063	0.09388787926279653	0.03911694653513026	0.006537557634380863	0.00547679592923536	0.01061100037857501	0.01117502733181718	0.007994885035054723	0.007699043505381188	0.0290306242864936	0.01096813268321487	0.01240859903991917	0.07623306268556516	0.1165953656622851	0.09054840413847405	0.16703725408415	0.01049653731142888	0.1123054501032413	0.00727926481545966	0.03884989447150006	0.3505760797001472	0.1270034249691065	0.008337571581566738	0.01459960829521547	0.1975458477383936	0.0500130500240104	0.01751782204275633	0.01369999722799074	0.009127721076036771
144.00128	0.02303189149370342	-0.2766479391255605	1.320788316853678	0.8119698139425953	1.009991814484393	-1.228259274789282	0.4894375338971501	0.08838739295476339	0.02190360971098296	-0.1025721718046616	-0.01553313128018303	0.1298633284747518	0.05310180464012338	0.05310180464012338	0.505073977605996	0.505073977605996	-0.3708476657390223	-0.3367345888189524	-0.3173433822550555	-0.2208979254923628	-2.572613233336966	0.3817122600471887	-0.4434386587666191	0.1375975693181614	-0.3146972413677169	0.007687035848736694	0.9607963140878848	-2.234072421899291	1.809978471057905	2.048014840114183	2.829644025311524	1.384148945261299	1.516148807783294	1.516148807783294	6.739257274152875	6.739257274152875	-5.918001979969768	-8.647580382727842	-0.3787152497058979	-1.568965693477031	0.1293518974432109	0.1629810074810039	0.02300105937406367	0.02742511284868215	0.03889100188522231	0.07017074810938011	0.1792165310332996	0.07904992174796156	0.1486364416512763	0.05113450783321519	0.02324468952890498	0.02214986725249296	0.08381961282361444	0.08621671397228256	0.007323950886062411	0.00816363359181217	0.01337780457313799	0.06084602089169843	0.01147236384255006	0.006645739181287264	0.04420025430561726	0.01789237418489778	0.01347014306572069	0.07051622975570589	0.1092115416426119	0.1056314959715198	0.2272904037775297	0.0101369988681416	0.1038590935180896	0.007220480014205071	0.0396656768041804	0.367507603733834	0.1305115099547469	0.005195038629921466	0.01928170937957608	0.202056258999852	0.05604477534847472	0.006138974938768965	0.009278219332217839	0.005324668779896509
144.01704	-0.01864975610037322	-0.2676825341809401	1.313175993028769	0.8141247358871559	1.003989481342956	-1.227913067633803	0.5058407915294257	0.05261754015569701	0.05157626588498861	-0.06835598650680633	0.03270565409527629	0.1502316119303546	0.09884350117404664	0.09884350117404664	0.6167068183199018	0.6167068183199018	-0.4699370516696347	-0.462425238730808	-0.352224829031127	-0.2618344421140336	-2.663366349763288	0.7673033988618521	-0.4821563190251256	0.1344301357971732	-0.4436244377805332	0.03515368618142834	1.083485755872114	-2.251397337437091	2.076871833978723	2.251445651027114	3.209711437827987	1.116739683631025	4.265195333781373	4.265195333781373	7.383049015357829	7.383049015357829	-6.577381170710404	-7.147874608166973	-3.903460101124346	-3.514462988390789	0.09108371984703335	0.1201671042803889	0.01723067149445477	0.022582225832677	0.02114339495496502	0.04556014556666636	0.1717114833478781	0.07424288891518685	0.2286841929775501	0.06636052968600012	0.02168018357353908	0.02606751464356278	0.05872862406229547	0.1364818542039025	0.01643103836006526	0.02166114241350427	0.0216783405878986	0.1329362569605326	0.02324738857223586	0.01460810195240026	0.06532942688810758	0.028892972106187	0.01654093222974255	0.0589809763651253	0.08454367663577987	0.1169251507769067	0.2659701327525378	0.01736561083493529	0.08356857142768508	0.01261337097688937	0.03802933354171743	0.3500901787543609	0.1239472317874228	0.006108314134307836	0.02474430398906637	0.1936227836141136	0.03571758525399887	0.004149137545030893	0.0006575448148156398	0.006935288915566872
144.0328	-0.05951314834565292	-0.252354983361287	1.306471619740479	0.8161856966924449	0.9961682866546062	-1.227165965149995	0.5224759637691858	0.01840336282563634	0.08403240148643604	-0.03251607637451533	0.08308780046411365	0.162387641720598	0.1853410932264357	0.1853410932264357	0.7364980960189362	0.7364980960189362	-0.5687840603332412	-0.5578173255965291	-0.43289845347879	-0.3267059159523418	-2.476543808911635	1.167972797111581	-0.3453885776133854	0.1265627228024828	-0.5433781866487561	0.05953387708528381	1.002893268147197	-2.045791547710182	2.121496013408052	2.285638776584961	3.089923034290374	0.3238594348149501	6.610701372775147	6.610701372775147	7.780778574740904	7.780778574740904	-5.856257567718668	-4.808538709478621	-6.06993716033222	-4.553459196073717	0.05340166559804494	0.07441968277639341	0.01534427787452215	0.02474351290762798	0.01199390014281219	0.02616593628929775	0.148298450925983	0.06125905861614161	0.3103479386607494	0.08120047867478186	0.01458858032741257	0.02590068997487049	0.03194045313531907	0.1650997102528254	0.03579282769187608	0.04705455678884265	0.03307655492047504	0.2050618924785685	0.0482475004177679	0.03644075949757934	0.0855575943571356	0.04163686994328225	0.02258817049853439	0.04301655596884471	0.05216996343483347	0.1103552097501255	0.2651554405008651	0.03507405121985031	0.05450794870918018	0.02441529195320254	0.03154656892521143	0.2926167463976048	0.1050961469845487	0.01790442229441693	0.02875702485723886	0.1597921563943682	0.001981913768529173	0.01542668102742312	-0.002878565723886801	0.0200925791100449
144.04856	-0.0957037476182496	-0.2316445310090214	1.303317729759163	0.8180604835296872	0.9870877293762856	-1.226044005170429	0.5364920768510005	-0.01125639780676387	0.1153589763546213	0.003874182984876143	0.127567934899055	0.158879022831988	0.3032101025278069	0.3032101025278069	0.8607286783899392	0.8607286783899392	-0.6441248676491306	-0.6128371269540395	-0.5320897496225644	-0.4007344800167803	-2.087192253042388	1.430529518935436	-0.05695562396451886	0.111627386252637	-0.6008965686231768	0.083408491812893	0.7576561386123039	-1.696884601693761	1.833232488088002	2.347900520270483	2.4777941268154	-0.8435397971709591	8.156062623268824	8.156062623268824	7.936289728545985	7.936289728545985	-3.609424290395422	-2.118266928125608	-6.251521828351606	-4.685778598591693	0.02450291339469945	0.03527839673439615	0.01615828763795649	0.03511256991603964	0.009769185872596139	0.0141526957258506	0.1108702884583881	0.04267979079944296	0.3357039568554265	0.08031074433929355	0.006555783199821608	0.02078557703098118	0.01356148949910682	0.1550809572404376	0.05982264816591094	0.0762421251696061	0.04221286933127812	0.2596834545827738	0.0872861670208908	0.06883431610957551	0.1009189852488565	0.05453681441776511	0.03129997998172918	0.02700504808394757	0.02824257884994679	0.09196419800783816	0.2346837904165254	0.05882209104127748	0.02682525941849375	0.038686789127163	0.02206744072575032	0.2094934132345871	0.07674184430884459	0.04525602340851116	0.03156507906950823	0.1028714673230077	-0.0005981192552718673	0.0401442091104179	0.01780162576464375	0.04807359565878239
144.06432	-0.1248087616275327	-0.2087603293535313	1.30576845743224	0.8196129673505188	0.9774911903779525	-1.224558690371845	0.5453946045868305	-0.03491679377377233	0.1411635290801925	0.04244286233599345	0.1593829928179886	0.1364133713019987	0.4368027197502742	0.4368027197502742	0.9850701621046907	0.9850701621046907	-0.6747702894578019	-0.6258664405647062	-0.6196190254766847	-0.471013941428176	-1.600859677812819	1.439212679307219	0.3517111453481299	0.08532925730843778	-0.6066577131523478	0.1051234642355342	0.3428480371645051	-1.324536216726484	1.315966931066255	2.565918609650716	1.530200008517262	-2.015157530256017	8.553603787982958	8.553603787982958	7.769964991595137	7.769964991595137	-0.218741260091541	0.3988460389491635	-4.716029789324087	-4.136771514697131	0.009161046060802959	0.01146679972528829	0.01796259046420889	0.05285363533996304	0.01078254673398738	0.009174228761048255	0.06798224663396271	0.02498153107630141	0.2854556629132995	0.06135714955411071	0.00821007107330261	0.01806799304532176	0.005649989426663537	0.1115033065555602	0.07707544924639442	0.09428503646091854	0.04409893790450996	0.301608167741346	0.1349878201280691	0.100198252829154	0.115472597424328	0.06840405580142911	0.04033962492633875	0.01547429924714272	0.02378121169130534	0.08100123764361188	0.2059678468359823	0.07628489092642741	0.009660691011902058	0.04929778830779086	0.01391057575369399	0.1290897942560943	0.04689646135178328	0.08655184205752582	0.03763468340479321	0.04579705306129006	0.08192813656849425	0.07325007218346409	0.08307725399192152	0.08833796672583306
144.08008	-0.1463360186188354	-0.1878069603965589	1.314983727901396	0.8206675962026758	0.968243997173819	-1.222774636527207	0.5463001733217728	-0.05345253221752835	0.1587656631264566	0.08571143198698135	0.1754293857011771	0.09767992668902001	0.5667283940563808	0.5667283940563808	1.103384787362263	1.103384787362263	-0.6491558080894427	-0.6033069792088644	-0.6749687178390992	-0.5294401713781265	-1.15221716832096	1.19912093559397	0.8075034793282246	0.04686464477691809	-0.5555623662020868	0.1197302406281269	-0.2772374260775721	-1.093789167523965	0.7343182966024058	2.92502673984208	0.5400557161051535	-2.836180363089142	7.706172412203573	7.706172412203573	7.147487743094125	7.147487743094125	3.504606974157949	2.31616220083231	-2.382145363864703	-3.253009365009405	0.005713495951005418	0.003752361599106662	0.01960615731539171	0.07255728246997661	0.01211908149423068	0.008762330789905846	0.03198747681398085	0.01360872232653558	0.1928060140197396	0.03817457756592017	0.03364814481567752	0.03866463787781597	0.004716099265531702	0.05757898887029657	0.07947577012621292	0.09010018693899655	0.03759658759788598	0.3494017173154773	0.1820531966745233	0.1203160291910387	0.1354224884430485	0.08466563973594082	0.04660190943744334	0.0100710391140552	0.03642967471943416	0.08796780137450404	0.2022326861236045	0.07579919892116183	0.004850627781880663	0.05579508243472144	0.009948829455561336	0.07488371137334551	0.0244429330787541	0.1345139585226397	0.05247442919716372	0.02494006989546225	0.2707067584339775	0.1054032620638507	0.1978340945026067	0.1336917028048206
144.09584	-0.1620023983646209	-0.1717949935513944	1.330781213324274	0.8210682221999109	0.9602636975494649	-1.220839549208466	0.535822767933727	-0.07042937296402969	0.1669504239816025	0.1349042615838588	0.1777414376385142	0.04946884737506692	0.6745824317593128	0.6745824317593128	1.207532700637184	1.207532700637184	-0.5693607866645237	-0.5566873371173213	-0.6936974994224794	-0.5734983061747979	-0.8788080494059339	0.8333672338771321	1.204799148558409	0.0006031975280270351	-0.4466080389385839	0.1227444833038072	-1.109137225407014	-1.156331676041825	0.132835396324087	3.291306965926989	-0.1603019562524159	-3.180054104528891	5.824367389475248	5.824367389475248	5.966959016775554	5.966959016775554	6.646815964111738	3.442523269091242	-0.2769907176260972	-2.360783954606215	0.008333824912161966	0.005894890986579238	0.02017079957376929	0.08380491473433149	0.0125792748467661	0.009944602738973195	0.01116516036984543	0.009547045665609785	0.1070263091290312	0.02738421470035502	0.09149538450105954	0.1073336937417307	0.007478113062680054	0.01598264798353632	0.06995328885759869	0.06637356692831356	0.02628621742671904	0.4087495064055559	0.2199613187076755	0.1291987724086802	0.1584504347823759	0.1020967187304454	0.04872612231130308	0.009250761271987214	0.05359226675999394	0.1016936113957474	0.2125984543155784	0.05702323463903208	0.007892922911565792	0.06730275375634201	0.00994559057690024	0.05029548451646313	0.0132775707189181	0.1822316869647906	0.07683868891079834	0.06814466092472962	0.5257523463437421	0.1279211984967637	0.3390641735624845	0.176162992340383
144.1116	-0.1752157873974371	-0.1615992461254646	1.351958887328849	0.8207049578308202	0.9544292130791395	-1.218960739093211	0.51097813804377	-0.09094769456523859	0.1648252037700343	0.1889412948410112	0.1728233712648753	-0.0009318427416871149	0.7471290739099665	0.7471290739099665	1.288726405700448	1.288726405700448	-0.449181028538905	-0.4982265306203761	-0.6852610372744815	-0.6047616583330295	-0.8452887804634673	0.4741416335565443	1.503412172618515	-0.05058088533139936	-0.2858798696148172	0.112157149482854	-2.081962128162163	-1.528076739496674	-0.4950369969909818	3.525163540450355	-0.3615757398153002	-3.122331042711454	3.31920361638322	3.31920361638322	4.255936255116868	4.255936255116868	8.619316594411314	3.867331633565934	0.987432693587698	-1.641539259793289	0.01169393607606927	0.0106909177426495	0.01891101642286874	0.07777492956033182	0.01218224323884202	0.01084880215976431	0.005006855137705896	0.009961536341624427	0.05357808480412245	0.033602100238582	0.1719867162647526	0.2246463113347051	0.01430777255232261	-0.004526188784227583	0.05832803070607222	0.03745772862845184	0.01578370097403886	0.4640092134863398	0.2439747894434547	0.1324725560883866	0.1755055678740142	0.1169204850313563	0.04804231284595063	0.01027477311674157	0.06460648090247884	0.1007232327419846	0.2029423255099526	0.03139461160540382	0.01277203175039077	0.0945609290617658	0.01157880136290997	0.04157114064556643	0.0107845281815727	0.2291930858625382	0.1053129666948895	0.1702704488174041	0.7606119412951939	0.1383490783169748	0.4616301865476506	0.2092163324217752
144.12736	-0.1894208635887874	-0.1567284734670621	1.377643787493885	0.8194638873890926	0.9514324655347803	-1.217359527074558	0.4705248612824713	-0.1187873599462386	0.1525854965436515	0.2452478382844619	0.1686729351454255	-0.04789295236383753	0.7781631964339766	0.7781631964339766	1.339854065517909	1.339854065517909	-0.3072063399346877	-0.4369903079846797	-0.6644186431055179	-0.6262429709155144	-0.9841157603561186	0.1549847505741241	1.773314119619453	-0.1094017339632571	-0.090809119652282	0.08841066820679742	-3.052194065117954	-2.021552806115865	-1.036989482673869	3.584186901064748	-0.09305688924134026	-2.779802035358385	0.6415670717378275	0.6415670717378275	2.19396169412822	2.19396169412822	9.382081628041838	3.857969179794114	1.417828345131074	-1.113399901261791	0.01338953407178466	0.01401446028986286	0.01604632979029689	0.05602735121872082	0.01143774946884368	0.01109999093067261	0.006924004298234272	0.0112828767039145	0.0289605098709802	0.04752804735131101	0.2433500562059559	0.3478587819537514	0.02789066818510989	-0.005908624261031021	0.05013391074727098	0.01705620392305909	0.009794479143740376	0.4975169173627719	0.2530272173928814	0.1298526039576076	0.1835137183673328	0.1261959479027026	0.04671072753944802	0.01124874922506335	0.06969237703260209	0.07652283410680828	0.1544793959500934	0.01177615871045428	0.01531268667510513	0.1375421088577815	0.01237682995053352	0.03401656215863171	0.01168713423106818	0.2799825143661476	0.1307206265350818	0.2880788750219467	0.8906157707927407	0.1407975891602086	0.5215183251641312	0.2272959210041392
144.14312	-0.2062015187182226	-0.1569366731356262	1.408004474186768	0.8172089309445613	0.9516028683556411	-1.216224488355151	0.4158219206815281	-0.1536972244373876	0.1332591537088437	0.3014032558794283	0.1710742544756561	-0.08771779775029089	0.7681155233746115	0.7681155233746115	1.357302507952653	1.357302507952653	-0.159713521750862	-0.3776171028218769	-0.6423635847008834	-0.6405557652929388	-1.134497331740743	-0.1819975335471106	2.075406539362831	-0.1763186214747563	0.1108714898151594	0.05460516601102339	-3.852815029860944	-2.345607061931771	-1.30810016742743	3.52275333335718	0.4076885113507073	-2.257124528803959	-1.834088072440335	-1.834088072440335	0.03077052022106352	0.03077052022106352	9.264720449196796	3.668954942319544	1.391766826513379	-0.7317306268163817	0.01313540525264846	0.01448605311200069	0.01292720251821854	0.03046204308951087	0.01084182233646818	0.01110870317181483	0.01027303999532621	0.01168169302870195	0.01919827108546144	0.0558484882148825	0.2688105866003802	0.412209914636646	0.04908162104408009	0.009461162358499208	0.04287196809616379	0.009041867120141706	0.008377198359016975	0.5069971742452233	0.2483899894668471	0.1149739721055136	0.1890577050174686	0.1296253159101157	0.04523530574430409	0.01168032712809109	0.07618683428135446	0.04214344514502973	0.08494094096659174	0.00339418589614595	0.01426093359191444	0.1837638586702882	0.01147259114568143	0.02344366893853347	0.01245710577115434	0.3345456500038341	0.1487132150398505	0.3649264688136329	0.8758955851111424	0.1395915333840592	0.5001254455321736	0.2257767072859325
144.15888	-0.2246005154836629	-0.1629123896723158	1.442934129488747	0.8138987196313151	0.9548076095647948	-1.215669495514448	0.3506546890065627	-0.191249971694581	0.1121900814391146	0.3560335575917332	0.1813650292502677	-0.1188057312853184	0.7224125800997506	0.7224125800997506	1.341163256008734	1.341163256008734	-0.01822964506223056	-0.3218294744013896	-0.6234846360289458	-0.6499598773584363	-1.155646751265555	-0.58403460418316	2.32439703219291	-0.240111482481473	0.28968124331733	0.01623956406913366	-4.359030016789181	-2.309991047524805	-1.251682980518718	3.404523377914288	0.8457109658907062	-1.702212773257836	-3.853372398364718	-3.853372398364718	-2.032095838230052	-2.032095838230052	8.564555731706387	3.404565114319624	1.23399372927838	-0.5016566020815864	0.01106059845800013	0.01161198314931418	0.01092974024073283	0.0133182638580059	0.01058022999428197	0.01112788381205489	0.0118920883207122	0.01149393049060085	0.01416951559329994	0.05185644572331814	0.2336881191497356	0.3803938767038728	0.07422907302120103	0.04153868417855525	0.03283533037964322	0.00894785471846039	0.009314890218851743	0.4993228581672314	0.232555344349532	0.08738200738698707	0.1969484575764998	0.1280410226630629	0.04253425476756479	0.01173254464818803	0.08783005729600774	0.01865928004507607	0.03091574488339208	0.004218595702771853	0.01224930273585153	0.2183989832676044	0.01077462225321693	0.01387928060611297	0.01233225810593471	0.3796000346448106	0.1584494782717547	0.3672006292222669	0.7328577136892795	0.1330849578418302	0.4124050595359233	0.2030738279402555
144.17464	-0.2421079518332034	-0.1754329789950538	1.480037752617988	0.8097407466804633	0.9605098462402588	-1.215716673381747	0.2800654445380593	-0.2255703115401405	0.09424065977241704	0.4082922888275601	0.1967957071696377	-0.1421432672647804	0.6495962317629411	0.6495962317629411	1.293939474724126	1.293939474724126	0.1079091326835291	-0.2709505608255672	-0.6076364855896448	-0.6574098676723672	-1.010085807470027	-1.008653919270871	2.333385568127118	-0.2820576288479936	0.4253566524798391	-0.02116743707946814	-4.539455163073184	-1.945331564620095	-0.9751015080431701	3.222638688626385	1.029334906857822	-1.287671059848176	-5.271669842346136	-5.271669842346136	-3.90824882527034	-3.90824882527034	7.304145831032116	3.031768865121614	1.079241117140453	-0.4835315831234274	0.007555236692629825	0.005917159163940332	0.01038068861850918	0.008211934175294989	0.01050833608360079	0.01083801702903904	0.01177019430987982	0.0121746712310196	0.01030580611387265	0.03855375904402634	0.156957967385205	0.2713471061303105	0.09639744989918035	0.08671093165617758	0.02127115358763982	0.01085478400108455	0.01045577551576637	0.4744286108149083	0.2080281658641157	0.05814487775431362	0.200653021380128	0.1217257002307476	0.03863531903109627	0.01134371425997795	0.1011989196189528	0.01668009173957732	0.01704704507304857	0.01056566812660251	0.01644039953511457	0.2328303070468024	0.01452968981628689	0.009221963433135163	0.01173728344340559	0.3931083966809228	0.1607212657860249	0.3022770946568669	0.5180436032618404	0.11578625590167	0.2946192017428636	0.1629092756715061
144.1904	-0.2563543162609129	-0.1939958031904836	1.514514505204936	0.8051871707691678	0.9679649432401719	-1.216322059414902	0.2087760584036684	-0.2526703710201217	0.08203076422777228	0.4566476554115235	0.2129167360645946	-0.1606514935814716	0.5597343871115692	0.5597343871115692	1.218746964604468	1.218746964604468	0.2082965097684982	-0.2271493341269717	-0.59266530385115	-0.6666069182450565	-0.7568337661825478	-1.340295963521456	1.997609669629413	-0.2908505877562585	0.5125982918973875	-0.05485819819723012	-4.459695069061895	-1.444350553135035	-0.5905007451495802	2.896844886919707	0.9480557026906369	-1.081213572445794	-6.030826926714826	-6.030826926714826	-5.613379411585909	-5.613379411585909	5.350322026073385	2.508647453998768	1.054626898498743	-0.6809034251085094	0.004845111233181532	0.001426283144805217	0.01065227631593534	0.01046520148112598	0.01042423760331187	0.009751740593638945	0.01102252701438052	0.01486948003603032	0.009411256216945619	0.02502363346923656	0.07654084539826621	0.142183167089012	0.1087127630601143	0.1353770154077881	0.01249316124317549	0.01172189458924217	0.01088399740815056	0.4229065078681357	0.1763305331666768	0.04023788627515915	0.1882102665538366	0.1105185784538244	0.03596630825275654	0.01018133434269222	0.1124959825555457	0.03054105420735852	0.04413506310823992	0.0199855306875703	0.03514587435368634	0.2245531342174516	0.02607559818021287	0.009046166714210489	0.01088834489164877	0.36091855497942	0.1560647386058834	0.2096744891748867	0.3010192043122863	0.08666776452888292	0.1826642848924481	0.1141406395440066
144.20616	-0.2661779614562213	-0.2162712725650352	1.541476102822967	0.8007326202610102	0.9764433525294998	-1.217425093679173	0.1400551372668952	-0.2719165350963897	0.07654687371243246	0.4981707050278392	0.2263171067141407	-0.1767802866933899	0.4631417083618239	0.4631417083618239	1.118049370581874	1.118049370581874	0.2719171786987326	-0.1924962643496928	-0.5741659411027458	-0.6798396721297355	-0.4788884488766113	-1.469716122774157	1.407043478724962	-0.2719137808902822	0.557942409442111	-0.08504782352080101	-4.231255623544858	-1.00444080924773	-0.1390148880247843	2.338341940458348	0.7311013195937943	-0.9608821553390281	-6.14708968499189	-6.14708968499189	-7.194305912265915	-7.194305912265915	2.737375566509465	1.904059007725613	1.397760833759063	-0.9129833402180163	0.007967473130391674	0.007041438705011983	0.01101442719048733	0.01366780103640274	0.01039677540097462	0.008227220967269355	0.01041088501728223	0.01955883128019554	0.01718036073082004	0.02106391703361434	0.02347443546887665	0.04576919672118304	0.1069548709874492	0.1797108446622387	0.008796310982814904	0.01135355327852432	0.01070582007974923	0.3397194285760397	0.1386413784268596	0.03634583392720742	0.1561858022012211	0.09437757533837041	0.03640539607241527	0.008531833120376284	0.1239015827788844	0.04615269672316841	0.09789318635828707	0.02980814093307876	0.06980271530786994	0.1945934199858193	0.04338994954142645	0.01013984512911088	0.009855403565127364	0.2903045404869202	0.1437959130834376	0.1403143476834597	0.1381509080850248	0.05311274940834174	0.09736706578324851	0.06782502161082374
144.22192	-0.271432967381381	-0.238766241522559	1.558627982066398	0.7966838511400696	0.9853603137679615	-1.218979611686632	0.07559333797812821	-0.2850073459610356	0.07783487204441966	0.5289600465161078	0.2359020737548878	-0.1900408480414691	0.3693492712807696	0.3693492712807696	0.9936020738840567	0.9936020738840567	0.2914761351897293	-0.1668547727759781	-0.5447042342972397	-0.6944834700949403	-0.2055687906998621	-1.359907912048115	0.7805845778840901	-0.2418759675084732	0.5707904008316096	-0.1125135927520819	-3.938686117199278	-0.6983442566040761	0.3032999792764691	1.526702925157379	0.5120437729558249	-0.694293329272465	-5.692616709294093	-5.692616709294093	-8.638484221031758	-8.638484221031758	-0.1548251763731441	1.407798242735838	2.311449344346364	-0.8005050456767333	0.0224269988868885	0.0326401141389531	0.01120495688607323	0.01476898302744452	0.01083033462006381	0.008329274019431836	0.01006392518492259	0.02565201875152723	0.03830273051460476	0.03189640779443147	0.006262944444939916	0.001891795944294156	0.09171824393964417	0.219844038574641	0.008928145948257922	0.01060464822400993	0.0103567784709154	0.2368637420418412	0.09794534312841073	0.03831793030215624	0.1151749856670663	0.07386806385915913	0.03791465436303961	0.008326254795770968	0.1407927806138577	0.0531625848674824	0.1597742988681578	0.03600960117403533	0.1102703638527001	0.1482216903891538	0.05875586179780869	0.009863301661663128	0.009366352473105568	0.2067588542158754	0.1228075438796504	0.1339271442852624	0.053892788964423	0.02578296528010196	0.04352783999281244	0.03303794424122683
144.23768	-0.2718886250668463	-0.2580916908309894	1.567072297596736	0.7930894509472552	0.994265490767358	-1.220943332329061	0.01628718365459114	-0.2936104370008585	0.08412045025166287	0.5455273795452728	0.2419324155485168	-0.1966998516166542	0.2865158239313364	0.2865158239313364	0.8477874147544235	0.8477874147544235	0.2675079579061045	-0.1466258892244827	-0.4958248557990219	-0.7009017375901705	0.1162689716470174	-1.057690572577957	0.3095581322057133	-0.2150924188605636	0.5555598661327665	-0.1361309395327659	-3.593739609113468	-0.4430356784137852	0.5511689087151571	0.550820147981302	0.2981530030486805	-0.1201844194982737	-4.757190338778409	-4.757190338778409	-9.812165658908146	-9.812165658908146	-2.762922135715927	1.222944410601456	3.721669487501399	0.07155464548684598	0.048905664466278	0.08037748659197325	0.01131972966034217	0.01422437325981298	0.01217160700827037	0.01335381336592931	0.009887606177139591	0.0335771395117344	0.0688124698576289	0.05338181633798426	0.01309540946420802	-0.00189311610495064	0.07092637466999174	0.2549860358160505	0.01024354577387719	0.01010409800931007	0.01013268538676236	0.1400294364669066	0.06010140568310702	0.03687282476640798	0.08100178382037047	0.05153964900025709	0.0364584113115013	0.01292936498802233	0.1640175756687278	0.05226466188903878	0.2097560034282165	0.03582675442336058	0.1415495121446952	0.09601664270940635	0.06521401745968969	0.008340248057594788	0.01097075001371529	0.1362654863020303	0.09456205020861901	0.1958861028627793	0.03610454421743331	0.01075765244672671	0.0163686974953734	0.01351371549207154
144.25344	-0.266222498444505	-0.2719872491686102	1.569979708870676	0.7898477475669152	1.00273974612304	-1.223239538482676	-0.03677069947071292	-0.2974351599341954	0.09104654123277992	0.5464730068676075	0.2438407812989583	-0.1919736556385905	0.2213740711938442	0.2213740711938442	0.6858876714447695	0.6858876714447695	0.2080011112076884	-0.1258484656998964	-0.4230790867855583	-0.6846764656065407	0.5800951274702182	-0.6594697857160478	0.06194070789824334	-0.1958266663594024	0.5104796795341555	-0.1525148654822624	-3.151351921283883	-0.07532369167801464	0.4326570345603645	-0.4075686802447714	-0.03965303616046845	0.732664272021838	-3.424415682598693	-3.424415682598693	-10.47272910792894	-10.47272910792894	-4.716170382327118	1.415887449979865	5.191364690717933	1.872156756151362	0.07988580023323208	0.1386750668752648	0.0114386143471426	0.01337663567183803	0.01449269250440278	0.02533233904091664	0.009990269194536834	0.0448335761103197	0.09481150322740903	0.07257244944170356	0.0253148037426286	0.009771591438723063	0.05861315152862937	0.2706645752378355	0.01101273522246324	0.009970294649395863	0.01008742256989227	0.07250715183918414	0.03171250629512252	0.02985132913310728	0.06166689355972146	0.03281966770407735	0.03114571332256605	0.02478791813595171	0.1877592997172469	0.0524122047938672	0.22890274614423	0.03091012093190623	0.156510460068442	0.05070683427399217	0.06332300300734957	0.008780594882063928	0.01593295045570066	0.08918566482609358	0.06565017492811641	0.2874577906858783	0.0494136287515537	0.006766423509957814	0.007287214539182327	0.006967765137294007
144.2692	-0.2520369273760605	-0.2795948332867089	1.570563482158119	0.7868587516605083	1.010297112848475	-1.225723945633267	-0.08195574451667412	-0.2940633507735432	0.09341892166332112	0.5336113486583184	0.2389126069500107	-0.1728906734940069	0.1793214582902938	0.1793214582902938	0.5181669508796226	0.5181669508796226	0.1232101715724714	-0.09952077561535985	-0.330936824514362	-0.6337891606640378	1.232994195252905	-0.2589190673862516	-0.002447472146587616	-0.1810580915880966	0.4329590333703135	-0.1578277246669988	-2.580144324163717	0.5132458404815554	-0.01088071966306259	-1.144513552382792	-0.6384290924331455	1.681841138718293	-1.794813425508035	-1.794813425508035	-10.36310528999523	-10.36310528999523	-6.077624139021746	1.834746143965877	6.105473739724117	4.292979087640348	0.10307282335428	0.1868232238925585	0.0115156304259223	0.01272211985534763	0.01729395126870092	0.04196462958564012	0.01073899815019238	0.05930302120016673	0.1035356927200921	0.07729257029406282	0.0306520767898935	0.01922757242277754	0.065851494242102	0.246189986757478	0.01096224737362046	0.01004321657866465	0.01013922560146155	0.04224659965938784	0.01608122840776257	0.02149933299340586	0.05385204886051401	0.02351027123060087	0.02517155653456671	0.04226554471075383	0.2060011519001775	0.05996580527889421	0.2099715129541631	0.02579294957425691	0.1603236024358522	0.02108624342288379	0.05959900779924885	0.01590520287500384	0.0237432744695206	0.05978839807997643	0.04569965414545605	0.3484317965407139	0.05995872692778739	0.008357736167515398	0.00732318912318441	0.00759740414794657
144.28496	-0.2270288180932097	-0.2809948821199031	1.570707191656162	0.7841001000910062	1.016375081419427	-1.22818487927384	-0.1177584216141696	-0.2805972286208318	0.08881811065909911	0.5118429123387856	0.2231034045350556	-0.1396953422812859	0.1641283014949876	0.1641283014949876	0.3601742618118909	0.3601742618118909	0.02006119755720843	-0.06714106361222476	-0.2335353614955205	-0.5473093303004636	2.008206180170427	0.09528335016589246	0.02521636440681439	-0.1668514688326757	0.325974546540047	-0.1501954626824074	-1.928504348492684	1.27357547313917	-0.5015970460976374	-1.524580598722879	-1.491954324668296	2.522309028173616	-0.0275385265559388	-0.0275385265559388	-9.338681011467797	-9.338681011467797	-7.170791937050711	2.172794569012552	6.020642419900418	6.555905981889743	0.1100114508993205	0.2085176553139483	0.01152357955495244	0.01212862329538727	0.01965089228763732	0.05653218560880816	0.0123421352626452	0.0734861065471596	0.09622792671677834	0.06677014793760995	0.02790332272734359	0.02190889402589092	0.08981200418478132	0.1799954100556813	0.01055837523034866	0.01014537683217256	0.01019882304541258	0.04140165759873125	0.01114751098156545	0.01609898914415261	0.0506481395609439	0.0250046074910101	0.02152802100589786	0.05931023566960335	0.2179646427995111	0.07082260999514756	0.1660947234543526	0.02306422750918757	0.1623403868017384	0.008146865947500836	0.05908603603984865	0.03258210269500455	0.03208560829842566	0.03851553435083248	0.04059653991460012	0.3406615645748967	0.05410895198223962	0.01059943090985693	0.009698193565556209	0.009928854174080041
144.30072	-0.1904716717527862	-0.2765104914244837	1.570608231265489	0.7816164314867809	1.02044585089252	-1.230388505777289	-0.1438376508003719	-0.2558142132687796	0.07959749300154076	0.4875969332226908	0.1933019338526054	-0.0952263784890421	0.1771640884204382	0.1771640884204382	0.2297731705885044	0.2297731705885044	-0.09888072945818575	-0.03366139196392409	-0.149606009228838	-0.4390640220444608	2.734794385084307	0.4098893856395661	0.03782326545229484	-0.1508606421709461	0.1996187810624293	-0.1309605798303458	-1.323940052941265	2.006721793402494	-0.7409951553280434	-1.53641715669764	-2.415666292819875	3.128015237004667	1.661277768742216	1.661277768742216	-7.444796145249553	-7.444796145249553	-8.151768323646241	2.147343366948599	4.906162336196208	7.721475862877571	0.1023659825136647	0.2030848291988943	0.01149323505471448	0.0115495702394538	0.02057264962994868	0.06243439753024461	0.01425423659749308	0.08363471297411315	0.08651193531755165	0.05078021379427882	0.02220414379096646	0.02076627226234129	0.1130343143954108	0.1018208210421222	0.01023075369579596	0.01019222708278579	0.01022548306097423	0.05388223514824808	0.01172363784464363	0.01408849130765082	0.04989095096065462	0.03235249299885963	0.01994168673518487	0.06978182134875979	0.2233094282233559	0.07506710128108068	0.1214475429188745	0.02157932809713962	0.1658654985580615	0.006397741863499307	0.06235018667023204	0.05636368582369095	0.03888228149937593	0.02182072807114675	0.04685188761170712	0.2730135803404982	0.03795673553909522	0.01142606442110798	0.01112826972879242	0.01119955549161025
144.31648	-0.1438631054156848	-0.2664644332858117	1.569321696393582	0.7794641722219018	1.022231901450136	-1.23216131603803	-0.1615242425738874	-0.2211415599726813	0.07094933303228725	0.4664049373889545	0.1492245621733682	-0.04328351194384621	0.2165072477860204	0.2165072477860204	0.1405508715623275	0.1405508715623275	-0.2320628913174517	-0.00641421471160168	-0.0938723975354112	-0.3312632061491379	3.228881588973577	0.7228936418259047	-0.06035425487230819	-0.1317622420382407	0.06677686208897338	-0.1039399649128221	-0.9019783451152794	2.483519418802313	-0.6300661192784804	-1.276349355631653	-3.158850602530503	3.471731522995172	3.072282739048517	3.072282739048517	-4.891011350422829	-4.891011350422829	-8.837413561736994	1.656628361455349	3.078099897160952	7.147778929012654	0.0900582625273889	0.1844468628432503	0.01139019718062471	0.01109058839638677	0.01940078498293567	0.05827809094738306	0.01515258126855851	0.09041218844223368	0.08622307216154107	0.03871583883527417	0.0175383319103583	0.01848397983907588	0.1153949855442424	0.05408004884418723	0.01011228766537024	0.01018371031680574	0.01021727947532366	0.0635911584371618	0.01366150559754737	0.01347944511080315	0.05464965847816843	0.03768883782277228	0.0184006925352162	0.07241749565448517	0.2146402279727269	0.06819296916734752	0.09056770826714844	0.01923198197901172	0.1665146996807996	0.008633459260164558	0.06897159097238285	0.07963906047374938	0.04428917335483148	0.01137910642337946	0.05330313503296878	0.1861808936422198	0.02294444962440719	0.01109418728074859	0.01119923826962626	0.01117935174304292
144.33224	-0.09031495981167947	-0.2516477341317463	1.565986628506173	0.7776397646317819	1.021948379679735	-1.233477852962453	-0.1733896786900141	-0.1798473946420332	0.06666405528128438	0.4507129836269879	0.09377558520213766	0.0127537443682057	0.2764369879448659	0.2764369879448659	0.09382886519000108	0.09382886519000108	-0.3760032985433694	0.01032216447082804	-0.06949119987383687	-0.2403217522289194	3.411396481256065	1.06497285230678	-0.3102222088093282	-0.1092451610737047	-0.06339503256543179	-0.07327969126104519	-0.7170064247211161	2.598216084044806	-0.2687623305571153	-0.8748830258691167	-3.578317129785875	3.599939392185996	4.13041078484785	4.13041078484785	-1.945052188568191	-1.945052188568191	-8.99460793091648	0.7927106166185574	0.921636616268512	4.828394318861573	0.08270824552363507	0.1684402460597403	0.01111044509653083	0.01076653452142357	0.01613561608029063	0.04777649360717635	0.01393133527017939	0.09800095395613725	0.09665192916201953	0.03250990311007682	0.01405266997397404	0.01507415072110289	0.08834418330001537	0.05985603189422856	0.01014993354900271	0.01015210435256381	0.01018501448458822	0.06126191279987035	0.0156208772623731	0.01272997242585753	0.06776823049500161	0.03597826186625421	0.0158115951958039	0.07062677418911902	0.1826546925562229	0.05421789222045232	0.07095804555917394	0.01554952328229444	0.158984712919005	0.0101560007702668	0.0797232982211865	0.09528634845228676	0.05003731566086127	0.008284252953735072	0.05006741057397034	0.115748237557889	0.01432606603744422	0.01050189467445006	0.01064742738224915	0.01062491980129912
144.348	-0.03338718215643292	-0.2339484828240753	1.560992470762866	0.7760265213260366	1.02041496878009	-1.234499764599195	-0.1823919728049861	-0.1354749657625277	0.0663031344575867	0.4391010243690612	0.03212625034497711	0.07047614136708019	0.3477342228939294	0.3477342228939294	0.07441494005992232	0.07441494005992232	-0.5254994604102903	0.0190410796298893	-0.06558509786140533	-0.1654013761866546	3.373434336237636	1.435014456512595	-0.6678378746121281	-0.08448580098509777	-0.1892809825993857	-0.0415999235116243	-0.6972504002223221	2.452768417546786	0.1966078358121335	-0.4263273136308447	-3.748312620178083	3.607172930814831	4.944160419066358	4.944160419066358	1.167068488155025	1.167068488155025	-8.715221667048478	-0.261221225221283	-1.324282491564252	1.42829764818611	0.08183120211211406	0.1597718035953476	0.01065504116123486	0.01049979383028259	0.01155383654648607	0.0351580233817044	0.01092402651009413	0.1082987273218377	0.112575597875823	0.02933132390035757	0.01064858337297403	0.01033839723383527	0.04059226379171139	0.1059088740493562	0.01025647558394423	0.01011873007924978	0.01014035653433324	0.0485606239739387	0.01766250732759731	0.01159221342056125	0.08728451956319996	0.02833882827694916	0.01244877474113646	0.06784998743037936	0.1309372960056741	0.03853015432392879	0.05473595349773656	0.0112383590962029	0.1441385142599096	0.01007144811016541	0.09402789588680324	0.103389879650614	0.05690220505301035	0.01010938460927874	0.03717900333030465	0.06681076787452431	0.01034523638899956	0.01006369987429983	0.01002147969164847	0.01004414535219232
