NormalizedFiberLength
version=1
nRows=51
nColumns=5
inDegrees=no

This analysis gathers basic information about muscles during a simulation (e.g., forces, tendon lengths, moment arms, etc).
Units are S.I. units (second, meters, Newtons, ...)
If the header above contains a line with 'inDegrees', this indicates whether rotational values are in degrees (yes) or radians (no).

endheader
time	recfem_r	vaslat_r	vasint_r	vasmed_r
    143.56000000	      1.01142776	      0.92470378	      0.94545653	      0.95817953
    143.57576000	      0.99039077	      0.90780092	      0.92854249	      0.94263707
    143.59152000	      0.97796899	      0.89855423	      0.91920872	      0.93407707
    143.60728000	      0.98379875	      0.90225512	      0.92295248	      0.93750863
    143.62304000	      1.01263636	      0.92048634	      0.94125139	      0.95431270
    143.63880000	      1.06327695	      0.95115301	      0.97167661	      0.98230329
    143.65456000	      1.12997137	      0.98996096	      1.01001760	      1.01753609
    143.67032000	      1.20516261	      1.03272295	      1.05267701	      1.05660327
    143.68608000	      1.28000911	      1.07555400	      1.09610183	      1.09616756
    143.70184000	      1.34739592	      1.11610536	      1.13798073	      1.13407173
    143.71760000	      1.40519704	      1.15504412	      1.17898987	      1.17109228
    143.73336000	      1.44876893	      1.19002551	      1.21661284	      1.20492668
    143.74912000	      1.47395279	      1.21779991	      1.24720625	      1.23222489
    143.76488000	      1.48117812	      1.23735976	      1.26926409	      1.25176097
    143.78064000	      1.47285343	      1.24870920	      1.28230426	      1.26324747
    143.79640000	      1.45109076	      1.25231258	      1.28648651	      1.26692084
    143.81216000	      1.41628970	      1.24866567	      1.28225388	      1.26320319
    143.82792000	      1.36755656	      1.23790247	      1.26988331	      1.25230750
    143.84368000	      1.30428358	      1.21935790	      1.24894591	      1.23377031
    143.85944000	      1.22733923	      1.19129430	      1.21799473	      1.20616441
    143.87520000	      1.13944418	      1.15159606	      1.17532491	      1.16778665
    143.89096000	      1.04801084	      1.10177011	      1.12308252	      1.12060876
    143.90672000	      0.95756319	      1.04324625	      1.06327769	      1.06628476
    143.92248000	      0.87053692	      0.97877516	      0.99895179	      1.00737777
    143.93824000	      0.79299974	      0.91698235	      0.93775057	      0.95109467
    143.95400000	      0.72774148	      0.86578710	      0.88545357	      0.90329451
    143.96976000	      0.67862612	      0.83136379	      0.84826456	      0.86988373
    143.98552000	      0.64806241	      0.81474991	      0.82938308	      0.85321177
    144.00128000	      0.63822403	      0.81516141	      0.82985996	      0.85362991
    144.01704000	      0.65118795	      0.83243849	      0.84946177	      0.87094833
    144.03280000	      0.68741246	      0.86653784	      0.88624183	      0.90400928
    144.04856000	      0.74343582	      0.91451919	      0.93528545	      0.94882944
    144.06432000	      0.81079594	      0.96818419	      0.98849206	      0.99776727
    144.08008000	      0.88024420	      1.01843394	      1.03834964	      1.04349986
    144.09584000	      0.94328197	      1.05826627	      1.07848354	      1.08014813
    144.11160000	      0.99375323	      1.08354789	      1.10429385	      1.10359907
    144.12736000	      1.03009792	      1.09399009	      1.11504064	      1.11333359
    144.14312000	      1.05215944	      1.09062947	      1.11157621	      1.11019715
    144.15888000	      1.06031577	      1.07508498	      1.09562210	      1.09573205
    144.17464000	      1.05544385	      1.04924789	      1.06934273	      1.07181799
    144.19040000	      1.03996518	      1.01578089	      1.03569772	      1.04107241
    144.20616000	      1.01838439	      0.97852304	      0.99870264	      1.00714894
    144.22192000	      0.99534339	      0.94135150	      0.96198362	      0.97338483
    144.23768000	      0.97474793	      0.90769585	      0.92843679	      0.94254006
    144.25344000	      0.96091145	      0.88110808	      0.90138945	      0.91778634
    144.26920000	      0.95749009	      0.86412000	      0.88370019	      0.90170543
    144.28496000	      0.96707736	      0.85804278	      0.87727239	      0.89589027
    144.30072000	      0.99094848	      0.86325480	      0.88278858	      0.90087970
    144.31648000	      1.02845387	      0.87913181	      0.89935055	      0.91592764
    144.33224000	      1.07653994	      0.90357422	      0.92428420	      0.93872993
    144.34800000	      1.12982446	      0.93263565	      0.95334349	      0.96543481
