FiberActivePower
version=1
nRows=51
nColumns=5
inDegrees=no

This analysis gathers basic information about muscles during a simulation (e.g., forces, tendon lengths, moment arms, etc).
Units are S.I. units (second, meters, Newtons, ...)
If the header above contains a line with 'inDegrees', this indicates whether rotational values are in degrees (yes) or radians (no).

endheader
time	recfem_r	vaslat_r	vasint_r	vasmed_r
    143.56000000	     43.70012367	     14.38239327	      5.55228031	      8.47733285
    143.57576000	     18.69595080	      7.57868268	      2.88910454	      4.29840882
    143.59152000	      1.06765117	      0.75785449	      0.28215722	      0.40844482
    143.60728000	     -4.57392119	     -6.45006642	     -2.30493871	     -3.27520901
    143.62304000	     -0.66814825	    -14.03657492	     -4.78139626	     -6.76605547
    143.63880000	     -9.11209450	    -20.90452947	     -6.88888420	     -9.77351346
    143.65456000	    -51.63366396	    -25.83475023	     -8.46480439	    -12.00801135
    143.67032000	   -108.45409437	    -27.83158291	     -9.25270653	    -13.07497469
    143.68608000	   -126.71166650	    -26.48770934	     -8.97439030	    -12.57531905
    143.70184000	    -97.85903496	    -24.59362587	     -8.52878476	    -11.86974576
    143.71760000	    -51.98048892	    -22.67066048	     -8.06305960	    -11.22036142
    143.73336000	    -16.32391754	    -18.08063997	     -6.58954948	     -9.17779380
    143.74912000	     -2.86800436	    -12.66220951	     -4.68968930	     -6.57070791
    143.76488000	      0.10711062	     -7.60773933	     -2.83180807	     -4.00027980
    143.78064000	      2.36092057	     -3.36482658	     -1.25666616	     -1.77359708
    143.79640000	      5.63030773	      0.05746499	      0.02180857	      0.03022515
    143.81216000	      8.12916673	      2.91146165	      1.13083968	      1.53361292
    143.82792000	      8.33276086	      5.62236931	      2.16414147	      2.98324477
    143.84368000	      6.74361271	      8.70324833	      3.05553117	      4.64644339
    143.85944000	      5.28397209	     12.41216825	      3.65826658	      6.60840402
    143.87520000	      5.17438055	     15.98963777	      4.33661416	      8.47153452
    143.89096000	      6.00179666	     17.79587743	      6.73616695	      9.68095837
    143.90672000	      6.51121353	     18.04886200	     12.99416369	     11.09265714
    143.92248000	      6.54406872	     16.74613153	     21.12934551	     12.37657937
    143.93824000	      6.12460136	     15.99902360	     25.64399099	     13.00460420
    143.95400000	      5.10777425	     15.77395571	     21.65046093	     11.22936453
    143.96976000	      3.40457054	     12.81790094	     11.42297588	      6.70370909
    143.98552000	      1.56855776	      4.65805888	      2.28536112	      1.67175251
    144.00128000	     -0.12843919	     -3.97950336	     -1.03695958	     -1.25808077
    144.01704000	     -4.74960952	     -1.58196576	     -2.36564459	     -5.24694271
    144.03280000	    -19.28297250	      4.89830119	    -13.39567141	    -24.52281428
    144.04856000	    -44.57093726	    -58.34105453	    -42.59484445	    -73.06970852
    144.06432000	    -66.28153766	   -270.58621825	    -77.85866582	   -134.36449058
    144.08008000	    -75.72612153	   -546.98209970	    -96.23490040	   -173.74579277
    144.09584000	    -77.51701092	   -637.44416521	    -80.36076758	   -157.03336258
    144.11160000	    -80.05295751	   -439.09756115	    -44.27076677	    -95.02432046
    144.12736000	    -74.50193324	    -87.73760794	     -7.97290842	    -18.36736487
    144.14312000	    -48.37426431	    225.66015908	     21.09636364	     49.09613928
    144.15888000	     -5.57762553	    378.08488293	     40.54747500	     89.88319867
    144.17464000	     38.10059555	    368.63751636	     47.74642147	     98.56533650
    144.19040000	     63.13597876	    262.49191846	     40.72477307	     79.30995106
    144.20616000	     63.61918561	    143.69392791	     25.45555836	     48.39585501
    144.22192000	     47.31189898	     60.45898492	     11.61239857	     22.33800309
    144.23768000	     24.86023276	     19.19126964	      4.10302256	      7.80971881
    144.25344000	      6.83001419	      6.19040098	      1.94890890	      2.98453596
    144.26920000	     -1.12003282	      3.53835069	      1.41718727	      1.87422414
    144.28496000	     -2.51369464	      0.07855106	      0.03041010	      0.04106094
    144.30072000	     -3.93225974	     -5.89750090	     -2.13430902	     -3.00146818
    144.31648000	     -7.57921175	    -11.85640932	     -4.05663200	     -5.86564554
    144.33224000	    -10.87077336	    -16.11662433	     -5.34474579	     -7.77535753
    144.34800000	    -12.05505584	    -18.73823784	     -6.18934486	     -8.88558656
