FiberLength
version=1
nRows=51
nColumns=5
inDegrees=no

This analysis gathers basic information about muscles during a simulation (e.g., forces, tendon lengths, moment arms, etc).
Units are S.I. units (second, meters, Newtons, ...)
If the header above contains a line with 'inDegrees', this indicates whether rotational values are in degrees (yes) or radians (no).

endheader
time	recfem_r	vaslat_r	vasint_r	vasmed_r
    143.56000000	      0.09174978	      0.11128631	      0.11342772	      0.11203910
    143.57576000	      0.08984144	      0.10925208	      0.11139852	      0.11022174
    143.59152000	      0.08871463	      0.10813926	      0.11027874	      0.10922082
    143.60728000	      0.08924346	      0.10858465	      0.11072788	      0.10962207
    143.62304000	      0.09185941	      0.11077874	      0.11292323	      0.11158696
    143.63880000	      0.09645318	      0.11446942	      0.11657338	      0.11485987
    143.65456000	      0.10250324	      0.11913988	      0.12117321	      0.11897962
    143.67032000	      0.10932407	      0.12428620	      0.12629111	      0.12354771
    143.68608000	      0.11611363	      0.12944084	      0.13150085	      0.12817393
    143.70184000	      0.12222650	      0.13432111	      0.13652512	      0.13260603
    143.71760000	      0.12746982	      0.13900732	      0.14144504	      0.13693481
    143.73336000	      0.13142236	      0.14321726	      0.14595872	      0.14089103
    143.74912000	      0.13370687	      0.14655986	      0.14962905	      0.14408299
    143.76488000	      0.13436230	      0.14891385	      0.15227536	      0.14636733
    143.78064000	      0.13360714	      0.15027973	      0.15383981	      0.14771044
    143.79640000	      0.13163298	      0.15071339	      0.15434156	      0.14813996
    143.81216000	      0.12847607	      0.15027449	      0.15383377	      0.14770526
    143.82792000	      0.12405533	      0.14897916	      0.15234965	      0.14643123
    143.84368000	      0.11831564	      0.14674736	      0.14983776	      0.14426370
    143.85944000	      0.11133578	      0.14336996	      0.14612451	      0.14103576
    143.87520000	      0.10336255	      0.13859235	      0.14100535	      0.13654828
    143.89096000	      0.09506834	      0.13259590	      0.13473776	      0.13103181
    143.90672000	      0.08686355	      0.12555266	      0.12756289	      0.12467976
    143.92248000	      0.07896913	      0.11779369	      0.11984562	      0.11779181
    143.93824000	      0.07193549	      0.11035705	      0.11250323	      0.11121068
    143.95400000	      0.06601571	      0.10419580	      0.10622909	      0.10562145
    143.96976000	      0.06156030	      0.10005302	      0.10176747	      0.10171475
    143.98552000	      0.05878777	      0.09805357	      0.09950223	      0.09976531
    144.00128000	      0.05789530	      0.09810309	      0.09955944	      0.09981421
    144.01704000	      0.05907130	      0.10018236	      0.10191110	      0.10183924
    144.03280000	      0.06235733	      0.10428615	      0.10632366	      0.10570502
    144.04856000	      0.06743939	      0.11006061	      0.11220749	      0.11094581
    144.06432000	      0.07354984	      0.11651909	      0.11859076	      0.11666806
    144.08008000	      0.07984970	      0.12256655	      0.12457224	      0.12201554
    144.09584000	      0.08556806	      0.12736029	      0.12938716	      0.12630079
    144.11160000	      0.09014646	      0.13040289	      0.13248366	      0.12904289
    144.12736000	      0.09344340	      0.13165959	      0.13377296	      0.13018113
    144.14312000	      0.09544467	      0.13125514	      0.13335733	      0.12981439
    144.15888000	      0.09618456	      0.12938439	      0.13144330	      0.12812300
    144.17464000	      0.09574261	      0.12627495	      0.12829052	      0.12532675
    144.19040000	      0.09433849	      0.12224726	      0.12425408	      0.12173170
    144.20616000	      0.09238083	      0.11776335	      0.11981573	      0.11776506
    144.22192000	      0.09029071	      0.11328983	      0.11541050	      0.11381705
    144.23768000	      0.08842243	      0.10923943	      0.11138584	      0.11021039
    144.25344000	      0.08716728	      0.10603965	      0.10814094	      0.10731596
    144.26920000	      0.08685692	      0.10399517	      0.10601873	      0.10543564
    144.28496000	      0.08772661	      0.10326378	      0.10524758	      0.10475567
    144.30072000	      0.08989204	      0.10389104	      0.10590936	      0.10533908
    144.31648000	      0.09329427	      0.10580181	      0.10789633	      0.10709863
    144.33224000	      0.09765631	      0.10874340	      0.11088765	      0.10976488
    144.34800000	      0.10248991	      0.11224089	      0.11437393	      0.11288746
