PassiveFiberForceAlongTendon
version=1
nRows=51
nColumns=5
inDegrees=no

This analysis gathers basic information about muscles during a simulation (e.g., forces, tendon lengths, moment arms, etc).
Units are S.I. units (second, meters, Newtons, ...)
If the header above contains a line with 'inDegrees', this indicates whether rotational values are in degrees (yes) or radians (no).

endheader
time	recfem_r	vaslat_r	vasint_r	vasmed_r
    143.56000000	     49.89766101	     75.93751280	     28.54918775	     44.74766184
    143.57576000	     45.76899557	     71.08386658	     26.63607486	     41.81484103
    143.59152000	     44.00287981	     69.41349481	     25.93477257	     40.67639187
    143.60728000	     46.33380132	     72.36411812	     27.00540661	     42.18937340
    143.62304000	     54.06628900	     80.51889900	     30.05124144	     46.68218236
    143.63880000	     68.76407763	     93.96228457	     35.09174779	     54.16396741
    143.65456000	     92.79642134	    112.68617113	     42.18253491	     64.61054134
    143.67032000	    129.09739853	    136.67766671	     51.47469864	     78.09748554
    143.68608000	    178.90890600	    165.22727006	     62.85110464	     94.28277795
    143.70184000	    240.22309875	    197.80280002	     76.24551256	    112.90886936
    143.71760000	    309.59082018	    235.24514552	     92.19133575	    134.66283880
    143.73336000	    374.66050497	    274.42914588	    109.59421892	    157.90404886
    143.74912000	    418.03611812	    309.90512530	    126.07632346	    179.39796431
    143.76488000	    430.76387761	    337.39476232	    139.40934712	    196.42789304
    143.78064000	    414.18444494	    354.10648011	    147.81689857	    206.99821907
    143.79640000	    374.89827540	    358.94173983	    150.36875530	    210.15718600
    143.81216000	    319.74965042	    352.07760355	    147.01801137	    205.92469141
    143.82792000	    255.64024754	    334.20620393	    138.27104936	    194.85485281
    143.84368000	    190.71687303	    305.80635823	    124.74235422	    177.51594437
    143.85944000	    132.87980173	    267.20541741	    107.07133814	    154.42603524
    143.87520000	     87.16790018	    220.43719687	     86.61082940	    127.04567872
    143.89096000	     55.66344160	    172.94753878	     66.73749522	     99.84672263
    143.90672000	     34.88973121	    129.00671431	     49.17811330	     75.13548409
    143.92248000	     21.87502549	     93.15394409	     35.35130389	     55.08415658
    143.93824000	     14.19546735	     68.28918911	     25.81315438	     40.90050397
    143.95400000	      9.98116755	     53.74984934	     19.98044805	     32.09313537
    143.96976000	      8.03921632	     46.97695691	     17.07451923	     27.61700984
    143.98552000	      7.62355645	     45.34456439	     16.30505991	     26.27947899
    144.00128000	      8.39856845	     47.63555213	     17.22595853	     27.43938323
    144.01704000	     10.31323001	     53.97508496	     19.77459033	     31.08115094
    144.03280000	     13.44131349	     65.20110528	     24.12629443	     37.54882859
    144.04856000	     17.94432995	     82.05129566	     30.49738764	     47.14960742
    144.06432000	     23.97060756	    103.85766995	     38.74254930	     59.48243114
    144.08008000	     31.77863942	    128.59939983	     48.29953921	     73.50433504
    144.09584000	     40.83521508	    151.75323877	     57.51127906	     86.75699216
    144.11160000	     49.96679939	    168.02041638	     64.16605156	     96.16990421
    144.12736000	     57.80759088	    174.27206819	     66.82494696	     99.90278076
    144.14312000	     62.97234673	    169.84494360	     65.12131822	     97.54637999
    144.15888000	     64.54961963	    156.47559918	     59.79603197	     90.10505488
    144.17464000	     62.40734935	    137.27609707	     52.21207549	     79.37788133
    144.19040000	     57.57740683	    116.12952670	     43.98676214	     67.56726118
    144.20616000	     51.81175630	     96.55990805	     36.49391219	     56.63445202
    144.22192000	     46.48002560	     80.49863239	     30.37158031	     47.55931425
    144.23768000	     42.40302863	     68.63275307	     25.78911766	     40.67643002
    144.25344000	     40.21987091	     61.11349354	     22.80638880	     36.13784649
    144.26920000	     40.27628481	     57.48670241	     21.31402159	     33.80601364
    144.28496000	     42.90372589	     57.25368226	     21.16995750	     33.48333813
    144.30072000	     48.60238175	     60.12130066	     22.26144301	     35.02746918
    144.31648000	     58.12374612	     66.00055579	     24.51761739	     38.35945629
    144.33224000	     72.36547312	     74.80169936	     27.86572853	     43.37056204
    144.34800000	     91.82225512	     86.02446416	     32.10378553	     49.71826677
