Coordinates

Units are S.I. units (second, meters, Newtons, ...)
If the header above contains a line with 'inDegrees', this indicates whether rotational values are in degrees (yes) or radians (no).

inDegrees=no
nColumns=21
nRows=1057
DataType=double
version=3
OpenSimVersion=4.5.2-2025-05-03-6a4c6ec41
endheader
time	/jointset/ground_pelvis/pelvis_tilt/value	/jointset/ground_pelvis/pelvis_list/value	/jointset/ground_pelvis/pelvis_rotation/value	/jointset/ground_pelvis/pelvis_tx/value	/jointset/ground_pelvis/pelvis_ty/value	/jointset/ground_pelvis/pelvis_tz/value	/jointset/hip_r/hip_flexion_r/value	/jointset/hip_r/hip_adduction_r/value	/jointset/hip_r/hip_rotation_r/value	/jointset/walker_knee_r/knee_angle_r/value	/jointset/patellofemoral_r/knee_angle_r_beta/value	/jointset/ankle_r/ankle_angle_r/value	/jointset/subtalar_r/subtalar_angle_r/value	/jointset/hip_l/hip_flexion_l/value	/jointset/hip_l/hip_adduction_l/value	/jointset/hip_l/hip_rotation_l/value	/jointset/walker_knee_l/knee_angle_l/value	/jointset/patellofemoral_l/knee_angle_l_beta/value	/jointset/ankle_l/ankle_angle_l/value	/jointset/subtalar_l/subtalar_angle_l/value	/jointset/ground_pelvis/pelvis_tilt/speed	/jointset/ground_pelvis/pelvis_list/speed	/jointset/ground_pelvis/pelvis_rotation/speed	/jointset/ground_pelvis/pelvis_tx/speed	/jointset/ground_pelvis/pelvis_ty/speed	/jointset/ground_pelvis/pelvis_tz/speed	/jointset/hip_r/hip_flexion_r/speed	/jointset/hip_r/hip_adduction_r/speed	/jointset/hip_r/hip_rotation_r/speed	/jointset/walker_knee_r/knee_angle_r/speed	/jointset/patellofemoral_r/knee_angle_r_beta/speed	/jointset/ankle_r/ankle_angle_r/speed	/jointset/subtalar_r/subtalar_angle_r/speed	/jointset/hip_l/hip_flexion_l/speed	/jointset/hip_l/hip_adduction_l/speed	/jointset/hip_l/hip_rotation_l/speed	/jointset/walker_knee_l/knee_angle_l/speed	/jointset/patellofemoral_l/knee_angle_l_beta/speed	/jointset/ankle_l/ankle_angle_l/speed	/jointset/subtalar_l/subtalar_angle_l/speed
13.74666086999734	-0.0963556372141553	0.005385523254293817	-0.05214851063472183	2.398377646044257	1.024527801338698	1.058580346920765	-0.06496016921095066	0.1164901095573693	0.3331244457693872	0.4295633639185701	0.4295633615670592	-0.0517336432127997	-0.6820369817213003	0.6754034450589863	-0.08134767667246709	-0.01531208959130283	1.685074404055181	1.685074404268529	-0.1029287340098644	-0.351194488152731	-0.881699822493977	2.499662165356515	-0.2614121413508807	0.3066735469700302	0.6335552747937057	0.002825879014671948	-4.98392818214745	-3.551818795588741	0.5127504274175331	-5.449883006836655	-5.449883015805717	-8.307347678067417	-0.2216854487105496	2.910545103327589	2.148622930808766	-2.810907340660162	-6.348595623663166	-6.348595574448014	1.265852749290533	-1.07127926205308
13.75332752999733	-0.1029528879421528	0.02165957476457956	-0.05322984869046136	2.400484905995593	1.028756280723801	1.058515817145616	-0.09651234278953789	0.09315259772825024	0.3348003911678274	0.3938028346051486	0.3938028322480253	-0.1100324507118692	-0.6835084706745262	0.6944654473698614	-0.06689720444346016	-0.03335434462458128	1.640843456899937	1.640843457448021	-0.09434648206503474	-0.3571605336439779	-1.093045295826588	2.370802709796599	-0.05789528024422957	0.3243621086600322	0.6337546551160902	-0.02256336928146247	-4.477635806446866	-3.43138523129469	-0.01410639314608896	-5.258499973630806	-5.258499967097753	-9.152605083585023	-0.218438126323423	2.805583335254109	2.177632339951244	-2.58851274790328	-6.915911963503217	-6.915911913259524	1.306186222170717	-0.7062174549550191
13.75999418999733	-0.1108451352796703	0.0368456736417899	-0.05287368819416294	2.402687976260374	1.032962814867618	1.058277062856741	-0.1246454459568721	0.07097263366192641	0.3329192491519404	0.3597116208447835	0.3597116185688244	-0.1733087801135126	-0.6849331050022447	0.7127419781971914	-0.05243982891165983	-0.04968635171738189	1.592918240603831	1.592918241474313	-0.08556221250086747	-0.3604666323781248	-1.266535558544335	2.174378802432412	0.166584757416561	0.3355353091693555	0.6271785648290036	-0.0490507863140328	-3.963761685934991	-3.205817574788105	-0.5486359853885614	-4.949503131224122	-4.949503114308497	-9.791282467576201	-0.207822744220308	2.669617674185452	2.149514950743482	-2.303674441466276	-7.458045043455565	-7.458044997886581	1.324554937906243	-0.2763462690514752
13.76666084999733	-0.1197125122882974	0.0505208998106103	-0.05100714046896632	2.404945975220611	1.037106056506699	1.057864475337357	-0.1494128739039316	0.0506165103556694	0.3275446296470166	0.3280632317980133	0.3280632296556886	-0.2400071605850091	-0.6862657459823251	0.7299271795592475	-0.03837547919344275	-0.06401407137471446	1.541444507459687	1.541444508604796	-0.07675331523330495	-0.3607417584006504	-1.382894230583762	1.919433777393472	0.391779965612033	0.3409824257455506	0.6149211610686398	-0.07434651818293241	-3.472280628113877	-2.886841473385323	-1.056510121047056	-4.526407303669665	-4.526407281127782	-10.17133413123392	-0.1910485129703041	2.474048454549403	2.059255958522392	-1.993750030831873	-7.98142240019081	-7.981422364015051	1.312736646212495	0.200106159170191
13.77332750999732	-0.1291291235156675	0.06233734176052721	-0.04769329504207907	2.407223614817041	1.041150767015294	1.057292962321507	-0.1710401426535639	0.03264755842504812	0.3189640821359164	0.2996008156302353	0.2996008136499606	-0.3082607809740487	-0.6874695871637978	0.7455523660248855	-0.02512222584590008	-0.07630167603850625	1.486530381701267	1.486530383047983	-0.06813101617378149	-0.3577321782821852	-1.429973226604523	1.619249106172912	0.5975596997389436	0.3415740130742587	0.5977059454982563	-0.09642477021278144	-3.024413001998712	-2.493277493329065	-1.505295192500494	-3.994843911950049	-3.994843885942259	-10.25243445315265	-0.1694044555241016	2.199262585416156	1.906578137191258	-1.698163427316059	-8.490770020737521	-8.490769996693203	1.268724433195675	0.706541675235664
13.77999416999732	-0.1386157483596177	0.07204641323396314	-0.04312230504274749	2.409491423150262	1.045065230939021	1.056589460178037	-0.18986108014129	0.01748633192459165	0.307668622325581	0.2750216142730836	0.2750216124806231	-0.3759898251723415	-0.6885167164903625	0.7590553333896659	-0.01308208338204997	-0.08677150921157981	1.428260090888302	1.428260092353066	-0.05990143995699584	-0.3512843513407863	-1.403928032206338	1.290111079099227	0.7663144739201686	0.338173227054803	0.5758788563149371	-0.1137325264224332	-2.631497063265388	-2.048713571920465	-1.866719257320356	-3.36308913769945	-3.363089106872295	-10.01195122561058	-0.1442761776494909	1.836949658242282	1.69666314431942	-1.454246155753142	-8.988441581030038	-8.988441569553457	1.195842081360841	1.229697751481776
13.78666082999732	-0.1476932065358293	0.07951399875641467	-0.03758750256337318	2.411725516061928	1.048819125503307	1.055789266282329	-0.2062559173005579	0.005387644999882574	0.2943189146611627	0.2549562641708808	0.2549562626101674	-0.4410369834499663	-0.6893889066794925	0.7698555062818145	-0.002603472346987965	-0.09587635575274855	1.366711373948543	1.366711375451543	-0.05223512226326888	-0.3413201341556876	-1.308346040643149	0.9498018753954938	0.8849951527221178	0.3315880477511207	0.5495413856563791	-0.125331774088366	-2.296525064273562	-1.57881408275974	-2.118401271456912	-2.643016526352865	-2.643016486958479	-9.449981921907259	-0.1171915274560812	1.38966184412516	1.440394407821979	-1.293130631123086	-9.473962892924002	-9.473962892578381	1.101119189428226	1.760205932895488
13.79332748999732	-0.155925903452644	0.08472472177990979	-0.03144986091226815	2.41390714563346	1.052382496273355	1.054931690044229	-0.2206044277063562	-0.003563692339253396	0.2797017638073248	0.2399418675669934	0.2399418663078066	-0.5013307847048151	-0.6900786967371204	0.7774203733166598	0.006055611214960673	-0.1042451265782759	1.301975716692022	1.301975718166792	-0.0452492460768089	-0.3278123219699022	-1.152387110662992	0.6158579053614952	0.9465323109776733	0.3225486386424327	0.518731167301135	-0.1309593271120544	-2.016816189860987	-1.108429596241067	-2.245036994457897	-1.850898256280511	-1.850898204804218	-8.592487701569413	-0.08985489311143399	0.8689040720813274	1.153861608367808	-1.235924413099995	-9.943606963020187	-9.943606971411839	0.9931508393661663	2.291960490963493
13.79999414999731	-0.1629525377317767	0.08777433224364667	-0.02509559742606382	2.416022134012282	1.055725845492291	1.05405561192307	-0.233256489044378	-0.009438043324520322	0.2646801647582961	0.2303919337371844	0.2303919328643202	-0.5550604935037373	-0.6905905340111872	0.7813178369007968	0.0127583194680033	-0.112605003363706	1.234181671831124	1.234181673227458	-0.0390048061748367	-0.3107676957651647	-0.9488734299999901	0.3038046438508277	0.9504524955724953	0.3116940644873224	0.4835666632812635	-0.130993611751207	-1.78643194340545	-0.6588434029072254	-2.239185729872677	-1.007469825809162	-1.007469761621275	-7.491452643192965	-0.06412293439268825	0.2929258853558933	0.8570377829826242	-1.290564152281839	-10.38989217115289	-10.38989218595607	0.8798364624906692	2.820545883280862
13.80666080999731	-0.1685044992823554	0.08885132176630452	-0.01889254322744502	2.418060233513353	1.058820979731544	1.053195573119919	-0.2445166201662743	-0.01242978008308936	0.2501386561889169	0.2265692452216654	0.22656924481035	-0.6008394434253009	-0.6909414322825547	0.7812537377596964	0.01750860779242428	-0.1216865157900311	1.163521638747035	1.16352164002789	-0.03351795103280283	-0.2902229144144183	-0.7125004507396894	0.0257547764227773	0.9026358989895888	0.2995627556265301	0.444328458517467	-0.1263303882340536	-1.597938799979527	-0.2457185175544449	-2.101941386434206	-0.1369564049394377	-0.1369563316071826	-6.221124686399992	-0.04187753154017586	-0.315513845804571	0.5718288924473134	-1.449941878502725	-10.80106470885525	-10.8010647285135	0.7664619421471108	3.341003187894814
13.81332746999731	-0.1724128233040673	0.08821128940916879	-0.01315078576872279	2.420014416222301	1.061642155060987	1.052378953002788	-0.2546377621069047	-0.01281603951009885	0.2369239651765484	0.2285690822783451	0.2285690823669372	-0.6378287508318436	-0.6911603725134081	0.7770946677040884	0.02045657806316564	-0.1321218653435245	1.090281829519749	1.090281830655593	-0.02878185178586079	-0.2662565392134554	-0.4582251612940528	-0.2103327358679624	0.8142994201279838	0.2865790294724118	0.4014645771768276	-0.1181847219533795	-1.443379617478699	0.1218280234813048	-1.843686675267975	0.7350721268083281	0.7350722020134247	-4.869881390616563	-0.0247755270084328	-0.9312775916386727	0.3197742254326981	-1.691821012677378	-11.16067898116853	-11.16067900493643	0.6545132298028405	3.845301211887874
13.8199941299973	-0.1746056900647245	0.08614888009975399	-0.008092214878630896	2.421880031517498	1.064166972698731	1.051624629639764	-0.2638182761792203	-0.01091349811710964	0.2257805031070573	0.2363204588555504	0.2363204594266473	-0.6657935812518423	-0.6912856857158016	0.7688778490881153	0.02188805913937778	-0.1443494939449295	1.014874345879149	1.014874346843928	-0.02479331670184261	-0.2390174068101997	-0.2000864801961594	-0.4006409302144809	0.7003776072309951	0.2730259570487014	0.3555106136289288	-0.1078506338367366	-1.314249522264722	0.4408950473107242	-1.484839968271212	1.584902293958734	1.584902361979714	-3.528369597970377	-0.01390370851271234	-1.528546113049088	0.119664289702229	-1.98081414535828	-11.44741231351349	-11.44741234100152	0.5414659420519476	4.320065571517291
13.8266607899973	-0.1751000594671378	0.08297207686192229	-0.003832177863663661	2.423653740878854	1.066376505955192	1.050943254732346	-0.2721957004281391	-0.007041222374774856	0.2172819918882823	0.2496105492354175	0.2496105502123488	-0.6850740369439311	-0.6913600704497855	0.7568117121610043	0.02219887949763148	-0.158538645149726	0.9378691330034749	0.9378691337739271	-0.02157731723009149	-0.2087654786406366	0.04936724079918128	-0.5448319834581191	0.5775588523356308	0.2590080140446853	0.3069460513422228	-0.09646627605583627	-1.200619526678446	0.7133477064049976	-1.056174481684304	2.394267768024001	2.394267820563422	-2.276300128790358	-0.009436279036055633	-2.081915697685399	-0.01461434669660807	-2.272364314800342	-11.63533021136737	-11.63533024206572	0.4216180776065255	4.745216806203409
13.8333274499973	-0.1739911853140779	0.07898244814703069	-0.0003745358427786043	2.425332232444444	1.068254419347654	1.050338925129233	-0.2798337588360814	-0.001496001346810229	0.2117642134807691	0.2681310462543818	0.2681310475140389	-0.6964739091618214	-0.6914237511193132	0.7412705288754586	0.02185642422865067	-0.1745462377242317	0.8600219175197424	0.8600219180771568	-0.01920272091227903	-0.1759169257816177	0.2792040603925876	-0.6449666944114761	0.4622755443643672	0.2444278191697326	0.2560487018839329	-0.08483776187761236	-1.090164566736943	0.9435904966750615	-0.5980384159587079	3.153109673225912	3.1531097049323	-1.171683552291231	-0.01044625934225626	-2.56717251668432	-0.0756894461107664	-2.518383781610516	-11.69486910812383	-11.69486914115369	0.2878684189888252	5.094163305611516
13.83999410999729	-0.1714413821845143	0.07446330175762905	0.002380386604193956	2.426910918509718	1.069785337408598	1.049811727876106	-0.286705766665899	0.005456084373667814	0.2092685749813946	0.2915366243255967	0.2915366257221047	-0.7010957091068025	-0.6915072758374009	0.7227831192952022	0.0213530101759173	-0.1919154231148725	0.7822925967474669	0.7822925970805127	-0.0177835750862314	-0.1410813411942532	0.4803019903272815	-0.7042525589983177	0.368875963866596	0.2290085934718045	0.2028272218066609	-0.07335701199896685	-0.9682328206805826	1.13600223563617	-0.1578002509644494	3.860291868844782	3.860291878270697	-0.2458837864552583	-0.01500020738367561	-2.962412678470054	-0.06351058765991563	-2.674006103622491	-11.59473976738657	-11.59473980139893	0.1342263857841317	5.336012137710683
13.84666076999729	-0.1676662523459373	0.06967601678844555	0.004616775024801321	2.428382968367946	1.07095314819334	1.049360477864582	-0.292683761813023	0.01357135054515566	0.2095093743150859	0.3195000044834412	0.3195000058731983	-0.7001656090177852	-0.6916259718591103	0.7020117852653179	0.02115707999726806	-0.2099202965573308	0.7058477623911191	0.7058477624992635	-0.01746227587042019	-0.1050776721758506	0.6459090384880378	-0.7258960710332232	0.3081633060323873	0.2123703577172614	0.1470681375763868	-0.06202703058376469	-0.8194695251348336	1.292582882718489	0.2146727707080708	4.521907942691437	4.52190793177436	0.4945578578367498	-0.020550901838768	-3.249829730883451	0.0148262851715808	-2.704461591699495	-11.30476523507547	-11.30476526816637	-0.04135698955829363	5.43964362685172
13.85332742999729	-0.1629169123460054	0.06486272066205355	0.006576385224317613	2.429738958626094	1.071739897324284	1.048984932956028	-0.2975417918764803	0.02260703031277907	0.2118762754555935	0.3517495943529558	0.3517495956125418	-0.6948886899984295	-0.6917777047936072	0.679718575600083	0.02166904130875665	-0.2276527219439925	0.6320417781337733	0.6320417780311551	-0.01837472044768797	-0.06891927918871217	0.7721750030510031	-0.7124029407707756	0.2865164863218782	0.1941323989195593	0.08845361596707124	-0.05059095225007289	-0.6302342178452844	1.411460824331206	0.4728957890768701	5.147943302676184	5.147943275246646	1.061124331214871	-0.02450697916212616	-3.417570844277711	0.1462892971713709	-2.590569125522395	-10.79941751389408	-10.79941754357188	-0.234555848489398	5.378689673150595
13.85999408999728	-0.1574603374570564	0.0602514371480442	0.008528031568236802	2.430967185220339	1.072125498293999	1.048686881874426	-0.3009746711292849	0.03229408892356961	0.2154775381094668	0.3880828757230088	0.3880828767561756	-0.6863573572108833	-0.6919445037744885	0.6567213418925959	0.02318819976396984	-0.2441372131077038	0.5623731352123955	0.5623731349313718	-0.02060285690385044	-0.03376638833066871	0.8581335848951588	-0.6655521421730871	0.3056959087473988	0.174003660596533	0.02667857588917522	-0.03873293081432068	-0.390674197939136	1.486715905716824	0.5799209290915887	5.748540518049118	5.748540478180384	1.474722187441819	-0.0247914508197733	-3.460848000532827	0.3139766943441621	-2.33148818780728	-10.06161251612555	-10.06161253946397	-0.4334387661079465	5.136126198682006
13.86666074999728	-0.151561934648069	0.05605920499001525	0.01073782707593986	2.432054460612386	1.072088098860461	1.048469816060209	-0.3026276525084317	0.04231347095288378	0.2192220943772545	0.4283565897315478	0.4283565904666961	-0.6755145793027983	-0.6920974080749726	0.6338457684933354	0.02589526489058303	-0.2584529198484967	0.49841612850375	0.498416128096493	-0.02412445599863295	-0.000852597049856197	0.9050783733992795	-0.5870041730563179	0.3632363867578458	0.1518348109593033	-0.03847306218407308	-0.02629098965124235	-0.09588037882879541	1.509560695584728	0.5136622083232346	6.330915514128086	6.330915465032611	1.758255401775428	-0.02022937390303892	-3.382035361260538	0.4996474333315692	-1.944040553275656	-9.086226776918938	-9.086226791000167	-0.6188974832672181	4.707280924957713
13.87332740999728	-0.145473623344493	0.05248962536830005	0.01344355584072089	2.432987093309148	1.071604795053242	1.048337318358381	-0.3021304146637397	0.05228402755245247	0.2219316170055911	0.4724604247888949	0.4724604251724395	-0.6631572014129297	-0.6922031016923239	0.6118797882384874	0.02985198069236385	-0.2698394947838996	0.4417315662294906	0.4417315657656067	-0.02877120230769038	0.02860086058173158	0.91559286330121	-0.4793176077315663	0.4532693466331864	0.1276200085500998	-0.1070987781093596	-0.01342002528305366	0.2539564959352161	1.47059721152035	0.2704263176128852	6.897558471585883	6.897558415542533	1.932213696537894	-0.01069298013951865	-3.189903606425502	0.6862474979631666	-1.458625259342074	-7.882776767469267	-7.882776770122656	-0.7666608864722402	4.100418078982267
13.87999406999728	-0.1394282746551369	0.04972314946995939	0.0168355094329045	2.433751717747081	1.070652455891509	1.048290661334773	-0.2991296367042535	0.06176773596611285	0.2224682961372982	0.5202834530076456	0.5202834530007205	-0.6499573072357708	-0.6922307426682827	0.5915347831620943	0.03501620227483922	-0.2777668214298805	0.3937639443488545	0.3937639439075314	-0.03420423183690084	0.0534667077018102	0.8927063288079201	-0.3470444504798168	0.5676051086546867	0.1014528456574694	-0.1791663552113862	-0.0006601009461818907	0.6540294844330055	1.362640470778451	-0.1339663708521494	7.445830252280126	7.445830191670213	2.013599424687787	0.002975792667503044	-2.898452715812586	0.8599387792561917	-0.9127222712066728	-6.476720067698202	-6.476720058354339	-0.8504164942925632	3.33503461568138
13.88666072999727	-0.133638064540999	0.04790120091952594	0.02104466283276972	2.434335752942574	1.069208689922293	1.048326339408753	-0.2933177208516013	0.0702933370185635	0.219861494085113	0.5716817217486845	0.5716817213329508	-0.6364819534536547	-0.6921577239245399	0.5734142408428814	0.04126791376007476	-0.281958669131197	0.3557354104447946	0.3557354101018686	-0.03991257754690483	0.07277700300975744	0.8395986831338229	-0.1973718905596513	0.6967945785185128	0.07346626081698511	-0.2544758692515294	0.01111405093711436	1.09553193797291	1.183235885555928	-0.6656418492262329	7.968646672097036	7.968646610935888	2.017270759961802	0.01919552986136704	-2.525919556164882	1.011344758704846	-0.3439383575921409	-4.909117478860979	-4.909117459150051	-0.8454786601694891	2.438892977491244
13.89332738999727	-0.1282930766440535	0.04710955460331545	0.02613689615864869	2.4347275414511	1.067253221703273	1.048434332691311	-0.2844571619238223	0.07739239766583453	0.2134161967904501	0.6264530087207025	0.6264530079128166	-0.6231997418645679	-0.6919735902502664	0.557987718309338	0.0484414518346992	-0.2823744251237294	0.3285468368621516	0.3285468366752225	-0.04523669544423835	0.08576732953536835	0.7597644656939894	-0.03959742101694272	0.8308371982118954	0.04380437160644167	-0.3325746094771658	0.02085822725350479	1.566386377361668	0.935685118878288	-1.276642884227464	8.455888273478122	8.455888218274188	1.958313773965148	0.03595782518789521	-2.09417165850471	1.136235207629057	0.2153190969634574	-3.234907841178836	-3.23490781485756	-0.7325789537140888	1.444756407502402
13.89999404999727	-0.1235581370206099	0.04736978099222115	0.03211053823169248	2.434916482238656	1.064769970067849	1.048597736768843	-0.2723992156710179	0.08263560585493142	0.2027877925980005	0.6843223378712295	0.684322336737947	-0.610471967494251	-0.691681764519792	0.5455679831221882	0.0563611538745207	-0.2791641800686641	0.3126942808770534	0.3126942808739293	-0.04941626330314671	0.09190021753895282	0.6573531696358971	0.1166828198020533	0.9595094897044308	0.01264737167641537	-0.41263454062855	0.02759163417218995	2.05221563114278	0.6281554343908508	-1.910919292399121	8.896137329756918	8.896137288759611	1.854078900134133	0.05116227922041945	-1.628313524735112	1.235846925528644	0.7404561726667792	-1.520000068889821	-1.520000040924947	-0.5012369232435704	0.3875500031596967
13.90666070999726	-0.1195669195974075	0.04864429335946929	0.0388959656107736	2.434893415980243	1.061750002079443	1.048793947545714	-0.2570958933883079	0.08565965577373694	0.1880133279780073	0.7449386625288449	0.7449386611918307	-0.5985346306823401	-0.6912991254221592	0.5362910582397136	0.06487664225019033	-0.2726147535753001	0.3082097873239252	0.3082097874992257	-0.05165672399049145	0.09087329793395156	0.5376539551713816	0.2635937448434745	1.072741200410241	-0.01974720927019311	-0.4933179970790799	0.03061656120256903	2.537317568338662	0.2720339792037091	-2.511154754851593	9.278201007169653	9.278200988169234	1.724736083895844	0.06291744741980959	-1.156134596485787	1.316320161802921	1.214942362352687	0.1632173257055541	0.1632173505714996	-0.1518640459563167	-0.6972518854309375
13.91332736999726	-0.116412536535121	0.05085191881587241	0.04635890384821074	2.434651199537324	1.058195295039741	1.048997077866729	-0.2386059684933532	0.08618477525369979	0.1694982890252445	0.807879912782306	0.8078799114066131	-0.5874830137899577	-0.6908537980507766	0.530101727025989	0.07388966090816956	-0.2630994749508793	0.3146382533956614	0.3146382537167751	-0.05120368438660908	0.08262223005164043	0.4076153980999462	0.3959941811577987	1.161357068230749	-0.05303361691864694	-0.5726795537201957	0.02966204551760928	3.005508347202794	-0.1191026967419991	-3.025094418931413	9.592080896237096	9.592080904097999	1.591985879183415	0.06977360635740931	-0.7069562760554564	1.386704758917668	1.629052609926842	1.742152753388684	1.742152771882516	0.3040327403740359	-1.773581810397204
13.91999402999726	-0.1141357796673602	0.05388617931417526	0.05430942337015265	2.434185234676563	1.054122856106081	1.049181030108866	-0.2170948793375261	0.08402792357381052	0.1479652313416319	0.8726628884637414	0.8726628872323969	-0.577269303912874	-0.6903816243651715	0.5267495636333761	0.08336370405715285	-0.2510398113106263	0.3310598390522366	0.3310598394711644	-0.04741243477043337	0.06732824195103865	0.2759323156392402	0.5113416454674762	1.21797859325723	-0.08679892072288968	-0.6481671968703653	0.02493791384041389	3.441200419054083	-0.5298524079608541	-3.410586443224596	9.829504358880673	9.82950439398509	1.47660853795479	0.07088795525229315	-0.3096063071376169	1.455939892730533	1.977649370002983	3.151156544253222	3.151156555032173	0.8454370833147744	-2.803610238278342
13.92666068999725	-0.1127157180563392	0.05763022825239631	0.06251650519248164	2.433493823347139	1.049568362493168	1.04932265444481	-0.1928253149330127	0.07911400292107379	0.124373931870286	0.9387560130445294	0.9387560121274214	-0.5677175082519217	-0.6899217312086502	0.5258013659018905	0.09331291924190209	-0.2368831547601906	0.35615847944144	0.35615847990691	-0.03980274954189774	0.04543371767334102	0.1522000786648562	0.6089081906542392	1.237756193201026	-0.1205895998257398	-0.7167689572529957	0.01710793797464617	3.831156404039905	-0.943306880784416	-3.639057398246161	9.984283651151715	9.984283709281563	1.395879664384805	0.06613034377155676	0.01043238958457286	1.529831512754364	2.257716020362279	4.337938585683259	4.33793858901123	1.444520600957227	-3.746741509576555
13.93332734999725	-0.1120689403518758	0.06196562737461603	0.07072652522395477	2.432578388587384	1.044588358801049	1.04940448603936	-0.1661343739581107	0.0714841130300909	0.09982399287409918	1.005594105790967	1.005594105317809	-0.5585539828602629	-0.6895116092342749	0.5266737499435147	0.10377346667083	-0.2210950111958015	0.3883267718261562	0.3883267722922055	-0.02809408879681173	0.01766019313056259	0.04526719143774857	0.6887781009082869	1.218801694478525	-0.15392277530675	-0.7752898556288712	0.00719266010589612	4.166624093735399	-1.341639253108893	-3.697277311202467	10.05254455217574	10.05254462580893	1.36155190721131	0.0561215905900187	0.2340427971883731	1.60893452033445	2.466658307342329	5.26788114785175	5.267881144944125	2.06972058235454	-4.560071332952816
13.93999400999725	-0.1120600189200615	0.06677471920789313	0.07868342176228789	2.431443700672058	1.039260395882637	1.049416653883867	-0.1373983332387906	0.06129883682641196	0.07545172838096996	1.072593787888714	1.072593787933811	-0.5494484927970933	-0.689182212652432	0.5286829918994893	0.1147653835177159	-0.2041581819525323	0.4257903846341017	0.4257903850642495	-0.01222043866898878	-0.01498362571682051	-0.03830593083303388	0.7509851153001066	1.162246410360833	-0.1862729725991558	-0.8206757682241048	-0.003577392286625179	4.444706550492467	-1.707005625252058	-3.587300266393294	10.03265824594038	10.03265832632959	1.378752227434272	0.04218582211950728	0.3504141706496497	1.687875949678427	2.601929837570921	5.925527696977708	5.925527689371661	2.688711504736197	-5.200961400970863
13.94666066999724	-0.1125196410756691	0.07193840574310433	0.08614785474631648	2.430098258729799	1.033681093441026	1.049357725597978	-0.1069933399324677	0.04883468867902564	0.05233337187915571	1.139167205700341	1.139167206280634	-0.5400591703249205	-0.6889537012864591	0.5311017942469117	0.1262550714490403	-0.186570292344928	0.4667329559975097	0.4667329563653976	0.007673476014959414	-0.05121780198760807	-0.09496119845101179	0.795011850643665	1.071884815090498	-0.2170414903402526	-0.8503036881722679	-0.01392942143964432	4.668188116129875	-2.022663619813137	-3.324671144450237	9.924818794930227	9.924818873812347	1.445917426393174	0.0262048506487472	0.3571639451524166	1.756188416697518	2.66183911063036	6.313314997114992	6.31331498627235	3.270982551170603	-5.6315565330385
13.95332732999724	-0.1132650073023235	0.07733178683029181	0.09291286403557869	2.428554876493476	1.027962457938681	1.049234435706699	-0.07526152652586028	0.03447300370098771	0.0314048671191917	1.204732268379943	1.20473226946086	-0.5300746594431878	-0.688832464626758	0.5332118861701766	0.1381274389314094	-0.1688333693201353	0.509405194443837	0.5094051947323261	0.03125130499104952	-0.0895412614781638	-0.1241906165104149	0.8196317284310234	0.9535104816934268	-0.2455296791625426	-0.8622148262475082	-0.02271203319524892	4.844222036144845	-2.27408255645044	-2.935347105382096	9.730467196340411	9.73046726653399	1.555668216366971	0.01038247043763622	0.2591182916620136	1.800287272613355	2.647022267513157	6.448254164222218	6.448254151452338	3.789837150638971	-5.824297077739806
13.95999398999724	-0.1141196305843628	0.08281963106743448	0.09881462889015949	2.426831379172913	1.022226835204096	1.049060389610044	-0.04248738535868645	0.01868194768111536	0.01340455513956685	1.268719257830727	1.268719259333019	-0.5192480458719576	-0.6888099382501796	0.5343465212532609	0.1501734914857701	-0.1514333546826962	0.5522077273412144	0.5522077275413743	0.05801542642132553	-0.1283177875000066	-0.1283589795175891	0.823006575869965	0.8141439025850461	-0.2709342931297914	-0.8552900519697876	-0.02903605801849214	4.982667547877442	-2.449882363130298	-2.45202841987017	9.451809581615096	9.4518096368559	1.696344091015059	-0.003050759896542806	0.06661803646678152	1.806030427729087	2.561859969537505	6.357540883692771	6.357540870130657	4.223770485354894	-5.766899389879391
13.96666064999724	-0.1149316020639761	0.08825317995800844	0.1037381920822575	2.424951237378655	1.016600922794401	1.048853950203674	-0.008885243377568117	0.001993038030689254	-0.001159555474360952	1.330574859917181	1.330574861722639	-0.507419311529284	-0.6888634576716159	0.5339215020714596	0.1620952930056734	-0.1348123374279184	0.5937437637812922	0.593743763890731	0.08734453845918823	-0.1658891824383085	-0.1124115790567484	0.8029749320936577	0.6613127491078603	-0.2923713501263289	-0.8293529505445929	-0.0323762726157962	5.094448679090439	-2.542527298783654	-1.910539969415655	9.091529132024087	9.09152916693378	1.853852993317177	-0.0121449055604152	-0.206189501481534	1.761271379987455	2.415155819127631	6.074031028117803	6.074031014566237	4.557270736115743	-5.465327786191068
13.97332730999723	-0.1155892246924447	0.09346917330337338	0.107618752594846	2.422943946993246	1.011209395445851	1.048635619736721	0.02540261301930315	-0.01502579937819452	-0.01201967094746673	1.389764886173946	1.389764888133093	-0.4945253473445464	-0.6889590645283405	0.5314551670554468	0.1735263236956627	-0.1193396670734752	0.6328432294675433	0.63284322948827	0.118534746822522	-0.200699264587028	-0.08335229528257235	0.7574031550056062	0.5024446431894362	-0.3089279582179452	-0.7851798291052304	-0.03261886210596302	5.190000573610918	-2.548644243086841	-1.346633269252298	8.652672934423988	8.65267294517048	2.01350177008901	-0.01550188860192186	-0.5429484434784294	1.657838340090185	2.219786373492436	5.632303934567289	5.632303921617527	4.781068322263858	-4.944026144624194
13.97999396999723	-0.1160319454534894	0.09829104094009899	0.1104392943694856	2.420844989781006	1.006168815173835	1.048425312267003	0.06029759722216509	-0.03179770693811171	-0.01913864693330056	1.445776638443464	1.445776640389623	-0.4805986264685798	-0.6890559040459702	0.526577956933639	0.1840619560456609	-0.105288543835304	0.6685638737406898	0.6685638736799188	0.1508405549715463	-0.2314101831881089	-0.04932454210941456	0.684472693686083	0.3443755985074909	-0.3197339975239885	-0.7244027665235535	-0.03004647324334081	5.277735476484789	-2.468862397975321	-0.7933707778138137	8.138643422132546	8.138643407581904	2.161528050174181	-0.012477779137349	-0.9266506832445565	1.492552692273958	1.991453295817318	5.065732261821334	5.065732250607619	4.891869349740849	-4.243423835516055
13.98666062999723	-0.1162533861197295	0.1025317979327174	0.1122253664192696	2.418695299197742	1.001582553263506	1.048239922250306	0.09576587739428206	-0.04776197115102478	-0.02268527790982191	1.49812131202184	1.498121313792292	-0.4657571707209297	-0.6891116901800091	0.5190311540486395	0.193293317361162	-0.09282301595018949	0.7001765160024075	0.7001765158791557	0.1835126266818677	-0.2569940389343416	-0.01815230729687472	0.5829195063633184	0.1929932263831913	-0.32403528830645	-0.6493049171792666	-0.02526652562816707	5.362380673859512	-2.307295131552316	-0.2792190214528436	7.553205995414358	7.553205957948381	2.286167544579449	-0.003298214928499904	-1.341356464344076	1.267252544148755	1.746873772039155	4.404642216383164	4.40464220939266	4.891672395022606	-3.415115015493188
13.99332728999722	-0.1162933921022656	0.1059986899084752	0.1130380679815333	2.416540286034692	0.9975373465642865	1.048091507515489	0.1317883773547474	-0.0623953306267393	-0.022999494991921	1.546336438596106	1.546336440055319	-0.4501888514106271	-0.6890885941847634	0.5086537731281204	0.2008387691259936	-0.08199771636415536	0.7271412298779449	0.7271412297322404	0.2158298097780209	-0.2767868303464715	0.004391789430068301	0.4523365508754079	0.05306527270362498	-0.3212505510255727	-0.5625460947778695	-0.01910311605356682	5.443429030699937	-2.070989296433541	0.1730676355033365	6.900505195349337	6.9005051405885	2.378321964396412	0.01093493449518894	-1.773944190575376	0.988124831471354	1.501850581702988	3.675393399392019	3.675393400299401	4.786729664490732	-2.51557782730949
13.99999394999722	-0.1162200242879538	0.1085001853092597	0.1129666843884079	2.41442854886246	0.9941016763972886	1.047986226807131	0.1683233361473699	-0.07523041562222092	-0.02055269413024026	1.589988818683878	1.589988819740859	-0.4341317419090071	-0.6889587234124573	0.4953598655310834	0.2063698667518603	-0.0727694317516918	0.7490797370442963	0.749079736941034	0.2471229129277507	-0.2904996860597433	0.01570415013369491	0.2935644143891442	-0.07168579865699631	-0.3110101186002822	-0.4669066681906437	-0.01248444884608752	5.514634477748118	-1.769647503645744	0.5468072023171172	6.185222208894714	6.185222144277991	2.432130289110769	0.02837758562117168	-2.215074378300906	0.6647839823520513	1.269735990567829	2.900120812972933	2.900120825266597	4.586098725213436	-1.59991706742539
14.00666060999722	-0.1161079547153608	0.1098554671798296	0.1121226343648681	2.412410363052227	0.9913255965241404	1.047923964019987	0.2052708354679615	-0.08587325501978167	-0.01590780868948387	1.628679196740218	1.628679197354495	-0.4178505297089216	-0.6887082397222772	0.4791137312675754	0.2096310437585814	-0.06501649847370153	0.7657477173755187	0.7657477173971758	0.2767874248780954	-0.2981925120060381	0.01632551108813534	0.1090114491597281	-0.1782801303458946	-0.2931849430748237	-0.3651114815270534	-0.006351818697380523	5.565076799975665	-1.415576687903667	0.8311395793638447	5.412925245253211	5.412925178217857	2.445551535136255	0.04670887185292894	-2.658877094393257	0.3093122076705532	1.060650600166161	2.096944818146098	2.096944843331566	4.299794480024799	-0.717006839783158
14.01332726999721	-0.1160192269410606	0.1099051791426592	0.1106357342521656	2.410536000161244	0.9892415335595025	1.047898482083307	0.2424475546517376	-0.09402000220004841	-0.009682403593377421	1.662049349768314	1.662049349945361	-0.4016100911966548	-0.6883395071337776	0.4599096202760621	0.2104524566804187	-0.05856084570091639	0.7770097903886077	0.7770097906171953	0.304283230562797	-0.3002213513490388	0.009429937188549026	-0.09731895844453393	-0.2641285246238149	-0.2679077772597739	-0.2597039213581859	-0.001589401177723341	5.580947119790195	-1.023421047825256	1.020422027456019	4.590391670063562	4.590391606850325	2.420535440287012	0.06343778399991026	-3.102111333878661	-0.06486535172531022	0.8814350431692802	1.280549666845272	1.280549703132687	3.93679790538725	0.09355308890379066
14.01999392999721	-0.1159869024433982	0.1085211892232729	0.1086523360086501	2.408853950600237	0.9878658834331748	1.047898017211978	0.279573012585542	-0.09947019983444724	-0.00251609702743066	1.689790555158258	1.6897905549407	-0.3856504710358468	-0.6878713127609878	0.4377563627363396	0.2087545642249007	-0.05318871297875884	0.7828193011227701	0.7828193016162919	0.3291216761265757	-0.2971708132288122	0.0004872900743934245	-0.3201333840445197	-0.3268500375184497	-0.2355797075626619	-0.1529331326340858	0.001039291182322966	5.547162611994521	-0.6093869314781922	1.113584542123718	3.725686365515753	3.725686311099472	2.362425692650703	0.07616862808855762	-3.543555319751465	-0.4443075893431233	0.7360390213795948	0.463020877974288	0.4630209200150752	3.503317954640683	0.8029276625113759
14.02666058999721	-0.1160013871436422	0.1056137099744692	0.1063338641355793	2.407409167237663	0.9872012250458171	1.047906277398109	0.3162666973301583	-0.1021337055472195	0.004958211872151833	1.71165187697974	1.711651876440689	-0.3701676604204565	-0.6873374331490907	0.4126662096705473	0.2045440636663861	-0.04866821003713079	0.7832040468164074	0.783204047587974	0.3508428917649822	-0.2897810023132349	-0.00334186497804964	-0.5532961972666933	-0.364331074860022	-0.196857211894559	-0.04669237307290316	0.0009472705682376662	5.449148398859784	-0.1901849444888146	1.113648365327113	2.82805712760822	2.828057086249736	2.278913367979035	0.08284107203585306	-3.983212898764961	-0.8167476046522254	0.626035282565502	-0.345242860002698	-0.345242820036919	3.001655007175885	1.393233649653152
14.03332724999721	-0.1160035518821642	0.1011355222584724	0.1038543320630359	2.406241449829707	0.9872386308567576	1.047903752631385	0.352059345409382	-0.1020306828140771	0.01214044987120841	1.727447580437389	1.727447579676753	-0.3553014586439858	-0.6867835631583219	0.384651506207759	0.1979034249406652	-0.04476364841654908	0.778257902107602	0.7782579031157728	0.3689881645154692	-0.2788770860820977	0.005324284165269765	-0.7902302321877254	-0.3749588729220302	-0.1526245614839615	0.05744541984739313	-0.002239640619247204	5.27532360340143	0.2179510451884247	1.02739118105183	1.90779384557376	1.907793821020265	2.179000585539532	0.08198268456143355	-4.420715262210837	-1.171789272602447	0.5510399254405504	-1.13468214515224	-1.134682115380433	2.429876879958439	1.856605912310971
14.0399939099972	-0.1158901758282153	0.09508392184099607	0.1013957882781859	2.405384026600802	0.9879594324019495	1.047869208041901	0.3864225530588143	-0.09928568135362194	0.01848752670472695	1.737063643286267	1.737063642425955	-0.3411300472260212	-0.686262573040768	0.353734469078102	0.1889775417675729	-0.04124822217854869	0.7681379178637752	0.7681379190188511	0.3830732785002089	-0.2653074519173666	0.03194973693801212	-1.02418972068126	-0.3580208507853944	-0.1039646495466591	0.1581052193569145	-0.008661235407420061	5.020013568673637	0.6000555623164204	0.8650975734411046	0.9761008401533333	0.9761008351314941	2.071997934981717	0.0729496383163821	-4.853067497710552	-1.501102636876439	0.5087117210603918	-1.89576583187208	-1.895765818290069	1.782462882738514	2.193694651266599
14.0466605699972	-0.1155343179256408	0.08750146646405055	0.09914031862684981	2.404862304880266	0.9893359835717137	1.04778132953786	0.418817475752403	-0.09411709114460029	0.02353623816436187	1.74046349121538	1.740463490389906	-0.3276714656010351	-0.6858283400213598	0.3199727178077096	0.1779602338701327	-0.03791929761073997	0.7530669425988488	0.7530669437830999	0.3925698727991164	-0.2498912297018634	0.07782971160443798	-1.248335233756884	-0.3143404193026547	-0.05213808577692127	0.2539384833669158	-0.01819621717925595	4.686164351008813	0.9430202299677675	0.6404367479472171	0.04499059988701086	0.04499061533014943	1.966456085915559	0.05610568253619461	-5.27226553247305	-1.798295991237437	0.4939413727290666	-2.618144657367121	-2.618144662218388	1.052080163430785	2.412480926976365
14.0533272299972	-0.1148195379757539	0.07847690735733653	0.09725747644613265	2.404692741404787	0.9913312631874865	1.047620559227911	0.4487591027348027	-0.08682348029257558	0.02692539694861307	1.737692906294651	1.737692905637005	-0.3148922436341285	-0.6855287488560934	0.28349936341912	0.1650825932042559	-0.03462080854327085	0.7333416659791808	0.733341667073843	0.396902043721891	-0.233372265145573	0.1383012925456065	-1.455623152437542	-0.246944876406759	0.001434034355628298	0.3434592080663709	-0.03043639246873062	4.28715093645325	1.235941974310012	0.3702885835633452	-0.8728881882464217	-0.8728881538103083	1.869108559203632	0.03288052221073332	-5.663461246497636	-2.058476547576915	0.4977214072885905	-3.289923643830677	-3.289923665217245	0.2322991065624406	2.527396973681808
14.05999388999719	-0.1136819491188403	0.06814691026658548	0.09588825946021333	2.404881871123832	0.9938976808265129	1.047371022471989	0.4758863173167353	-0.07776798458337295	0.02841549784231527	1.728882897585527	1.728882897209762	-0.3027227451088508	-0.6853989092825333	0.2445701973346451	0.150605311344968	-0.03127071612051534	0.7093440307166585	0.7093440316277964	0.3954625125062552	-0.2163805866824371	0.2023837203196592	-1.638726554376627	-0.1613947505593465	0.05520501387139613	0.4249882168279432	-0.04468768965990468	3.846463992154188	1.470421119192956	0.07413167019106773	-1.764736167752105	-1.764736118572048	1.783927203601902	0.00563642842584578	-6.004918167379981	-2.277530617545121	0.5069294493492903	-3.897449435680423	-3.897449468229052	-0.6793556608728619	2.557832383401459
14.06666054999719	-0.1121469534980523	0.05669755064943038	0.095127963189081	2.405425697984968	0.9969761354501359	1.047022371828235	0.5000194967826768	-0.06735973555080998	0.02790284653462207	1.714247771456747	1.714247771439141	-0.2910782110026417	-0.6854559671010797	0.2036016447609965	0.1348156338096779	-0.02788585461241034	0.6815514854663671	0.681551486143894	0.3876489766798557	-0.1994061054619782	0.2548152238666421	-1.790199550900564	-0.06584454791988965	0.1075787944928469	0.4967905156643327	-0.05998915055542142	3.394220443479798	1.641204179389868	-0.2269418471424348	-2.618555714014252	-2.61855565713017	1.711377143718199	-0.02267016758324444	-6.270913942825848	-2.451549085655872	0.5052307613877248	-4.42588353294078	-4.425883569126647	-1.678444417509901	2.526092259521012
14.07332720999719	-0.1103453873351741	0.04436391178931118	0.09500891450549577	2.406309727761847	1.000496537624838	1.046571501899174	0.5211860210037591	-0.05602981713150644	0.02542695456741939	1.694075798933744	1.694075799295993	-0.2798836443067792	-0.6856966625314169	0.1611809066576582	0.1180265866277189	-0.02459890081600772	0.6505410853398329	0.6505410857864299	0.3729188997902254	-0.1827858704267936	0.2799207823096878	-1.902858904604805	0.02899739987005898	0.1570217155009416	0.5573546057419234	-0.07513376700709544	2.96138181628897	1.747101523984362	-0.5112241812001126	-3.424353194560762	-3.42435313911286	1.648045353707078	-0.04895725427395064	-6.436847124434157	-2.576719630751821	0.4744711646893771	-4.860418103523968	-4.860418135337064	-2.751145169439469	2.455383864244138
14.07999386999718	-0.1085035526953773	0.03142684672801135	0.09548478171608828	2.407509757643516	1.004380208528981	1.046024039101801	0.5396068596681016	-0.04420210805064934	0.02117122218248975	1.668712242418766	1.668712243119086	-0.2690993592058153	-0.6860981457088028	0.1180416757456609	0.1005760702912856	-0.02166430276031909	0.6169844632653004	0.6169844635335885	0.3508569523729425	-0.1667059863480534	0.265208962905264	-1.970232266418865	0.1104000245093793	0.2021703512981465	0.6056476430277487	-0.08872338202977018	2.574312011038606	1.79147353628233	-0.7574537519726832	-4.17516185103425	-4.175161806558571	1.586838440270638	-0.07050765602420166	-6.484016286063051	-2.649397628147681	0.3966862531939649	-5.187727814917091	-5.187727835697754	-3.873063455854284	2.367274435011845
14.08666052999718	-0.106914499480614	0.01820668074150529	0.09642120145643568	2.408993277877827	1.008543557663179	1.04539525820876	0.5556533984337901	-0.03226372210833613	0.01545572226308892	1.638536949703296	1.638536950641732	-0.2587430570143834	-0.6866218363153394	0.07501435958114866	0.08282562748089656	-0.01944790890834783	0.5816333739041458	0.5816333740815877	0.3212446797007033	-0.151223371051141	0.2033414410512471	-1.987037031687402	0.164972493385488	0.2419051911449553	0.6412379121189005	-0.09928545566694423	2.251381524875289	1.781868608597014	-0.9461246665315712	-4.867634273155163	-4.867634247148727	1.517826641549225	-0.08537479862447564	-6.402400466921964	-2.666156111943497	0.2569311306721155	-5.397299841460584	-5.397299847685128	-5.009746958831042	2.278397715828328
14.09332718999718	-0.1059008448512461	0.00505336981773561	0.09759747887692491	2.410721248528349	1.012902161498862	1.044710081734284	0.569787955760523	-0.02053985755631797	0.008720871238521895	1.603939408960802	1.603939410000307	-0.2489042538691826	-0.687219451092183	0.0329639390191142	0.06515798086103231	-0.01839700409064882	0.5452974156885354	0.5452974158721483	0.2841220036535199	-0.1363084206144216	0.09284622760062032	-1.9497799169314	0.1805270478950902	0.2753913227461788	0.6643017015134636	-0.1054236505857715	2.001325748529668	1.729153509484264	-1.060853407052498	-5.502228330870572	-5.502228326719322	1.429676650012535	-0.09261579363400799	-6.191730410664484	-2.62418771013057	0.04613979634164601	-5.482421213369776	-5.482421205784061	-6.118517804842423	2.197766943363366
14.09999384999717	-0.1057749857546376	-0.007667798323551311	0.09872086322876698	2.412650063648549	1.017374638790959	1.044002077506654	0.5824971285641996	-0.009274927822361164	0.001502706065958346	1.565293673314881	1.565293674311618	-0.2397475773261714	-0.6878398854599428	-0.007275646870397765	0.04796982333130857	-0.01899393762586819	0.5088167503513016	0.5088167506193553	0.2398336304366361	-0.1218996313692643	-0.06175788032312654	-1.857476473770389	0.1479230321113606	0.3020945365200257	0.6755599583518059	-0.10596364349988	1.822679498526751	1.646525341319054	-1.089491469864689	-6.083067580081804	-6.083067596496655	1.311525782434486	-0.09231393436249992	-5.861512965274949	-2.522319563564976	-0.2369119533495596	-5.440669638615248	-5.440669621886919	-7.151110507236506	2.125986995458372
14.10666050999717	-0.1068002941389471	-0.01959518678705199	0.09945227094536968	2.414733538594658	1.021885902764883	1.043311538378366	0.5942248309022893	0.00137928018200436	-0.005597965319645731	1.522935268054488	1.522935268886112	-0.2315027954797612	-0.6884356114715202	-0.04496389386745202	0.03165655763758413	-0.02170053964865819	0.4730335298280505	0.4730335302199596	0.1890558555208044	-0.1079565691537022	-0.2504258775233095	-1.712292523932437	0.06263158905682283	0.3217712657219756	0.6761539226350095	-0.1000823925928856	1.704298673113555	1.548357061582021	-1.024838666064536	-6.617482472091289	-6.617482504197588	1.155030755257802	-0.08542170152107076	-5.429992399845524	-2.362324660886745	-0.5848010921821687	-5.273796433945178	-5.273796414615531	-8.056891361352598	2.056479309938649
14.11332716999717	-0.1091582375902714	-0.03039309740066162	0.09944111521367699	2.41692472912433	1.026369369604522	1.042682759286204	0.6053133212815202	0.01136667015999352	-0.0119496880766061	1.477142269142125	1.477142269725364	-0.2244417138152549	-0.688967651022228	-0.07950480737532976	0.01658886833689668	-0.026900678446583	0.4387662634907565	0.4387662640037278	0.1328003987883546	-0.09449941571522227	-0.458932110415869	-1.519861693922038	-0.07412516631283669	0.3344280713758308	0.6674578075151036	-0.08741883546985835	1.62726283055858	1.448708371946825	-0.8649043079316363	-7.115220360934096	-7.115220402238064	0.9561807379650701	-0.07350541519577485	-4.921772967583571	-2.149975518930855	-0.9816727226262855	-4.986971073989387	-4.986971057763649	-8.786497252829978	1.978165637682725
14.11999382999717	-0.1129270508408817	-0.03977480327290984	0.0983657047498193	2.419177401027501	1.030767800656184	1.042160663920725	0.6159609041335888	0.02071922337682578	-0.01692457166516624	1.428122540498647	1.428122540793163	-0.218845116881616	-0.6894087387273909	-0.1104785319048994	0.00308420723531925	-0.03484714081814633	0.4067907048594994	0.4067907054607737	0.07239314791303493	-0.08162809396895483	-0.6708724554013676	-1.289198100937367	-0.2548911668434081	0.3402611791799096	0.6508688215477973	-0.06815580557996971	1.567823680845743	1.359685205210097	-0.6126627841556287	-7.58741768602644	-7.587417730453378	0.7163903836169732	-0.05846636122330545	-4.364543226492575	-1.895487116634103	-1.40429647616118	-4.587669453777346	-4.5876694437948	-9.295691298555374	1.878739040568794
14.12666048999716	-0.1180730725998287	-0.04752395962515089	0.09597382878557773	2.421447118974979	1.035032939117604	1.041787026394597	0.6261991705867795	0.02953955340016507	-0.01992908415386554	1.376007979540314	1.376007979540574	-0.214966028916031	-0.6897446402418542	-0.1376523560710381	-0.008622501414761327	-0.04561803509712679	0.3778274229431972	0.3778274235882665	0.00942702361364255	-0.06952063516693681	-0.8692617488891736	-1.03232134031745	-0.4664455415675675	0.3396088531752418	0.627672684682371	-0.04305712220122423	1.500069030624847	1.290232212259607	-0.27527778068288	-8.045564547526647	-8.045564590860485	0.4424602136825446	-0.04226826385674665	-3.786451213656414	-1.613318285121707	-1.82385201869964	-4.084904281285589	-4.084904278027059	-9.549231600212375	1.747451589686459
14.13332714999716	-0.124449575048273	-0.05351265611663186	0.0921167836728794	2.423692124922781	1.03912465487137	1.041596622069252	0.6358846987485265	0.0379777103820535	-0.02042827135148256	1.320855401407402	1.320855401128968	-0.2129973825029597	-0.6899737189861221	-0.1609790846821674	-0.01840463489100118	-0.05908716180042425	0.3525321862034252	0.3525321868512447	-0.05431005663078562	-0.05841652118104587	-1.037255076096939	-0.7635965246404707	-0.6912713439398449	0.3329351329705546	0.5990243920219324	-0.01345146276372477	1.397668563501998	1.245574902222078	0.1370456526868638	-8.500524697687039	-8.500524737710807	0.1453206067885103	-0.02668956653502211	-3.214857387100221	-1.321280901299484	-2.208298120052401	-3.489119622961096	-3.489119625060446	-9.524388505533496	1.576810688812138
14.13999380999716	-0.1318003477159014	-0.05771343611658629	0.0867711178234553	2.425874152862693	1.043010095338467	1.041613663969078	0.6447025586126717	0.04620504732933206	-0.01796206282713514	1.262654551624867	1.262654551094415	-0.2130511480189712	-0.6901050566541873	-0.1805880396253061	-0.0262606332229297	-0.07491143510605802	0.3314862945472165	0.3314862951696454	-0.1169278937413112	-0.04859185140701133	-1.159094194277461	-0.4985434693313232	-0.9097062990678488	0.3208210940809623	0.5659475220648544	0.01883747164945904	1.23594937624477	1.226793809592269	0.6122237538206331	-8.961314218959659	-8.961314254304197	-0.1620560033859099	-0.01314630341025768	-2.675055562030765	-1.038684617815956	-2.52507721190345	-2.812184393883912	-2.812184398952437	-9.213533274896459	1.363414137407549
14.14666046999715	-0.1397726064848176	-0.06020150248773905	0.08004460229803961	2.427959147592498	1.046662659150696	1.041848900348887	0.6521873893006863	0.05438501652510788	-0.01215465699422919	1.201345716247375	1.201345715501713	-0.2151525330253788	-0.6901557387471124	-0.1967644699389355	-0.03231520709445188	-0.09253695128427457	0.3151878699134867	0.3151878705000266	-0.1765396608769119	-0.04033092286046549	-1.221891192241231	-0.2521360600150327	-1.102494092617767	0.3039452868126618	0.5292832068307303	0.05162085801701118	0.9950125643922494	1.230394250674977	1.137168689044659	-9.43345212683233	-9.433452155675184	-0.4669981481824492	-0.002619869187985033	-2.188159972095652	-0.7836060655464645	-2.743988489450811	-2.067135316822862	-2.067135322042189	-8.62540170083771	1.108191063170167
14.15332712999715	-0.1479419354467392	-0.06114513542602591	0.07216458957435304	2.429917852583207	1.050060613276551	1.042297773930592	0.657765557376187	0.06264260758290176	-0.002719796501831375	1.136849181768318	1.136849180858948	-0.2192493256097266	-0.6901479512434422	-0.2099153452517182	-0.03680140139767067	-0.1112243385931412	0.3040447378911971	0.304044738450123	-0.2313714554927491	-0.03389844848010157	-1.217238685905884	-0.03705249905798357	-1.253435487665521	0.2830666079606875	0.4896488089321704	0.08252974116505793	0.6626779904469283	1.24841297163727	1.698085521155817	-9.917112286505649	-9.917112306333307	-0.7592687285348592	0.0043364914789505	-1.769384252674125	-0.5700277777705451	-2.840048978173914	-1.268018671485062	-1.268018674139951	-7.785015389540231	0.8159595682613898
14.15999378999715	-0.1558450863587055	-0.06078535320688866	0.06345021701156542	2.431726293557847	1.053185620107344	1.042939904587758	0.6608134523455738	0.07103673316240197	0.01053293820835202	1.069106876567485	1.06910687556283	-0.2252336444234773	-0.6901062220203318	-0.2205272717850648	-0.0400253750423954	-0.1300920301294548	0.2983679254585085	0.2983679260139283	-0.2798670642106918	-0.02951647934673626	-1.141957424104773	0.1377728329323849	-1.351450001568676	0.2590064179044327	0.4474512385579293	0.1092200389955732	0.2363632460448285	1.26914530451115	2.279821868736054	-10.40534569686752	-10.40534570529192	-1.032583831466213	0.00756892699866372	-1.427346413922931	-0.4056081829760149	-2.795933635042927	-0.4297866812938144	-0.4297866794838705	-6.732330280764715	0.4945479979089104
14.16666044999714	-0.1630155566953857	-0.0594073380889637	0.05427446420023357	2.433366072299437	1.056021463042997	1.043739922473381	0.6607252290585867	0.07953883849482039	0.02768434683976024	0.9981351982971568	0.9981351972785675	-0.2329706420255062	-0.6900548450766093	-0.229121635765643	-0.04231965899073617	-0.1481735617019168	0.2983670556684739	0.2983670562524383	-0.3207796482832785	-0.02734715566076028	-0.9982382548675297	0.2681397890881986	-1.39153376266943	0.2326066481109617	0.4029271423591546	0.1295717361250671	-0.2759154334584585	1.278289669707547	2.864353009115839	-10.88253423250326	-10.88253422813722	-1.285122981139707	0.007296905794868529	-1.163843297656307	-0.2905103937788424	-2.603737887566721	0.4322251023667729	0.4322251090517149	-5.519688248929686	0.1539839738925438
14.17332710999714	-0.1690186672864415	-0.0573075281148183	0.04502317785012548	2.434824292392996	1.058553059533723	1.044649625944507	0.6569845854786596	0.08802123392393509	0.0486808277752447	0.9240866215695491	0.9240866206232086	-0.2423265917462028	-0.6900155031114628	-0.2362091330507212	-0.04399301811472092	-0.16448454681176	0.304150873320205	0.3041508739624733	-0.3532430743665016	-0.02748032589786007	-0.7933583097256257	0.3548355573437911	-1.374774379251738	0.2046639562878151	0.3561874746467729	0.1418893430446858	-0.8553527381202319	1.260793814282112	3.429148484528869	-11.32336772904871	-11.32336771185114	-1.518824973109032	0.0040761396149752	-0.9739102196226479	-0.2176017563110408	-2.266134130305396	1.303274103500507	1.303274114068525	-4.208314304916092	-0.1941883814228434
14.17999376999714	-0.1734837084141812	-0.05476222436060593	0.036056242729036	2.436093018579515	1.060765757891948	1.045611489079616	0.6492349925163631	0.09626078504202126	0.07330064857324661	0.8473152349786486	0.8473152341861417	-0.2531884167628138	-0.6900052242815952	-0.2422456970705725	-0.045286711813655	-0.1780952572604722	0.3157350386378577	0.3157350393595225	-0.3768176903398083	-0.02992588412039079	-0.5391320552411706	0.4029106325670821	-1.307721403938687	0.1758585149763193	0.3072556961673882	0.1451035871382063	-1.472992849409095	1.203593142521745	3.946235375363977	-11.69275667575708	-11.69275664718562	-1.737562534212471	-0.001266180552326782	-0.8461508483589217	-0.1741697871624857	-1.796860758746425	2.170375600500537	2.170375613541311	-2.864212663185667	-0.5376594868302985
14.18666042999713	-0.1761320990354682	-0.05200417559789337	0.02767473705542381	2.437168280580238	1.062644843946671	1.046563444375373	0.6373429541619294	0.1039628533901333	0.1011180281651765	0.7684386652920703	0.7684386647195691	-0.265468139884058	-0.6900348777063047	-0.2475912201454887	-0.04634672604075332	-0.1882036445615231	0.3330576781338222	0.3330576789478983	-0.3915077240961561	-0.03461121776187419	-0.2512571962208267	0.420047013054871	-1.201241105556379	0.1466901278201989	0.2560935563689541	0.1389460571051219	-2.091218659741299	1.098849219078288	4.382570686218386	-11.94706056901324	-11.94706053226651	-1.944508478821719	-0.007728374101708771	-0.7632710804361521	-0.14492761062175	-1.220344470613454	3.023420629952814	3.023420644531191	-1.553816234238756	-0.8640919077494008
14.19332708999713	-0.1768001061160285	-0.04921222131905514	0.02009696447287197	2.438048707177891	1.064175229302656	1.047444630164605	0.6214473125803799	0.1108067069006635	0.1314753899279126	0.6883865857846249	0.6883865854712627	-0.2790883141837569	-0.6901084200251673	-0.2524736941060147	-0.04721886068164607	-0.194202891834186	0.3560012905789274	0.3560012914938134	-0.3977498389555114	-0.04138261553940081	0.05174318295789579	0.4143405070551385	-1.069037474854652	0.1174338317278733	0.2026346998114623	0.124057240972495	-2.666549166286039	0.9470343706549447	4.70217014118261	-12.03692055704969	-12.03692051696289	-2.139153313485241	-0.01426175091171591	-0.7032867550368415	-0.1157521539170933	-0.5704515492921224	3.855894506994973	3.855894522563157	-0.339742652445253	-1.161518222113771
14.19999374999713	-0.1754522466806182	-0.04651633893103838	0.01344487278173948	2.438733976234504	1.065341441802951	1.048201525618214	0.6019845240737831	0.1165087831601054	0.1634758719506489	0.6084246966767348	0.6084246966261698	-0.2939481066949554	-0.6902230623867879	-0.2569650371426964	-0.04786905831636171	-0.1957378344608515	0.384417080521218	0.3844170815409397	-0.396374683016546	-0.05000778484929392	0.3502469319445395	0.3919963688205879	-0.9260409064822805	0.08813156218164403	0.1468404541613053	0.1019886623484533	-3.154018542439436	0.7590487112029418	4.870008494090174	-11.91176800157982	-11.91176796375538	-2.314603218900274	-0.01991569375953789	-0.6418188951633073	-0.0773695339252355	0.1116199126227354	4.664848680616967	4.664848696293328	0.7230135255640009	-1.418307951956081
14.20666040999713	-0.1721821258191003	-0.0440164791038315	0.007741300528639383	2.43922335158722	1.066127978561601	1.048793665746347	0.5796813878476619	0.120894161215505	0.1960063528505757	0.5301438700702872	0.5301438702500045	-0.3098744174832021	-0.6903703882232211	-0.2609744931997691	-0.04822542944122167	-0.1927439143311147	0.4181463938990868	0.4181463950194499	-0.3885452389370415	-0.06017799975423098	0.6254345339706734	0.3556211351579692	-0.7867896058966283	0.0586259041855581	0.08874351300296986	0.07507229649564588	-3.51234143537263	0.5564101814627906	4.857142931258381	-11.5256700045444	-11.52566997400306	-2.455922371515002	-0.02397223998404769	-0.5548928798879688	-0.02800620536984492	0.7805169788475642	5.45008121888793	5.450081233091527	1.5901995013506	-1.623219545819178
14.21332706999712	-0.1672022632990728	-0.04180888909270131	0.002917682665253996	2.439514557888462	1.066519766908939	1.049198038235809	0.5555145199582238	0.1239608054409611	0.2277961001572995	0.4554079301216538	0.4554079304709916	-0.3265673750933036	-0.6905382374777278	-0.2642594292045214	-0.04823187695001422	-0.1854609672207191	0.4570346239686266	0.4570346251733478	-0.3756771026097492	-0.07151291325022675	0.860609409270109	0.3037680548939661	-0.6639365768304756	0.02862525512831749	0.028432151426197	0.04615860584223941	-3.70853766043282	0.3688395403572202	4.646083725779938	-10.84373755544124	-10.84373753545297	-2.540189137004952	-0.02603573073428145	-0.4212375853974582	0.02589634924786349	1.391081347070596	6.212740925221768	6.212740936000836	2.230592636363033	-1.766223166206738
14.21999372999712	-0.1608270447907581	-0.04001061981669767	-0.001169146056344117	2.439603161678138	1.066502346589915	1.049411374327586	0.5306424404921974	0.1259192100673316	0.2575084918452423	0.3862595426679553	0.3862595431122389	-0.3435527711770844	-0.690712949303449	-0.2664493456510971	-0.04789908848313544	-0.1744153522869111	0.5009345403872835	0.5009345416474242	-0.3593464343522391	-0.08357354842136597	1.042057913749486	0.2319066773798248	-0.5670376440492592	-0.002210457947367984	-0.034007460138106	0.01825392047065212	-3.721556386672196	0.22941081830095	4.235113594515777	-9.848120384382536	-9.848120375819267	-2.538517638947568	-0.02604633127838053	-0.2240589900589622	0.07115067511454497	1.903349072124085	6.953581839073015	6.95358184466559	2.627405891391445	-1.840038282052463
14.22666038999712	-0.153449161216673	-0.03877391019679636	-0.00471337273681758	2.439482579104571	1.066061733402708	1.049449833121259	0.5063157623722198	0.1271944412746743	0.2838544348120428	0.3247901840755001	0.3247901845426031	-0.3601539134535036	-0.6908813954213555	-0.2670821866862189	-0.04733983540480861	-0.1603694604290794	0.5496973945362391	0.5496973958128603	-0.3411915095152724	-0.0958858351576338	1.160251891624094	0.1343909372133159	-0.5017504975886967	-0.03416875837710359	-0.09851756261710351	-0.005887733430718373	-3.545268482443026	0.1683513081874713	3.640312091314304	-8.542635056294726	-8.542635057564889	-2.419783482319454	-0.02420416555308597	0.04694395806371091	0.09093148399289581	2.287153701575228	7.671089793130136	7.671089792344014	2.778807154014903	-1.841622164026387
14.23332704999711	-0.1455066961806889	-0.03828564919592155	-0.007932984170274843	2.439144764433575	1.065184308711436	1.0493460247488	0.4837703240706444	0.1283862698277615	0.3057099621583713	0.2729862949576467	0.2729862953925737	-0.3754924212041386	-0.6910322656999669	-0.2656546779526295	-0.04678020260417887	-0.1442444605922074	0.6031522370640713	0.6031522383128978	-0.3228135506599147	-0.1079721970500512	1.211310337101667	0.006895573700199209	-0.469559980388183	-0.06738613839030877	-0.1650382802886538	-0.02414053480960227	-3.190397981781331	0.2068938319420818	2.894788193483422	-6.955145904372725	-6.955145912112752	-2.155466960608445	-0.02082834703442882	0.3935761762307726	0.06877747461443369	2.525448798799312	8.359914082116116	8.359914074583759	2.697639474479176	-1.773056172893951
14.23999370999711	-0.1374427296039465	-0.03875018194300459	-0.01104261959139211	2.438581458861999	1.06385699376852	1.049143859944808	0.4641147036349879	0.1301920131668552	0.3222203388177596	0.2325688565638852	0.2325688569363225	-0.3885229644729155	-0.6911563476026885	-0.2616819855471739	-0.04654298875904615	-0.1270263136047922	0.6610774051791444	0.6610774063567815	-0.3056816596752476	-0.1193868275880777	1.197593290772049	-0.1511031896299198	-0.4680660930191178	-0.1017834393368688	-0.2334595938945913	-0.03527231650104746	-2.684084414034412	0.3524303869870435	2.045510433205083	-5.137104897401288	-5.13710490781297	-1.724854693607772	-0.01620613269502752	0.8085878873624501	-0.007186292005353905	2.615977735324739	9.010169427451993	9.010169413821746	2.410492073084769	-1.641777543637401
14.24666036999711	-0.1296655865933156	-0.04035722248426638	-0.01422977588321473	2.437785701551062	1.06206776981388	1.048892115427112	0.4482297532530161	0.1333045220773566	0.3328768721242348	0.204845495587593	0.2048454958904381	-0.3981014650376754	-0.6912459144380502	-0.2547541854306808	-0.04700482432261126	-0.1096664319658035	0.7231711250002065	0.7231711260708276	-0.2910459598287789	-0.129750434500801	1.126959258340067	-0.3344861579819676	-0.4916533389087538	-0.137052303829906	-0.3035596714521951	-0.03906300779537442	-2.066835784079217	0.5960734186732715	1.148389521374266	-3.160330500262455	-3.160330510328289	-1.119727107663539	-0.01048268281615919	1.27713135883691	-0.1407843806696589	2.571202906486997	9.607869316755584	9.607869298603882	1.956156130941735	-1.460180586057532
14.2533270299971	-0.1225167569619804	-0.04324200894471554	-0.01763594623125649	2.436753276483738	1.059806784482372	1.048637681874355	0.4366938814835931	0.1383042587908938	0.3375568420093062	0.1905914690898001	0.1905914693319012	-0.4030804368574105	-0.6912935859060428	-0.244578581913186	-0.04853595229591677	-0.09298869237383957	0.7890283307757011	0.7890283317161575	-0.2798633405531095	-0.138779995699842	1.011348540029294	-0.5321178417325246	-0.5322659472363066	-0.172685572095761	-0.3748839822822905	-0.03628463104699173	-1.388092848621076	0.9133948631013246	0.2622529016616528	-1.111698415059616	-1.111698423032855	-0.3476840318829363	-0.003614611110000195	1.779355690146968	-0.3262097925322832	2.416472040123379	10.1363009659902	10.13630094549071	1.383372489943435	-1.244501018053735
14.2599936899971	-0.1162488349558636	-0.04744886407546076	-0.02134302507680885	2.435483850133079	1.057068481269936	1.048419360716051	0.4297394141492946	0.1455670380032132	0.3365220767129721	0.1899709009345724	0.1899709011322775	-0.4024201032888878	-0.6912910983086342	-0.2310034656198088	-0.05143732115601204	-0.07761434004251054	0.8581287732147154	0.8581287740178318	-0.2727406987091211	-0.1463084596009582	0.8652156333931025	-0.7282165651451357	-0.580226591457917	-0.2080375309999269	-0.4465671140078781	-0.02855835874790297	-0.7014261961459822	1.268296072759233	-0.5573453251290695	0.9135163802635946	0.9135163749173242	0.5665291049028567	0.004611796760653017	2.293311894034486	-0.5487940329475393	2.186520111079955	10.57797573597491	10.57797571575248	0.7478408161554015	-1.012914495989792
14.2666603499971	-0.1110145574744605	-0.05290856246082441	-0.02536567543278364	2.433981643637789	1.053854914264356	1.048262994569165	0.4272415002322082	0.1552056166824268	0.3303789241114805	0.2025052188481052	0.2025052190179071	-0.39530071610345	-0.6912283785533173	-0.2140220446513935	-0.05588969333675549	-0.0639147798167094	0.9298390193318848	0.9298390200097715	-0.2699004364601799	-0.1522894634692918	0.7037427072238888	-0.9050095832436416	-0.6252281246236059	-0.2424008635798134	-0.5171698575169474	-0.01810007528074861	-0.05958825388837839	1.619084680937001	-1.26334420135944	2.819045119299305	2.81904511613221	1.582010789459764	0.01451086814327451	2.797980117369956	-0.7877235844213576	1.920696650413004	10.91678142528571	10.91678140851176	0.1085429005536069	-0.7829971561155168
14.27332700999709	-0.1068684281079279	-0.05943557757089341	-0.02965103884035834	2.432255584392735	1.050179886434804	1.0481785918852	0.4287398474558696	0.1670553434077107	0.3200087954571025	0.2270917547542909	0.2270917549071842	-0.3812205380495083	-0.6910931904696274	-0.1937565263800218	-0.06192511855791407	-0.05199849437356763	1.003428320063775	1.003428320651046	-0.2711725956145585	-0.1567843324232318	0.5409048940607357	-1.045911986863849	-0.6575315248202767	-0.2750824708344515	-0.5846036936764466	-0.007383740979992528	0.4902991513165613	1.925369891960639	-1.820729490262562	4.515158692868517	4.515158690728178	2.644982391584066	0.02640013910364328	3.276101313478734	-1.019886470120683	1.657642486551002	11.13991667933329	11.13991666948619	-0.4765566655692874	-0.5690634594897179
14.27999366999709	-0.103780450288801	-0.06674615363785641	-0.03408668611669726	2.43031901015511	1.046073202068927	1.048159826696716	0.4334902806266477	0.1807044531502462	0.3064807716889201	0.2620711594603617	0.2620711595981663	-0.3600652510467404	-0.6908714453290109	-0.1704258717162785	-0.0694253354441267	-0.0417328010492668	1.078095503163537	1.078095503716433	-0.2760172415746168	-0.159932927087161	0.3878648392105976	-1.138474576201909	-0.6691995933594447	-0.3054592207368946	-0.6461744601366113	0.00122441373098216	0.9107600279864203	2.154330378361614	-2.208399728008726	5.925672082499923	5.92567207984243	3.693992930727457	0.04050300742445194	3.716125081336653	-1.22395275699464	1.430313065847377	11.23920937514551	11.23920937501667	-0.9552297532916092	-0.3800989772874115
14.28666032999709	-0.1016581764872029	-0.07449334862173401	-0.03851620219383269	2.428189101373584	1.041584211693231	1.048185903948326	0.4405387351765179	0.1955605340981072	0.2909566037534878	0.3053380521694372	0.3053380522834187	-0.3321380763766914	-0.6905480911129732	-0.1443050430288441	-0.0781456323852006	-0.03279523996993268	1.153001956477837	1.153001957065299	-0.283578442855162	-0.161914327441445	0.2521280941578811	-1.176425459198724	-0.6551133575563879	-0.3330028322772016	-0.6987504687578889	0.005799895704707363	1.176614776827678	2.285123832651795	-2.419627453365331	6.993813932429176	6.993813927705053	4.666361413128726	0.05687607094266887	4.112772202323964	-1.383784838186388	1.262188943547368	11.21161188227011	11.21161189269984	-1.285643189610117	-0.218844754099531
14.29332698999709	-0.1003714703581906	-0.08231124696686991	-0.04276027725535018	2.425886255884154	1.036783853840219	1.04822539493723	0.4488076217988256	0.2109379051850447	0.2745968107476589	0.3544854021895036	0.3544854022618767	-0.2981453928208886	-0.6901083531984995	-0.1156852901887453	-0.08775697965430979	-0.02474462247148158	1.227305177092477	1.227305177780745	-0.2927673281562073	-0.1629060127258845	0.1375697630843067	-1.160326036072383	-0.6135878245983173	-0.3572727159412867	-0.7390407010068036	0.005109522326098071	1.276018021207473	2.310675650609868	-2.461275743993705	7.686378130664195	7.686378122791333	5.504912853427984	0.07537829992819445	4.466188723491852	-1.490404435225024	1.165223259488646	11.05889354256931	11.05889356191771	-1.440316219316595	-0.08227780606170892
14.29999364999708	-0.09977441478618493	-0.08985852445649674	-0.04664037118868508	2.423433603725521	1.03176458850434	1.04824135443953	0.4571834714555989	0.2261477377383327	0.2584761532296528	0.4069692543888967	0.4069692543976483	-0.2591394172039906	-0.6895390280353227	-0.08484407124588343	-0.09789528255385362	-0.01709957067111175	1.300188022953252	1.300188023790715	-0.3023675175678916	-0.1630508314590877	0.0452315906276459	-1.096741474256641	-0.5465246047162252	-0.3778826399982987	-0.7639398234072086	-0.001257454577722515	1.20980930307705	2.236757479204568	-2.351770325113067	7.995589434932774	7.995589423811182	6.163947242314448	0.09568488089560721	4.779969453954822	-1.54214625033286	1.139628476516547	10.7866965082214	10.78669653293651	-1.408787381287582	0.0365700317738987
14.30666030999708	-0.09972037972213085	-0.09685230123359562	-0.05000176054133745	2.42085679652966	1.026637955381023	1.048196878310052	0.464595389867148	0.2405743481924889	0.2435164190707588	0.4602771904278062	0.4602771903548617	-0.2164263796556515	-0.688829572834289	-0.05203014047089444	-0.1082059723455918	-0.009412884391473671	1.370880364030768	1.370880365038752	-0.3111526950389203	-0.1624394433872374	-0.0255381512709854	-0.9962340493647454	-0.4590631116300347	-0.3944545904987385	-0.7708888334874532	-0.01288851885475785	0.9895266828844671	2.078885463402167	-2.11799314748086	7.938334503866121	7.938334490833697	6.61348626029744	0.1173310023322725	5.05875766618831	-1.543177365803286	1.175298078433415	10.40326636488512	10.40326639058136	-1.198522642107027	0.1458991967690673
14.31332696999708	-0.1000707355917551	-0.1030861562350826	-0.05273238112117779	2.418184093418239	1.021529758432246	1.048060251493931	0.4700786201250681	0.2537258992271657	0.2304421083122606	0.5120830651622676	0.5120830650034854	-0.1714538989926924	-0.6879728653750783	-0.01746259174445753	-0.1183748413862134	-0.00133173488054959	1.438672418843148	1.438672420013748	-0.3180034755162658	-0.1611116975225051	-0.07646846692114533	-0.8707182316859098	-0.3586622030193369	-0.4065793103888092	-0.7582228144565837	-0.02866833657662023	0.6351237009426463	1.85790587595416	-1.791627557786992	7.552874894865785	7.552874882696124	6.841208821471839	0.1397634884663531	5.306671598551924	-1.500971288141304	1.254579823378724	9.918300861385646	9.918300883821983	-0.8337690738759796	0.2523130789345681
14.31999362999707	-0.1007025793934597	-0.1084301950126077	-0.05477391306761489	2.415446641239264	1.016573090510968	1.047808970947365	0.4728240712664303	0.2652542474483311	0.2197606954145972	0.5603728363821445	0.5603728361544258	-0.1256935822906739	-0.6869656482381855	0.01866441418700766	-0.12814076125172	0.00736367336134376	1.502921686349724	1.502921687649364	-0.3220098206658064	-0.1590752726724149	-0.1106332845364685	-0.7308425216342983	-0.2537458599543843	-0.4137990904552581	-0.7254576614125374	-0.04698846288058694	0.1730296517143204	1.595351968190352	-1.405506329823496	6.893571254428466	6.893571246439658	6.851967772054536	0.1623807180648603	5.527118609495218	-1.423544746927844	1.35582041062147	9.342191229194063	9.342191245013828	-0.3524147640888754	0.3585469219339896
14.32666028999707	-0.1015188126577011	-0.1128157897960717	-0.0561236598382177	2.412678782498551	1.011899939273143	1.047432214385542	0.4722141984874511	0.2749464207113045	0.2117665029245065	0.603530561681318	0.603530561421447	-0.08053420111490776	-0.6858088044177	0.05617743705333442	-0.1372916084316481	0.01674481976378638	1.563055855923016	1.563055857300098	-0.3225471589221354	-0.1563367871558464	-0.1326600562546592	-0.5841207880896909	-0.1523900727199226	-0.4156164100950924	-0.6734093889907811	-0.06599458305372163	-0.3662095080951016	1.309759833576103	-0.990202801607164	6.024341054921043	6.024341053517621	6.665172454797151	0.1845391111233465	5.722849008890999	-1.317314064096643	1.456649645098097	8.685528776510811	8.685528783719121	0.1986490375524311	0.4620115277341853
14.33332694999707	-0.102456376446298	-0.116211716374395	-0.05682909460900595	2.409918225429418	1.007632786032671	1.04693167562749	0.4678393571542045	0.2826970186299705	0.2065658580448695	0.6403790024769299	0.6403790022313796	-0.03719797646457285	-0.6845077723297597	0.09491690543375032	-0.1456496228245183	0.02673818762811655	1.618572675642944	1.618572677037753	-0.3193185588113893	-0.1529397293997393	-0.1479119170670343	-0.4342455635896403	-0.06147244585769256	-0.411526423554604	-0.6040754058563984	-0.08382300466532525	-0.9514210770303398	1.01468089364499	-0.5711286977541981	5.011751873106052	5.011751878679348	6.310580398201209	0.2055010466281219	5.895041237123461	-1.186110837505504	1.536215175092927	7.958672378044389	7.958672376218047	0.7689544408922329	0.5542203594427909
14.33999360999706	-0.103486464780023	-0.118599425194773	-0.05697833739217201	2.407205920226019	1.003877658238273	1.046320934203443	0.4594893417894568	0.2884728753952022	0.2041182859179075	0.6701758975727364	0.6701758973831559	0.003311715962845047	-0.6830735428081053	0.1347220389374576	-0.1530540903147085	0.03714000228552015	1.669037283010671	1.669037284365982	-0.3123600044790411	-0.1490028064349712	-0.1610830813596949	-0.2814514681807366	0.01373559162090051	-0.4010724238905553	-0.5203367873105489	-0.09880177682476281	-1.554479029215818	0.7182635698087707	-0.1667425921157759	3.918802799818707	3.918802810581019	5.823206439771504	0.2243126423834134	6.041981197446588	-1.031311104636478	1.576452409764768	7.171454082662243	7.171454072950057	1.309992601668704	0.6212747338314033
14.34666026999706	-0.1046066864504414	-0.1199529605918535	-0.05668867052777234	2.404585500190001	1.000719404512363	1.045623625049763	0.4471245281112018	0.2922784387525491	0.2042843052667898	0.692573611320799	0.6925736112111993	0.04022790078861806	-0.6815246648482323	0.1754096881316453	-0.1593474315869155	0.04763774159990378	1.714078581526543	1.714078582797099	-0.3020101888095434	-0.1447510596905124	-0.1753475067182069	-0.123463312530486	0.06978619920321279	-0.383919294656404	-0.4256092861988369	-0.1096086349411235	-2.152533910314455	0.4237758873705022	0.211591489036175	2.800264278510258	2.800264291098624	5.23811836722216	0.2396288229704497	6.158750609640125	-0.8526440888429332	1.562927868463921	6.333205251326628	6.33320523605284	1.780212664423211	0.6455474452570614
14.35332692999706	-0.1058307903328567	-0.1202258874347017	-0.05609392022315306	2.402102212101722	0.9982192216276352	1.044870718783405	0.4308387745580233	0.2941261855757519	0.2068687664746694	0.7075541207887402	0.7075541207581292	0.07300449500255464	-0.6798904718611298	0.2167559867228627	-0.1643675969244114	0.0578366613746126	1.753386813892951	1.75338681505024	-0.2888506418434301	-0.1405324046838622	-0.1924392043734925	0.04340999025893127	0.1051698347921827	-0.3599299608479217	-0.3235224025338156	-0.1153782828216418	-2.728317055379251	0.1305290659584269	0.5582123499390833	1.699959352724774	1.699959363188946	4.58583195567077	0.249532222995258	6.238310561206484	-0.6492050731715837	1.485495740343078	5.453055052654223	5.453055034312126	2.148812422402734	0.608276058825412
14.35999358999705	-0.1071803194665835	-0.1193452218552129	-0.05533170689661659	2.399801388765751	0.9964142151293165	1.044097280023755	0.4108242523392271	0.2940138050536616	0.2116518614027649	0.7153521965285874	0.715352196551202	0.1012737861564457	-0.6782153223502659	0.2584873152734632	-0.1679469550793359	0.0672895951855664	1.786713242308434	1.786713243337934	-0.2736261778334624	-0.1368158141058921	-0.2129932473590697	0.2232921578755204	0.1202195198176343	-0.3292224213916117	-0.2176263786289298	-0.1157508939280746	-3.269483130609291	-0.1650309306753168	0.871007855228323	0.64989600483523	0.6498960099381701	3.888900397632416	0.2514283168161303	6.272986505257808	-0.4203590141565303	1.338578078482457	4.540208860198793	4.540208840357471	2.397795171594537	0.4923528692546445
14.36666024999705	-0.1086773146856023	-0.1172114209521866	-0.05453214470777491	2.397726660004558	0.9953188520820866	1.043339095200948	0.3873406921384386	0.2919091595264602	0.218405427580997	0.716378013420323	0.7163780134553668	0.1247864791287751	-0.6765628771859058	0.3002794480891337	-0.1699166358147854	0.0755269474495108	1.813870925402612	1.813870926296203	-0.2571577046665197	-0.1341716436210511	-0.2364780696556836	0.4198914379262569	0.1167903764122249	-0.2921893812155025	-0.1111210580071674	-0.1108644372696797	-3.768034143938672	-0.4680748478807564	1.149237784544251	-0.3291060112682654	-0.3291060125635465	3.160158183989443	0.2421726599928065	6.255364454482544	-0.1664858497174251	1.120961051849037	3.603986586874292	3.603986565942305	2.52224524553652	0.284881839308175
14.37332690999705	-0.1103357501726813	-0.1137038763069576	-0.05380891619741207	2.395918164132542	0.9949280154610336	1.042629502488839	0.3606881703935461	0.2877441543291787	0.2268953735413892	0.711147733900568	0.7111477339107639	0.143346295854933	-0.6750181727217669	0.3417610837737913	-0.170115601643739	0.08208450425737072	1.834735106260803	1.834735107010946	-0.2402580314234528	-0.1332352433855334	-0.2610051258682922	0.6356828878134677	0.09790598777965687	-0.2494800888837167	-0.006659226699694972	-0.1013041653434726	-4.21972578584152	-0.7839728484607285	1.391549556150543	-1.225720693833656	-1.225720699349623	2.402854708750521	0.2186343053836296	6.178847804825035	0.1103341038512167	0.8354184220265573	2.653701345144835	2.653701323022051	2.529237521922528	-0.0203156250462384
14.37999356999705	-0.1121533217856415	-0.1086917587647019	-0.05325236859307123	2.394410966536504	0.9952209398625149	1.041996666545569	0.3311857361799166	0.2814183115344414	0.2368717083218035	0.7002278135230452	0.7002278134962303	0.1567514674225663	-0.6736842910363314	0.3825222449710648	-0.1684039841300181	0.08652915025793678	1.849242785237521	1.849242785835931	-0.2236583638318207	-0.1346539651414937	-0.2837077874189976	0.8711429938461248	0.0675096431741706	-0.2019594274089348	0.09371573836474856	-0.0880211704494928	-4.622841753974324	-1.11683336623528	1.594285428003746	-2.035757882702441	-2.035757887231981	1.612525543173556	0.1787305059152082	6.038649698112386	0.4057598930698936	0.488483006731403	1.698555082304074	1.698555058885766	2.435757080126741	-0.420304479973348
14.38666022999704	-0.1141081426141574	-0.1020493456948695	-0.05292403527677052	2.393233778362549	0.9961651116542392	1.04146147534415	0.2991604438016628	0.2728117051022612	0.248049323701867	0.6841961872820662	0.6841961872469592	0.1647530308884384	-0.6726713885797635	0.4221311380054651	-0.1646790940376518	0.08848353608656243	1.857391762753791	1.857391763190943	-0.2079516017609993	-0.1390205141468057	-0.3017880383222483	1.124192416211357	0.03027075672754964	-0.1506612942994113	0.1885034772449802	-0.07222886283249616	-4.976372660799417	-1.468176990639251	1.750485988354278	-2.759519626737563	-2.759519623572515	0.7800450181712564	0.1225974113161205	5.833273626971485	0.7129802456356095	0.09033569569374617	0.747576355610141	0.7475763305448856	2.265756730185654	-0.9014746638641886
14.39332688999704	-0.1161635077438168	-0.09367427365679792	-0.05285237346638796	2.392407967123407	0.9977194367104965	1.041036166595857	0.2649489188413128	0.2618061788939029	0.2600856742146722	0.6636209527501197	0.6636209527785965	0.1670353391202695	-0.6720791619379528	0.460161098420274	-0.1588914638862058	0.0876501205493955	1.859239300541695	1.859239300803697	-0.1935574633838252	-0.1468003370348387	-0.3138077041177851	1.389858187824054	-0.008578950795022975	-0.09674950479427673	0.2766028107900609	-0.05529010689155567	-5.278183145842648	-1.83576641114911	1.850000904081377	-3.399262241794141	-3.399262225123926	-0.1048869510338689	0.05327778010152911	5.565965417225579	1.022894855321856	-0.3452709277935985	-0.1904332353213448	-0.1904332630191874	2.046630340622975	-1.439342280442513
14.39999354999704	-0.1182807192779289	-0.08350761281745474	-0.05302935906873808	2.391946781940034	0.9998363511760937	1.040723699728671	0.2289094989382797	0.248313954018599	0.2725632871348615	0.639054532707953	0.6390545329009868	0.1632194245920325	-0.6719778891839918	0.4962256215889237	-0.1510587962219055	0.08383480830049375	1.854900443962785	1.854900444027402	-0.1807114707237915	-0.1582622750132252	-0.3207391153385988	1.660058123766422	-0.04333905238638697	-0.04149249373928299	0.3571480166761989	-0.03860800292668131	-5.523760448244206	-2.212573258247846	1.88081832589493	-3.957146017845583	-3.957145985065212	-1.050452984000448	-0.02358367880552214	5.245602187672699	1.324537757611747	-0.8010734518689582	-1.106950681101711	-1.106950712858909	1.805689648180514	-1.999713578179002
14.40666020999703	-0.1204369838108281	-0.07155476795297137	-0.05340774177066385	2.391854722551388	1.002462924641218	1.040517830022463	0.1914395832584234	0.2323120110663212	0.2849845924777906	0.6110392329471191	0.6110392334088928	0.152886954851097	-0.6723945302999185	0.5300161096502948	-0.1412764939763085	0.07696954259896854	1.844545843847869	1.844545843683954	-0.1694757629304003	-0.1734214498072505	-0.3263867499124566	1.923609175669198	-0.06798243298338931	0.01375750546871271	0.4293778712971441	-0.02352441584328516	-5.705942644139258	-2.586156068508556	1.831351536215466	-4.433877591788577	-4.433877544574834	-2.059825715473455	-0.1008488487225226	4.886553299342768	1.605685302616807	-1.256626286748822	-1.993848270719766	-1.993848307619648	1.567212994552739	-2.541204104166129
14.41332686999703	-0.122643535627121	-0.05790474495754146	-0.05390001988134245	2.392127087717525	1.005541295390064	1.040403830130737	0.152991372967594	0.2138777576476567	0.2967834229920351	0.5801196222788142	0.5801196230892999	0.1356224233499506	-0.6733068205214185	0.5613346178726929	-0.1297232553985056	0.06713053622861102	1.82839828106645	1.828398280639711	-0.1597668693502434	-0.192003674157934	-0.3370282595307176	2.166762301163306	-0.07655295374606631	0.0676006102874742	0.4925695785112489	-0.01122824418100344	-5.815648160704422	-2.938988198899277	1.693025788709141	-4.828002218380333	-4.828002162108255	-3.128584378711858	-0.1710663388352223	4.507317797649	1.853755278605148	-1.689340935173627	-2.843680661329772	-2.843680703051978	1.350319235734903	-3.019178374074567
14.41999352999703	-0.1249586239607918	-0.042743446934741	-0.0543809993970682	2.392749853513624	1.009008934842119	1.040359762671143	0.1140796879216286	0.1932182213439688	0.3073529865177631	0.5468576581873454	0.5468576593825198	0.1110709021434821	-0.6746448088363214	0.5901135170298156	-0.1166593084113543	0.05454672230831061	1.806726546907812	1.806726546193396	-0.1513950003258666	-0.2134405268793464	-0.360214154254756	2.374464380729221	-0.06382153183796734	0.118652846157634	0.5460566665042349	-0.002683857024545005	-5.843529017209539	-3.250085838918754	1.462570983982782	-5.135791284071452	-5.135791226293227	-4.242730396603242	-0.2275854014680403	4.127969075995703	2.057120702947433	-2.076359413428729	-3.650191093023035	-3.650191136957889	1.167627338859537	-3.3909350958134
14.42666018999702	-0.1274894745476927	-0.02635664262167897	-0.05469513705561949	2.393700063604125	1.012799334345129	1.040358149286583	0.07527556541146133	0.1706847021910532	0.3160874806320545	0.5118464553156759	0.5118464568780821	0.07900527885664628	-0.6763006536628079	0.616414453572368	-0.1024150420477105	0.0395937806790146	1.779835399587469	1.779835398585962	-0.1441093640143471	-0.2369006853732407	-0.4026806432528046	2.532111765095429	-0.02603715198695857	0.1656345657761233	0.5893345196613309	0.001417787301452998	-5.782558346748105	-3.497629235366806	1.143794923167905	-5.35176230774759	-5.351762256733093	-5.377900497127543	-0.265929954435591	3.766561615492917	2.206586189547819	-2.396920870259635	-4.408952489648899	-4.408952530877688	1.024854748172404	-3.621139466469999
14.43332684999702	-0.130378765083931	-0.009121257141197915	-0.05466879146673464	2.394946844824968	1.016843534641759	1.040367932937561	0.03718119303621174	0.1467689153737883	0.322432934718255	0.4757188900586645	0.4757188919163837	0.03939453957012368	-0.6781471622488165	0.6404021629776657	-0.08737109498959574	0.02277238741603343	1.748051514814068	1.748051513563275	-0.1376417605784008	-0.2613533509504929	-0.4679692569691393	2.627200037655236	0.03837329503999138	0.2074650415983184	0.622190471192135	0.0007012584719267462	-5.630820927435222	-3.661751071758448	0.7484868595807264	-5.469642910091389	-5.469642873749557	-6.499766246189047	-0.284860319708291	3.435426575465772	2.296364742939229	-2.634625668824546	-5.117872125137804	-5.117872157734814	0.9217921493709448	-3.685728367418157
14.43999350999702	-0.1337776097516294	0.008512874039286918	-0.05412657377525558	2.396452986934464	1.021072310039032	1.040356721501294	0.0003897498604782789	0.1220818036202632	0.3259396830456817	0.4391496051583199	0.4391496071906467	-0.00753320525726866	-0.6800595469127122	0.662297705090071	-0.07193463539520156	0.004673123215702815	1.711707328740484	1.711707327314981	-0.1317392747840891	-0.2856495055981547	-0.5549436125817491	2.650526003874725	0.1283008703377141	0.2433319365037561	0.6447564356357292	-0.004852603348836439	-5.393022555208534	-3.726900103633439	0.2959468605279617	-5.483309496860076	-5.48330948173803	-7.565155794349026	-0.2861946372597385	3.138941551658212	2.324263287353879	-2.779126091903336	-5.777293879026598	-5.777293898278202	0.8544788917091533	-3.573350489915967
14.44666016999702	-0.1378132852975584	0.02604804852033187	-0.05291006713669858	2.398176844511197	1.025418354274387	1.040293254173333	-0.03455864248221768	0.09731829284915533	0.3263071574312325	0.4028515997968915	0.4028516018471961	-0.06123748088279231	-0.681932123152508	0.6823238553527673	-0.05651612333949033	-0.0140676869942342	1.671125571926118	1.671125570422011	-0.1261811321029828	-0.3086059894604379	-0.6576510682549077	2.59706080469046	0.2397565475138985	0.2727182919914984	0.6574640300281998	-0.01488380850625935	-5.080223879561902	-3.683702710216937	-0.1887556978456004	-5.387482934747658	-5.387482944881066	-8.52393017135112	-0.2736128823498172	2.873348004922421	2.291432272073597	-2.827176745740301	-6.389718312903263	-6.389718317318172	0.8175982460312586	-3.284939401956865
14.45332682999701	-0.142558809752047	0.04296880748900597	-0.0508968414512928	2.400074305229595	1.029818033919789	1.040149924868724	-0.06721587519600489	0.07321138351601464	0.3234148790829154	0.3675684055895809	0.3675684074854794	-0.1208283745928614	-0.6836862516714117	0.7006538073311697	-0.04150824399167823	-0.03281743078762602	1.62660634959269	1.626606348102694	-0.1207812360477363	-0.3290828469666052	-0.7658825369695049	2.466585886867619	0.3659740209837937	0.2953988231686056	0.6609726976078776	-0.02865942675034761	-4.708779789374133	-3.530267519594772	-0.6770441854014322	-5.178407905409676	-5.178407941386446	-9.322008320105407	-0.2513599434897941	2.627742609920372	2.201977465240799	-2.78319157172046	-6.95935112829406	-6.959351120378948	0.8063011100724031	-2.832199746767792
14.45999348999701	-0.1480073511895122	0.05877505128346409	-0.04801778378955548	2.402100672314599	1.034212698356056	1.03990516416253	-0.09725710116339846	0.05048021013903815	0.317338381736152	0.3340613472113362	0.3340613487886369	-0.1850538028666543	-0.685270828648871	0.717368534778009	-0.02726798440999917	-0.050998723481494	1.578417506085232	1.578417504673681	-0.1153813044173484	-0.3460479267819739	-0.8660990127687423	2.263919227104235	0.497824793591476	0.3114182915011282	0.6561065939465416	-0.04511033808145803	-4.299058507560963	-3.272630303320607	-1.139047569393807	-4.854627941802177	-4.854628000642903	-9.90562036511548	-0.223338379093019	2.385707953214608	2.062387469583331	-2.659274564256282	-7.491564672142879	-7.491564657677668	0.8171750904759874	-2.235346358260979
14.46666014999701	-0.1540553941391888	0.07301476897783216	-0.04427033470256896	2.404212332745109	1.038549504640064	1.039545454214391	-0.1245011426925554	0.02977879350029651	0.3083508206611584	0.3030920114297541	0.3030920125539048	-0.2523185871460922	-0.6866582226880539	0.7324284739739292	-0.01410323127704167	-0.06813872956977945	1.52678906279201	1.526789061478484	-0.109840730562783	-0.3586249352809777	-0.9432309851190684	1.998560393042642	0.6246473684518385	0.3210476953345454	0.6437649278007231	-0.06290648517753078	-3.873342712106811	-2.924083680581177	-1.545690634880434	-4.417593615031615	-4.417593691025331	-10.22654463942056	-0.1926443384774841	2.128079067950819	1.880768518517091	-2.474490950417553	-7.9922013109312	-7.992201297224598	0.8482543253398424	-1.520474178073278
14.473326809997	-0.1605014258659656	0.08531250390919205	-0.03972477464230142	2.406368062016768	1.042781507424203	1.03906669317661	-0.1489132889950306	0.01165281326918789	0.2969110826800781	0.2754017502288832	0.2754017508088309	-0.320740712687045	-0.6878384276552182	0.7456678699048856	-0.002264605439833462	-0.08391067836298996	1.471912884246046	1.471912883002109	-0.1040291954578919	-0.3661236841651246	-0.9834540851849328	1.683789429972866	0.7354805241903701	0.3247216620463356	0.6247962817856513	-0.08057627649363489	-3.45273609774453	-2.503490862901141	-1.870628649035018	-3.871955910565366	-3.871955996595319	-10.24794759118407	-0.1614804877506374	1.8368600113921	1.666079168760813	-2.253258122831027	-8.466714711197771	-8.466714704997525	0.8982467506641524	-0.7168769974971052
14.479993469997	-0.1670638843267397	0.0953905120967978	-0.0345215716931845	2.408529911782164	1.046866946241712	1.038474652138967	-0.1705870660198555	-0.003490106602010235	0.2836400613857966	0.2516896800049644	0.251689679998678	-0.3882468770788588	-0.6888135652603354	0.7568158016769606	0.008058203521987016	-0.09816210484981816	1.413948282055463	1.41394828081505	-0.09782584938932366	-0.368052777593565	-0.9769699873655435	1.335414584702584	0.820456801012585	0.3229805204122419	0.5998966039416661	-0.09665505929836243	-3.054208279374026	-2.03300208487677	-2.091831462932824	-3.225781754746677	-3.225781843342665	-9.950197349659797	-0.1313240208770987	1.499035403420836	1.427570327744953	-2.023018843000302	-8.919271110142958	-8.919271115705909	0.9654050951286097	0.1454946095476911
14.486660129997	-0.1734141007336436	0.103081041434575	-0.02885982143743448	2.410663788891332	1.050768125179903	1.037784427043043	-0.1897108272688561	-0.01539428935633288	0.2692877582334653	0.2325887083428972	0.2325887077580364	-0.4527041676345245	-0.6895939563390421	0.7655379486769938	0.01673731718107038	-0.110926026016999	1.3530334169536	1.353033415634358	-0.09112635817871483	-0.3641170389567337	-0.9195612640887486	0.9703960268069696	0.8720340225785267	0.3164374187370722	0.5695959106539619	-0.1098332838404473	-2.689167782077702	-1.53566715527614	-2.19277061239516	-2.490948806669217	-2.490948890428752	-9.335715174296102	-0.103206553337371	1.108792268620482	1.174513790489862	-1.811496323206347	-9.351919159293971	-9.351919177129895	1.046321216426218	1.037961238421304
14.49332678999699	-0.1792140141909808	0.1083295437596052	-0.02297859437631328	2.412739904035202	1.054450532044463	1.037018968769939	-0.2065312557371606	-0.0239547180262318	0.2546932329625999	0.2186385110433605	0.2186385099359117	-0.5120779457121369	-0.690196082917556	0.7714862027570625	0.02370670757123125	-0.1224130523062081	1.289301930553841	1.289301929082877	-0.08385786138473333	-0.3542057466359027	-0.8124930282164268	0.605527417294518	0.8858772859768759	0.3057704975563205	0.5343377551472382	-0.1190826294087839	-2.363899315486432	-1.033316734905108	-2.163423556267498	-1.683611796623787	-1.68361186854167	-8.431813957857928	-0.0779833360285469	0.6676907231834124	0.9162175748364869	-1.643742593087707	-9.76384837130931	-9.763848398199073	1.134789987742464	1.93388859488492
14.49999344999699	-0.1841491484270768	0.1111896675701717	-0.0171336302579851	2.414733213397125	1.057882640037894	1.036206872665996	-0.2213237458883239	-0.02920314146468828	0.2407377816363239	0.210256380572652	0.2102563790418189	-0.5645991995760725	-0.6906420339310482	0.7743444063448999	0.02896316052949879	-0.1329834722283965	1.22290430422557	1.222904302560332	-0.07600049492448768	-0.3383796835867042	-0.6613388444109826	0.2563074164167838	0.8613794045343282	0.2917255160418178	0.4945914624960887	-0.1237507968359276	-2.080982258297894	-0.5449234334444404	-2.001328622089753	-0.8242817110838625	-0.8242817653770689	-7.290548454855936	-0.05649532006858743	0.1835129343276023	0.6622708229467351	-1.539107216294644	-10.15070714111717	-10.15070717148605	1.221042026686619	2.808329223711971
14.50666010999699	-0.1879525854428183	0.1118116289598721	-0.01157169948669435	2.416623853796214	1.061036359008991	1.035379671560676	-0.2343721375326386	-0.03128516767706301	0.2282906693070506	0.2077104056757977	0.2077104038523312	-0.6089185963351664	-0.6909594925359578	0.7738649392073434	0.03256918083520906	-0.1430995312684984	1.154033619983064	1.154033618120764	-0.06761170727386598	-0.3168630151138213	-0.4745670467159142	-0.06390685500385038	0.8018363793316561	0.2751072318037762	0.4509248508609746	-0.1236127166235416	-1.840514065536095	-0.08554913652545862	-1.712757901726149	0.06303929249097166	0.06303925935257935	-5.984760795864958	-0.03956395948935429	-0.3311939176540659	0.4228379590799037	-1.508393519932091	-10.50396549355524	-10.50396552133305	1.291728491035746	3.637024670440589
14.51332676999698	-0.1904199984809096	0.1104260126167348	-0.00650512420950055	2.41839741631941	1.063887723664264	1.034568987066631	-0.2459540212026937	-0.0304324451138697	0.218146984351401	0.2111027102283997	0.2111027082572017	-0.6442202755140446	-0.6911811127324662	0.7698961328763005	0.03465718291618306	-0.1532607574442011	1.082955324338531	1.082955322314807	-0.05884748791463049	-0.2900425420597486	-0.2622990495737341	-0.3444211168483396	0.7142068910808786	0.2567362676693915	0.404000139092257	-0.1188588862561745	-1.640515169442464	0.334070963353435	-1.313866625097533	0.953039927666635	0.9530399163484813	-4.599973733751576	-0.02781898769781171	-0.8603802422377851	0.2086967029087728	-1.551716150273537	-10.81036485496513	-10.8103648748142	1.330879159073648	4.395259813238273
14.51999342999698	-0.1914171896139879	0.1073251916495235	-0.002089489087157088	2.420044788182414	1.066417297055498	1.033803993012864	-0.2563259179184622	-0.02693423087715914	0.2109588156257614	0.2203713749398926	0.2203713729605219	-0.6702697182406917	-0.6913423571359809	0.7624021019859146	0.03543236390000185	-0.1639289501024842	1.010040038717708	1.01004003660016	-0.04997395990020926	-0.2584740496738102	-0.03530979978096391	-0.5774014898592809	0.6083977034309743	0.237363814697092	0.3544954160797567	-0.1100148214850131	-1.476522805078851	0.7073005064827526	-0.8314733746267066	1.822432848747511	1.822432857013152	-3.223011345583062	-0.02142491300738597	-1.385508920425996	0.03078309984819316	-1.657623243251647	-11.05158425182263	-11.05158425951602	1.321811522209372	5.056936697210035
14.52666008999698	-0.1908820976605575	0.1028443232811324	0.001592553879757035	2.421561338529034	1.068609868000005	1.033109583713824	-0.2657038333059744	-0.02111239983064027	0.2071638872606177	0.2353160901356011	0.2353160882639022	-0.6873817617008625	-0.6914774996718417	0.7514767314289154	0.03517079788466072	-0.175452529995402	0.9357972745594402	0.9357972724396237	-0.04136371539966796	-0.2228930696939824	0.1955998820057733	-0.7578246897196963	0.4961808934992744	0.2175661323409079	0.3029771398815885	-0.09781668273234953	-1.340674318185008	1.030825158168468	-0.3029394973551124	2.653536218001993	2.653536241053059	-1.929997546259162	-0.01982811081996425	-1.886281626435088	-0.1007736150836204	-1.803813675766228	-11.20434607540701	-11.20434606804223	1.249741337073381	5.5942532963087
14.53332674999698	-0.1888240710389901	0.09734314663697992	0.004539527825310076	2.422945452101287	1.070453267128914	1.032505404011902	-0.2742375724460198	-0.01330292659234428	0.2069198535520517	0.2556447588852106	0.2556447571981758	-0.696316779573125	-0.6916144266680763	0.7373535836618974	0.03420971674164305	-0.1880014086297468	0.860906227128116	0.8609062251113	-0.03347347114381776	-0.1842241936881533	0.4198300251733945	-0.8833033167973826	0.3899117646551795	0.1976623695481222	0.2497745213592515	-0.0830831805371206	-1.220899103432915	1.303520373951822	0.2255214122893612	3.436744665176832	3.436744696295082	-0.7774102051664772	-0.0216725790711871	-2.341201792393383	-0.1780035565847343	-1.959599218267892	-11.24123121309684	-11.24123118954333	1.104705835204648	5.978574378721181
14.53999340999697	-0.1853217471568181	0.09118927812178813	0.00683037414660641	2.424196715063467	1.071936562546408	1.032005670061916	-0.2819829458071573	-0.003845669619453303	0.2100566171678219	0.2810295218749201	0.2810295204012904	-0.6981355858406244	-0.6917697298243503	0.7204108344273829	0.03292806280440028	-0.2015244406048851	0.7862381151300641	0.786238113322256	-0.0268024345951972	-0.1435788779834768	0.6272820546458563	-0.9538021468441038	0.3011182976194324	0.1776977615326054	0.1949312739767273	-0.06660892350114851	-1.101273978331804	1.52511163814129	0.7025971707792195	4.170759642758675	4.170759674423409	0.2010935784975658	-0.02497769575818054	-2.728640124649084	-0.1966104704729	-2.090215316048859	-11.13242695137957	-11.1324269125434	0.8843447514299461	6.183069328141309
