Static Optimization
version=1
nRows=51
nColumns=59
inDegrees=no
This file contains static optimization results.

endheader
time	addbrev_r	addlong_r	addmagDist_r	addmagIsch_r	addmagMid_r	addmagProx_r	bflh_r	bfsh_r	edl_r	ehl_r	fdl_r	fhl_r	gaslat_r	gasmed_r	glmax1_r	glmax2_r	glmax3_r	glmed1_r	glmed2_r	glmed3_r	glmin1_r	glmin2_r	glmin3_r	grac_r	iliacus_r	perbrev_r	perlong_r	piri_r	psoas_r	recfem_r	sart_r	semimem_r	semiten_r	soleus_r	tfl_r	tibant_r	tibpost_r	vasint_r	vaslat_r	vasmed_r	pelvis_tx_residual	pelvis_ty_residual	pelvis_tz_residual	pelvis_tilt_residual	pelvis_list_residual	pelvis_rotation_residual	hip_flexion_r_reserve	hip_adduction_r_reserve	hip_rotation_r_reserve	knee_angle_r_reserve	ankle_angle_r_reserve	subtalar_angle_r_reserve	hip_flexion_l_torque	hip_adduction_l_torque	hip_rotation_l_torque	knee_angle_l_torque	ankle_angle_l_torque	subtalar_angle_l_torque
     14.43999401	      0.43166848	      0.70145290	      0.21498865	      0.04037762	      0.36206658	      0.45601298	      0.18749230	      0.01017482	      0.01003634	      0.03176982	      0.11180110	      0.17542523	      0.02155991	      0.01001043	      0.19892017	      0.34422665	      0.55116438	      0.01000604	      0.01002227	      0.01270662	      0.01001168	      0.01002655	      0.01010955	      0.20062106	      0.01001656	      0.01002587	      0.01001265	      0.06855027	      0.13603446	      0.10016095	      0.01263548	      0.01022156	      0.04966611	      0.07040366	      0.01001618	      0.32594031	      0.46600305	      0.06415047	      0.19908669	      0.10154346	    -26.27192585	    -15.21401673	     -9.92932091	    -23.41157043	     22.84797858	      2.49324513	      0.00421513	      0.01542819	     -0.02009243	     -0.00254962	      0.00372673	      0.01232250	     -0.12289385	      0.56831363	     -0.59165321	      0.00122501	      0.00166164	      0.02530089
     14.45479400	      0.33873344	      0.61512770	      0.09614175	      0.01003221	      0.26473787	      0.46090937	      0.02722370	      0.01865395	      0.01008807	      0.01611261	      0.03909284	      0.06256381	      0.04117861	      0.04139677	      0.20793456	      0.23692661	      0.38306646	      0.01000608	      0.01003750	      0.14301420	      0.01001207	      0.01004293	      0.02551834	      0.21429925	      0.01002169	      0.01005672	      0.01002818	      0.16913888	      0.28324261	      0.31686946	      0.07667723	      0.01001423	      0.01006267	      0.01808098	      0.01002413	      0.11713881	      0.15986832	      0.01006551	      0.01002310	      0.01004311	     -3.11960076	     -1.35227429	     -0.38075562	     -2.37150985	      1.90844102	      0.74630412	      0.01461217	      0.01013400	     -0.02884984	      0.00235731	      0.00142475	      0.00455541	     -0.14847005	      0.49468067	     -0.50663385	      0.00527032	      0.00096985	      0.02151175
     14.46959398	      0.31581142	      0.60126172	      0.01010445	      0.01001127	      0.21374589	      0.61123295	      0.01757800	      0.13997394	      0.06764213	      0.02650888	      0.01033724	      0.01008716	      0.14000030	      0.05558352	      0.18622015	      0.03002369	      0.26199705	      0.01000441	      0.01011978	      0.39152604	      0.01000921	      0.01010969	      0.12457514	      0.33090446	      0.01002269	      0.01767670	      0.02317262	      0.39406602	      0.53681046	      0.17142831	      0.21291956	      0.01001152	      0.01005374	      0.01001336	      0.01002733	      0.10581327	      0.01007472	      0.01000792	      0.01000256	      0.01000497	      8.83018497	      3.99704290	      4.05011593	      4.87764497	     -6.59805841	      0.62586241	      0.03153116	      0.00555840	     -0.04866353	      0.02156922	      0.00311019	     -0.00108943	     -0.16641930	      0.45150000	     -0.44135857	      0.01588533	      0.00091688	      0.01832850
     14.48439397	      0.36261437	      0.67772587	      0.06383817	      0.01002494	      0.26596193	      0.45366528	      0.01011275	      0.07624909	      0.21303430	      0.05918345	      0.01006765	      0.01003025	      0.01002427	      0.01000346	      0.01002015	      0.01000986	      0.06723090	      0.01000576	      0.01002545	      0.07786347	      0.01001410	      0.01006053	      0.05027796	      0.25263180	      0.04346856	      0.08876481	      0.17199261	      0.16928437	      0.43304514	      0.10276683	      0.10593460	      0.01001560	      0.01010858	      0.01000460	      0.01003060	      0.20212939	      0.01001739	      0.01001306	      0.01000428	      0.01000821	     10.39340399	      4.74359870	      2.63255425	     12.11568004	     -8.05643435	      4.96795292	      0.02597590	      0.00796020	     -0.02340596	      0.01235837	      0.00809687	     -0.00619506	     -0.19095210	      0.42509714	     -0.36916131	      0.03755991	      0.00091447	      0.01472206
     14.49919395	      0.40264344	      0.74356553	      0.11641839	      0.01003509	      0.32401315	      0.47824905	      0.01090394	      0.08300982	      0.03451398	      0.02496269	      0.01383848	      0.01205278	      0.05931141	      0.01001650	      0.01001277	      0.01000696	      0.08891289	      0.01000499	      0.01001806	      0.03578676	      0.01001326	      0.01004593	      0.06234173	      0.28452894	      0.09936005	      0.01007341	      0.01006926	      0.14416654	      0.47067370	      0.01006293	      0.09139195	      0.01002385	      0.01149592	      0.01001393	      0.01002379	      0.12217814	      0.02098110	      0.01001081	      0.01000354	      0.01000679	      5.87234675	     -0.53143822	      0.04536903	      6.30187190	      0.75061610	      0.45874894	      0.02974937	      0.01005710	     -0.02134756	      0.01408022	      0.00328806	      0.00122380	     -0.23288555	      0.38288554	     -0.25697173	      0.07340500	      0.00104525	      0.00854092
     14.51399394	      0.37564961	      0.68385574	      0.15647386	      0.01009814	      0.32741600	      0.42058873	      0.01155717	      0.04660645	      0.20640225	      0.07649376	      0.01005657	      0.01003118	      0.01001255	      0.16422590	      0.01001321	      0.01000733	      0.14639852	      0.01000515	      0.01001664	      0.01123387	      0.01001469	      0.01004724	      0.04804083	      0.25147491	      0.11582995	      0.02573332	      0.02373351	      0.15708607	      0.40804123	      0.05037932	      0.04633726	      0.01002744	      0.01358716	      0.01000288	      0.01002350	      0.31713023	      0.01002320	      0.01001700	      0.01000562	      0.01001078	     -4.77127281	      1.19553908	     -1.55189150	     -6.39210430	      3.67570405	     -4.10288584	      0.02701040	      0.01120386	     -0.01565666	      0.00811890	      0.01269634	     -0.00313300	     -0.28729151	      0.31625254	     -0.12289242	      0.11853388	      0.00143350	      0.00017818
     14.52879392	      0.37267993	      0.68973741	      0.14391010	      0.01008641	      0.31501845	      0.39462661	      0.01006564	      0.04961068	      0.23837391	      0.08563108	      0.01005779	      0.01002291	      0.01000927	      0.14229740	      0.01001034	      0.01000578	      0.04275469	      0.01000521	      0.01001421	      0.01006791	      0.01001728	      0.01004716	      0.05345663	      0.25106958	      0.21256698	      0.03445542	      0.04098229	      0.25626215	      0.44828393	      0.10666888	      0.04667573	      0.01002467	      0.01037723	      0.01000206	      0.01003012	      0.34358456	      0.01001551	      0.01001549	      0.01000510	      0.01000987	     -6.71855823	      4.02612715	     -2.62712079	     -8.25068207	      4.82450938	     -2.63391267	      0.03125039	      0.01049617	     -0.01298282	      0.00881931	      0.01590573	     -0.00451773	     -0.33923148	      0.22816064	     -0.00593268	      0.16287860	      0.00187494	     -0.00841826
     14.54359391	      0.36676546	      0.73168213	      0.03402502	      0.01002650	      0.24605711	      0.34825242	      0.01002012	      0.10395078	      0.15078382	      0.05240771	      0.01006936	      0.01002903	      0.01003292	      0.03953241	      0.01000569	      0.01000311	      0.01000888	      0.01000628	      0.01001308	      0.01002525	      0.01003968	      0.01150692	      0.08386995	      0.26591059	      0.51410630	      0.03169081	      0.04718074	      0.28353758	      0.64829714	      0.15864512	      0.10424581	      0.01001737	      0.01006313	      0.01000276	      0.02710527	      0.20128171	      0.01001891	      0.01000734	      0.01000237	      0.01000468	     -2.74015149	      0.66099034	     -2.81349128	     -2.00969110	      4.54639755	      1.20500813	      0.04646402	      0.00413250	     -0.00976985	      0.01848324	      0.01067020	     -0.00369403	     -0.37665586	      0.16282677	      0.05243097	      0.19916812	      0.00113107	     -0.01305746
     14.55839389	      0.36108646	      0.75053672	      0.01010478	      0.01001878	      0.20351844	      0.31779955	      0.01001491	      0.13691517	      0.13026814	      0.04426772	      0.01006614	      0.01002853	      0.01149967	      0.01074157	      0.01000443	      0.01000233	      0.01000502	      0.01000852	      0.01001456	      0.01002209	      0.02621681	      0.08283703	      0.12508462	      0.27757240	      0.70565136	      0.03791950	      0.06414216	      0.25993570	      0.78407166	      0.21389973	      0.13543753	      0.01001715	      0.01004855	      0.01000289	      0.14459477	      0.16355313	      0.01001771	      0.01000565	      0.01000182	      0.01000364	      2.09913645	     -7.35736546	     -0.31569612	      3.37403649	      0.42252378	      2.33531579	      0.05670084	     -0.00051489	     -0.00850194	      0.02392142	      0.00944056	     -0.00396227	     -0.39850151	      0.17112284	      0.05159143	      0.22825350	     -0.00202046	     -0.01028239
     14.57319388	      0.33822639	      0.71313873	      0.01006618	      0.01001780	      0.17326489	      0.28411223	      0.01001495	      0.13996330	      0.13740592	      0.04769965	      0.01005787	      0.01002527	      0.01018740	      0.01905648	      0.01000437	      0.01000221	      0.01000425	      0.01001286	      0.01001879	      0.01002612	      0.09753114	      0.12245962	      0.14013726	      0.26492666	      0.73727697	      0.04478710	      0.07870443	      0.22560301	      0.79195145	      0.25565181	      0.13708236	      0.01002239	      0.01005216	      0.01000257	      0.18467797	      0.17674548	      0.01001515	      0.01000581	      0.01000190	      0.01000379	      4.15579981	    -12.73071017	      3.95528099	      3.19713323	     -6.09737169	      0.04233910	      0.05764877	     -0.00256486	     -0.00799521	      0.02374442	      0.00998988	     -0.00451883	     -0.40976611	      0.23553692	      0.03184757	      0.25090178	     -0.00648935	     -0.00180665
     14.58799386	      0.29875830	      0.64075962	      0.01004844	      0.01001740	      0.13383741	      0.24152989	      0.01001601	      0.13146657	      0.13550463	      0.04757443	      0.01005588	      0.01002496	      0.01014335	      0.02773137	      0.01000462	      0.01000226	      0.01000386	      0.01002332	      0.01002648	      0.01003301	      0.13474350	      0.13718471	      0.13611648	      0.23489707	      0.70545337	      0.04847818	      0.08889179	      0.18648551	      0.74495340	      0.30174653	      0.13301575	      0.01003360	      0.01005314	      0.01000260	      0.19541555	      0.17663537	      0.01001439	      0.01000692	      0.01000230	      0.01000458	      1.99719791	     -5.69267837	      6.11753149	     -0.32457942	     -8.61825953	     -1.73193451	      0.05470505	     -0.00409175	     -0.00751719	      0.02155714	      0.00936381	     -0.00474175	     -0.40740929	      0.25689895	      0.02706083	      0.25787342	     -0.00808134	      0.00478220
     14.60279385	      0.25216087	      0.56808637	      0.01003071	      0.01001511	      0.07580537	      0.19396327	      0.01001524	      0.11821562	      0.13031222	      0.04550872	      0.01005878	      0.01002589	      0.01068020	      0.02946233	      0.01000451	      0.01000216	      0.01000317	      0.01114485	      0.01004784	      0.01003992	      0.18031000	      0.16032124	      0.13766046	      0.19992303	      0.71061149	      0.05145567	      0.09825697	      0.14405258	      0.73023806	      0.37856357	      0.13571719	      0.01004802	      0.01003717	      0.01000279	      0.22426120	      0.16612962	      0.01001431	      0.01000862	      0.01000293	      0.01000577	     -5.19464024	     22.37538374	      2.63658068	     -3.81574522	     -1.57761764	      0.33063315	      0.05421856	     -0.00704491	     -0.00702312	      0.01879066	      0.00827413	     -0.00486677	     -0.38098473	      0.14309766	      0.04732933	      0.23866746	     -0.00295498	      0.00179972
     14.61759383	      0.22688945	      0.53872601	      0.01002110	      0.01001244	      0.02473224	      0.16444880	      0.01001341	      0.08618507	      0.11506542	      0.03903404	      0.01006239	      0.01002929	      0.01012329	      0.01080086	      0.01000408	      0.01000195	      0.01000255	      0.10394053	      0.01005525	      0.01003152	      0.21629370	      0.17856395	      0.13669442	      0.16097045	      0.74364651	      0.05014719	      0.09927784	      0.09787830	      0.75039911	      0.49562327	      0.13590147	      0.01005354	      0.01002119	      0.01000322	      0.25615608	      0.13936863	      0.01001574	      0.01001313	      0.01000460	      0.01000883	      4.32398920	      7.36101641	     -1.86814054	     10.25553410	     -2.20201208	     -5.45353010	      0.05656380	     -0.00977004	     -0.00668197	      0.01340012	      0.00662862	     -0.00457878	     -0.29812633	      0.01419273	      0.14633920	      0.11890654	     -0.09904084	      0.14621932
     14.63239382	      0.18373610	      0.47756146	      0.01001524	      0.01001030	      0.01008060	      0.12214892	      0.01001120	      0.01051528	      0.11127722	      0.03860145	      0.01006841	      0.01003208	      0.01002122	      0.01001555	      0.01000389	      0.01000185	      0.01000215	      0.23983596	      0.01015334	      0.01003283	      0.24595818	      0.19877021	      0.14218857	      0.07655335	      0.74337536	      0.04855270	      0.09647297	      0.07571528	      0.73816860	      0.65497320	      0.10714183	      0.01004101	      0.01001134	      0.01000324	      0.28703827	      0.14066772	      0.01001738	      0.01248243	      0.01730241	      0.01329378	     -2.22168422	     -8.26292485	    -10.88922619	     -2.09195462	     11.03463316	     -0.66703818	      0.05701242	     -0.01256625	     -0.00625474	     -0.00029787	      0.00617433	     -0.00426055	     -0.37454113	     -0.39826803	      0.32965339	      0.02025289	     -0.24371335	      0.31218879
     14.64719380	      0.10976504	      0.36308948	      0.01001148	      0.01000875	      0.01002943	      0.05277569	      0.01001149	      0.01124593	      0.09920345	      0.03654172	      0.01010308	      0.01003851	      0.01002133	      0.01001603	      0.01000398	      0.01000188	      0.01000193	      0.40819019	      0.06355412	      0.01004507	      0.27340144	      0.21966938	      0.14885852	      0.02941764	      0.70714364	      0.04203413	      0.08161015	      0.05721825	      0.68040077	      0.58497089	      0.12017860	      0.01003772	      0.01000956	      0.01000347	      0.29623193	      0.13506066	      0.01002198	      0.02409336	      0.05853821	      0.03279697	     -1.69998179	     -9.10124623	     -6.72042656	     -2.29295023	      9.25252748	      0.86666695	      0.05425772	     -0.01576469	     -0.00490452	     -0.00135418	      0.00553480	     -0.00343486	     -0.30410397	     -0.63794266	      0.47349604	     -0.17401553	     -0.41290852	      0.52579803
     14.66199379	      0.01046241	      0.14270616	      0.01001028	      0.01000901	      0.01001732	      0.01008189	      0.01001222	      0.01073858	      0.08145898	      0.03142101	      0.01016253	      0.01005179	      0.01002436	      0.01001996	      0.01000502	      0.01000234	      0.01000211	      0.56326859	      0.15901969	      0.01050501	      0.27415686	      0.21427184	      0.13359838	      0.01013853	      0.56191803	      0.03328645	      0.06211763	      0.01248251	      0.49258684	      0.44028139	      0.10997591	      0.01004144	      0.01000970	      0.01000428	      0.26608023	      0.11761983	      0.01003210	      0.02307439	      0.06703889	      0.03196914	      3.83097093	     -3.03634017	      6.83049070	      0.86967651	     -5.37449945	      1.81704124	      0.04100935	     -0.01765365	     -0.00083153	     -0.00166910	      0.00462911	     -0.00247688	     -0.15769473	     -0.70914899	      0.55183876	     -0.40180010	     -0.59159185	      0.75753583
     14.67679377	      0.01002476	      0.01002648	      0.01001228	      0.01001461	      0.01001377	      0.01002023	      0.01001542	      0.01100464	      0.06515429	      0.02657766	      0.01036415	      0.01006002	      0.01002884	      0.01002669	      0.01000700	      0.01000363	      0.01000303	      0.72584159	      0.22660796	      0.01018674	      0.27654214	      0.18759086	      0.08806858	      0.01003690	      0.34470455	      0.02737437	      0.04786478	      0.01003361	      0.18380259	      0.22008788	      0.05223246	      0.01007397	      0.01001477	      0.01000556	      0.20380852	      0.09539223	      0.01004519	      0.02075344	      0.06015274	      0.02858633	      4.95642633	      2.81145529	     14.27342415	     -0.01637841	    -14.12440523	      2.24192562	      0.01732693	     -0.01753439	      0.00887962	     -0.00156565	      0.00369206	     -0.00179459	     -0.02470469	     -0.74694917	      0.61249602	     -0.57867943	     -0.74892100	      0.96162764
     14.69159376	      0.01001802	      0.01001412	      0.01001912	      0.01003905	      0.01001542	      0.01001653	      0.01002413	      0.01039027	      0.05785700	      0.02291364	      0.01023015	      0.01008239	      0.01003082	      0.01003098	      0.01001491	      0.01000822	      0.01000579	      0.70503560	      0.27242970	      0.03206492	      0.23894126	      0.15560786	      0.06863697	      0.01003272	      0.15711177	      0.02528021	      0.04492759	      0.01003219	      0.01015500	      0.07181811	      0.01150387	      0.01021576	      0.01003367	      0.01000681	      0.13873326	      0.08159460	      0.01005681	      0.02113802	      0.06744821	      0.03187365	     -0.66299105	      4.68871795	      6.34853725	     -2.71174920	     -6.43691636	      0.76873694	      0.00152497	     -0.01386327	      0.01162106	     -0.00178296	      0.00314852	     -0.00156687	      0.04077167	     -0.80310417	      0.67191148	     -0.64462759	     -0.86007188	      1.09014457
     14.70639374	      0.01002839	      0.01002421	      0.01002462	      0.01005490	      0.01002158	      0.01002317	      0.01001934	      0.01049042	      0.06091962	      0.02385691	      0.01034533	      0.01007438	      0.01002743	      0.01002825	      0.01002162	      0.01001126	      0.01000789	      0.53347097	      0.19064928	      0.01355069	      0.19234061	      0.11808741	      0.04639826	      0.01004069	      0.13972091	      0.02898234	      0.05197076	      0.01006167	      0.01105603	      0.07370562	      0.01201044	      0.01021473	      0.01003356	      0.01000683	      0.11354805	      0.08094627	      0.01004894	      0.02651582	      0.08630678	      0.04128519	     -4.79222063	      2.03414532	     -7.14005755	     -1.69484190	      6.99466576	     -1.29109841	      0.00210292	     -0.00825976	      0.00977765	     -0.00231271	      0.00312315	     -0.00170864	      0.04139282	     -0.80767833	      0.67714853	     -0.59500808	     -0.91751118	      1.11395540
     14.72119373	      0.02723248	      0.09462053	      0.01003301	      0.01004963	      0.01004449	      0.01005491	      0.01001316	      0.01040331	      0.06971050	      0.02591726	      0.01026355	      0.01007380	      0.01002525	      0.01002443	      0.01001394	      0.01000832	      0.01000839	      0.40482821	      0.07188606	      0.01003530	      0.17501699	      0.08596283	      0.01799881	      0.01006928	      0.20714915	      0.03488167	      0.06397700	      0.01002925	      0.08834451	      0.11815044	      0.01510160	      0.01008923	      0.01002838	      0.01000690	      0.11004918	      0.08769764	      0.01004859	      0.02764512	      0.09064845	      0.04362025	     -2.43622216	     -1.84961973	     -9.89791771	      1.81640596	      9.50118670	     -1.48097058	      0.00671898	     -0.00221926	      0.00989148	     -0.00251214	      0.00337200	     -0.00203992	      0.01141218	     -0.68479969	      0.58833863	     -0.46312947	     -0.92070436	      1.03476415
     14.73599371	      0.07264447	      0.18184460	      0.01003257	      0.01003563	      0.01005629	      0.01012039	      0.01001102	      0.01049937	      0.07629106	      0.02740103	      0.01020415	      0.01006948	      0.01002416	      0.01002126	      0.01001597	      0.01000945	      0.01000952	      0.30813567	      0.03109126	      0.01003410	      0.14861737	      0.06972365	      0.01419411	      0.01009233	      0.21658875	      0.03921741	      0.07256469	      0.01003458	      0.13357578	      0.16413457	      0.02858364	      0.01003714	      0.01002425	      0.01000680	      0.11123537	      0.09235752	      0.01004367	      0.02020045	      0.06112924	      0.02972758	      1.76659525	     -3.65516183	     -0.54248032	      2.97035224	     -0.37229639	      0.38399120	      0.00910315	     -0.00048506	      0.00732696	     -0.00178247	      0.00352382	     -0.00230292	     -0.01508727	     -0.45663617	      0.44306496	     -0.29676493	     -0.86872455	      0.88379712
     14.75079370	      0.10842145	      0.22569709	      0.01013785	      0.01023711	      0.01167157	      0.01504616	      0.01001693	      0.01118194	      0.07525297	      0.02700914	      0.01021129	      0.01006786	      0.01002647	      0.01002362	      0.01002302	      0.01001443	      0.01001868	      0.21013578	      0.01168376	      0.01003480	      0.10948620	      0.04273479	      0.01082506	      0.01190065	      0.16532417	      0.03836894	      0.07075886	      0.01003373	      0.11118039	      0.10727748	      0.02025170	      0.01002911	      0.01003916	      0.01000723	      0.07412231	      0.09026441	      0.01004238	      0.01236994	      0.01217579	      0.01240710	      1.99327689	     -2.37455278	      8.01532377	      0.65039248	     -9.51252250	      2.08542296	      0.00660433	      0.00196211	      0.00578783	     -0.00002269	      0.00339609	     -0.00228023	     -0.01817542	     -0.22338910	      0.31319740	     -0.13990931	     -0.75959353	      0.70155256
     14.76559368	      0.11850372	      0.22309182	      0.01323108	      0.01650119	      0.04530157	      0.03995639	      0.01010753	      0.03799983	      0.06677466	      0.02412708	      0.01016590	      0.01007920	      0.01005215	      0.01005936	      0.01003455	      0.01002302	      0.01004007	      0.09384590	      0.01010967	      0.01003891	      0.05883410	      0.01492520	      0.01014879	      0.05429208	      0.10429826	      0.03176395	      0.05778413	      0.01003452	      0.08144313	      0.01252448	      0.02140900	      0.04136844	      0.03184688	      0.01000837	      0.02819729	      0.08347645	      0.01004931	      0.01008763	      0.01002958	      0.01005866	     -0.50220880	      0.01629785	      6.53525164	     -1.33104408	     -7.74705664	      1.42451479	      0.00389188	      0.00338524	      0.00372079	      0.00455891	      0.00305722	     -0.00192476	      0.01154126	     -0.06396205	      0.23665370	     -0.02481279	     -0.60391330	      0.52241082
     14.78039367	      0.12936785	      0.18754312	      0.06915698	      0.01899306	      0.10996329	      0.12382584	      0.07544056	      0.01994508	      0.05440728	      0.02270914	      0.01071727	      0.01012860	      0.01002372	      0.01002454	      0.01005582	      0.01004741	      0.05888985	      0.01002412	      0.01003569	      0.01003646	      0.01007839	      0.01007247	      0.01007706	      0.06902570	      0.01198207	      0.02381608	      0.03847059	      0.01005562	      0.08939843	      0.01009909	      0.01548628	      0.04324737	      0.03392296	      0.01000789	      0.01008411	      0.07541923	      0.01004015	      0.01088681	      0.01026162	      0.01057067	     -1.32674559	      1.57000728	     -1.61741169	     -0.82473058	      1.99607651	     -1.46448215	      0.00186289	      0.00446107	     -0.00375999	      0.00176643	      0.00264553	     -0.00135883	      0.06319547	      0.02694397	      0.20738540	      0.03894821	     -0.42885807	      0.36468298
     14.79519365	      0.14334535	      0.05470127	      0.11272268	      0.01002601	      0.21595553	      0.36916658	      0.18427402	      0.01033939	      0.04325450	      0.01898809	      0.01028548	      0.01009636	      0.01003775	      0.01002164	      0.01001388	      0.01001818	      0.25850430	      0.01000225	      0.01000500	      0.01000994	      0.01000603	      0.01000811	      0.01001339	      0.08775027	      0.01001720	      0.01560383	      0.02050864	      0.07406782	      0.23099088	      0.03105869	      0.07902746	      0.01001519	      0.01005246	      0.01001201	      0.01001076	      0.06870575	      0.01008188	      0.01216762	      0.01531505	      0.01286351	     -0.37775394	      2.41389330	     -7.22189699	     -1.06140598	      9.36992110	     -4.35892305	      0.00276940	      0.00428049	     -0.02828132	     -0.00042939	      0.00229831	     -0.00082591	      0.10705395	      0.11233357	      0.21167426	      0.06579232	     -0.26752488	      0.23465797
     14.80999364	      0.10471270	      0.01003542	      0.12573251	      0.01001583	      0.25349203	      0.49770719	      0.29154566	      0.01017355	      0.02992192	      0.01696701	      0.01075404	      0.01023337	      0.01003594	      0.01001869	      0.01000993	      0.01001510	      0.37589845	      0.01000150	      0.01000338	      0.01000702	      0.01000399	      0.01000536	      0.01000899	      0.08172942	      0.01000981	      0.01108356	      0.01050543	      0.15751986	      0.28854701	      0.06296201	      0.12790376	      0.01000912	      0.01003144	      0.01001585	      0.01000698	      0.06464772	      0.01017788	      0.01862352	      0.04888817	      0.02678642	     -0.74521388	      3.89390326	     -4.28210831	     -5.74056382	      6.00884993	     -4.58254758	      0.00179562	      0.00226601	     -0.04433500	     -0.00148169	      0.00195126	     -0.00008265	      0.12489809	      0.25314344	      0.24493616	      0.07795463	     -0.14203033	      0.13387531
     14.82479363	      0.04388150	      0.01001841	      0.12096055	      0.01001659	      0.22725970	      0.47337170	      0.37611360	      0.01016856	      0.02002254	      0.01466745	      0.01095291	      0.01060838	      0.01004129	      0.01002058	      0.01001115	      0.01002153	      0.40455858	      0.01000150	      0.01000344	      0.01000740	      0.01000394	      0.01000534	      0.01000920	      0.06656393	      0.01000841	      0.01017461	      0.01014038	      0.17411693	      0.23295316	      0.02803975	      0.12690248	      0.01001095	      0.01004032	      0.01002047	      0.01000661	      0.06221803	      0.01220439	      0.01928544	      0.05463480	      0.02913399	      5.76634387	      2.69243710	     -2.14176426	      7.51667170	      6.06512275	      2.82756913	     -0.00078466	      0.00024399	     -0.04569523	     -0.00142627	      0.00166870	      0.00048950	      0.27777978	      0.30122522	      0.02383395	     -0.02942731	      0.00507044	      0.01029977
     14.83959361	      0.02371728	      0.01002359	      0.12937385	      0.01004462	      0.18025188	      0.32399586	      0.42938549	      0.01087387	      0.02408696	      0.01663581	      0.01214924	      0.01128134	      0.01003149	      0.01002713	      0.01002212	      0.01024287	      0.35618459	      0.01000223	      0.01000528	      0.01001204	      0.01000574	      0.01000788	      0.01001412	      0.06693397	      0.01001021	      0.01101250	      0.01001120	      0.12173025	      0.09175804	      0.01004014	      0.05936996	      0.02284804	      0.02354709	      0.01001424	      0.01000868	      0.05480342	      0.01177118	      0.01469479	      0.02337201	      0.01662922	     -0.15247463	     -3.40262273	      7.01016099	      4.29153500	     -9.53119695	      6.96778391	     -0.00430671	      0.00065464	     -0.03118351	     -0.00052675	      0.00153831	      0.00014147	      0.30258658	      0.43794298	      0.04350337	     -0.02787717	      0.00568694	      0.01644364
     14.85439360	      0.01158107	      0.01003003	      0.10355577	      0.01008490	      0.12684240	      0.21170427	      0.34200647	      0.01031577	      0.03199140	      0.01363757	      0.01027833	      0.01016743	      0.01004563	      0.01002525	      0.01004558	      0.03967172	      0.27064721	      0.01000336	      0.01000827	      0.01002025	      0.01000843	      0.01001182	      0.01002219	      0.05031280	      0.01001347	      0.01124288	      0.01224139	      0.09366760	      0.02744518	      0.01003506	      0.02585825	      0.13884125	      0.04962371	      0.01002020	      0.01001191	      0.04900899	      0.01012476	      0.01104353	      0.01929049	      0.01216370	     -2.30556343	     -2.55375124	      8.11088327	      0.58953379	    -12.91561730	      5.81776589	     -0.00453829	      0.00065053	     -0.02068509	     -0.00039164	      0.00160781	     -0.00051992	      0.30905041	      0.40798926	      0.04168926	     -0.03260524	      0.00840917	      0.01180023
     14.86919358	      0.01052755	      0.01005363	      0.07634591	      0.01970630	      0.07396522	      0.09509461	      0.25499222	      0.01095306	      0.03620076	      0.01373625	      0.01023546	      0.01013838	      0.01005525	      0.01003295	      0.01088105	      0.08461579	      0.17618034	      0.01000745	      0.01001960	      0.01005972	      0.01001787	      0.01002544	      0.01004941	      0.03760164	      0.01002295	      0.01282957	      0.01914016	      0.06100602	      0.01011183	      0.01002633	      0.01027994	      0.26024308	      0.07893231	      0.01001952	      0.01002158	      0.04663116	      0.01009517	      0.01021748	      0.01010600	      0.01016793	     -1.66845092	     -2.21769605	      1.52425549	     -2.72414436	     -3.63100863	     -1.39676750	     -0.00440050	      0.00075967	     -0.00924675	      0.00058499	      0.00168445	     -0.00080536	      0.30408390	      0.22141661	      0.03699458	     -0.04376150	      0.01235994	     -0.00224822
     14.88399357	      0.01201748	      0.01019052	      0.04658466	      0.03648070	      0.03633258	      0.02907311	      0.21880989	      0.03722719	      0.04076618	      0.01665059	      0.01033405	      0.01012209	      0.01065370	      0.01099458	      0.03399231	      0.07343436	      0.09519529	      0.01003003	      0.01009204	      0.01109911	      0.01006777	      0.01009425	      0.01019677	      0.04044329	      0.01005546	      0.01642671	      0.02405442	      0.02833158	      0.01009574	      0.01001683	      0.01056368	      0.37173952	      0.11097605	      0.01001757	      0.01004801	      0.04928778	      0.01006922	      0.01004457	      0.01001554	      0.01002924	      0.84372580	     -5.47269805	     -6.49284115	     -2.75681397	      8.44077221	     -7.78498571	     -0.00310598	      0.00066252	     -0.00253815	      0.00441113	      0.00196269	     -0.00106116	      0.31014696	      0.02636762	      0.04978797	     -0.05968434	      0.01579260	     -0.01655456
     14.89879355	      0.01776658	      0.02074686	      0.03541007	      0.04366576	      0.02668883	      0.01342348	      0.22232298	      0.06228818	      0.06581033	      0.02412982	      0.01019494	      0.01007608	      0.01055797	      0.02378522	      0.02684120	      0.04335616	      0.05214552	      0.02196304	      0.01530531	      0.01462966	      0.01348464	      0.01199801	      0.01141344	      0.05216087	      0.01034491	      0.02189045	      0.03636013	      0.01019444	      0.01012584	      0.01001049	      0.01281263	      0.44315751	      0.14012323	      0.01000959	      0.01011262	      0.08650120	      0.01004244	      0.01002111	      0.01000701	      0.01001355	      2.62146735	     -4.54811505	     -9.79015797	      0.35063954	     13.18709420	     -6.54687309	     -0.00200889	      0.00105854	      0.00061781	      0.00837071	      0.00358483	     -0.00182135	      0.32460755	     -0.04776181	      0.05613897	     -0.07904024	      0.01853368	     -0.02397603
     14.91359354	      0.01029178	      0.01025395	      0.01091535	      0.01581786	      0.01040137	      0.01022099	      0.23418870	      0.08920883	      0.07330031	      0.02638999	      0.01009863	      0.01004769	      0.01334220	      0.01150767	      0.01776925	      0.02231389	      0.01195086	      0.06344627	      0.03050948	      0.01852258	      0.02280939	      0.01714184	      0.01233577	      0.05428740	      0.01036113	      0.02860703	      0.05345302	      0.01034425	      0.01015544	      0.01000754	      0.03074193	      0.47133912	      0.15716336	      0.01000517	      0.01011762	      0.09616403	      0.01002736	      0.01001213	      0.01000397	      0.01000779	     -0.80387186	     13.82287063	     -6.24628638	      1.65312517	      7.06823744	     -0.31892859	     -0.00082830	     -0.00005980	      0.00090348	      0.01317369	      0.00447774	     -0.00258473	      0.33155600	     -0.01490962	      0.02827466	     -0.10136660	      0.02170829	     -0.02492545
     14.92839352	      0.01005382	      0.01003218	      0.01102598	      0.02267206	      0.01011011	      0.01007454	      0.16109993	      0.03233629	      0.01148157	      0.01178783	      0.01185991	      0.01186724	      0.05888540	      0.01476520	      0.11004385	      0.15509024	      0.06343627	      0.10683851	      0.09983062	      0.11467286	      0.02245215	      0.03637910	      0.04646437	      0.01136470	      0.01005869	      0.01025702	      0.01015409	      0.10766746	      0.01004358	      0.01001218	      0.01059374	      0.26297519	      0.08806633	      0.01003438	      0.01022704	      0.03049639	      0.02022322	      0.01002833	      0.01000954	      0.01001861	      0.47494809	     13.27726373	      3.25001047	      4.52751714	     -2.61589321	      2.79498953	     -0.00402953	     -0.00251214	      0.00003429	      0.00500148	      0.00094102	      0.00058140	      0.33250860	      0.02696715	     -0.01026783	     -0.12387526	      0.02596970	     -0.02429585
     14.94319351	      0.01002749	      0.01001703	      0.01078240	      0.06603135	      0.01005207	      0.01003182	      0.14312510	      0.01063459	      0.01014577	      0.01210922	      0.04713086	      0.08396452	      0.02436686	      0.01010738	      0.22432250	      0.30255576	      0.09934992	      0.39491240	      0.27248224	      0.25125746	      0.11096217	      0.11904238	      0.11660807	      0.01008949	      0.01003985	      0.01006688	      0.01003077	      0.17459514	      0.01002093	      0.01001509	      0.01008512	      0.22020900	      0.06893765	      0.08763065	      0.04925700	      0.05502838	      0.20272778	      0.02081153	      0.06097001	      0.03077353	     -3.52172183	     -3.47999747	     11.05582369	     -6.59872551	    -11.58121096	      3.71837652	     -0.00862380	     -0.00545173	      0.00321845	     -0.00064594	      0.00097597	      0.00451931	      0.33254317	      0.02342707	     -0.01686217	     -0.13838269	      0.03038901	     -0.02519507
     14.95799349	      0.01001973	      0.01001253	      0.01013949	      0.06994990	      0.01003412	      0.01002200	      0.12202464	      0.01030394	      0.01009257	      0.01511789	      0.08883162	      0.15924434	      0.04135994	      0.01005346	      0.27005126	      0.34624785	      0.07282621	      0.57789877	      0.37745416	      0.32642509	      0.16824500	      0.17266100	      0.16005034	      0.01005655	      0.01003758	      0.01003326	      0.01001430	      0.20878781	      0.01001663	      0.01001569	      0.01007034	      0.20257668	      0.05709872	      0.18785025	      0.09680941	      0.11474102	      0.38398099	      0.06019036	      0.18360425	      0.09214196	     -3.50392452	     -8.01353089	      9.58107201	     -6.52501614	    -11.87788872	      2.31728908	     -0.01046437	     -0.00817381	      0.00535404	     -0.00204786	      0.00286612	      0.00956282	      0.32374939	     -0.00533716	      0.01132459	     -0.13474814	      0.03298436	     -0.02658121
     14.97279348	      0.01001833	      0.01001157	      0.01042995	      0.07557815	      0.01003331	      0.01002066	      0.09077836	      0.01019303	      0.01006118	      0.02233153	      0.13920364	      0.25254086	      0.08880208	      0.01005687	      0.26176097	      0.32876388	      0.06511576	      0.59856808	      0.38005484	      0.31903601	      0.17592445	      0.17435999	      0.15524688	      0.01004784	      0.01003637	      0.01001792	      0.01000759	      0.18546591	      0.01001595	      0.01001997	      0.01005978	      0.15031591	      0.03597653	      0.36597839	      0.09925195	      0.21729695	      0.59838253	      0.11411444	      0.34570059	      0.17385386	      0.76421362	     -6.84247803	      0.84372694	      0.79441545	     -2.19292387	      1.14404283	     -0.01100141	     -0.00860804	      0.00592622	     -0.00422520	      0.00561948	      0.01724682	      0.29579490	     -0.02106518	      0.04182354	     -0.10892869	      0.03224370	     -0.02587318
     14.98759346	      0.01001882	      0.01001162	      0.01044538	      0.08158762	      0.01003766	      0.01002182	      0.05445941	      0.01007275	      0.01003983	      0.03090481	      0.20059948	      0.36794700	      0.19756139	      0.04368731	      0.23003456	      0.28923091	      0.06976952	      0.55691839	      0.34047303	      0.27643424	      0.16552752	      0.15629091	      0.13231118	      0.01004301	      0.01003563	      0.01001027	      0.01000446	      0.14010342	      0.01001642	      0.01003297	      0.01005158	      0.07910199	      0.01359826	      0.63064357	      0.08484768	      0.39328196	      0.85396599	      0.17050739	      0.51424411	      0.25967312	      4.42437756	     -3.35138648	     -6.94032530	      6.08273435	      7.62576680	      0.28193460	     -0.01093893	     -0.00787307	      0.00579588	     -0.00683533	      0.00840511	      0.02832003	      0.24569384	     -0.01431712	      0.04718950	     -0.06564709	      0.02804076	     -0.02189509
     15.00239345	      0.01001851	      0.01001113	      0.01211124	      0.08928922	      0.01004092	      0.01002165	      0.01913456	      0.01005200	      0.01003248	      0.04258345	      0.26033140	      0.47823432	      0.33253769	      0.22939590	      0.20076101	      0.25192314	      0.06606092	      0.57659445	      0.32886104	      0.24851604	      0.17681068	      0.15495187	      0.12116486	      0.01003743	      0.01003555	      0.01000682	      0.01000309	      0.09912647	      0.01001623	      0.01009703	      0.01004334	      0.01580065	      0.01048783	      0.87567380	      0.08573955	      0.62981462	      1.09858009	      0.22254921	      0.67114462	      0.34016311	      4.12794522	      1.00395345	     -8.17918564	      4.89007874	      9.57262126	     -0.62904923	     -0.01130964	     -0.00758996	      0.00644885	     -0.00951317	      0.00991646	      0.04033910	      0.17655719	     -0.00316845	      0.02550082	     -0.01518053	      0.02142113	     -0.01547349
     15.01719343	      0.01001614	      0.01000963	      0.01114664	      0.07924684	      0.01003342	      0.01001901	      0.01049784	      0.01004370	      0.01003228	      0.04542149	      0.29867877	      0.54848784	      0.46407437	      0.45507189	      0.17456979	      0.20997803	      0.02961717	      0.66458891	      0.35127555	      0.24384271	      0.21347400	      0.17552917	      0.12663301	      0.01003059	      0.01003951	      0.01000544	      0.01000256	      0.07604964	      0.01001592	      0.03266788	      0.01004196	      0.01013349	      0.01013637	      1.06581544	      0.11725465	      0.80913203	      1.25562529	      0.24751225	      0.74901921	      0.38047802	      0.45822097	      4.46824693	     -3.61494317	     -0.41245845	      4.21951804	     -1.27927954	     -0.01144361	     -0.00867641	      0.00757262	     -0.01105662	      0.00869662	      0.04877280	      0.09679479	     -0.00810517	     -0.00623217	      0.03039357	      0.01403623	     -0.00858585
     15.03199342	      0.01001359	      0.01000812	      0.01007310	      0.05158421	      0.01002553	      0.01001615	      0.01005734	      0.01004589	      0.01003116	      0.03651508	      0.30758894	      0.56463139	      0.54807329	      0.63411612	      0.14054862	      0.16262461	      0.01009138	      0.76280433	      0.37685762	      0.24167311	      0.25789539	      0.20178044	      0.13544251	      0.01002637	      0.01005214	      0.01000507	      0.01000245	      0.05946879	      0.01001618	      0.08209265	      0.01004717	      0.01004757	      0.01005886	      1.15414375	      0.16565622	      0.85345774	      1.29162756	      0.22978375	      0.69906586	      0.35552724	     -3.26384365	      4.82415112	      2.25906089	     -4.57264240	     -2.62248717	     -1.33801291	     -0.01079407	     -0.01059225	      0.00855695	     -0.01043574	      0.00611262	      0.05124933	      0.02001688	     -0.03881717	     -0.02131586	      0.06106244	      0.00764929	     -0.00361588
     15.04679340	      0.01001176	      0.01000717	      0.01003759	      0.01148502	      0.01001927	      0.01001424	      0.01003219	      0.01006203	      0.01002636	      0.02236040	      0.28372691	      0.52147117	      0.55720868	      0.70652532	      0.10382004	      0.09066352	      0.01002784	      0.80223019	      0.37935800	      0.23317985	      0.28698843	      0.21979382	      0.14099103	      0.01002416	      0.01052597	      0.01000537	      0.01000264	      0.05718860	      0.01001920	      0.17309437	      0.01008250	      0.01002961	      0.01004265	      1.12899928	      0.22466553	      0.75368690	      1.18948322	      0.17512993	      0.53584892	      0.27282961	     -3.86453034	      1.48973389	      5.11278767	     -4.14157097	     -5.62566850	     -0.97234365	     -0.00784306	     -0.01294660	      0.00813667	     -0.00784425	      0.00350583	      0.04723470	     -0.03975929	     -0.09342517	      0.00514710	      0.07254478	      0.00365072	     -0.00251747
     15.06159339	      0.01001077	      0.01000681	      0.01002368	      0.01004593	      0.01001534	      0.01001357	      0.01002036	      0.01009930	      0.01002247	      0.01100422	      0.22937124	      0.42372657	      0.48725845	      0.65435337	      0.07631502	      0.02075239	      0.01001530	      0.75526802	      0.35966851	      0.23150330	      0.28569169	      0.22371778	      0.14342826	      0.01002375	      0.04993896	      0.01000650	      0.01000323	      0.08069885	      0.01002920	      0.30470960	      0.01084200	      0.01001795	      0.01002991	      0.99052483	      0.27324622	      0.54708717	      0.95781472	      0.10337591	      0.31791249	      0.16206103	     -1.20995781	     -2.66368871	      3.48514404	      0.01123313	     -3.48882930	     -0.65579987	     -0.00281373	     -0.01511401	      0.00560014	     -0.00447306	      0.00124082	      0.03773090	     -0.07498525	     -0.16230019	      0.08526549	      0.06734617	      0.00259203	     -0.00606015
     15.07639337	      0.01001111	      0.01000739	      0.01001789	      0.01002514	      0.01001359	      0.01001453	      0.01001438	      0.01042472	      0.01002230	      0.01027720	      0.15577628	      0.29129489	      0.35925924	      0.50343842	      0.04786215	      0.01007908	      0.01001043	      0.64512942	      0.32137929	      0.22750612	      0.26034286	      0.21323691	      0.13783584	      0.01002562	      0.12585778	      0.01000929	      0.01000466	      0.10829305	      0.01009088	      0.44298327	      0.04273903	      0.01001188	      0.01002225	      0.75674583	      0.29612116	      0.30093412	      0.64595428	      0.03685119	      0.11302098	      0.05769429	      1.82282231	     -4.44630379	     -0.34119734	      4.11203994	      0.85331679	     -0.44295471	      0.00332315	     -0.01606752	      0.00204933	     -0.00151972	     -0.00059991	      0.02517911	     -0.09020010	     -0.22628460	      0.20247822	      0.05288333	      0.00384794	     -0.01286636
     15.09119336	      0.01001326	      0.01001012	      0.01001377	      0.01001488	      0.01001285	      0.01001933	      0.01001169	      0.05413950	      0.01003127	      0.01030177	      0.07780399	      0.14752952	      0.25842660	      0.36995059	      0.03292890	      0.01002624	      0.01000726	      0.47825988	      0.29309798	      0.26623455	      0.20989087	      0.20631602	      0.14831013	      0.01004147	      0.22079216	      0.01001792	      0.01000911	      0.18498835	      0.12554984	      0.44945963	      0.11621424	      0.01000990	      0.01001996	      0.42411368	      0.30250648	      0.10688329	      0.31859313	      0.01002286	      0.01000762	      0.01001473	      2.60368589	     -2.66772268	     -2.73775185	      4.57205806	      3.45417733	     -0.14505046	      0.01348340	     -0.01651543	     -0.00482471	      0.00749257	     -0.00107096	      0.01226600	     -0.09954954	     -0.25690135	      0.30526972	      0.03887358	      0.00576870	     -0.01915963
     15.10599334	      0.01002075	      0.01002361	      0.01001209	      0.01001065	      0.01001424	      0.01004625	      0.01001189	      0.13952743	      0.01010376	      0.01094477	      0.01797847	      0.02995542	      0.21274584	      0.34136635	      0.02800241	      0.01001580	      0.01000585	      0.26855916	      0.27154902	      0.33422279	      0.13428876	      0.19702082	      0.16745254	      0.01823528	      0.28748125	      0.01008318	      0.01004474	      0.27799505	      0.30259054	      0.27741769	      0.19083076	      0.01001092	      0.01002326	      0.09777261	      0.27179091	      0.01417118	      0.06163595	      0.01000820	      0.01000266	      0.01000522	      0.40347932	      0.87809055	     -2.05531715	     -0.69699846	      2.77184020	     -0.24366198	      0.02455153	     -0.01539458	     -0.01358766	      0.02042515	     -0.00046647	      0.00233711	     -0.11267368	     -0.22915833	      0.33275884	      0.03322837	      0.00671125	     -0.02068651
     15.12079333	      0.01004348	      0.01016170	      0.01001475	      0.01001128	      0.01002102	      0.02522219	      0.01001818	      0.15549084	      0.06783555	      0.02416249	      0.01040421	      0.01011556	      0.12238443	      0.31026891	      0.04409978	      0.01001674	      0.01000710	      0.07557240	      0.22368162	      0.34428674	      0.04913669	      0.15589492	      0.15376236	      0.08602451	      0.21990353	      0.04229174	      0.07711430	      0.29052771	      0.32312637	      0.06782668	      0.18603008	      0.01001805	      0.01003962	      0.01002139	      0.18335499	      0.06991059	      0.01006649	      0.01000665	      0.01000215	      0.01000423	     -3.54079803	      3.95886597	      0.56868012	    -10.07278723	     -0.03784012	     -1.67775671	      0.02485200	     -0.01121631	     -0.01722465	      0.02384399	      0.00227212	     -0.00206126	     -0.12281764	     -0.14155637	      0.25971919	      0.03769889	      0.00615797	     -0.01584194
     15.13559331	      0.01172334	      0.11691356	      0.01001751	      0.01001775	      0.01002493	      0.01006277	      0.01001329	      0.11007936	      0.14388714	      0.04243104	      0.01029021	      0.01006743	      0.01709789	      0.04495918	      0.01000845	      0.01000481	      0.01000443	      0.20756427	      0.01012069	      0.01002761	      0.16611841	      0.05466722	      0.01140536	      0.01511263	      0.45602477	      0.08534126	      0.15935398	      0.01005985	      0.25960698	      0.01609192	      0.11577375	      0.01002232	      0.01004469	      0.01001141	      0.18135004	      0.12622522	      0.01003516	      0.01000859	      0.01000279	      0.01000551	      1.21375673	      6.89618494	      2.22529339	      1.25677659	     -6.08447411	      6.98163359	      0.01916638	     -0.00933241	      0.00862795	      0.01740878	      0.00425538	     -0.00435278	     -0.11626989	     -0.02857921	      0.12730536	      0.04715098	      0.00479276	     -0.00743670
     15.15039330	      0.06846523	      0.18190349	      0.01003822	      0.01002141	      0.01037583	      0.10555084	      0.01253891	      0.13229756	      0.09747836	      0.03742416	      0.01034613	      0.01009296	      0.07120277	      0.14419711	      0.01003100	      0.01001160	      0.01001303	      0.01003109	      0.02132049	      0.10124413	      0.01011959	      0.04384997	      0.05832072	      0.12636960	      0.14731899	      0.02403091	      0.03424438	      0.12328758	      0.23640178	      0.01001540	      0.11892539	      0.08952495	      0.05135518	      0.01001282	      0.03832951	      0.15011045	      0.01007189	      0.01000684	      0.01000222	      0.01000442	     -0.85336999	     -2.16864610	      1.97839346	      0.41816291	     -1.20275918	     -0.63201287	      0.01689387	     -0.00280531	     -0.00920340	      0.02115848	      0.00414757	     -0.00143883	     -0.08889446	      0.06099079	      0.00521413	      0.05469596	      0.00356779	     -0.00015406
     15.16519328	      0.08912830	      0.18420986	      0.01008483	      0.01003298	      0.04211428	      0.13271233	      0.09352011	      0.11488460	      0.08469541	      0.03347473	      0.01060310	      0.01004731	      0.05971083	      0.10939854	      0.01004621	      0.01001660	      0.01003122	      0.01002114	      0.01181425	      0.09480658	      0.01006168	      0.02079395	      0.04817263	      0.13397178	      0.06532026	      0.01659259	      0.01693730	      0.09773439	      0.18148786	      0.01001283	      0.09205881	      0.16215883	      0.09836780	      0.01001201	      0.01069034	      0.13875174	      0.01000976	      0.01000789	      0.01000259	      0.01000515	     -1.11796910	     -3.99030144	     -0.42057293	     -0.11935087	      1.30909157	     -3.06800641	      0.01268008	     -0.00002564	     -0.00921165	      0.01827893	      0.00412100	     -0.00100836	     -0.05527178	      0.08562011	     -0.04263492	      0.05367503	      0.00316014	      0.00220313
     15.17999327	      0.07311842	      0.14082269	      0.01066718	      0.01004852	      0.04738755	      0.11263745	      0.15956630	      0.11908424	      0.09219244	      0.03656087	      0.01045053	      0.01006147	      0.05251652	      0.10670226	      0.01005182	      0.01002239	      0.01023031	      0.01002361	      0.01035023	      0.07100909	      0.01006449	      0.01426236	      0.03771426	      0.13221625	      0.03472290	      0.01356121	      0.01151069	      0.05057677	      0.13195803	      0.01001012	      0.08277158	      0.22569049	      0.14560746	      0.01000853	      0.01011385	      0.15305130	      0.01003209	      0.01000799	      0.01000265	      0.01000528	      3.03338429	     -0.93645492	     -4.08961113	      0.36195848	      4.53466777	     -3.92675093	      0.00922887	      0.00057356	     -0.00731177	      0.01881308	      0.00523883	     -0.00103208	     -0.01951796	      0.05850593	     -0.03557209	      0.04334487	      0.00349475	      0.00083958
