inDegrees=no
DataType=double
version=3
OpenSimVersion=4.5.2-2025-05-03-6a4c6ec41
endheader
time	/jointset/ground_pelvis/pelvis_tilt/value	/jointset/ground_pelvis/pelvis_list/value	/jointset/ground_pelvis/pelvis_rotation/value	/jointset/ground_pelvis/pelvis_tx/value	/jointset/ground_pelvis/pelvis_ty/value	/jointset/ground_pelvis/pelvis_tz/value	/jointset/hip_r/hip_flexion_r/value	/jointset/hip_r/hip_adduction_r/value	/jointset/hip_r/hip_rotation_r/value	/jointset/hip_l/hip_flexion_l/value	/jointset/hip_l/hip_adduction_l/value	/jointset/hip_l/hip_rotation_l/value	/jointset/walker_knee_r/knee_angle_r/value	/jointset/patellofemoral_r/knee_angle_r_beta/value	/jointset/walker_knee_l/knee_angle_l/value	/jointset/patellofemoral_l/knee_angle_l_beta/value	/jointset/ankle_r/ankle_angle_r/value	/jointset/ankle_l/ankle_angle_l/value	/jointset/subtalar_r/subtalar_angle_r/value	/jointset/subtalar_l/subtalar_angle_l/value	/jointset/ground_pelvis/pelvis_tilt/speed	/jointset/ground_pelvis/pelvis_list/speed	/jointset/ground_pelvis/pelvis_rotation/speed	/jointset/ground_pelvis/pelvis_tx/speed	/jointset/ground_pelvis/pelvis_ty/speed	/jointset/ground_pelvis/pelvis_tz/speed	/jointset/hip_r/hip_flexion_r/speed	/jointset/hip_r/hip_adduction_r/speed	/jointset/hip_r/hip_rotation_r/speed	/jointset/hip_l/hip_flexion_l/speed	/jointset/hip_l/hip_adduction_l/speed	/jointset/hip_l/hip_rotation_l/speed	/jointset/walker_knee_r/knee_angle_r/speed	/jointset/patellofemoral_r/knee_angle_r_beta/speed	/jointset/walker_knee_l/knee_angle_l/speed	/jointset/patellofemoral_l/knee_angle_l_beta/speed	/jointset/ankle_r/ankle_angle_r/speed	/jointset/ankle_l/ankle_angle_l/speed	/jointset/subtalar_r/subtalar_angle_r/speed	/jointset/subtalar_l/subtalar_angle_l/speed	/forceset/addbrev_r/activation	/forceset/addlong_r/activation	/forceset/addmagDist_r/activation	/forceset/addmagIsch_r/activation	/forceset/addmagMid_r/activation	/forceset/addmagProx_r/activation	/forceset/bflh_r/activation	/forceset/bfsh_r/activation	/forceset/edl_r/activation	/forceset/ehl_r/activation	/forceset/fdl_r/activation	/forceset/fhl_r/activation	/forceset/gaslat_r/activation	/forceset/gasmed_r/activation	/forceset/glmax1_r/activation	/forceset/glmax2_r/activation	/forceset/glmax3_r/activation	/forceset/glmed1_r/activation	/forceset/glmed2_r/activation	/forceset/glmed3_r/activation	/forceset/glmin1_r/activation	/forceset/glmin2_r/activation	/forceset/glmin3_r/activation	/forceset/grac_r/activation	/forceset/iliacus_r/activation	/forceset/perbrev_r/activation	/forceset/perlong_r/activation	/forceset/piri_r/activation	/forceset/psoas_r/activation	/forceset/recfem_r/activation	/forceset/sart_r/activation	/forceset/semimem_r/activation	/forceset/semiten_r/activation	/forceset/soleus_r/activation	/forceset/tfl_r/activation	/forceset/tibant_r/activation	/forceset/tibpost_r/activation	/forceset/vasint_r/activation	/forceset/vaslat_r/activation	/forceset/vasmed_r/activation
14.43999400999724	-0.1053287243248641	0.05448709023949669	0.03509563799568498	2.377567014582801	0.9279859600983449	0.9952120320193005	0.1696708442272626	0.08827433415859778	0.03787770044539029	0.6019777158852124	-0.04745233114188529	0.135423548532778	0.5292167118990155	0.5292167118990155	1.603827124816431	1.603827124816431	0.02492069877025323	0.09925304759179024	-0.1679164819343014	-0.3593090771821887	-0.3363945290269302	1.69169560213436	-3.434814471379333	0.143971121923275	0.8323710444316286	0.1611877576330191	-7.408486711658873	-6.940097932307355	-7.208859312503376	4.183741244952897	-3.382130127782713	-3.553465583946636	-3.284257108642921	-3.284257108642921	-4.991181809762123	-4.991181809762123	-8.969667439921913	-1.305721133873528	-3.894198118245991	-0.7694717952645407	0.01187566188837335	0.7733180692961534	0.01451686560822424	0.01199384015299165	0.01863144784878946	0.5612228945223556	0.01165578787905267	0.02285918760371732	0.3401382974684161	0.2341997132735897	0.2164859674994087	0.2334965159829274	0.01081229803254937	0.4418551108464205	0.2500682396889372	0.2269230360689155	0.3348439022805121	0.01112089724578235	0.01788628086978779	0.1883591357559084	0.01204953270511063	0.01634274920057882	0.03742964553481519	0.1225560367776871	0.01479474869153083	0.3819948142057044	0.9225209058726451	0.2675010535745014	0.06286571801896548	0.4568558248216579	0.110175417707578	0.01056997353024553	0.0117239780946799	0.1196908661367776	0.01486984145278845	0.9981016114160222	0.7583150276018029	0.0924377176173205	0.1002731722725405	0.09817162609610475
14.45479399519723	-0.1133239639454272	0.07988942164186789	-0.004062913603411765	2.380244230543104	0.9392397479317038	0.996725133047331	0.07252743561469803	-0.01004466788682369	-0.0759035093915818	0.6520053102252029	-0.08470756245982514	0.08270169525081068	0.4734537893041122	0.4734537893041122	1.510802222452732	1.510802222452732	-0.07299850106592523	0.07500281422244398	-0.1578178040810169	-0.37751827335862	-0.5450108681728503	1.386861486896453	-2.171176658489907	0.1743950996698583	0.7281144325355271	0.07447077010554057	-6.560635935418252	-5.75803698522117	-6.479971771003516	3.353755245911433	-2.343657529553314	-3.323020536092623	-3.457355013368685	-3.457355013368685	-6.508703397701066	-6.508703397701066	-7.213048189255193	-1.501602734638079	-0.4598817723204907	-0.9791705498756317	0.1586467924672297	0.7313089461402443	0.06656221699580742	0.01403930208576049	0.1323437852108725	0.5196915546397507	0.0980230806509788	0.05871869579358009	0.3767438943634365	0.1696832633525774	0.1487684052409816	0.1608523878464318	0.04599317207619351	0.317678017462136	0.1727471808505801	0.155945961708358	0.2968657533288798	0.01020507213884333	0.01542836509580519	0.1490812637419008	0.01174891552508646	0.01549056361779114	0.04477911446240511	0.1869487210872948	-0.002056110791587913	0.2848832026556754	0.7353817117209644	0.2158943911380245	0.1746726671026691	0.3276094885805159	0.10087856658245	0.06906159751418373	0.06314756788802707	0.0873072378496344	0.01253440556589959	0.7760108028007554	0.5526899939432605	0.06234807688346682	0.0673767758558879	0.06603960016936251
14.46959398039723	-0.1216308236089956	0.09909018894105567	-0.03163070941667205	2.382996055135647	0.9495290644673666	0.9974787312462687	-0.01963207748711369	-0.09123438295552275	-0.1719758608712	0.6952848619403188	-0.1149986706216872	0.03356973739481837	0.4222683369686181	0.4222683369686181	1.406383988104785	1.406383988104785	-0.1676825709313791	0.05065654126368379	-0.1383099542234222	-0.3923327844260284	-0.6292667137850632	0.8781562304275521	-0.9367171483385186	0.1942703530883389	0.6203590229796182	-0.009389379642479007	-5.829402984437449	-4.228614688716596	-5.184004251027451	2.450296218337507	-1.448433446649949	-3.042739421838382	-3.241264832819099	-3.241264832819099	-7.948042984137032	-7.948042984137032	-5.912694431375979	-1.647899081029774	2.107321741227778	-0.8447490223119312	0.2773631092494767	0.6955984740358178	0.1027969910711265	0.015075149165407	0.2232059280463855	0.4812039936954545	0.1522514738580904	0.0862122853504403	0.3803401390978001	0.1183149633486678	0.08925182598576289	0.09625424513875329	0.07257558604836344	0.2075927686844732	0.1030924605927415	0.09236916778935675	0.2486518757943572	0.009338081743312986	0.01335246006944447	0.1133244870650155	0.01162650287581725	0.01397628515058151	0.05342194672715439	0.2363120248391498	-0.00223550845798785	0.1994127885325169	0.5414512928721286	0.1710405953727452	0.2794860496719759	0.2119801644041564	0.0961615518616017	0.105289839462015	0.09426429896814975	0.05973668254617794	0.01082938772212228	0.5746678525031689	0.3583765530229989	0.03656538816383097	0.03909984305886609	0.03844665046760864
14.48439396559722	-0.1294484233164174	0.1071531826864554	-0.04136147766225327	2.385817283859459	0.9581881068237387	0.9970557210503799	-0.1036824989807122	-0.1431483056366375	-0.236461593483364	0.7258708835014959	-0.1349000710956992	-0.01007950754072932	0.3811201326584415	0.3811201326584415	1.283395600221233	1.283395600221233	-0.2550570308925012	0.02569390189983903	-0.1049460421269459	-0.3991585530194937	-0.5215158676126921	0.1064236292808146	0.1466258012641036	0.1984883739833628	0.5080868636007305	-0.08273175354141599	-5.238507167513593	-2.296937533556212	-3.12346558489775	1.407341988775004	-0.8024775109138921	-2.738415822376398	-2.448323033511361	-2.448323033511361	-9.237556572228387	-9.237556572228387	-5.028122228469653	-1.773099986280767	3.48693929444525	-0.1930474761996564	0.3487537807384059	0.6708350404091187	0.1134683674175336	0.01468382743170923	0.2749600289916155	0.4464329260765474	0.1573193134377533	0.100690365148823	0.3392752716962644	0.08782145697313122	0.04554315362377451	0.04761720409955224	0.08398967223588591	0.1244304505447658	0.04935089874779608	0.04383801218234875	0.1881045493970727	0.00902122136469195	0.01190033681240073	0.0836719975558199	0.01161535941295046	0.01194006502105576	0.06327545882168145	0.2611846546937914	0.03055201648866277	0.1358042455580943	0.3532305923078593	0.1447417932375245	0.3705176531428644	0.1241849886354706	0.09746191238034643	0.1077686623264344	0.09524076292463132	0.04013866404597004	0.01081330288770518	0.4149028733634509	0.1965251557971517	0.01854497853595791	0.01921410769958663	0.01907880867288576
14.49919395079721	-0.1348861124319929	0.101481326981863	-0.03445639923445529	2.388613330059412	0.964946594362126	0.9955117052779344	-0.1784421785766637	-0.1614846986859192	-0.2619365183466865	0.7393791480053079	-0.1455044413357374	-0.04860311944575238	0.3559083952553854	0.3559083952553854	1.140697807928132	1.140697807928132	-0.3287404580946306	-0.001253271340909488	-0.05932353564494795	-0.3930408164376219	-0.2422438036192221	-0.8134575537639992	0.8994592621358048	0.188708249749101	0.3921498750650032	-0.135407473812532	-4.695661770521832	-0.2354921992552568	-0.5624401395241448	0.2183526043744819	-0.4389310129235912	-2.480446864054317	-1.140696173480359	-1.140696173480359	-10.29179617149652	-10.29179617149652	-4.065596674292114	-1.970641632613233	3.910344022572294	0.8645961084457247	0.370997217329904	0.6578797510525649	0.0994871492561876	0.01331128840690793	0.285012190874538	0.4126744862987781	0.1202178229299808	0.104025199230855	0.2711114038661788	0.07641115549645917	0.02127143279101536	0.01928900829207185	0.07871051897333733	0.07342821381063493	0.01686963405178739	0.01500879964880566	0.1231645993966738	0.01012177807348843	0.01107207872526052	0.06055556572647299	0.01137701164924336	0.01095329214758851	0.07317754381069981	0.2627698814066767	0.1060952810691183	0.09789721700849024	0.1988071773321211	0.1491878361675671	0.4442127532982952	0.07299025204745591	0.1023375318167509	0.08176458083465349	0.07233452527857687	0.02851117001059543	0.01389535131416771	0.3077134416388234	0.08904826236517549	0.009400309215331186	0.009020387830198829	0.00918165326847363
14.51399393599721	-0.1360219910547378	0.08223674828372636	-0.01752226165492815	2.391253555486497	0.9698053282338219	0.993239272569533	-0.2432599045060998	-0.1494172552360234	-0.2485301591663683	0.7338019787218442	-0.1506207184481226	-0.0834751879886077	0.3517359292567793	0.3517359292567793	0.9826157556977024	0.9826157556977024	-0.3802197058801214	-0.03219976468076216	-0.007136139178630449	-0.3717102854989271	0.1200336022768276	-1.684764775494892	1.220564359009675	0.170272206888289	0.2728250422975975	-0.1624643226068674	-4.059130246054518	1.570219899891961	1.934351868939805	-1.012864472768975	-0.3055680220387154	-2.27594032978478	0.4930252154754416	0.4930252154754416	-10.96898314652292	-10.96898314652292	-2.584465309548567	-2.287811372075871	3.743651498134737	1.928412865541349	0.3603900486386076	0.6537918487668625	0.07171692002058137	0.01196857986978544	0.2656608995448224	0.3766351658923296	0.06672293176136092	0.1038341572848471	0.208659960316636	0.074495382195695	0.01337544777825466	0.008883222581602544	0.0619547835204308	0.0480624709949236	0.0041991982196792	0.004193381279903744	0.06653573506637056	0.01299147876800912	0.01068806944239018	0.04255188590632805	0.01074110249574242	0.01414246493234805	0.08267400171541982	0.2528973232438161	0.2184561034358638	0.08018425828868099	0.09990999844771085	0.1846620225844596	0.5024385104081814	0.05570788347101727	0.1071641324193569	0.04516276783869259	0.04340472064389899	0.02204858514205876	0.0213875817528416	0.2464908841465826	0.04016867666310516	0.007242461990146182	0.006551361413651299	0.006804247876473157
14.5287939211972	-0.1319747832231541	0.05188658551318378	0.001807409957389084	2.393628377620983	0.9728270572968665	0.9906914735353342	-0.2967811627401697	-0.1146547540578665	-0.2038211535702169	0.7102492123458413	-0.1539677768164359	-0.1151563503568509	0.3721971509083249	0.3721971509083249	0.8176921016077955	0.8176921016077955	-0.4022806361978903	-0.06834348294274414	0.04381273395867834	-0.3388991638959911	0.4640425326101134	-2.34085018606574	1.182589871394468	0.1480881453072984	0.1480223588763042	-0.168981838669844	-3.235541162450212	2.860334892192416	3.753870665845832	-2.086769897459116	-0.28416789179409	-2.011000002952091	2.287507040371239	2.287507040371239	-11.04582976156699	-11.04582976156699	-0.614801989707508	-2.606145692190359	3.159400113520086	2.44952842594243	0.3402425013288243	0.654915146302551	0.04404314692405572	0.01151874762876603	0.2355595420069677	0.3391807417425641	0.02377892395505977	0.108358127957766	0.1742099077565089	0.0724368044083353	0.01418533311372732	0.008945451710558413	0.04314934112174088	0.03562608139532356	0.004062530068859291	0.004507397949310641	0.02783633804949266	0.01616210965610557	0.01060680295391933	0.02848336898782235	0.01071939491325871	0.02529299664184403	0.09303754964277479	0.2464139248061487	0.3446294269731139	0.07227599579167013	0.0560935241815468	0.2327185517485295	0.5506262232422479	0.0606285282895486	0.1108994193528749	0.01618961179520729	0.02504702390229203	0.01763949476966977	0.03439420150021675	0.214608757252799	0.03147849335836755	0.008540447698156246	0.007978333062110488	0.008197558346747803
14.54359390639719	-0.1232542247957153	0.01433580668890783	0.01871527489730359	2.39567182983628	0.9739787714198116	0.988152632330398	-0.3369070054212908	-0.06593105758468613	-0.1412922820019483	0.6731475527413743	-0.1571067750102052	-0.1415039604656095	0.4193760746814675	0.4193760746814675	0.6579419621450343	0.6579419621450343	-0.3934472334372207	-0.1077530270412982	0.08482076478255786	-0.3051430823194841	0.7182018421918721	-2.687091767028249	0.9977017126877415	0.1246900685159526	0.0131279329630508	-0.1671009425815172	-2.226082570271868	3.58359215250375	4.493096548244793	-2.786994254072052	-0.2236132705513154	-1.506716227282315	4.137962385447969	4.137962385447969	-10.25351092403167	-10.25351092403167	1.366636327367869	-2.6312339927747	2.150557430995994	2.005408946910148	0.3267808728120689	0.6591177234461105	0.02548330694705402	0.01206400252318893	0.207824387791889	0.3054483353093672	0.003872735345905051	0.1209006751484374	0.1661152243419126	0.06706493169462852	0.01650718606219074	0.01189777079902279	0.03012288218220676	0.0273927124308123	0.008204702675332895	0.008404053010044469	0.008902091048465736	0.01586114270813193	0.01086701678385037	0.01856505440705873	0.01475888205370698	0.04655518728262673	0.1055433572326619	0.2511858644858069	0.4579615128223822	0.06660285800284074	0.04973465402439812	0.2647998123178459	0.5945581309593257	0.07456232072636922	0.1159969280704416	0.00332629363204822	0.02180059518581747	0.01393733401953632	0.0543364771569789	0.1997065367537466	0.0358983854688263	0.01028295384939461	0.009964045357729949	0.01011532606622443
14.55839389159719	-0.1114235764153931	-0.0257347446272862	0.03256886617727452	2.397353982558318	0.973081845102729	0.9856729509650163	-0.3615549285162146	-0.0107188841650918	-0.07669780384735504	0.6294665379965	-0.158723244033176	-0.1578004646711879	0.493845543210745	0.493845543210745	0.5182166381999853	0.5182166381999853	-0.3598287979005885	-0.1438568136523394	0.1076717899674417	-0.2841651678884309	0.851403457577983	-2.684504646391076	0.8859981214321919	0.1006543845152221	-0.1367673945268978	-0.1679025695216582	-1.098636692653842	3.831260538680916	4.142226923447334	-2.978408842387719	0.02243254819221246	-0.6323450638776937	5.953015600031713	5.953015600031713	-8.387360493495187	-8.387360493495187	2.78636880456678	-2.041139858029621	0.7242751243349344	0.6204568657228723	0.3224553414850603	0.6636069605919875	0.01719841484238454	0.01279487499126588	0.1843403863891766	0.2783403887438775	0.002787928287845763	0.138855659986745	0.1687830129840914	0.06144160525188971	0.01696778042513972	0.0135633651331704	0.02476015813930239	0.02327711954324477	0.01140003615162603	0.01125364953156533	0.004582528891175353	0.008066127391132607	0.01156552543080509	0.01319910107709012	0.02922881693548172	0.0753589227218895	0.1181675469063178	0.2633127730010904	0.5466802795031276	0.06187947161255628	0.06285762171324435	0.2603898979064767	0.6382574166960733	0.08753499220191688	0.1259567384802946	0.004536387509568728	0.02611542064476216	0.01116581855256229	0.08317105308455405	0.1988361354154391	0.03537612519813041	0.01110204276673055	0.01094482567394112	0.01104962821024633
14.57319387679718	-0.09846581032675127	-0.06332292910590612	0.04563122072101146	2.398661705896932	0.9698713472437104	0.983163316267148	-0.369319657141017	0.04539958914301445	-0.02304580069114514	0.5869469982443747	-0.1551857539676878	-0.1583404418924884	0.594475423022783	0.594475423022783	0.4144717903108266	0.4144717903108266	-0.3128902645102066	-0.1663592420986049	0.1064475611370509	-0.2855403144538277	0.8652268258759793	-2.341247601827287	0.9413386016911702	0.0755331534062248	-0.3020443828032975	-0.1741796286745762	0.07231840228090758	3.734168414919046	3.077868595370742	-2.675411553599175	0.5406261475932632	0.6051028077176792	7.629290938901068	7.629290938901068	-5.453036328177318	-5.453036328177318	3.342019660102133	-0.697576236202804	-0.9769123101703246	-1.087556816431396	0.3182624520508111	0.6604823946098154	0.01514075368856902	0.01235636683989132	0.1592175316312094	0.2526374394441786	0.008270739165229324	0.1579212721001169	0.1715976925098281	0.0601742850208123	0.01569739555758553	0.01329932710104284	0.02382566351357979	0.02838218150639511	0.0122098244770178	0.01189768343041535	0.007096695942225629	-0.006224393978523561	0.01253814350711194	0.01150502581510736	0.06168298624348344	0.1029687130864712	0.1244855224971799	0.2703935585487432	0.6187973813006761	0.06080569595803759	0.08690384264499718	0.2186445458330122	0.6812353844569931	0.09321006006569571	0.1425607796160318	0.0129392449814247	0.02760264382174132	0.009734101883432957	0.1219302023635478	0.2129977342974025	0.02698374638551478	0.0110091427170614	0.01089438019374422	0.0109848726191145
14.58799386199717	-0.08621565945885293	-0.0938660454043846	0.06023323070542105	2.399576675507262	0.9641432384144852	0.9805662535460844	-0.3595637285558828	0.09841303816182381	0.01335889757337331	0.5518695371223172	-0.1422361780685767	-0.1388431785475457	0.7184533709296641	0.7184533709296641	0.3603189401114624	0.3603189401114624	-0.2644856655765148	-0.1643750147376609	0.07909248707576609	-0.3078640077245824	0.7784070363206653	-1.736485205812554	1.070190852306752	0.04803713168286544	-0.4731723880398084	-0.1783154287293655	1.249086448999607	3.403915814281654	1.854463379268404	-2.043493004359589	1.290984060995353	2.028256826508732	9.069740880129086	9.069740880129086	-1.767478517272797	-1.767478517272797	3.150091737205724	1.27443848151823	-2.684215452588464	-2.173996635824344	0.3011272247524607	0.6356877588940487	0.01469946437347351	0.009762435773429704	0.126967120076185	0.2177417272208477	0.01020574556046738	0.1765259734980706	0.1764456912659091	0.06535134223321576	0.01405276206430879	0.01214896867313774	0.02335218229723547	0.04621757311153759	0.01146322474837562	0.01117762897511196	0.01029602823581326	-0.01503837383572411	0.01311101950462345	0.01156907489203798	0.1161620523139596	0.1178308506538117	0.1171844052429927	0.259935603928072	0.6874000907064763	0.06574252312609656	0.1188569260634416	0.155359317641332	0.7145596500428811	0.08853609846701688	0.1645426664498485	0.02220054595244124	0.02294999590158663	0.009459671376024294	0.1676946364210077	0.2402232315242936	0.01656791598570939	0.01055892841496942	0.01041832193995641	0.01051226933687892
14.60279384719717	-0.07609210696008124	-0.114499630521189	0.07598361741993753	2.400053225397683	0.9559441825086715	0.978001421651291	-0.3320578152269046	0.1454422268734428	0.033632445010337	0.527276115605311	-0.1174154915981994	-0.09880680790812812	0.8615982957794721	0.8615982957794721	0.3626548174000273	0.3626548174000273	-0.222171827086786	-0.1297046773479423	0.02828193678056722	-0.3379219337133118	0.6083136896897549	-1.034398052642933	1.03199241776308	0.01590367008560747	-0.6286048956687879	-0.1661416742030189	2.437344318255199	2.92029096601084	0.9304784088558311	-1.332391425664304	2.077670327171205	3.321770534772973	10.1942538656222	10.1942538656222	2.060420183623457	2.060420183623457	2.614135905483386	3.595646722057793	-4.066352009039637	-1.963367427124384	0.2624582341657784	0.574567476966421	0.01357374919767052	0.005792428018643395	0.08864311441873704	0.1678337042087004	0.006386578470987447	0.1953192793168686	0.18967926177391	0.07524792088272823	0.01288183358189588	0.01113679847032949	0.02174761449737847	0.07419432478373847	0.01043080644679015	0.01026014317991125	0.0114884587000833	0.00482245246514635	0.01225541981484194	0.01174330746958925	0.1874528749158596	0.1134021943490192	0.09412399642482611	0.2274009047996897	0.750463823851596	0.07604823892589885	0.1532330169458054	0.09142266448738487	0.7201020623632658	0.07429199128721149	0.1868814494935326	0.02851973805840827	0.01917639820446739	0.009752210792814065	0.2112780538652849	0.2733594321873676	0.009687757233453474	0.01021025945312039	0.01003308275640736	0.01013294221831221
14.61759383239716	-0.06917400662774603	-0.125164104184423	0.08844678147046708	2.400005933703983	0.9457271118921681	0.9758081204091029	-0.2865703125660516	0.1844338364149041	0.04369052912417509	0.5123714438198631	-0.08215212490460311	-0.04284821921432477	1.018548467790587	1.018548467790587	0.4182095330538048	0.4182095330538048	-0.1874275806233208	-0.05884920958467616	-0.03854676170817672	-0.3572351930668492	0.3595720377988546	-0.4362956706457121	0.5683741145399923	-0.02323192017193858	-0.7390532161846	-0.1250322781134179	3.661188764687628	2.328846923213113	0.4880822810545578	-0.7839784177254477	2.613946729610153	4.132523070836082	10.91947243585467	10.91947243585467	5.277747741706317	5.277747741706317	2.150433407817999	5.93825010125848	-4.813085510942436	-0.4728852702045352	0.2040706829305056	0.4715602219268189	0.01185663514051958	0.004128882732518239	0.05180675535460676	0.1094143569121569	0.003166299885973289	0.2129184393414882	0.210561101112932	0.08537152417670837	0.0122645010070145	0.01064795329716992	0.01952092104695606	0.1040828099943667	0.009834195915198105	0.009769185630043125	0.01086220052985011	0.07647270943723171	0.009388766452826127	0.01140692108895329	0.2592737408897819	0.09405712884446457	0.0615143877541489	0.1791482473530257	0.7843105129695738	0.08822618967966675	0.1805091595437157	0.04265795411737029	0.6773902411681149	0.05492219526154775	0.2009672070491928	0.03025956418200694	0.02931002392377413	0.01008674608264177	0.2386314424360559	0.3024864388479817	0.007613883200156072	0.01011693184908282	0.009916648723078524	0.01001972455811833
14.63239381759715	-0.06641318182669606	-0.128525047806451	0.09020584409629473	2.39932535159337	0.9343863097131039	0.9744504526539673	-0.2228092286111433	0.2137838308612977	0.05000791880699315	0.5031653559530062	-0.04205397218940355	0.01982807997729915	1.182545462794523	1.182545462794523	0.5128116288003217	0.5128116288003217	-0.1572402042041799	0.0455806107288786	-0.1103342156461755	-0.3511679787761676	0.03256437230367235	-0.07845411602885401	-0.4257316058814047	-0.06950175876029402	-0.7774489836537277	-0.05294732652162953	4.918773969540196	1.633272083389811	0.410676252687685	-0.5675441862756765	2.676953491781276	4.215242956238904	11.13575906130105	11.13575906130105	7.21260600806313	7.21260600806313	1.975550760374388	7.897730860457181	-4.739569150066766	1.68923086547728	0.1379215062801456	0.3375211780216614	0.01068292249021775	0.01063443910920127	0.02507091541364272	0.05767196418784609	0.01168618399214376	0.224066069963293	0.2292506764677208	0.09097688953927327	0.01203323475385841	0.01060585269617584	0.01764271653486005	0.1265865017775856	0.009750098198197455	0.009737925298783144	0.009912278337772855	0.2040159010266075	0.005681504436711593	0.01075827495441155	0.3106079420269613	0.07242280520993465	0.03058319828112186	0.1287868090311641	0.7578523596836484	0.09797423864220149	0.1924426541683166	0.01524113744274216	0.5762655998024622	0.0360997790185725	0.1976820257551316	0.0273143958830666	0.06437351392821547	0.01023804775066124	0.2372619999144768	0.3193407774724401	0.008512971913941091	0.01020900664588634	0.009993980883069147	0.01010040210303402
14.64719380279715	-0.06863357132126308	-0.1283669776376599	0.07427771692367074	2.397932334736987	0.9231313172993321	0.9743069923278724	-0.1409831256835996	0.2318055400075143	0.05587467709652719	0.4938354084843519	-0.004691703432116102	0.07807356660954733	1.345065424944991	1.345065424944991	0.6242067523412042	0.6242067523412042	-0.1274182211308549	0.1736895798273657	-0.1748924669303398	-0.3148445621466629	-0.3485605088322428	0.04588400553486771	-1.773509019137169	-0.1183200372822173	-0.7293401756492371	0.03596288319182135	6.13451269960639	0.8014257548043475	0.3871752697007422	-0.7610611478502025	2.257612478442626	3.562090033752419	10.71498800509621	10.71498800509621	7.497803097915186	7.497803097915186	2.061981962158755	8.994212955629532	-3.872583299342015	3.713572455120564	0.07980782907202111	0.1988925997471842	0.01098040714105494	0.02956484909362064	0.01193920466144552	0.02437061560357137	0.04011274472024236	0.2232703669957423	0.2356127501990078	0.08996495932633572	0.01214371241414823	0.01081496964969493	0.01663952285070498	0.1364444025877242	0.009938711570919634	0.009929596589135311	0.01003729000501211	0.3625352083758759	0.005014093624462389	0.01021811153357428	0.3280408497991236	0.06040186017352182	0.01045183593294475	0.08969157984634277	0.6584237039535299	0.1024228395175874	0.1877596857218627	0.006103253745648993	0.4272500487595994	0.02139915279640926	0.1733137871077237	0.02122619224781591	0.1257597121152745	0.01022584604527915	0.2051977631385957	0.3208164217679191	0.01008716794554349	0.01035041903154376	0.01011572106451543	0.01023003937628082
14.66199378799714	-0.07610873806140377	-0.1274268956089901	0.03842555539918882	2.395856211029039	0.9132465938502514	0.9754357499579287	-0.04293251538068053	0.2363483003228128	0.05963638253709052	0.4781596263549122	0.0240423576520037	0.1227016456034073	1.495872878239315	1.495872878239315	0.7277152598512884	0.7277152598512884	-0.09545554798492439	0.3089585107112564	-0.2221400944104143	-0.2544220768973567	-0.7111498776323741	0.06408368818308406	-3.032806335998575	-0.1598390528071394	-0.5975474049617588	0.1139658758058017	7.137384014611257	-0.2005407053996385	0.07981489475069775	-1.364346923584856	1.578350084631951	2.435715616396078	9.558132339106869	9.558132339106869	6.192537847329351	6.192537847329351	2.231519288662978	8.852589949146715	-2.460302852169026	4.882923616489415	0.04156587745400007	0.08795436341375053	0.01282642340095162	0.05839192635393679	0.008834308212123217	0.008934773665507897	0.08489621783410034	0.2103817121773223	0.2288884542594096	0.08448722291806708	0.01264279896257067	0.01113214384072745	0.01640597851596494	0.1344115543244489	0.01016230262956355	0.01012892039741568	0.01161007194133689	0.5098545329065116	0.01311844333395525	0.01003272960276125	0.3151019334415483	0.06288972573524039	0.003790496735911699	0.06863009692286716	0.5098908275497133	0.1012819433621819	0.1729647739959164	0.006733750154913938	0.2615553249192244	0.01124015038059503	0.1343967773753336	0.01573776507391157	0.2009282475905302	0.01015154684423784	0.1562270005955199	0.3096864202212047	0.01108188513004269	0.01044622069617656	0.01018008699195902	0.01030886401453863
14.67679377319713	-0.08793791880505314	-0.1262223492580533	-0.01222083596230557	2.393297744958248	0.9058446389341481	0.9774552312147067	0.06674483529420989	0.2249435181966424	0.05551780211535862	0.4505964370245613	0.04254105344502274	0.1498065486926313	1.623978738838173	1.623978738838173	0.8024768160008975	0.8024768160008975	-0.06168245449120968	0.43199864542815	-0.2468098078773505	-0.1850423194687024	-0.9460814951027332	0.1181014523466243	-3.696867045545935	-0.1815129264761358	-0.3995397513802648	0.1520998800030083	7.702779807875656	-1.365842071131786	-0.7030608356825145	-2.320423152416164	0.9461134305497925	1.258426090610185	7.665786791300826	7.665786791300826	3.728999199215976	3.728999199215976	2.289749689607858	7.425919069943332	-0.8886243549992001	4.737951854985307	0.02643767788509684	0.02926297353934103	0.01531156497375088	0.08627654462742232	0.008487049582351287	0.00100557369139067	0.1285078182057804	0.192545093061969	0.2182288933753655	0.07973413539005209	0.01347387391544324	0.01146738857956574	0.01630151937831506	0.1254865115490771	0.01032149990826823	0.01025543941991806	0.01346573079674643	0.6100102185260344	0.033979916470078	0.01022291533041228	0.2896786702354157	0.07809819780757749	0.008140786884153428	0.06381674625673615	0.3658531264055854	0.09673248234740058	0.1583085253531394	0.008473531601088814	0.1199097090309571	0.005198923963721611	0.09714489773288013	0.0167244181505654	0.2655430477511922	0.01008460714752099	0.11499173461976	0.2931095150548464	0.01135385970078846	0.0104722094492236	0.01016660098338755	0.01031409136044468
14.69159375839712	-0.1018335659201536	-0.1235619970984362	-0.06633679276406956	2.390632960529503	0.9016970797293687	0.9796491940711169	0.180581362658416	0.1955710986618971	0.03670094374255674	0.4069722104061515	0.05323888036353395	0.1615932368574922	1.719547785988758	1.719547785988758	0.8357245320873307	0.8357245320873307	-0.02873433497096459	0.5260398977880982	-0.2494910699027522	-0.1261599903959082	-0.966968393957653	0.2698141465758687	-3.477113452715573	-0.1732007677545237	-0.1615805420062108	0.1364509766148318	7.665312867509972	-2.618003704794126	-1.891180584101942	-3.524682508763012	0.5545751728772603	0.400339938032571	5.193226910582266	5.193226910582266	0.7202674844020084	0.7202674844020084	2.12011751486422	5.049988595826635	0.4564340759422049	3.232830096211877	0.02950826195067945	0.02968897696736498	0.01691536126255273	0.0997692033914271	0.005920049577343884	-0.007930490017555162	0.1493147977403595	0.1803787920270352	0.213759105901739	0.08008353504433031	0.0143829135670972	0.0117386356124196	0.01570717774221253	0.1155710351336855	0.0104364916851306	0.01033468402347754	0.01309817019283484	0.6457512104915623	0.06506694398984278	0.01069755155492638	0.2695625618383811	0.1001709919376836	0.01956562895665971	0.06770592456471272	0.2774663999249089	0.09246693594320139	0.1523786243309852	0.007018595792033273	0.0371432195407377	0.005213826529353587	0.08057742491923155	0.0301306025782946	0.2936626886160969	0.01004408846209007	0.1020182076995236	0.2804575310994358	0.01127244389902022	0.01045310442323976	0.01011455789631331	0.01027623989525315
14.70639374359712	-0.1147928862795832	-0.1180499197731268	-0.1111352812257604	2.388335381822242	0.9011546472831637	0.9812713949041858	0.2898412616800702	0.1479453579330373	-0.0006672042660118734	0.3450052692616216	0.05994008112864872	0.1641257828474608	1.776166381624323	1.776166381624323	0.8238975484759485	0.8238975484759485	-0.0001600601159003701	0.581257418594359	-0.2356652552482239	-0.09478182633631675	-0.7755048983912275	0.4825452935838789	-2.475745207159042	-0.1325294380992658	0.0860771894148986	0.07746049808663989	7.039379841287282	-3.790243720570725	-3.156234024056725	-4.82324294125067	0.3875597166050725	-0.005070487081070926	2.443083209313643	2.443083209313643	-2.245848662960436	-2.245848662960436	1.710788367894118	2.283794243384703	1.315555780685946	0.8218269496265121	0.04293601772809331	0.07629091946563125	0.01646799499376746	0.09211567812503495	0.003173554181324222	-0.01306114518849875	0.1383000764054476	0.1808103532668359	0.2173558059656641	0.08525129001611727	0.01502590582514495	0.01187382881684169	0.01473827519191841	0.108609428075112	0.01055602965533866	0.0104105659315808	0.008242072064073529	0.6144860804618689	0.0957546885805495	0.01131472613551138	0.2578621063968322	0.1204138784181167	0.03419535284958253	0.07309433693672179	0.2585341404412907	0.09195341625139672	0.1581243294458076	0.0044996188841163	0.03048083262850465	0.01615793577240482	0.09666290978883199	0.05730683248849657	0.2718154505263443	0.01003576318587894	0.1188109311424979	0.2800664131384911	0.01118653675130486	0.01043027528553143	0.01008732025618222	0.01024385772127789
14.72119372879711	-0.1243976893349485	-0.1093789060338119	-0.1379642313533801	2.386837597470485	0.9041258409946724	0.9818856054055183	0.3873367371670123	0.08502236469640079	-0.05454843693997961	0.264790873835989	0.06489311204453571	0.1633178076681636	1.792406042935125	1.792406042935125	0.7712042969074352	0.7712042969074352	0.02098209869680766	0.5958319355739721	-0.2132685779841431	-0.09882746941304016	-0.4728655827524732	0.6668402429590281	-1.124891345707603	-0.0672702119379297	0.3125762208139255	0.005043816427306894	6.047719832388676	-4.628622862617151	-4.055828192369034	-6.023321077990067	0.2814054537475377	-0.1001648584745408	-0.221985583252402	-0.221985583252402	-4.729247746551938	-4.729247746551938	1.134730566462584	-0.3562690305014229	1.62255837711513	-1.667923529395988	0.06280190136967494	0.1414844806741848	0.01432337191560309	0.06789642390374494	0.009671787578476646	0.005673071569362413	0.1084990293674271	0.1916934466770296	0.2222666846600928	0.09000151794455227	0.01520459432889925	0.01186382838896166	0.01419133482456103	0.1049264406786877	0.01066586590979825	0.01046429444556143	1.392517130667688e-05	0.5227031933035727	0.1122261539189846	0.01185009088514887	0.2420539846693446	0.1289724772150682	0.04735067832573078	0.07914664328607511	0.2775965225506252	0.09616700231477338	0.1713290907430876	0.008394013793190505	0.09514383904571266	0.04256813577389797	0.1432729799390767	0.09037077871788343	0.2076941844373275	0.01008180209365107	0.1460295999759265	0.2941164150523965	0.01122972104779686	0.01044588998633114	0.01013997253641694	0.01026208833346592
14.7359937139971	-0.1298899388405205	-0.09865838269192148	-0.1454999509972576	2.386395464296316	0.9100988299316493	0.9815419976495396	0.4698227179894103	0.01384812445641493	-0.116883078809692	0.1690748129642493	0.06770488978277721	0.1615193889329187	1.771781359987109	1.771781359987109	0.6870377093136663	0.6870377093136663	0.03310671717136734	0.5735887512641152	-0.1898133797017588	-0.1339150456125097	-0.2038578010069937	0.7468415911085108	0.06024219586607427	0.007350487502519685	0.4903153789841794	-0.04767588165820526	5.017341038028529	-4.869958161922395	-4.253592009001173	-6.92922467184611	0.08201509807141442	-0.1874713730956762	-2.506704665129384	-2.506704665129384	-6.470455176709095	-6.470455176709095	0.5144944391553241	-2.614176186444904	1.495194898634391	-3.383740714799359	0.09089073554430036	0.1933152271686933	0.01277350206490755	0.03914924045877061	0.03657777507619885	0.07125402277945007	0.0877920953501159	0.2027513289946632	0.2207146951215814	0.08854563463028782	0.0150298408383158	0.01179479725755859	0.01462737908956448	0.101348069366696	0.01066401637479652	0.01039607459104117	-0.003983893954302282	0.3882151340978437	0.1062519857254386	0.01201596010512555	0.2075845712705828	0.1191492976924912	0.05354178205209633	0.09171978856691516	0.2843694734294438	0.102285370083898	0.182391715137568	0.02708685576618943	0.2072451585308879	0.08376324871750618	0.2048924166217406	0.1135546493605974	0.1264778291519255	0.01020370897643059	0.1574906929567831	0.3148662726570177	0.01135421672203217	0.01053939095320798	0.01028334650117391	0.01036072863534706
14.7507936991971	-0.1323325360418193	-0.08772730350305911	-0.1389583043559933	2.387023735361385	0.918218709663384	0.9806940708854923	0.5384092339444462	-0.05547610805279864	-0.176495755854489	0.06304329681215314	0.06659692027772135	0.1564551379732958	1.721026212000358	1.721026212000358	0.5833039831734442	0.5833039831734442	0.03656755075590679	0.5198729349535448	-0.1700973111085166	-0.1856520213066063	-0.07725310977208297	0.711700075061961	0.7454010954196031	0.07506450650192838	0.599994761036144	-0.06148756590305796	4.206081239542439	-4.393116613540959	-3.68782542311496	-7.3921600642964	-0.2275560799030127	-0.5492919284716974	-4.279443293073365	-4.279443293073365	-7.377275084196749	-7.377275084196749	-0.01467563962875404	-4.541250350018098	1.166839055444318	-3.846347589483377	0.1277594615206809	0.2082826483248761	0.01496442409554685	0.0171144016970239	0.08731789168752585	0.1888621239786569	0.100056707247687	0.2029049683627874	0.2103760518770615	0.0802208475635042	0.01484775614323382	0.01180502372966834	0.01564341770042309	0.09351935092934566	0.01044710454806386	0.01011406478079957	0.009819513928509768	0.2415096078456945	0.08078901709021677	0.01164559915900491	0.1525176780898851	0.09209021116691601	0.04940295442245275	0.115613860786229	0.247213669730914	0.1050590478970378	0.181633495215918	0.06366490684754111	0.3322884172241997	0.1311567366621936	0.261201048173107	0.1130738140666549	0.05654723419645644	0.01036632633293432	0.13888878557496	0.3275551050688424	0.01140295675111569	0.01073690137635344	0.01044477702710819	0.01053695254163456
14.76559368439709	-0.1338483985961733	-0.07791323827879969	-0.126307058556665	2.388528220096104	0.9274313482517447	0.9799237649450573	0.596744144966097	-0.1130143034169648	-0.2234414270259582	-0.04645038415235882	0.06076134023661058	0.1427842234612757	1.647511558274935	1.647511558274935	0.4721880928236149	0.4721880928236149	0.03355685065609661	0.4383177902286807	-0.1551414402270692	-0.2365631198316624	-0.1164158840183106	0.6318048398453966	0.8989006784863255	0.1245825117886948	0.6350448211729197	-0.03858097722303847	3.677963894515128	-3.339483610000212	-2.583521984477634	-7.346948986076938	-0.5147970586859203	-1.299487999449278	-5.588490926506378	-5.588490926506378	-7.487004777256818	-7.487004777256818	-0.347477845832104	-6.329592708091737	0.8952492727989149	-3.164249326195384	0.1643035746900205	0.1814156134212349	0.02283955541525408	0.006435118940147932	0.1515832681450278	0.3339921717807546	0.1500302912203103	0.1881268401322752	0.1939019941886876	0.07056592663908907	0.0149811017043287	0.01200309126943412	0.01614888665296782	0.07910664721979749	0.01006917505794899	0.00971037939812045	0.05383978037217953	0.116496897442497	0.04786437309853152	0.01091722693587228	0.09007956231088642	0.0572538171084512	0.03690119533236409	0.1458987346105494	0.1713866077854988	0.1002910638259398	0.1652027916113377	0.112242210952743	0.4360215021344125	0.1701323283580053	0.2974285698048835	0.08786096132181281	0.0145033999635788	0.01043842894232126	0.09647315612597634	0.319599983339901	0.01118768672565732	0.01103213360537171	0.01046687689368451	0.01074000008297333
14.78039366959708	-0.1364492962615629	-0.06893637902255031	-0.1141017488801059	2.390601359771432	0.9366762657884824	0.9796531247422234	0.6481562643508808	-0.1528936676077239	-0.2523554562996017	-0.1520421240421077	0.05199803310799055	0.1154416054883548	1.556974297708946	1.556974297708946	0.3647543859322377	0.3647543859322377	0.02730235664686795	0.330750482844587	-0.1424410572942595	-0.2739914707363961	-0.2595402782392777	0.6309219013452282	0.7215358172513757	0.1519030644535158	0.6030398354478189	0.003158818321499385	3.30070381497387	-2.082228898238716	-1.309862777589418	-6.820093372672445	-0.5903853686876404	-2.305169406036102	-6.601647136596874	-6.601647136596874	-6.898908543022771	-6.898908543022771	-0.4592254642926038	-8.035739296992944	0.8847114545441984	-1.925066539542253	0.1834756032598824	0.1269515204626443	0.03558719929121732	0.005054415204030785	0.209388561820312	0.4632937922825385	0.2235776177652001	0.1630710020355912	0.1746394548942783	0.06570970041664211	0.01550488468446063	0.01241053474330118	0.01532945069982494	0.05944674030513705	0.009841823131990869	0.009590404909383021	0.1282388385338366	0.03548657678474239	0.02080169975222979	0.01035052865347072	0.0386730645646387	0.02705002029263777	0.02246439893101251	0.1689009043139742	0.08772869526015976	0.0876010643605131	0.1368591652297324	0.1604268779179359	0.4939258601715068	0.1860415810634401	0.309116755661963	0.05002407361704538	-0.000165160469050722	0.01024307533377662	0.04988060399768629	0.2887789515459254	0.01066685403894722	0.01138121165879223	0.01020891105155204	0.01089224654752141
14.79519365479708	-0.1409920284522235	-0.05864769456203799	-0.105327359114395	2.392923273893612	0.9450830107879065	0.9800072379925878	0.6933702230407738	-0.1753813576789036	-0.2632551636041011	-0.247128160686632	0.0445872492807269	0.07355083207239069	1.45239766046944	1.45239766046944	0.2707014659633124	0.2707014659633124	0.02054195990784241	0.2001340210700059	-0.1271932376060435	-0.2947381143289243	-0.3923534656116632	0.8173276432855019	0.4654985947485499	0.1589560933397579	0.5232468496403252	0.04356679259167555	2.841675871990242	-1.035467762162143	-0.1973219263388841	-5.916114209096567	-0.3303312410513544	-3.181218948296417	-7.511046705805747	-7.511046705805747	-5.694196948449191	-5.694196948449191	-0.4451511420559944	-9.438198122634345	1.236844823871231	-0.8423575640112635	0.1726239687773017	0.06846092630773198	0.04961389327005387	0.008012537942077321	0.2426981101801068	0.5405035087548018	0.3001979909970224	0.1363173269978381	0.1547059686896854	0.06595854374207258	0.01620941009450376	0.01291565631202757	0.01339124473984537	0.03881920485737136	0.01022337831329285	0.01033908293614388	0.2153819440313308	0.0008406126830326609	0.006901805816925716	0.01047535582939424	0.009457907874797807	0.009470621699476552	0.0121690087549891	0.172996207766091	0.02622649159518984	0.0703590806184962	0.1044020578710447	0.1959951726236629	0.4970513941826712	0.1715728010644199	0.2999183360171944	0.01509463223381236	0.00122996123861943	0.009730417392714606	0.01668264227217656	0.2442519269587558	0.01020745167521667	0.01172759771229958	0.009756675380762166	0.0109680537572192
14.80999363999707	-0.146627339714774	-0.04394630008761749	-0.09986583418867713	2.395229898081719	0.9521106878275631	0.9808696515229743	0.729803672029029	-0.1856975711238019	-0.2601405460102261	-0.3269664266355429	0.04361264245917165	0.02337770794861423	1.334307990216309	1.334307990216309	0.1989551200793133	0.1989551200793133	0.0137452179900393	0.05368061327252807	-0.1040902030342716	-0.3043190230447026	-0.3959794737109804	1.205924452207583	0.2827590317163653	0.150889452567296	0.4203339403334877	0.07122734607316437	2.094317273875159	-0.4347246590924098	0.5593475580364804	-4.788436664620347	0.2492733648996828	-3.399594862443641	-8.439946382636226	-8.439946382636226	-3.905403843662759	-3.905403843662759	-0.5067583132014604	-10.17114378703309	1.92189573108302	-0.3787865484617007	0.1341485059420988	0.02534186407186851	0.05998440857593765	0.01120751165594334	0.2447650037715429	0.5544131767463358	0.3643581255344387	0.1151853541484799	0.1368391360602749	0.06635814101512857	0.01674334097304153	0.0132357517198623	0.01152069321021295	0.02259736153545572	0.0114254864735119	0.01218111643222413	0.2873031524972649	-0.001321300724745507	0.005282648746890108	0.01134208603712654	0.001359930338154848	0.004580409812387812	0.007793747187065244	0.1579352858101537	-0.002425726203052766	0.05338445020125333	0.07465917647554959	0.2119242579451619	0.4531677503205063	0.1314393129153575	0.2771137460700486	-0.00621994897273492	0.007428505227146115	0.009204728676850139	0.002092706280104481	0.2011935616359767	0.01065940494255155	0.01203723964601051	0.009598400640758413	0.01108109329668674
14.82479362519706	-0.151000846396166	-0.0225215884379313	-0.09640013538467179	2.397342626430538	0.9575705863876527	0.9820395323867587	0.7526339655468446	-0.1904542238686224	-0.2489475155288469	-0.3892589772559189	0.05283947268345227	-0.02180707126412246	1.202399771278368	1.202399771278368	0.157942756234825	0.157942756234825	0.004155084911076915	-0.09680132140561004	-0.06942169482455687	-0.3118364877571534	-0.1998118167271209	1.685786071158149	0.1877137954937622	0.1337688510517688	0.3152319355998969	0.08578787292808668	0.9841833694782728	-0.2443947017119024	0.8909117154746695	-3.596509658231165	1.003341171705154	-2.565966594517356	-9.363145250481439	-9.363145250481439	-1.579178072305526	-1.579178072305526	-0.8538889818491953	-9.983138576131019	2.75981152547081	-0.5444987126072414	0.0843027312695552	0.004655379714823455	0.06265537660929472	0.01276178732245182	0.2205903120799342	0.5160724655220369	0.4072590484047598	0.1041007095118419	0.1259974149790453	0.06329772355679053	0.01685775166397467	0.01303687534098293	0.01119367303094769	0.01530105945873173	0.01287287101027903	0.01422542500191555	0.3209092951934976	0.009387944478776767	0.009731540098250968	0.01217905573062781	0.005071356681365775	0.006801481678811041	0.007132261556589538	0.1338253363103609	-0.006196844923333771	0.04067452995446201	0.05163096419798524	0.2069115552812951	0.3825497061868525	0.08077151564555214	0.2487811696837829	-0.007079576775780607	0.01420818356765088	0.009404576984096682	0.0003775366791299649	0.1738830928764515	0.01285821919076982	0.01229111652957514	0.01048103818186794	0.01145015316090629
14.83959361039706	-0.1512199934390191	0.005538303289895507	-0.09411542936173507	2.399168934653715	0.9615080824384441	0.9833653689685529	0.7571736545717191	-0.1940632519228135	-0.2359216805812583	-0.4339752407064185	0.07336814906311727	-0.0464714321159128	1.058165455929743	1.058165455929743	0.1545450925278384	0.1545450925278384	-0.01318092255203824	-0.2375974424336037	-0.02325742553794253	-0.3236929410633703	0.1815071293755799	2.062153186668599	0.1106380643810765	0.1129423432139292	0.2167289931714012	0.09328669916889767	-0.3771755034343945	-0.2303473859741288	0.8185331431561832	-2.461516642371896	1.737992676637704	-0.7483367286537262	-10.06000104973258	-10.06000104973258	1.123045935968335	1.123045935968335	-1.544944454001033	-8.888537761891167	3.424086067445463	-0.9589988355082717	0.04217235903960725	0.001972696577314029	0.05652951619626398	0.01240409094042048	0.180688912675935	0.4436982364964866	0.422663434772679	0.1050437340533718	0.1268836788729638	0.05861830012460723	0.01664894218332683	0.01233882392847107	0.01333464474331008	0.01853524672911191	0.01298428757516211	0.01420509745520465	0.3079699467974831	0.01671504727229618	0.01308469858222245	0.01157289554705604	0.01040639811011881	0.009811522320229945	0.007298234730734684	0.112178328636079	0.0009664611346681326	0.03462164088689557	0.03833239208495981	0.1839838237716452	0.3090065153637324	0.03708115715599593	0.2223959527570562	0.02034899662450726	0.02434570669974321	0.01116045067340177	0.003361629991386516	0.1707131108552713	0.0164753597016874	0.01239658004224963	0.01271670116945305	0.01213488172651444
14.85439359559705	-0.1451988233029589	0.03721599591247388	-0.09338674249294884	2.400683084637769	0.9639911685150147	0.9847941133412941	0.7416071799376559	-0.1969766695901766	-0.2262435045152657	-0.4624830492197983	0.1036477814239721	-0.04052953638240202	0.9076711267217001	0.9076711267217001	0.1921153217960124	0.1921153217960124	-0.0420693705135847	-0.357054910326185	0.02888078692754794	-0.3397763450734652	0.6454327579912519	2.15042085664514	-0.02970736323570641	0.09199237636217017	0.1185194379562054	0.1002603883567572	-1.710263149398602	-0.1158257907778196	0.4610373880839071	-1.433608847856298	2.301080290178612	1.439275667989907	-10.14860421979162	-10.14860421979162	3.900806311487548	3.900806311487548	-2.353084051147831	-7.166402060564369	3.509266590210755	-1.127420900078557	0.01853110583745678	0.007944051248819443	0.04412339184491158	0.01055224843830979	0.1348593787946704	0.3516447470764519	0.4054445094220452	0.1176642877427067	0.1390430321574378	0.05694545734337489	0.0166542764041896	0.01196490584103659	0.01767767510125132	0.029408536522706	0.009977871007473951	0.009713392311846199	0.2549873393208711	0.01225086234799651	0.010635114952287	0.008546799867877522	0.01138351827869771	0.01018491495142307	0.007751291238857464	0.0979014923680062	0.010311083572634	0.03606988782099125	0.03869748467234473	0.1506551972771003	0.249615004886048	0.0109606178998714	0.2034481650650359	0.0835075731596554	0.04253118404566281	0.01455402735555732	0.007501268020927581	0.1914801438650545	0.01895020801049315	0.01207489491468016	0.01514986604211336	0.01264501671522541
14.86919358079704	-0.1327961131752854	0.06746720765104196	-0.09551960889205099	2.401897945438844	0.9649126735338964	0.9863480668470941	0.7089013191592113	-0.1961900476752077	-0.22243842247844	-0.4763118947601713	0.1405099147476558	-0.005144294991089735	0.7629494684909637	0.7629494684909637	0.2690607626398083	0.2690607626398083	-0.08077681260960251	-0.4490421008004367	0.07595911372221742	-0.3541561489721473	1.033404820774227	1.869882150884143	-0.27278229220511	0.07262539219149636	0.004232792938812138	0.1100845790468662	-2.661558914308842	0.2770417490518386	0.05325378709180162	-0.4810449100572196	2.624932019688572	3.145901071522492	-9.235640819962899	-9.235640819962899	6.40144332099169	6.40144332099169	-2.773414912876909	-5.269842147798554	2.687953101250239	-0.7640517723717366	0.01228387993375584	0.0145800213150495	0.03021208045108494	0.008235617550827388	0.09024120873101579	0.2507016856952436	0.3561014057124487	0.1388559535289735	0.1549545198111588	0.0605978075608757	0.01768684793582616	0.01347990960401144	0.02246373597935076	0.04113093225913749	0.0040516011203185	0.0013108055159918	0.1787739440180845	-0.002420129689004047	0.002680487926537466	0.00448606334058946	0.007780920395279168	0.008583795845063767	0.0109651639035189	0.08828733266095001	0.02063235507143499	0.04383878839169316	0.05574358488238072	0.1195910170559739	0.2085387278013402	0.002362216116463251	0.1939533552323912	0.1796039418861318	0.06934541059965151	0.01814043895888606	0.01485733566742724	0.2265600152632739	0.01617878059950225	0.0109341097530151	0.01475228122993272	0.01185745841361145
14.88399356599704	-0.1162511553413215	0.09115128924128854	-0.101862427702946	2.402842195659189	0.963921885293516	0.9880649816602466	0.6668362128012099	-0.1873415551974114	-0.2229974313023044	-0.4760624190552188	0.1803292740603803	0.04753339534023544	0.6405300781535139	0.6405300781535139	0.3790226427843257	0.3790226427843257	-0.1192507959983191	-0.5145381128041453	0.1039752982968089	-0.3595405593633264	1.189654025799995	1.286389019988616	-0.5838246176701607	0.05540365759965202	-0.1407703042060674	0.1215211880778295	-2.953789670759326	0.9544504089462666	-0.1028909140518295	0.4824557591513857	2.706340765553552	3.766444316759389	-7.137893313863549	-7.137893313863549	8.339367067899822	8.339367067899822	-2.234177561869056	-3.665720549017071	0.908086657858878	0.03475663043912125	0.01499329502774624	0.01789801098992508	0.01936332865686503	0.007677929999834575	0.05245194341790354	0.1535721716089585	0.2855247012827855	0.1621183196983179	0.1636296424663327	0.06752305426405285	0.02040344944595367	0.01822071025043777	0.02470972634912433	0.04659099602767486	-1.767069305528071e-05	-0.004033997064917551	0.1021154057174708	-0.0139869100642727	-0.003481814056918678	0.004842701698731664	0.004552650385827172	0.009176648944790519	0.02054895549796146	0.0778882380001247	0.03341887679646239	0.05399621828420986	0.08642740593474013	0.1048276359988909	0.1785022068974426	0.004243542560059889	0.1911348246149209	0.2866353988364397	0.09833746244649967	0.0193912582082319	0.02873500470034155	0.2593486730676935	0.006500642030996933	0.008979037646654184	0.008290846480084942	0.008822151013069253
14.89879355119703	-0.09963519298497384	0.1050322445324091	-0.1126407247636593	2.403547712976233	0.9605509843563433	0.9899299427861219	0.6257546164896105	-0.1672347523207496	-0.2223573025106955	-0.4610406576668308	0.2196317655414008	0.100486522960279	0.5569235655338652	0.5569235655338652	0.5124324988114315	0.5124324988114315	-0.1406075535921093	-0.5603539451958578	0.1008573290706302	-0.3524525203183726	1.030939005085809	0.5800145558220597	-0.8496766081612507	0.04020574902521645	-0.3159775952191866	0.1289535827682707	-2.532212364820116	1.764475238378703	0.2298097054322011	1.534127343062625	2.561701110742221	3.242680078042808	-4.053618334044996	-4.053618334044996	9.565295906842604	9.565295906842604	-0.4391074562199468	-2.634924881902359	-1.493369121239509	0.8690881645759786	0.01825892514423891	0.01751015443392342	0.01409323016855881	0.01224655598963497	0.0259313220156923	0.07515706936758736	0.2122441518438289	0.1773299783559733	0.1567842211792301	0.0728461408544874	0.02461576856442523	0.02562414865522196	0.02145794504856863	0.04300010686164474	0.007457346378839082	0.007023593429486472	0.04721627864629768	0.0008460692475885101	0.005873373489421279	0.01861807447505485	0.009740521619514528	0.01784302022656975	0.0383042387699353	0.06375427562817106	0.04704914351041544	0.0606675120576693	0.1184357040226863	0.1125991205286647	0.1486041300097678	0.009006791746574851	0.1870203505342105	0.367426165019456	0.1184424021029676	0.01698141343942738	0.04848263410757445	0.27371683740331	-0.003021190498101265	0.007513625272197806	-0.003286335431829754	0.004595764764284743
14.91359353639702	-0.08742648158864072	0.1088516478887656	-0.1260663133515191	2.404035619280452	0.9545018284155714	0.9918261374966324	0.5947762145518463	-0.1355884266770822	-0.2129214069196857	-0.429834936287834	0.2552074535053304	0.139764105222321	0.5227370931920151	0.5227370931920151	0.6585912971307023	0.6585912971307023	-0.1273687599860178	-0.5951620393100258	0.06169051612289574	-0.3358021595914739	0.5911942185989605	-0.04252055145198169	-0.9199224166347296	0.02560828131889196	-0.498585417188751	0.1246228510580666	-1.618800261639097	2.481068284694976	1.081761762144542	2.684873918233783	2.210187512271999	2.014890903769748	-0.5687393116352624	-0.5687393116352624	10.07371655120232	10.07371655120232	2.370925353624292	-2.137235387357697	-3.874635528772889	1.299961350868392	0.01829673152290286	0.01502302667536807	0.01436652723012108	0.02456036235913048	0.01227433856394519	0.02571756930293605	0.1527285852078211	0.1735003630676294	0.1331062625494258	0.07176447175711882	0.02869743900109059	0.03226232210427035	0.01216758397471709	0.03378809240641269	0.03639954890334321	0.04719365981850422	0.02617504873650367	0.0648419839571697	0.04474922409471926	0.05412620228989759	0.03030869369827427	0.03925038804505479	0.06271443658973117	0.04704420004917997	0.05577397037709833	0.05902117006431316	0.1344868341959146	0.1354326841640787	0.1129360482721368	0.01242027506465522	0.1713266977119009	0.3886698179238343	0.1205560002413371	0.01390884232404865	0.06874248334176684	0.2644771902859841	0.00699421458159051	0.009841717451091988	-0.009691377881197942	0.004152165046056221
14.92839352159702	-0.08285594988182046	0.1050171064166642	-0.1383332228243538	2.404290741482349	0.9459492199652402	0.9935302319246354	0.5782421446147118	-0.09532934428696865	-0.1885735629985786	-0.3813661193511707	0.2842934037089556	0.1596733600456002	0.5381220342034043	0.5381220342034043	0.8075898749382866	0.8075898749382866	-0.06961144280682685	-0.6246864278186255	-0.00859859799926916	-0.3173741341474275	0.005299981219590633	-0.4393044544088927	-0.6819098151597813	0.008166056926275396	-0.6488656749858516	0.1022902626196629	-0.6268330475764162	2.908156394363324	2.218428547368153	3.875409667259889	1.697286939928058	0.7163692433862201	2.523005101656631	2.523005101656631	9.974471003413806	9.974471003413806	5.444190578217169	-1.841098750505598	-5.562741619653269	1.122241702146685	0.01577086129963516	0.01237732673259589	0.01804923177153365	0.0436356542165156	0.009024632355047923	0.004828679198862798	0.1135651938057252	0.1457798303897853	0.09850200525506292	0.06233577486157259	0.03081302309980597	0.03478997959069367	0.001606681256270006	0.02548423593341769	0.08849255667387979	0.1168376866939465	0.03467521815544389	0.182894243016771	0.1168562973585809	0.1123272214963961	0.06690609224261218	0.07353324401140092	0.09007050552163093	0.03125496690401985	0.05436361247771442	0.04851025340599836	0.1235047178058176	0.1582558912289292	0.07424151829522037	0.01364515525151113	0.138548348400174	0.3425765773078852	0.1037674965598052	0.01964012172774491	0.08423360018467077	0.2444551027852671	0.06314559847142504	0.02094128278649146	0.009603077611721925	0.01640314193486665
14.94319350679701	-0.08691654825015084	0.09720968291366806	-0.1446532849324633	2.404237276891895	0.9356758556851312	0.9947570956029232	0.5741714103267259	-0.05155889250625249	-0.1480679392686507	-0.3155987765064322	0.305160426262211	0.1630962319772907	0.5917549662803752	0.5917549662803752	0.9516881517636041	0.9516881517636041	0.02960861264221239	-0.6486631101637451	-0.0968183126205579	-0.3053902751620776	-0.5630157312194152	-0.582704207438983	-0.1216096663049034	-0.01659945429689652	-0.7268099094485327	0.06013692058410838	0.02050580295232451	2.951655928828727	3.222562288243564	5.023646214884792	1.119306149888494	-0.1612439047986199	4.506393590541883	4.506393590541883	9.444230750618672	9.444230750618672	7.842338048072504	-1.316916972696862	-6.157925825206294	0.4762559969472249	0.01291062981870265	0.01071286755501	0.02215186107647064	0.0643511065121929	0.01107537375926351	0.002876510138610226	0.09148457946492193	0.1013301230585586	0.06284373541805355	0.04772449168134549	0.03396836977625432	0.03900780472707437	0.00144732480190422	0.02212808854684913	0.1518095006016097	0.19755213157274	0.05553919285995638	0.3318447747399595	0.2086749085655955	0.182455450028347	0.11179719517074	0.114630600338223	0.1162972497528283	0.01955780712571432	0.04326322053832889	0.03348065367650305	0.08963010281839494	0.1706016733034219	0.04080055605805747	0.01332538543943433	0.09395955073507672	0.2532388776416561	0.07625635799729735	0.05010489426266375	0.09428170150001693	0.2420405428239319	0.1846973404625387	0.04572586646433888	0.0770328991978272	0.05068960372842234
14.957993491997	-0.09850795655231141	0.08868202904514892	-0.1408236817995691	2.40374413922859	0.9249378292342373	0.9952307412172682	0.5754073664855384	-0.009831565752112583	-0.09633737791608847	-0.2335162952199132	0.3177828768316786	0.1579319654596112	0.664003203712247	0.664003203712247	1.085868120996113	1.085868120996113	0.1546360182835077	-0.6612701273908819	-0.1865995496643327	-0.304042163421495	-0.9982761849455133	-0.5518922647126796	0.6677145353875055	-0.05133724490937502	-0.7103769471268568	0.00137192582968735	0.06423535669606772	2.64306029480367	3.698729523333459	6.072745472380655	0.6060697632590061	-0.4436228984080299	5.010574080317987	5.010574080317987	8.662460700544141	8.662460700544141	8.855713309013343	-0.2842873528745308	-5.686844809578203	-0.2584273703214121	0.01113162359257996	0.01016321481543741	0.02469588302974005	0.08098529532826386	0.01370866752242692	0.008097845442730527	0.07854577341794997	0.0562362110670568	0.03515817903960145	0.03668143621956585	0.05167932018657652	0.06851269979448692	0.02786730136451079	0.0232868949047442	0.2050956408500242	0.2597963454414243	0.07060514284871437	0.4709822587139704	0.2942834700537758	0.2445719211880763	0.1533854903336755	0.1522580992506012	0.137018496615501	0.01318069925906784	0.02829920395137887	0.02017191031687368	0.04957564288880423	0.1703812387927557	0.01962046714080663	0.01215912227594818	0.05108917318594226	0.1602187691604822	0.04964885801765166	0.1240396733645175	0.1012318679544671	0.2884547256709027	0.3676957408329585	0.08621544955088598	0.2010824787957346	0.1105392623376647
14.97279347719699	-0.1153712485440688	0.08103124231829263	-0.1245910944496019	2.402673116815725	0.9151251654149836	0.9947530969864118	0.5726678930555993	0.02560900995556789	-0.04264329194083628	-0.1367239728631057	0.3239468159531076	0.1523789606561957	0.7330853163032778	0.7330853163032778	1.207405152999278	1.207405152999278	0.282892466187159	-0.6547243714368456	-0.2643619517988163	-0.3116608192868309	-1.260598448896736	-0.4800573122800403	1.521190424770136	-0.09417533118082864	-0.6038099329112216	-0.0666964135993383	-0.5155301582613856	2.122892681373619	3.483630931810599	6.993256710209089	0.2639733459646413	-0.2544876206927311	4.130230440799362	4.130230440799362	7.748769109393246	7.748769109393246	8.275228173531305	1.230323282458669	-4.536761991120323	-0.6987459154651804	0.01057854801722751	0.01038294823164276	0.02577345225727999	0.09122216118383375	0.01471643620333672	0.01265731811649735	0.0672267742676388	0.0245448620865267	0.01966893821109157	0.04005274926583424	0.1040861111446888	0.1568922762242286	0.09343546580788144	0.02905132581868002	0.2294655130474604	0.2802065405700771	0.07145012589505845	0.567935165028714	0.3499038700920919	0.2786468629052874	0.1843058861413219	0.1770666677044442	0.1471104424069159	0.01131996652452772	0.01545917988258367	0.01243652368922595	0.01995178242683911	0.157444426666511	0.0111642156837837	0.01109038933150399	0.0216208379090177	0.09241490071414785	0.03151654007831024	0.2532999498484553	0.1060472940079902	0.4003263406615325	0.5807100685232816	0.1385983016222128	0.3641449201295442	0.1886444050592888
14.98759346239699	-0.1349742196612605	0.0739507897791296	-0.09637239430046715	2.400950607516294	0.9074042003883952	0.9932578499280513	0.5578070878286309	0.05306148691406366	0.003536352356399189	-0.02736846764302515	0.3264883699384615	0.1513788994872848	0.7815957457950808	0.7815957457950808	1.314705073408521	1.314705073408521	0.3927498631551928	-0.6239478831080446	-0.3232681136671804	-0.3222745588261422	-1.353794751107495	-0.4807909048391717	2.251722587815814	-0.1383129989413399	-0.4317713547904319	-0.1338353476510762	-1.549732652832812	1.584545598082906	2.717143750187593	7.742761166471556	0.1203903150968248	0.1127479524127091	2.339750180121926	2.339750180121926	6.734378406631047	6.734378406631047	6.42007827792915	2.911925906667531	-3.225558328756393	-0.6621134648394701	0.01079760763775728	0.01104700973757954	0.02642095617125576	0.09564605608892122	0.01427159209294258	0.01413588343139388	0.05350709972660367	0.009837582361961708	0.01453313345063478	0.06326170160449379	0.1998886945211779	0.3176885685993673	0.1960322174992713	0.04698208501143517	0.2182195870481041	0.2543234948240977	0.06076602491777141	0.6185027890931747	0.367044494954224	0.2748317347178649	0.2058498673522106	0.1859601073295114	0.1430297604559925	0.01202992476810862	0.007064435728085816	0.009776824660193429	0.00644084429852503	0.1296824374756861	0.009220582679722492	0.01287789605554445	0.007605129830355763	0.05502994004580353	0.02246376595515445	0.4288648519078981	0.1091278837181355	0.5662166388036362	0.7782723448649376	0.1919755354448462	0.5256140239100058	0.2673026805320393
15.00239344759698	-0.1547843560336047	0.06602805665415151	-0.05924787936498846	2.398626169307561	0.9025139984781306	0.9908442132583566	0.5257882635983867	0.07347433212590415	0.03640669528776491	0.09136048958166802	0.3279634192220507	0.155135278659583	0.8006039723861016	0.8006039723861016	1.406096596150253	1.406096596150253	0.4700577470996069	-0.5696960146348105	-0.3635138080423484	-0.32914826323112	-1.27828516016402	-0.5868716128176786	2.696877118102511	-0.1741371792551639	-0.2253477871190956	-0.1885111693319424	-2.800072229491537	1.181901329585366	1.731802261363456	8.231328636750861	0.1062942479102784	0.3372763695356464	0.2577146215689865	0.2577146215689865	5.586031525492306	5.586031525492306	3.944095716187066	4.331600162236361	-2.142040157096949	-0.2221225848096735	0.01131296768561861	0.01182679426250535	0.02661621922223231	0.0940389633831217	0.01338123024253799	0.01345018389790386	0.03787048282343368	0.006396456920087237	0.01358049974039512	0.09975316099238196	0.3186681750762	0.5162946127054753	0.3130564616739338	0.09007264455471559	0.1785993390398269	0.1961059390600337	0.04578685318132301	0.644768251601738	0.3554749536228289	0.2393579110886138	0.2254652591930021	0.1842513806304168	0.1272483038513516	0.01321162464152678	0.003365902787471115	0.008961843655012807	0.003483853524525584	0.08829297543894749	0.005857259635434344	0.02373824630069838	0.003016791213259107	0.03735721036176102	0.01899940775537883	0.6131537543158697	0.1156643839593254	0.7442203251929544	0.921982257059768	0.2309256567069642	0.6388635013375508	0.3247079039336739
15.01719343279697	-0.1721228267502836	0.0561132426542445	-0.01828131865079345	2.395890040300841	0.9007618819597252	0.9877765989140976	0.4749825054917761	0.08916320963071142	0.0552804726686265	0.2146039556360167	0.3293729225515692	0.1595849380326107	0.7900063600878608	0.7900063600878608	1.479262446516191	1.479262446516191	0.5107531231495001	-0.49855122124072	-0.3894369959229264	-0.3279647848691352	-1.021632618428439	-0.7370901189722505	2.760395892746776	-0.1925588290349727	-0.01037541207820102	-0.2207728959097457	-4.056394922314076	0.9415492994316835	0.8463031497944004	8.337100170712924	0.08296290298716527	0.1854024749907054	-1.595241983589873	-1.595241983589873	4.262019156309536	4.262019156309536	1.517646033734301	5.169131135157417	-1.404835344644083	0.3883582904337124	0.0117351440748727	0.01208700496965749	0.02513657274209256	0.08450782637642552	0.01263276203251639	0.01210890840830403	0.0238380862880801	0.006751004006470305	0.01017480014410493	0.1322539566711042	0.4152050234988667	0.6778722806769204	0.408251850437218	0.1620645647167874	0.1266646184550879	0.1278918855003119	0.03190799774504682	0.674586566855673	0.3359020184711001	0.1932216905557994	0.2503876701086619	0.1830895392093875	0.1097143366670728	0.01320228738087269	0.007092370350741811	0.007389767541427596	0.002331740443008046	0.04407186005970497	-0.001580278671731371	0.05265391382752272	0.001790507888068249	0.02766436062130126	0.01766299171139592	0.7503816497351679	0.1362407312491552	0.8739139184132064	0.9918227757307025	0.2421371079134182	0.6699653887436166	0.3435026379666604
15.03199341799697	-0.1842744955447965	0.04439290423532287	0.0206898072734124	2.393043145048876	0.9021334245901893	0.9844340696925322	0.4065385677539068	0.1017138432877905	0.06293440309992385	0.3358694610216003	0.329483175067991	0.1583520928534881	0.7558637704685597	0.7558637704685597	1.531487399330438	1.531487399330438	0.5188739343417288	-0.4200235033170764	-0.4056255101999353	-0.3179811722062264	-0.5961759840579065	-0.8243779604318116	2.438498565650521	-0.1881118430269618	0.1954989559261254	-0.2257603054861657	-5.159019017232004	0.7447428694157285	0.1914281658759905	7.971558348898369	-0.1032161447837992	-0.412255282868059	-2.92854679096048	-2.92854679096048	2.759412096592171	2.759412096592171	-0.4519456417527946	5.358617755143781	-0.894088399762239	0.9388310926650189	0.01167908565384049	0.01093623746311683	0.02137337750354512	0.06685373165242914	0.0120202101613247	0.01079826268479685	0.01477357499444342	0.008354984231039839	0.002115089871304371	0.1431463654470883	0.4465546264520203	0.7317975712580193	0.4487836996165286	0.2438863031927976	0.07938559129329889	0.06932234597383506	0.02127683508597072	0.7182422604988082	0.3276702118780042	0.1633690884396	0.2817310667949834	0.1930089975857285	0.1031671481662052	0.01120425414453644	0.02555041380356366	0.005665972642623808	-0.0001103504006188926	0.0156027812007698	-0.005623566494552069	0.1059557997431189	0.004645766998797391	0.02021874636628455	0.01658809542871261	0.7925785299605687	0.1790281379362898	0.9009984228608249	0.9829120239203487	0.2214531015645105	0.6092911348556339	0.3175618823285958
15.04679340319696	-0.1892526575144627	0.0324554250627646	0.05244902739692206	2.390430264988012	0.9063926093376118	0.9812155051923227	0.3238247554083468	0.1103715881620933	0.06219646101480188	0.4481410409266811	0.3250387550606896	0.1455300306563641	0.7066751404118369	0.7066751404118369	1.5603713070598	1.5603713070598	0.5017135100133877	-0.3425118600505744	-0.4141727792628476	-0.3010211509647039	-0.0811287244010155	-0.7745601776780421	1.815300078661575	-0.160896356280569	0.3784488930873562	-0.2057094675044225	-5.968122984684714	0.4070674508689051	-0.3306584329344157	7.14908983487923	-0.5565797143583212	-1.334342943780063	-3.677028094825221	-3.677028094825221	1.126794267648331	1.126794267648331	-1.907284523077297	5.089959834505879	-0.3851058547802885	1.321051481939802	0.01082270304667017	0.00804842506858571	0.01645144859997168	0.04511504925493268	0.01137492202854303	0.00955746463166535	0.01135692428929912	0.01515634207668436	-0.004139765801198871	0.1269771081004194	0.3990559402313208	0.6555939401864399	0.4216674397315516	0.2999837946365689	0.04740929410974585	0.03072208524667647	0.0142960453595992	0.7582644405387843	0.3376953821347771	0.1688849241927606	0.3115617645993602	0.216706965830377	0.1149391076304059	0.008007175945007647	0.06698094564432613	0.007902640941769193	0.002525116645418154	0.01985487830151797	0.009715655766331467	0.178634498692414	0.01920320063358928	0.01379577110294225	0.01499099655447747	0.7239548554362992	0.2406797543132725	0.8059169985835815	0.8989907676956976	0.176081528210503	0.4749278560972534	0.2545834405270143
15.06159338839695	-0.1868291960802176	0.02233429869109503	0.07348643447990828	2.388355785911295	0.9131072973916491	0.9784366192665555	0.2322607634580613	0.112064276559076	0.0532009882389137	0.5456596747753119	0.3118881975903561	0.1183431783052952	0.6504799245307977	0.6504799245307977	1.564504959537276	1.564504959537276	0.4652909394844348	-0.2702747395761386	-0.4138875540506536	-0.2794271016033776	0.3852190027041396	-0.6007357423022583	1.025854525448148	-0.1168777859207418	0.5235672067851036	-0.1689028166502836	-6.346253900142722	-0.1897937590509394	-0.9253115870059373	6.004339423202173	-1.280835485571248	-2.308774222269223	-3.90574602438351	-3.90574602438351	-0.553691960712306	-0.553691960712306	-3.021268964838151	4.685550328219547	0.3208106195551543	1.570686448967733	0.009249831647605759	0.004998919354854138	0.01229074553153637	0.02565647175269964	0.0107039854986384	0.008707367564959861	0.01138506425537724	0.03354680755432614	0.006622651972514444	0.09506479663149793	0.2946227353959935	0.4848713435293514	0.3402123756342726	0.3037269477918932	0.03172134101083679	0.012259320871084	0.01066683782669781	0.7591590893877838	0.3558683591548317	0.2084731271482517	0.3249444009904232	0.2453862054834882	0.1410370924009663	0.006697066156648473	0.1323609482427305	0.01926861844491765	0.02250576309145111	0.0610220945138291	0.05858451904683425	0.2499263533502362	0.05259799140879642	0.008919387189224625	0.01270209499090607	0.5678598845535914	0.3040151791179904	0.6205295710441001	0.752304715838272	0.1204660531185578	0.3073838601776995	0.173368601643509
15.07639337359695	-0.1789027018182905	0.01519635518012247	0.08241208347951004	2.387004762467557	0.9216283951897317	0.9762633835482771	0.1390091553442978	0.1031409607858841	0.03336695482833914	0.6253327000442384	0.2866280084579332	0.07860159820243776	0.593799118005742	0.593799118005742	1.543824516204219	1.543824516204219	0.4124447872356413	-0.2027988666708881	-0.4011304638897857	-0.2543760585916567	0.6749382671761488	-0.3991608866481015	0.2062968304693464	-0.06639889460933857	0.6153255741506081	-0.1261032784289191	-6.195938114061605	-1.005417229450937	-1.708450666335489	4.735734364658422	-2.170380266838843	-3.016286420175773	-3.696368704750097	-3.696368704750097	-2.193058426822561	-2.193058426822561	-4.011701180384016	4.432276729131305	1.317506089100253	1.805412851149022	0.007939320542593022	0.005985880950901499	0.01005551510192503	0.01307952885689517	0.01024641661525725	0.009469095216256837	0.01145811663484031	0.06539706266004852	0.05070795224393412	0.06756372241562722	0.1753904229698252	0.2879729262268843	0.2380133985737873	0.2590576459157308	0.02613928099741391	0.007571822160630149	0.00953494007457794	0.6909395655497418	0.3599894362236722	0.2578205996176264	0.3077254994960604	0.2619858597906248	0.1669561790654374	0.01212762463206784	0.2086268179006237	0.04170867430339766	0.06833343311663947	0.123873089384951	0.1388406178633658	0.2907273420726644	0.1016242726047717	0.007499297450520496	0.01044405884869979	0.3743649448963949	0.3441545288089408	0.4176264494636238	0.566574057119541	0.06936209936733116	0.1541002187858781	0.09629547620557073
15.09119335879694	-0.1685676795329116	0.01049565562134636	0.07967212189454048	2.386391028887084	0.9310983575397711	0.9747061011620928	0.05185833511367462	0.08167586386549557	0.0001308242615361381	0.6868256711124993	0.2479584484978838	0.03216748013432636	0.5423745570434807	0.5423745570434807	1.49966404754968	1.49966404754968	0.3435504498564416	-0.1366100076179837	-0.3716472711183331	-0.2253526988205217	0.7540781438692985	-0.2944599275976705	-0.5446679245822643	-0.02129596918494218	0.6434567187334506	-0.08647774963454492	-5.527464663127293	-1.857543826238745	-2.594950532067203	3.51008599222196	-3.059713776740245	-3.227632895873996	-3.0708949966359	-3.0708949966359	-3.711095749008951	-3.711095749008951	-5.0340239554746	4.455938285450332	2.566142421806784	2.135590971339585	0.008891121751932154	0.01642299798838039	0.009663273104176194	0.008026388581164327	0.01036036303854233	0.01355935532666096	0.009302252851008035	0.1040285229450648	0.1313059841736574	0.05881460937454194	0.0801208856113151	0.1277351175802807	0.152920907942483	0.1976664065640343	0.02341990602498196	0.008955746897699689	0.00973146364227582	0.5509151762588037	0.329076784518643	0.2821524577421473	0.2562600655481076	0.2508559058518691	0.1757393993959128	0.0282562106122742	0.2711941277388183	0.0707377263656635	0.1346465725403603	0.1783541968311485	0.2263763405767355	0.2804485765686876	0.1500493133699353	0.01330969709485135	0.01026985020287326	0.1974493818623373	0.34032953694984	0.2730493057743482	0.3748358815789071	0.03248456475732277	0.04900895225229227	0.04020403407995366
15.10599334399693	-0.1582202744931881	0.006035085897622266	0.06682608422291825	2.386348869021432	0.9405373709914532	0.973667278056961	-0.02266123345001527	0.0487441925360582	-0.04579839734845335	0.7312515403809178	0.1969778089473836	-0.01354315095104148	0.5027863765497294	0.5027863765497294	1.434656807452455	1.434656807452455	0.2584509423076795	-0.06836187872107916	-0.3227265718108566	-0.1907053362468276	0.712649952656159	-0.3718203223563683	-1.179060524000543	0.00851071134544058	0.6089057259961755	-0.05502064759424828	-4.493064770565707	-2.538113050263477	-3.359226734670132	2.394799055656789	-3.80633588160771	-2.919546063034391	-1.988330944196755	-1.988330944196755	-5.035383514626989	-5.035383514626989	-6.145115416762179	4.687064867125135	3.911703052211748	2.600499570063177	0.01421567079478872	0.03902005031461855	0.0103304627697304	0.008057644842342893	0.01130545428272212	0.02178160416436058	0.005935619000749608	0.1377742579445488	0.227730464936086	0.0681005742840447	0.02723510792160761	0.03471620308678259	0.1079346125500155	0.1540536050475864	0.01984836915279582	0.01107383238890412	0.01026765126226642	0.3689622924259289	0.2582909908446305	0.258968856663197	0.1818559820719048	0.2085381834531894	0.1589378381010397	0.05454299695484262	0.2976935886482419	0.09648558795322444	0.1998900378599263	0.1970466045596425	0.2876165904676881	0.2209345339959145	0.178580720670321	0.03104797139241184	0.01554014770501447	0.07359980300010879	0.2882844052709121	0.2225070216683473	0.2101276738131254	0.01250095412976352	-9.11480031181495e-05	0.01062157323056937
15.12079332919693	-0.1479309092306063	-0.001180030610089273	0.04576272917187586	2.386577202705532	0.9489960172894569	0.973012469399926	-0.08106378236751056	0.007860698732922448	-0.0992774882774777	0.7594371768900262	0.1362956229491903	-0.05291590677598033	0.4833371393890393	0.4833371393890393	1.352551094863337	1.352551094863337	0.1585672521014474	0.002540440238582124	-0.2548660385096354	-0.1486757016377296	0.7115139377690225	-0.6366639636067231	-1.686224141046377	0.01786438109966613	0.5241888547595966	-0.03254502014231161	-3.348816672337052	-2.937636854943214	-3.777774174719292	1.364089026525243	-4.35210059158076	-2.305137334712521	-0.4270987669535923	-0.4270987669535923	-6.092610355982152	-6.092610355982152	-7.236112706895472	4.916087992888148	5.13431984196181	3.154438249162114	0.02409582767133705	0.0695199302062018	0.01125719673990378	0.00997757568188614	0.01295810454379438	0.03252646739934886	0.007001339978653438	0.1585525525429689	0.3020451397487967	0.08304384311259382	0.01218026261870985	0.003425341232577823	0.1008024952092011	0.1415642767718763	0.01553850516205904	0.01187787545664104	0.01063295657648317	0.1933764906405607	0.1652942813086273	0.1946325179639172	0.1060352124699541	0.1478691031215319	0.1226872399372006	0.08474579056866009	0.2829167380506889	0.1090945917362036	0.236425346025162	0.1738406260513828	0.3018726538117271	0.1364014943308333	0.1797249679750117	0.06405755236007707	0.03024616951596815	0.0112729112436223	0.2053871941267614	0.2451166582046584	0.09403248918789091	0.006081204604324935	-0.008114622993214882	0.002345569249098163
15.13559331439692	-0.1353542108382708	-0.01376507485014239	0.01820463089171883	2.386733522825197	0.9557346024148378	0.9726259561887576	-0.1235934191801116	-0.03683160424631314	-0.1524281252143526	0.7712037654251366	0.06868689747936632	-0.08446239661282183	0.4926096793265232	0.4926096793265232	1.257851799672862	1.257851799672862	0.04851941906134052	0.07330422417893691	-0.1721251885441658	-0.0982932803411244	0.8844026695635594	-1.021204225010549	-2.065362626287278	0.007448544362406693	0.4073827675590228	-0.01776766764750508	-2.35926444232254	-3.085180127135192	-3.704536748668212	0.3651756046873799	-4.721991790368499	-1.74215764657811	1.509131528543883	1.509131528543883	-6.809681956412851	-6.809681956412851	-7.970991295580888	4.900763969932576	6.023964932158599	3.696677642220873	0.03501465316164426	0.09601339175715025	0.01195087462053651	0.01161592407179574	0.01464401633688216	0.04156546407173544	0.02200605177411443	0.1674144572689607	0.3244380347291914	0.0913708133824097	0.01704094143472243	0.00710234617030496	0.1107148055604093	0.1503794628956643	0.01209089899941508	0.0115480534255948	0.01074408552091042	0.06786700496044559	0.081719597526904	0.1197105666494533	0.04995368104785947	0.09118613992242125	0.0834688233293655	0.1102489616008105	0.240962721670815	0.10463018513484	0.2279290019528263	0.1267947794419327	0.2734823402313249	0.05933103009183398	0.1629018532294095	0.112564659366993	0.05779484003631291	-0.005013372017084365	0.1223758330771454	0.2872924213510268	0.0300838029604496	0.006973509388500928	0.001733149994961502	0.005025507410777345
15.15039329959691	-0.1174600269197117	-0.03294884046350519	-0.01434817353630662	2.386554905338874	0.9604017754891071	0.9724276846372379	-0.1534494071234745	-0.08225229321047872	-0.198045875028097	0.7664382329819009	-0.003719718351136422	-0.1105559401771716	0.5355772991066444	0.5355772991066444	1.155169824985122	1.155169824985122	-0.06432891338934121	0.1396173495255678	-0.08069363270003632	-0.0398659215402777	1.27108260961977	-1.430570579318873	-2.310390734839457	-0.01766103920531199	0.2744094820255005	-0.009474917190555113	-1.694704862255199	-3.090947860540592	-3.073439457080208	-0.6218668762800459	-4.975139644386775	-1.550844922997691	3.589509383518711	3.589509383518711	-7.139955477413664	-7.139955477413664	-7.922656887419672	4.478420353441181	6.468253009914673	4.124771358695381	0.04072670670871292	0.1043276283117741	0.01223659676688755	0.01225945613154151	0.0153747720855657	0.04395980752791392	0.0602397851028746	0.1722552970022065	0.2952527958770281	0.08977113665030023	0.02381733824476475	0.01772926090727803	0.1160655679743656	0.1642642485215197	0.01055036831237047	0.01098048800918891	0.01072648021447141	0.01388063050490263	0.03466547713602348	0.06641243397293634	0.02506799665689902	0.05706126586942933	0.05676471155156344	0.1254580479648125	0.1928257687519548	0.08671969099906951	0.1796439838913178	0.08246104543513078	0.2239894123159547	0.01274308135894827	0.1453265832157617	0.173743540191151	0.09957865728230227	-0.0001163071348484876	0.06584326984046736	0.3046908298390964	0.00625622490926258	0.009479822335886942	0.01147097756529655	0.009474610163383015
15.16519328479691	-0.09301239458935827	-0.05806607897828356	-0.05039895918650114	2.38596115168807	0.9631819519897891	0.97235778083885	-0.1751257466504367	-0.1270212785629109	-0.2330966422155182	0.7472640072650848	-0.07935001567239364	-0.1347695613403509	0.6093656405420544	0.6093656405420544	1.048381229682188	1.048381229682188	-0.1736048994107447	0.198979038331615	0.01382650234225544	0.02491775865753393	1.824276425098958	-1.799941270757752	-2.425915842224518	-0.05113901955087346	0.1350230006615736	-0.006752641624820237	-1.372153420282176	-3.056911634342709	-1.925544016090339	-1.584554669737982	-5.162382319924967	-1.842656627701682	5.598835954001039	5.598835954001039	-7.111139322950523	-7.111139322950523	-6.910580047026052	3.640856354972402	6.50920383063653	4.391745979655055	0.03675050033080342	0.0874556118566755	0.01215432991487985	0.01211582563229285	0.01452394422224861	0.03734310004263906	0.1243240034468212	0.1804812606132562	0.238762803972917	0.08260018820988815	0.02315745798041426	0.01959478937960778	0.1075616092079249	0.1749160682330989	0.01084937448173365	0.0107857731488139	0.01071357511051928	0.02558444863534847	0.03148837624403666	0.04789787800337857	0.02981895699369522	0.05041655174268652	0.04799976529215137	0.1304492636071172	0.1519062451707862	0.06252843811685001	0.1107130944232046	0.05664415837042241	0.1737845695902925	0.00068295180728772	0.1384719132746738	0.2432173641581091	0.1538395866141977	0.006939837649231574	0.04424180096766957	0.2853089781858802	0.004750496238441961	0.01059801365881039	0.0137433423747875	0.01114804467614519
15.1799932699969	-0.06402823610239751	-0.08668186854032089	-0.08827601771733931	2.385086948244554	0.9648275369673875	0.972355631133024	-0.1929781620583774	-0.1711267578058788	-0.2605807206519724	0.7194700045148079	-0.1566818874328616	-0.159070535610402	0.7017497186033397	0.7017497186033397	0.9400631841833037	0.9400631841833037	-0.2783683161451764	0.2531010514361977	0.1086139564253132	0.09321061937549513	2.460874858348119	-2.125787104638731	-2.456545548732495	-0.08798710485800776	-0.006339813383269097	-0.007601116490970223	-1.262987302789991	-3.026837499783082	-0.4566731970831649	-2.520496168621459	-5.319306037626245	-2.464458102171099	7.490339129124648	7.490339129124648	-6.860189607184402	-6.860189607184402	-5.232827830451355	2.543718135738833	6.319278126939442	4.541814878093041	0.02495584897228314	0.05231177944117377	0.01186217419087398	0.01161948401378981	0.01244534603022646	0.02423867255192214	0.2057401536578907	0.1932854908194435	0.1763394125054823	0.07439132597422735	0.01573135967731399	0.01223008493419951	0.08884971091684417	0.1824946389153776	0.01219445802580976	0.01098197671239645	0.01074417700557761	0.07564565945027948	0.05713442454616981	0.05385314003280967	0.05210317532163973	0.06171165009536923	0.05142277309717049	0.1295299321130062	0.1188185706316633	0.03705294069697537	0.03667115002492199	0.04654334249773379	0.1294122862307918	0.01027273215638707	0.1415062928981033	0.3165968048172732	0.2154524412850104	0.01015260622750315	0.04603661994923698	0.2428142847129718	0.01154541993748943	0.01018606977117425	0.01006857713743634	0.01013311195702669
