NormalizedFiberLength
version=1
nRows=51
nColumns=5
inDegrees=no

This analysis gathers basic information about muscles during a simulation (e.g., forces, tendon lengths, moment arms, etc).
Units are S.I. units (second, meters, Newtons, ...)
If the header above contains a line with 'inDegrees', this indicates whether rotational values are in degrees (yes) or radians (no).

endheader
time	recfem_r	vaslat_r	vasint_r	vasmed_r
     14.43999401	      1.11633217	      1.00922837	      1.03247249	      1.03796157
     14.45479400	      1.11258370	      0.98804647	      1.01118070	      1.01846115
     14.46959398	      1.10523298	      0.96810977	      0.99120446	      1.00013007
     14.48439397	      1.10148250	      0.95174311	      0.97479545	      0.98505312
     14.49919395	      1.10912372	      0.94156174	      0.96456108	      0.97564515
     14.51399394	      1.13260522	      0.93986522	      0.96285272	      0.97407466
     14.52879392	      1.17204128	      0.94815327	      0.97119010	      0.98173907
     14.54359391	      1.22480279	      0.96696933	      0.99006200	      0.99908081
     14.55839389	      1.28742785	      0.99585869	      1.01902085	      1.02564643
     14.57319388	      1.35631554	      1.03324522	      1.05678100	      1.06017378
     14.58799386	      1.42687047	      1.07604972	      1.10063904	      1.10006613
     14.60279385	      1.49418406	      1.12068972	      1.14727903	      1.14217948
     14.61759383	      1.55710349	      1.16649615	      1.19628019	      1.18628926
     14.63239382	      1.60772090	      1.20839702	      1.24256761	      1.22766547
     14.64719380	      1.63889428	      1.24247186	      1.28190877	      1.26249024
     14.66199379	      1.64820067	      1.27012637	      1.31341277	      1.29014117
     14.67679377	      1.63440934	      1.29402813	      1.33685007	      1.31123252
     14.69159376	      1.60233988	      1.31232190	      1.35464084	      1.32761012
     14.70639374	      1.55527873	      1.32366596	      1.36579099	      1.33792981
     14.72119373	      1.49597094	      1.32702166	      1.36910876	      1.34100743
     14.73599371	      1.42917149	      1.32276858	      1.36490533	      1.33710873
     14.75079370	      1.36046370	      1.31261216	      1.35492495	      1.32787257
     14.76559368	      1.29415519	      1.29846486	      1.34114515	      1.31517620
     14.78039367	      1.23059693	      1.28149956	      1.32477890	      1.30018052
     14.79519365	      1.16713742	      1.26209614	      1.30480634	      1.28261340
     14.80999364	      1.10342254	      1.24042506	      1.27948824	      1.26035650
     14.82479363	      1.03948729	      1.21294596	      1.24771370	      1.23223863
     14.83959361	      0.97563726	      1.17731984	      1.20807133	      1.19686900
     14.85439360	      0.91510978	      1.13446007	      1.16187745	      1.15533172
     14.86919358	      0.86584696	      1.09037297	      1.11549379	      1.11350782
     14.88399357	      0.83119041	      1.04962265	      1.07347483	      1.07539060
     14.89879355	      0.81580755	      1.01953308	      1.04287839	      1.04747719
     14.91359354	      0.82296699	      1.00679678	      1.03002208	      1.03571939
     14.92839352	      0.85054522	      1.01255702	      1.03583000	      1.04103292
     14.94319351	      0.89213420	      1.03226219	      1.05578212	      1.05926223
     14.95799349	      0.93927200	      1.05776433	      1.08181226	      1.08297667
     14.97279348	      0.98443900	      1.08081654	      1.10557180	      1.10453358
     14.98759346	      1.02382011	      1.09623394	      1.12160139	      1.11902496
     15.00239345	      1.05700545	      1.10213558	      1.12776913	      1.12459175
     15.01719343	      1.08535524	      1.09885380	      1.12433717	      1.12149471
     15.03199342	      1.11071016	      1.08812533	      1.11315615	      1.11139481
     15.04679340	      1.13389395	      1.07216872	      1.09663075	      1.09643288
     15.06159339	      1.15399447	      1.05309164	      1.07702397	      1.07862112
     15.07639337	      1.16928834	      1.03300099	      1.05653281	      1.05994730
     15.09119336	      1.17873720	      1.01414105	      1.03742904	      1.04249531
     15.10599334	      1.18370135	      0.99926015	      1.02243852	      1.02877689
     15.12079333	      1.18882176	      0.99184223	      1.01498858	      1.02195166
     15.13559331	      1.20075639	      0.99538737	      1.01854749	      1.02521277
     15.15039330	      1.22474150	      1.01160742	      1.03487180	      1.04015649
     15.16519328	      1.26089213	      1.03859579	      1.06222397	      1.06513889
     15.17999327	      1.30283460	      1.07053369	      1.09494414	      1.09490323
