Inverse Dynamics Generalized Forces
inDegrees=no
nColumns=21
nRows=51
DataType=double
version=3
OpenSimVersion=4.5.2-2025-05-03-6a4c6ec41
endheader
time	pelvis_tilt_moment	pelvis_list_moment	pelvis_rotation_moment	pelvis_tx_force	pelvis_ty_force	pelvis_tz_force	hip_flexion_r_moment	hip_adduction_r_moment	hip_rotation_r_moment	hip_flexion_l_moment	hip_adduction_l_moment	hip_rotation_l_moment	knee_angle_r_moment	knee_angle_r_beta_force	knee_angle_l_moment	knee_angle_l_beta_force	ankle_angle_r_moment	ankle_angle_l_moment	subtalar_angle_r_moment	subtalar_angle_l_moment
14.76132743	14.30166372084777	-28.71025781572236	4.576245940975395	-37.75877043969412	-71.73235706583462	56.93316453673684	34.92137495234185	-82.48624403349736	4.329886074247681	-15.03392107033859	-17.91649773258463	23.25977007480025	-43.06191870142126	-0.09894656773283651	11.16609002014478	0.06701732480007824	-44.4273985595895	2.562512043266425	8.147890274933383	-2.161464536769144
14.77599408	2.084607287325606	-10.6654925731674	-0.2737788929210886	-6.439678336252006	10.39617223579127	20.28309795240276	53.92109314765371	-27.38729357948427	-2.963030885658313	-44.90640103955195	-5.178581536167941	20.50099302092385	-31.40692013945622	-0.08923302400768557	10.25404773043519	0.09274757421869052	-12.99950454396179	1.5583942280617	1.494956661273483	-1.573526047045424
14.79066073	-4.297713833187936	4.014760289310775	-4.21264024777401	12.08171862339329	35.39328493366369	-7.121546340182889	67.55939829199964	14.79156574318002	-5.826353209470154	-67.31416803248082	5.786302345183259	16.8627137766639	-20.26729405280691	-0.07533424876621764	13.10080175983814	0.1069430372626162	5.262108559498144	0.9074391362093942	-2.214590735116189	-1.094435033929348
14.80532737999999	-4.965592114684923	11.72893681664376	-5.504719453928605	15.59244853907515	21.68316747634002	-19.56792464334142	74.8672084403388	37.38370718422457	-5.33284382521853	-79.81766533454284	13.42284469835377	12.92794154875767	-11.30268940185551	-0.05940456450295082	19.51979360615781	0.1050101879009918	10.88219612172811	0.6034753703735739	-3.016899760089131	-0.7621296377148153
14.81999402999999	-2.193885432324615	10.51562484309532	-3.236519308282594	8.127851094533119	-0.5465660562574486	-15.97879758766669	77.18922327042823	39.09070756677818	-3.699002399957353	-83.60519289005359	17.17879843432114	9.512606793107897	-6.280482830261646	-0.04500480836502173	28.05703862701154	0.08710052683703416	8.726004559735864	0.4291638910993889	-2.145624650110406	-0.5546847546832901
14.83466067999999	0.9109758301951687	2.862795324933121	1.300367037947965	-1.704111958721146	-11.80967731161523	-2.707694507077527	77.50472490574319	26.59919853616438	-2.778394778852111	-83.15411750728957	17.95115928616099	7.114522635970398	-5.739277041139713	-0.03493803388382382	36.94611647120668	0.05889829216684098	4.554782751551044	0.106709540974851	-1.086481473302771	-0.434903695103744
14.84932732999999	2.041640286527727	-5.036249505204972	5.044839461067514	-6.384844483051403	-11.02051418373865	9.519717849014206	78.74867313870975	11.44151585361031	-3.336207520382736	-83.52635409552785	17.40077450406487	5.707325259497244	-8.598909054372763	-0.03021690267577278	45.02834627352699	0.02915672123677251	1.939314516698886	-0.3947746970626548	-0.6079980688635019	-0.4468889230845251
14.86399397999999	0.6743576809701981	-7.632005812597765	5.378427094245462	-4.287257723617334	-7.118048708414743	12.60999493751496	82.42781193821268	3.115500725718375	-5.077029796801717	-87.51611250612709	16.96774619799731	4.886803173421712	-13.01778518182704	-0.03039640959733513	51.9715959140316	0.005882229733955142	1.597927981382795	-0.6545733860753127	-0.6539010918516437	-0.7302606164185689
14.87866062999999	-1.995044075554222	-3.987484994412384	2.148044120872074	0.4355621586921385	-5.685173359267147	6.106443622367388	88.18089180403575	4.119953003325335	-6.965476789651637	-94.45193150119974	17.26923283319778	4.141670743249073	-17.40780634835678	-0.03439877776662399	57.69100605894074	-0.006641625387578719	2.612685971533861	-0.012604979692154	-0.8660977781629741	-1.337542746505411
14.89332727999999	-3.974832363956891	2.095471077750732	-2.34812274340094	2.291161791800859	-3.939817915613937	-3.738635653048265	94.20142537958189	10.34875323351619	-7.713780407309605	-101.1828399208262	17.75989595433976	3.13000000094851	-20.79182411230067	-0.04108229925774225	61.49642204717654	-0.008874897362934755	3.853914613301067	1.669536019466114	-1.030842833763177	-1.901606143756969
14.90799392999999	-3.883957655171683	5.570185225836947	-5.195729866769328	-0.8055076331771704	2.239853193885396	-9.507219750133014	98.21093214203106	15.38863660968705	-6.449011560500212	-104.6612642962408	16.23679347851842	1.994280960588113	-22.72528342621212	-0.049352940781904	61.72417958973785	-0.00502159644796207	4.688729784529322	3.013372647909503	-1.151090002489842	-1.418642726840047
14.92266057999998	-2.225660868740645	4.287217871992206	-4.77021562693549	-6.377247702150704	9.457614273280603	-8.163263885776527	98.47823482850723	14.85746622364219	-3.297986913727347	-104.2782008864572	8.627139195873504	1.612812833512073	-23.22526312205697	-0.0578886055959397	56.12382306794749	-0.0005986070626265302	5.001177789925195	0.7267619372486518	-1.291455838288054	1.521958288015183
14.93732722999998	-1.086267440248138	0.4537072141387318	-1.486604452046219	-10.04354022436732	9.177251487263238	-2.517970669375226	94.2789509086675	8.179981334724488	0.5537167545393545	-101.3769443727381	-9.383655263228491	3.392673225649677	-22.703594542574	-0.06474325378273775	42.36292065481763	0.0003267664230201936	4.922048415783854	-9.351507856373043	-1.439969162953563	8.048430505944904
14.95199387999998	-1.713450199597709	-1.839160096976142	2.586655340799421	-8.69980930492925	-0.5737944104801613	2.06105206505582	85.68900180483769	-2.234048912898104	3.509389487110703	-95.9682424043078	-38.63091100554236	8.38172474079526	-21.70937123415496	-0.06735785222279386	18.20770368832011	-0.003196763296084972	4.596131562878869	-29.92961078969934	-1.503339651835842	18.35249000276273
14.96666052999998	-2.864671015688407	-0.610427263523127	4.967896383375113	-2.145301077646125	-10.70048365311661	2.40177326602489	73.30728498523004	-12.93845696264657	4.556527355352953	-85.20107218120164	-73.95022452166961	16.2474357994605	-20.55245398831492	-0.0633751189314565	-17.57045088588166	-0.009448566110476129	4.108221576189186	-60.20644757095492	-1.40008600460758	31.5550092828428
14.98132717999998	-2.645327106783359	2.426885272091109	4.44440506637376	6.366865337271631	-11.14029667852974	-0.3568250627873694	58.39942775663549	-21.0990325112472	3.90818261723342	-66.68768117241781	-106.249972124252	25.03369327420511	-19.10006716102831	-0.05192550016609013	-62.78852130414877	-0.01628487640670644	3.526969397266404	-95.73965145607951	-1.148632726514664	45.96276446397229
14.99599382999998	-1.194753497478855	3.793565612579012	1.968111219985315	11.25107366656381	-2.414936568900566	-2.316356004150019	43.10050763982102	-25.22205534687174	2.792340065451799	-42.5452320745885	-127.5866139899005	31.95219968623118	-16.9043706491162	-0.03442277882460898	-109.9342122827384	-0.02354287026920608	2.959881488512147	-130.310130946211	-0.8726827024793637	59.35102778840933
15.01066047999998	-0.1828461908238168	1.385989564854149	-0.2775248047661887	8.349304603721745	5.467135267058853	-0.2397821489876575	29.91388882493026	-25.08845582111019	2.528594681367219	-18.58987758760253	-134.683759715471	34.67976384771549	-13.55672498476309	-0.01412645423268675	-147.5482259178947	-0.03370404183766426	2.54108912682372	-158.2442265382246	-0.7205283714588471	69.35429966599106
15.02532712999998	-0.2079307308833874	-3.72477969394104	-0.8988707516880934	-1.184940668182452	3.873642602942899	5.457072964300974	20.42884604297864	-21.3300974351704	3.575395743781224	0.2203161595202161	-128.9351390951189	32.46437687553781	-9.054487830502811	0.005431777132269036	-164.8216614794773	-0.05008202692728489	2.356380056667563	-175.6401607028896	-0.7613477604957609	74.15507664326901
15.03999377999997	-0.07538796139569659	-7.85152012506683	-0.455492069365881	-11.00503725108233	-6.207929856958231	10.25567131671045	14.1499903361113	-15.000417997273	5.222970198026516	12.78003996284382	-114.206331116488	26.48175249089833	-3.982530400509928	0.0222947407491383	-156.528771506961	-0.07367706187546721	2.376184215750835	-180.2638385036274	-0.9354874626553762	73.10599129297003
15.05466042999997	1.178962977133722	-7.278738002317207	-0.6210122961668759	-14.19282565768451	-15.42792533139377	8.766569125251831	8.462337195590599	-7.263296967244417	6.094436766596019	20.94464741057961	-94.27534916164939	19.1617427851444	0.6549866948675809	0.03704875759037071	-125.4873344407944	-0.1010563655821693	2.462948829663832	-171.0857766132599	-1.092491481755806	66.73252764260135
15.06932707999997	2.493914322021717	-1.326454845538665	-2.119078868668475	-8.446436282436464	-14.27590154593863	-0.1741700875075769	-0.07275732988649253	0.8182165411335065	5.059849175524253	27.1192571168321	-71.14738806590117	12.81038486296164	3.996786853659792	0.05212207935235495	-81.59911891503562	-0.1250718454632521	2.455150388483337	-148.4677979751363	-1.087498395851879	56.20351269284519
15.08399372999997	1.893130079382396	6.496916966947955	-3.523007687919153	2.481688544990863	-1.107969882382057	-11.13775904103438	-13.86551682582738	8.404332530859705	1.963818971798164	33.43098211569144	-45.18534666501871	8.451396395845672	6.034000930722886	0.06955673779848287	-38.18132498712692	-0.1382142743382706	2.265315404136051	-115.0247782690485	-0.8699877723313943	42.93140018496312
15.09866037999997	-0.6852207000292332	10.69549867118207	-2.430306978464569	11.79532225797238	15.98510780633205	-15.6683220186255	-32.99575881483174	14.86886677024877	-2.239571225507179	42.35907344511794	-17.16823006978576	5.720158536416578	7.945903963878875	0.08845910586605887	-6.981317463160764	-0.1365147568515764	1.914845101615361	-76.21039222971865	-0.5083044061289144	28.6520367226812
15.11332702999997	-2.664956136957472	7.996093999277813	1.779476618223013	14.24716833728121	25.0445906562928	-9.430539232642221	-55.14697219884234	19.67408284119352	-5.974569704810693	56.17617804853916	9.431362247990261	3.769158927235037	11.6405760553916	0.1039058645191451	6.383383381097271	-0.1215512595554615	1.47316623568634	-39.50569381243701	-0.1364251428987577	15.53491135398699
15.12799367999997	-1.490914593414919	0.1122135873153088	6.382998693549308	9.286037745907027	19.67588129054657	3.55543381393555	-76.72101873287974	22.34584962657164	-7.857708977620709	74.6382805890142	28.58770413402734	2.2261983554169	18.64968175475262	0.1086566037259009	4.220772534245498	-0.09939794428934993	0.948155162421296	-11.85335311231936	0.1398575433544069	5.666097960650943
15.14266032999997	2.590131889614254	-7.418658135514284	7.079536951964847	1.313924404030972	3.881901541352221	13.83147946412711	-94.4880731035372	22.84154861751964	-7.394416570716357	93.93296330213647	35.1244741471245	1.272463764311367	29.14156622222949	0.09736973927387571	-5.790110669360752	-0.07732167362599075	0.2453769958411964	3.458041082174202	0.3068421196830403	0.04449618792810006
15.15732697999997	6.686047231420679	-9.447215039144591	2.005391456055425	-3.572677686905138	-12.42570555303609	14.06490931707643	-106.8671627603285	22.20846282166398	-5.184080848169963	108.7975164048146	28.97999673514828	0.9781149284671322	41.82254376759212	0.07079476458286171	-15.78939811179095	-0.06042116213427433	-0.6897193939043971	8.050414211145771	0.4146671165386049	-1.922398951744823
15.17199362999996	7.612586776444037	-4.907165949657065	-5.840622011630001	-2.691307177301063	-21.72738061237572	4.405318173314941	-114.0699506495003	22.71362646300074	-2.523400151299232	115.7508657000336	16.38847327247889	0.8679740382133962	54.71867076520133	0.03658384147737627	-21.55303620132369	-0.05021118972314467	-1.579473599314332	6.649820266059525	0.4624145327885948	-1.828277647372569
15.18666027999996	4.256507413291112	2.926716264727842	-10.62050062631805	1.037471030296889	-21.44822899540641	-8.581903151109424	-117.0644500889956	26.49081654640765	-0.6473754258836503	114.7636070589714	6.164176031618299	0.2798555247086126	65.97980566245732	0.005486177210152684	-22.93573691399787	-0.04551094078224867	-1.674551629326078	3.890304123420365	0.3098194265920232	-1.187314672835356
15.20132692999996	-1.495206453230611	9.121731051161174	-8.620526842807852	2.36514335290935	-10.73244105563011	-17.0602705693619	-116.4076618848552	32.98302258397828	-0.05829910157304113	108.7867030938267	3.795471252762082	-0.8831219467215389	73.89817485856388	-0.01458617750415478	-22.14061539612494	-0.0443625800393674	-0.2336109422901997	2.319683881422337	-0.2120634566347702	-0.8174320874125871
15.21599357999996	-6.04612963861816	10.03790264596834	-1.438082176245646	-1.041162546952224	9.484309940044266	-16.15303193566338	-112.279335813366	37.32527004491525	-0.2910200281631415	101.7650912454385	8.377803835218936	-1.815309561477106	76.31634981164662	-0.02223752046052788	-21.68351120515263	-0.04542200038982233	2.225652131892334	2.389310778123765	-0.9269176012390821	-0.9008178960660691
15.23066022999996	-6.855784078482244	4.992995588110109	5.623657299125639	-6.610393163461324	31.07859833449542	-5.666894235207188	-105.6325561939671	32.11140369147359	-0.1650847534650832	96.30215713208878	14.62031853060695	-1.339235533260105	70.41714846381367	-0.02149738828915887	-23.02122744106415	-0.04816994377311416	2.639865728886058	3.466728643764682	-0.8997850062729742	-1.309273769149385
15.24532687999996	-4.262202636080848	-3.358545361497344	8.166676394926862	-9.616791218961945	39.30969899551003	9.474097277554391	-98.610451576502	12.347917199361	1.620467161032577	92.46471849347414	17.41211103467145	1.026352659939943	53.56745139864025	-0.0175301166514583	-26.10322097214897	-0.05223571207993929	-4.4011810669822	4.769151504999315	1.550515078046207	-1.834028909731044
15.25999352999996	-0.6866072798157848	-10.16959391281888	5.843713558061776	-7.571683531520197	25.63323002967119	20.66386480684652	-92.89772009688194	-20.28610121529537	5.759189238281035	88.35399405949754	14.89488016441323	4.378669012737615	24.7609662067625	-0.01324642115077666	-29.6585368680436	-0.056497824350473	-24.02720584208435	5.784672188271002	8.129065116927979	-2.267952679153486
15.27466017999996	1.710574613064816	-11.27062138242229	1.581505541805712	-1.876892559682467	-1.281805015337934	20.51468067573404	-87.55530248870392	-58.09365374134683	11.85335785829794	81.62715752243042	8.365839294330904	6.824376406278289	-14.30747905244943	-0.009418993136916978	-31.81182634449513	-0.05866322883844741	-57.32302452750012	6.286863748295572	19.47845694659396	-2.440917689053885
15.28932682999995	2.317935187122017	-6.14459509347783	-1.513961433607957	4.052742343651105	-22.12397144222233	8.67821269490106	-79.2839680094749	-92.50346921689533	18.58812709361723	70.8017594508194	0.2916152909448293	6.747226121210783	-58.88181762792475	-0.007106085942940791	-30.78295651151994	-0.05584315089335842	-99.47899680157089	6.214623382348482	34.4890784829317	-2.272219035675088
15.30399347999995	1.475662315620123	1.727534494811753	-2.339642456715904	7.247733663699141	-24.07341653774195	-7.347201673939083	-65.32650413154768	-118.6192669790637	24.40838446698515	55.93606500066646	-7.432354206095196	3.97330156466812	-101.5126046542212	-0.00919346727391286	-25.63661637985782	-0.04602241663426363	-141.6234021697585	5.603957919586573	50.41864679936867	-1.816891006224019
15.31866012999995	-0.2645021659856592	7.780760315945567	-1.688951717625567	6.424528142019804	-9.520558923447389	-18.14090337215634	-45.91871114663152	-135.3512133740114	27.99451752060348	38.77598313062712	-13.94292701460691	-0.06124655468425161	-133.6154116696796	-0.01929310956872098	-16.90728180232258	-0.02948391715103908	-174.7786495599248	4.597163040602258	63.63561022747211	-1.252854143304664
15.33332677999995	-1.925800310488913	9.751406881673105	-0.8977133200419343	2.476210084325598	9.347790026062574	-19.32411711478774	-24.08077531364598	-142.6859911015926	28.30770095866389	22.2480616202481	-18.95950204372507	-3.201728789960842	-148.2419497366793	-0.03897320174219999	-6.661101398696037	-0.009008960374671578	-192.8625428083623	3.447763434843007	70.67283235353524	-0.7962284064761501
15.34799342999995	-2.188169373904203	8.223980054877417	-0.7403635366191099	-2.004272289845558	20.76370790427011	-12.90564519897759	-3.823518998011376	-140.191466414045	24.75973330551588	9.166115091537668	-22.28378075038485	-3.79498927097633	-142.7052236617576	-0.06566137530474128	2.277164910776996	0.0115255058827648	-193.3548472722215	2.449168938961101	69.3718068212585	-0.5922387621802776
15.36266007999995	-0.6647079615205416	4.326995917825667	-1.072734769322325	-4.717231458090419	18.76976888654277	-2.922537510948223	11.26954834802781	-128.1432898117982	17.80048220660872	0.6904984625060755	-23.68811078178537	-1.428293557976872	-119.4849245684487	-0.09287985242641456	7.610826770550189	0.02926314619180082	-176.642162027295	1.807532893876407	59.75281597527574	-0.6509087536231088
15.37732672999995	1.126827029065496	-2.11402432207504	-1.020984395139169	-5.641513937490574	2.818308747929758	8.668543174703442	18.87796244240876	-108.9400006154344	9.313996868964759	-4.335000762883499	-23.07855165578317	3.09762694183725	-85.16485696228442	-0.1127961929382753	8.630973985525396	0.04362425402666708	-145.5308708536888	1.552919479602559	44.13871043131268	-0.8641848401846769
15.39199337999995	0.9367171567881524	-11.2368060363862	0.3516990395551949	-6.542318800825782	-23.09789935936397	21.0258802096867	18.9943869323533	-86.24265203013736	2.03918587953942	-8.426904529397314	-20.71081663384106	8.337123143530018	-48.26374829788521	-0.1196946528154622	6.457116702935441	0.05565330069135975	-105.1924063349135	1.564144108445776	26.3795374938477	-1.086743752274476
15.40666002999994	-1.724932831379586	-19.83113776427667	2.893865583010868	-8.119724257132868	-48.32767478254638	30.09597030333524	14.68482422574116	-62.2640698136603	-1.9695627422384	-13.3708197017774	-17.3928465773068	12.92961452081158	-16.70900170110079	-0.1125063692840429	3.371781772050098	0.06588457051829015	-62.79730986018041	1.690980862491702	10.54658800547339	-1.226702666166458
15.42132667999994	-4.681205631702351	-20.27206832124699	4.420714909305987	-7.997661046664042	-53.94989046554463	27.08493526019978	10.89577739279768	-36.11834805887209	-2.825485993950055	-18.57084771690792	-14.56592873814323	16.15210019857344	4.611932540923883	-0.09507075815459823	1.632709860760116	0.07252462279835432	-26.18647520504897	1.875660709453897	-0.3362574649910588	-1.290013920443599
15.43599332999994	-4.782321569672418	-4.293762371738843	1.315182413282572	-1.840149343288703	-18.08229617271176	3.037041119052496	11.56215632754392	-5.300033479581209	-2.855591901860239	-21.3396613802793	-13.97745737384207	18.0443818851919	15.14327651072116	-0.07404393748942753	2.415063084137629	0.07179894995502344	-1.520746205551754	2.175526359867791	-5.145913312141341	-1.3523771338484
15.45065997999994	0.004258262785127975	31.19084134377476	-9.132977501366195	13.73683717025635	71.95165996539272	-44.49776201831339	17.81718096571976	31.18291376395887	-4.856724049850818	-19.06963577961713	-16.86648541679025	19.09147053816453	17.61588240090196	-0.05560501650332384	5.50896623313386	0.060566876801702	9.130137763965218	2.677595846481357	-4.791493241527445	-1.485827375355993
15.46532662999994	9.814735935967148	82.14124695889828	-26.71750810774495	38.93165196031685	210.5603629127037	-109.8468669318853	28.59046527479681	71.68638097012501	-10.05338168037778	-11.35792672629774	-23.19962462954536	19.77529444631412	15.54526182048797	-0.04265671815746861	9.919847483831703	0.03903247991156003	8.343384354717163	3.397096368996143	-1.352121645638546	-1.706032651812172
15.47999327999994	22.85355056583389	140.8466446169794	-48.4929196905953	70.20198529438548	376.6332922565858	-183.8014412647413	41.82521318396344	113.7874207647814	-17.50334778131905	-0.278047633618395	-31.62079471552757	20.35785187264916	11.60513999587921	-0.03389074075150293	14.76949770955633	0.0112378790596766	1.490434905095357	4.252160596464298	3.272353689071695	-1.978407211083012
