TendonPower
version=1
nRows=51
nColumns=5
inDegrees=no

This analysis gathers basic information about muscles during a simulation (e.g., forces, tendon lengths, moment arms, etc).
Units are S.I. units (second, meters, Newtons, ...)
If the header above contains a line with 'inDegrees', this indicates whether rotational values are in degrees (yes) or radians (no).

endheader
time	recfem_r	vaslat_r	vasint_r	vasmed_r
     13.16666107	     -0.00000000	     -0.00000000	     -0.00000000	     -0.00000000
     13.18412772	     -0.00000000	     -0.00000000	     -0.00000000	     -0.00000000
     13.20159437	     -0.00000000	     -0.00000000	     -0.00000000	     -0.00000000
     13.21906102	     -0.00000000	     -0.00000000	     -0.00000000	     -0.00000000
     13.23652767	     -0.00000000	     -0.00000000	     -0.00000000	     -0.00000000
     13.25399432	     -0.00000000	     -0.00000000	     -0.00000000	     -0.00000000
     13.27146097	     -0.00000000	     -0.00000000	     -0.00000000	     -0.00000000
     13.28892761	     -0.00000000	     -0.00000000	     -0.00000000	     -0.00000000
     13.30639426	     -0.00000000	     -0.00000000	     -0.00000000	     -0.00000000
     13.32386091	     -0.00000000	     -0.00000000	     -0.00000000	     -0.00000000
     13.34132756	     -0.00000000	     -0.00000000	     -0.00000000	     -0.00000000
     13.35879421	     -0.00000000	     -0.00000000	     -0.00000000	     -0.00000000
     13.37626086	     -0.00000000	     -0.00000000	     -0.00000000	     -0.00000000
     13.39372751	     -0.00000000	     -0.00000000	     -0.00000000	     -0.00000000
     13.41119416	     -0.00000000	     -0.00000000	     -0.00000000	     -0.00000000
     13.42866081	     -0.00000000	     -0.00000000	     -0.00000000	     -0.00000000
     13.44612746	     -0.00000000	     -0.00000000	     -0.00000000	     -0.00000000
     13.46359411	     -0.00000000	     -0.00000000	     -0.00000000	     -0.00000000
     13.48106076	     -0.00000000	     -0.00000000	     -0.00000000	     -0.00000000
     13.49852740	     -0.00000000	     -0.00000000	     -0.00000000	     -0.00000000
     13.51599405	     -0.00000000	     -0.00000000	     -0.00000000	     -0.00000000
     13.53346070	     -0.00000000	     -0.00000000	     -0.00000000	     -0.00000000
     13.55092735	     -0.00000000	     -0.00000000	     -0.00000000	     -0.00000000
     13.56839400	     -0.00000000	     -0.00000000	     -0.00000000	     -0.00000000
     13.58586065	     -0.00000000	     -0.00000000	     -0.00000000	     -0.00000000
     13.60332730	     -0.00000000	     -0.00000000	     -0.00000000	     -0.00000000
     13.62079395	     -0.00000000	     -0.00000000	     -0.00000000	     -0.00000000
     13.63826060	     -0.00000000	     -0.00000000	     -0.00000000	     -0.00000000
     13.65572725	     -0.00000000	     -0.00000000	     -0.00000000	     -0.00000000
     13.67319390	     -0.00000000	     -0.00000000	     -0.00000000	     -0.00000000
     13.69066055	     -0.00000000	     -0.00000000	     -0.00000000	     -0.00000000
     13.70812720	     -0.00000000	     -0.00000000	     -0.00000000	     -0.00000000
     13.72559384	     -0.00000000	     -0.00000000	     -0.00000000	     -0.00000000
     13.74306049	     -0.00000000	     -0.00000000	     -0.00000000	     -0.00000000
     13.76052714	     -0.00000000	     -0.00000000	     -0.00000000	     -0.00000000
     13.77799379	     -0.00000000	     -0.00000000	     -0.00000000	     -0.00000000
     13.79546044	     -0.00000000	     -0.00000000	     -0.00000000	     -0.00000000
     13.81292709	     -0.00000000	     -0.00000000	     -0.00000000	     -0.00000000
     13.83039374	     -0.00000000	     -0.00000000	     -0.00000000	     -0.00000000
     13.84786039	     -0.00000000	     -0.00000000	     -0.00000000	     -0.00000000
     13.86532704	     -0.00000000	     -0.00000000	     -0.00000000	     -0.00000000
     13.88279369	     -0.00000000	     -0.00000000	     -0.00000000	     -0.00000000
     13.90026034	     -0.00000000	     -0.00000000	     -0.00000000	     -0.00000000
     13.91772699	     -0.00000000	     -0.00000000	     -0.00000000	     -0.00000000
     13.93519363	     -0.00000000	     -0.00000000	     -0.00000000	     -0.00000000
     13.95266028	     -0.00000000	     -0.00000000	     -0.00000000	     -0.00000000
     13.97012693	     -0.00000000	     -0.00000000	     -0.00000000	     -0.00000000
     13.98759358	     -0.00000000	     -0.00000000	     -0.00000000	     -0.00000000
     14.00506023	     -0.00000000	     -0.00000000	     -0.00000000	     -0.00000000
     14.02252688	     -0.00000000	     -0.00000000	     -0.00000000	     -0.00000000
     14.03999353	     -0.00000000	     -0.00000000	     -0.00000000	     -0.00000000
