ActiveFiberForceAlongTendon
version=1
nRows=51
nColumns=5
inDegrees=no

This analysis gathers basic information about muscles during a simulation (e.g., forces, tendon lengths, moment arms, etc).
Units are S.I. units (second, meters, Newtons, ...)
If the header above contains a line with 'inDegrees', this indicates whether rotational values are in degrees (yes) or radians (no).

endheader
time	recfem_r	vaslat_r	vasint_r	vasmed_r
     13.16666107	    792.10129367	    451.45501857	     89.96740728	    159.77080610
     13.18412772	    510.90705410	    308.43205019	     64.84295659	    112.58794352
     13.20159437	    276.53954739	    185.03755259	     43.24943751	     72.14925177
     13.21906102	    111.40752948	    100.28149862	     28.74344571	     44.86492072
     13.23652767	     27.23890952	     62.65961448	     22.77501426	     33.31130885
     13.25399432	     10.25929337	     62.13103885	     23.34782105	     33.79868232
     13.27146097	     24.53510396	     75.85021155	     26.25637131	     38.70386334
     13.28892761	     37.19696321	     85.64453350	     28.25454530	     42.17890222
     13.30639426	     37.10123107	     86.86075142	     28.51274807	     42.75214226
     13.32386091	     30.03309794	     83.62345096	     27.76272638	     41.76135067
     13.34132756	     23.23923198	     79.47934241	     26.50660854	     40.19673879
     13.35879421	     18.90963764	     74.67626155	     24.70166239	     37.96539545
     13.37626086	     16.41842048	     69.57823035	     22.67684856	     35.41898571
     13.39372751	     14.72966832	     64.47476263	     20.69200939	     32.83767454
     13.41119416	     13.38732899	     60.01582346	     18.92066079	     30.45391883
     13.42866081	     12.57320315	     56.54006646	     17.57647321	     28.62522546
     13.44612746	     12.54861235	     53.88923371	     16.67925527	     27.44101454
     13.46359411	     13.37806606	     51.96351957	     16.11276561	     26.62506539
     13.48106076	     14.95875814	     50.70518021	     15.78294289	     26.11638355
     13.49852740	     16.97693590	     50.05425178	     15.60625241	     25.86567811
     13.51599405	     19.01131346	     49.92208496	     15.50139773	     25.63185779
     13.53346070	     20.68462509	     50.17346786	     15.46457333	     25.45929814
     13.55092735	     21.68558432	     50.41573586	     15.61059883	     25.50446005
     13.56839400	     21.48990941	     50.46384026	     15.86055107	     25.59376820
     13.58586065	     20.43872288	     49.61469813	     16.14437479	     25.59442944
     13.60332730	     20.36954622	     48.87319854	     16.68880118	     25.97990667
     13.62079395	     22.66386475	     50.47285606	     17.59874193	     27.17845924
     13.63826060	     25.85505006	     56.98791551	     18.83298936	     29.28514208
     13.65572725	     25.98045650	     68.80789709	     20.72035636	     32.38024571
     13.67319390	     17.04212496	     74.59066393	     22.07536684	     33.56359650
     13.69066055	      2.08832957	     56.72169133	     21.23840039	     29.61970909
     13.70812720	      9.23140951	     20.03147578	     19.02963071	     24.03309921
     13.72559384	     90.13452544	     50.04094872	     24.54117850	     38.47987724
     13.74306049	    275.56372671	    348.36570010	     58.65203337	    117.34362757
     13.76052714	    523.41649092	   1130.27642386	    143.55556904	    304.71292684
     13.77799379	    733.56111715	   2383.92789116	    278.77046756	    597.59867578
     13.79546044	    838.24364846	   3767.09513811	    429.96702511	    925.87940503
     13.81292709	    859.11011262	   4857.12112390	    552.35350860	   1198.71385986
     13.83039374	    843.83405606	   5380.81509734	    613.20146397	   1345.39041915
     13.84786039	    818.67362101	   5278.63879853	    602.70141271	   1337.03998340
     13.86532704	    787.62426972	   4629.81429899	    530.09776044	   1183.88171808
     13.88279369	    749.17189806	   3585.54333606	    415.04760984	    924.33862331
     13.90026034	    700.71082541	   2371.05077793	    283.20243398	    619.27056694
     13.91772699	    631.07765943	   1261.36891447	    162.36577914	    339.64149699
     13.93519363	    523.47643310	    475.49847302	     74.41102115	    140.37421994
     13.95266028	    374.10686425	     80.51600299	     27.63557052	     38.96088498
     13.97012693	    209.46004142	     -9.15844406	     15.30457436	     15.24174085
     13.98759358	     77.65445261	     44.41112009	     20.95482730	     29.05467531
     14.00506023	     11.32493520	    102.90030290	     28.44771258	     44.91568023
     14.02252688	      5.35755080	    110.58240039	     30.08660961	     47.68924251
     14.03999353	     30.83457420	     80.07889401	     26.80462166	     40.20702358
