MuscleActuatorPower
version=1
nRows=51
nColumns=5
inDegrees=no

This analysis gathers basic information about muscles during a simulation (e.g., forces, tendon lengths, moment arms, etc).
Units are S.I. units (second, meters, Newtons, ...)
If the header above contains a line with 'inDegrees', this indicates whether rotational values are in degrees (yes) or radians (no).

endheader
time	recfem_r	vaslat_r	vasint_r	vasmed_r
     13.71332743	    -21.77101565	     82.75689982	     15.28728409	     28.04813161
     13.72946075	     29.93439607	     70.71778584	     14.64546938	     25.84898187
     13.74559406	     33.25812699	     48.42098457	     11.97568301	     19.99017528
     13.76172738	     14.41781316	     25.62155918	      7.96098399	     12.45827743
     13.77786070	     -1.73074011	      8.87923831	      3.32769118	      4.96161652
     13.79399402	     -9.83565067	     -4.99562809	     -1.95293989	     -2.87092366
     13.81012733	    -20.57345591	    -21.65066498	     -8.03277406	    -11.87119015
     13.82626065	    -47.03325769	    -41.22104392	    -14.64388387	    -21.66336836
     13.84239397	    -98.19374386	    -60.70831104	    -21.64959322	    -31.66319572
     13.85852728	   -163.42961196	    -76.72340999	    -28.44340819	    -40.74895674
     13.87466060	   -205.73737388	    -86.91880283	    -33.95973408	    -47.40042909
     13.89079392	   -215.47696579	    -98.54884769	    -40.78938710	    -55.77995353
     13.90692724	   -145.78036025	    -90.69410749	    -40.48958686	    -53.85728313
     13.92306055	    -38.03835515	    -72.63473830	    -35.39157400	    -45.99361709
     13.93919387	     60.80205694	    -69.91710345	    -27.85819860	    -36.20167537
     13.95532719	    115.58992894	    -54.94728348	    -21.80221426	    -29.21322969
     13.97146051	    127.62397274	    -31.20694799	    -12.59188746	    -16.87900260
     13.98759382	    116.68427502	     -3.29752772	     -1.34126975	     -1.79731337
     14.00372714	     95.27144883	     22.16129478	      8.99996569	     12.05542553
     14.01986046	     73.39385094	     40.84686309	     16.42877704	     21.99336203
     14.03599377	     56.83804792	     52.87827527	     20.95790947	     28.03123772
     14.05212709	     46.89676949	     58.10660122	     25.24415127	     32.46394381
     14.06826041	     39.18067972	     61.85060190	     29.70523373	     38.88880670
     14.08439373	     33.30420271	     73.60183329	     32.95263527	     44.17337176
     14.10052704	     27.39046538	     78.11475198	     32.86641431	     45.26150834
     14.11666036	     20.58051291	     69.61983702	     27.67972518	     38.85502761
     14.13279368	     16.17785054	     61.04573271	     22.76735923	     32.70686477
     14.14892699	     12.33726746	     48.13018851	     16.96791422	     25.00720138
     14.16506031	      8.19747371	     30.45902310	     10.72992556	     16.31472589
     14.18119363	      3.40458303	     12.26964804	      4.85044441	      7.57473955
     14.19732695	     -1.06656837	      0.04206808	      0.02015058	      0.03086607
     14.21346026	     -4.05526895	     -9.11967739	     -3.68479173	     -5.03266392
     14.22959358	     -8.54368466	    -36.08053798	     -8.07510444	     -9.84564659
     14.24572690	    -21.63950792	   -102.19119390	    -15.64590906	    -20.53392013
     14.26186021	    -47.03175008	   -196.52863773	    -26.14991595	    -40.30010662
     14.27799353	    -78.90649303	   -267.26143781	    -34.47544895	    -60.47493226
     14.29412685	   -106.62977142	   -257.60635501	    -33.49189240	    -63.43941937
     14.31026017	   -123.38319952	   -150.83345420	    -19.89010666	    -39.00290261
     14.32639348	   -128.12018226	     17.75291704	      2.35485251	      4.66221160
     14.34252680	   -122.78943579	    181.39962681	     23.91813017	     47.34586178
     14.35866012	   -109.25850973	    277.11537884	     36.07655603	     71.33220105
     14.37479344	    -86.73575985	    281.08667604	     36.39236738	     71.84734617
     14.39092675	    -53.68966701	    217.73237046	     29.02793342	     56.72721917
     14.40706007	    -15.70906798	    132.68498561	     19.96214218	     37.56552619
     14.42319339	     12.16551765	     62.68205134	     13.00210857	     22.36436451
     14.43932670	     18.96676026	     24.39995936	      9.00490475	     13.70208384
     14.45546002	     10.46441571	     12.98229821	      6.70991313	      9.66440429
     14.47159334	      0.85226910	      9.94695500	      4.22183978	      6.22011663
     14.48772666	     -5.50019657	      1.79276407	      0.63123142	      0.95583515
     14.50385997	    -14.59304569	    -10.61876305	     -3.59730100	     -5.46590509
     14.51999329	    -31.23292185	    -21.51811808	     -7.78859441	    -11.64661666
