Moment_knee_angle_r
version=1
nRows=51
nColumns=5
inDegrees=no

This analysis gathers basic information about muscles during a simulation (e.g., forces, tendon lengths, moment arms, etc).
Units are S.I. units (second, meters, Newtons, ...)
If the header above contains a line with 'inDegrees', this indicates whether rotational values are in degrees (yes) or radians (no).

endheader
time	recfem_r	vaslat_r	vasint_r	vasmed_r
    144.03600000	     -6.07799761	     -7.39261137	     -3.22419695	     -4.63339342
    144.05168000	     -5.82759444	     -7.25514242	     -3.04787223	     -4.40944224
    144.06736000	     -5.84228245	     -7.27788653	     -2.91182809	     -4.25911847
    144.08304000	     -6.44922199	     -7.62094595	     -2.89231874	     -4.28158086
    144.09872000	     -7.82677250	     -8.28737771	     -3.01546274	     -4.49342240
    144.11440000	     -9.68882196	     -9.01615175	     -3.22087134	     -4.77804138
    144.13008000	    -11.58242353	     -9.65691990	     -3.48768717	     -5.09536859
    144.14576000	    -13.22080659	    -10.09145580	     -3.77236585	     -5.40434621
    144.16144000	    -14.45037035	    -10.02020843	     -3.90915891	     -5.46914092
    144.17712000	    -16.81310856	    -10.51328922	     -4.29872426	     -5.90785835
    144.19280000	    -18.28750109	    -10.23460695	     -4.43369920	     -5.96252165
    144.20848000	    -18.10018016	     -9.32136309	     -4.32138582	     -5.68736987
    144.22416000	    -17.06276948	     -8.76009547	     -4.21369789	     -5.45474712
    144.23984000	    -15.65446270	    -10.13389383	     -4.13650610	     -5.29564698
    144.25552000	    -14.20443470	    -11.21274744	     -4.49538024	     -6.00538225
    144.27120000	    -14.24386510	    -12.05773840	     -4.91278441	     -6.56494113
    144.28688000	    -13.64476696	    -12.60099840	     -5.18172509	     -6.92537211
    144.30256000	    -12.15036643	    -12.58777243	     -5.17956696	     -6.92356394
    144.31824000	    -10.05968175	    -12.02551646	     -4.91332162	     -6.56806442
    144.33392000	     -7.99840060	    -11.16477036	     -4.50734039	     -6.02283426
    144.34960000	     -7.27689583	    -10.18911959	     -4.05112685	     -5.40737077
    144.36528000	     -6.75539090	     -8.95776286	     -4.06335089	     -5.23602757
    144.38096000	     -6.21022241	     -8.53514106	     -4.09317002	     -5.35589154
    144.39664000	     -5.49086454	     -9.14809599	     -4.10860830	     -5.49421094
    144.41232000	     -4.38942912	     -9.22164373	     -3.90065077	     -5.35860084
    144.42800000	     -3.13776127	     -8.31232759	     -3.33792023	     -4.69440212
    144.44368000	     -2.40534203	     -7.96978337	     -3.03007219	     -4.40137146
    144.45936000	     -2.03542338	     -7.67876432	     -2.75613971	     -4.13372599
    144.47504000	     -1.96911164	     -7.68757955	     -2.66588194	     -4.12496250
    144.49072000	     -2.07033688	     -7.43245415	     -2.64339903	     -4.16413409
    144.50640000	     -2.44633511	     -6.05844672	     -2.44706827	     -3.78471994
    144.52208000	     -3.52029338	     -4.19092553	     -2.08525456	     -2.89531479
    144.53776000	     -5.45914530	     -5.62121644	     -2.15632453	     -2.52426747
    144.55344000	     -7.64324905	    -16.48239272	     -3.59900033	     -4.65866009
    144.56912000	     -9.27162644	    -40.21717311	     -6.71668251	    -10.45230295
    144.58480000	    -10.78041370	    -72.92110601	    -10.51594966	    -18.55700753
    144.60048000	    -13.72919110	   -103.15025815	    -13.12675683	    -25.43429145
    144.61616000	    -19.10784413	   -118.89833137	    -13.43145016	    -28.08298691
    144.63184000	    -25.68872234	   -115.34009211	    -12.07216331	    -26.44731901
    144.64752000	    -30.57529412	    -95.82346011	    -10.42445735	    -22.53165388
    144.66320000	    -31.63976064	    -68.12016708	     -9.10947421	    -18.07450147
    144.67888000	    -29.08986544	    -40.66179992	     -7.82166234	    -13.72377371
    144.69456000	    -24.45796290	    -19.77262113	     -6.17063205	     -9.63974195
    144.71024000	    -18.98503935	     -8.04688425	     -4.33053641	     -6.22856152
    144.72592000	    -13.45253683	     -4.30790158	     -2.86858179	     -4.04342109
    144.74160000	     -8.95659603	     -5.14044193	     -2.21187870	     -3.28763109
    144.75728000	     -6.41068973	     -7.09297507	     -2.27047091	     -3.52172476
    144.77296000	     -5.91330015	     -8.36012146	     -2.64646775	     -4.08171010
    144.78864000	     -6.76133073	     -8.77806232	     -2.98823049	     -4.52099921
    144.80432000	     -8.08342313	     -8.84069765	     -3.15348370	     -4.70923445
    144.82000000	     -9.43353233	     -8.82755300	     -3.17434047	     -4.70644265
