FiberLength
version=1
nRows=51
nColumns=5
inDegrees=no

This analysis gathers basic information about muscles during a simulation (e.g., forces, tendon lengths, moment arms, etc).
Units are S.I. units (second, meters, Newtons, ...)
If the header above contains a line with 'inDegrees', this indicates whether rotational values are in degrees (yes) or radians (no).

endheader
time	recfem_r	vaslat_r	vasint_r	vasmed_r
     15.13999241	      0.09138221	      0.10138490	      0.10366519	      0.10263859
     15.15665906	      0.09008330	      0.09933865	      0.10160293	      0.10080553
     15.17332571	      0.08953128	      0.09824862	      0.10048905	      0.09981995
     15.18999236	      0.09031692	      0.09870144	      0.10095325	      0.10023025
     15.20665901	      0.09259793	      0.10085620	      0.10313549	      0.10216686
     15.22332566	      0.09617492	      0.10454806	      0.10680068	      0.10544011
     15.23999231	      0.10074465	      0.10943529	      0.11158784	      0.10973084
     15.25665896	      0.10619885	      0.11521529	      0.11726862	      0.11481959
     15.27332561	      0.11250880	      0.12160594	      0.12365991	      0.12052845
     15.28999226	      0.11940744	      0.12823100	      0.13043316	      0.12654670
     15.30665891	      0.12667678	      0.13498009	      0.13750854	      0.13281394
     15.32332556	      0.13339439	      0.14116906	      0.14419608	      0.13869156
     15.33999221	      0.13879915	      0.14629417	      0.14995278	      0.14368554
     15.35665886	      0.14257054	      0.15031087	      0.15468082	      0.14771965
     15.37332551	      0.14435936	      0.15345389	      0.15827378	      0.15070550
     15.38999216	      0.14416990	      0.15607501	      0.16094165	      0.15296148
     15.40665881	      0.14257382	      0.15830047	      0.16318587	      0.15490332
     15.42332546	      0.13981688	      0.15996399	      0.16488514	      0.15638330
     15.43999211	      0.13599979	      0.16073888	      0.16568364	      0.15708091
     15.45665876	      0.13143060	      0.16047339	      0.16540957	      0.15684135
     15.47332541	      0.12661936	      0.15932521	      0.16423023	      0.15581205
     15.48999206	      0.12204284	      0.15762802	      0.16250458	      0.15431219
     15.50665871	      0.11789020	      0.15565363	      0.16051953	      0.15259784
     15.52332536	      0.11377624	      0.15345987	      0.15828019	      0.15071073
     15.53999201	      0.10922831	      0.15092962	      0.15541928	      0.14834089
     15.55665866	      0.10404223	      0.14782647	      0.15172785	      0.14520927
     15.57332531	      0.09835216	      0.14384428	      0.14717024	      0.14128063
     15.58999196	      0.09236230	      0.13884921	      0.14166164	      0.13647226
     15.60665861	      0.08632129	      0.13283030	      0.13523401	      0.13080187
     15.62332526	      0.08077310	      0.12633223	      0.12847519	      0.12480977
     15.63999191	      0.07602371	      0.11996882	      0.12201022	      0.11905736
     15.65665856	      0.07229044	      0.11446659	      0.11652808	      0.11415681
     15.67332521	      0.07015588	      0.11094079	      0.11306116	      0.11105151
     15.68999186	      0.07002374	      0.11010536	      0.11224330	      0.11031845
     15.70665851	      0.07198091	      0.11197747	      0.11407754	      0.11196227
     15.72332516	      0.07566579	      0.11578170	      0.11782997	      0.11532186
     15.73999181	      0.08030907	      0.12018423	      0.12222678	      0.11925060
     15.75665846	      0.08503722	      0.12385261	      0.12593879	      0.12255680
     15.77332511	      0.08928237	      0.12600355	      0.12813766	      0.12451019
     15.78999176	      0.09275334	      0.12637867	      0.12852291	      0.12485212
     15.80665841	      0.09530071	      0.12505128	      0.12716205	      0.12364388
     15.82332506	      0.09683720	      0.12227555	      0.12433727	      0.12113180
     15.83999171	      0.09727032	      0.11835648	      0.12039403	      0.11761426
     15.85665836	      0.09663506	      0.11371385	      0.11578521	      0.11349175
     15.87332501	      0.09519850	      0.10889402	      0.11105857	      0.10925631
     15.88999166	      0.09348294	      0.10452002	      0.10677307	      0.10541540
     15.90665831	      0.09225781	      0.10126137	      0.10354160	      0.10252847
     15.92332496	      0.09233569	      0.09969657	      0.10196617	      0.10112767
     15.93999161	      0.09420756	      0.10009451	      0.10236868	      0.10148503
     15.95665826	      0.09780707	      0.10229474	      0.10457242	      0.10344774
     15.97332491	      0.10243916	      0.10560327	      0.10783760	      0.10636887
