Joint Reaction Loads
version=1
nRows=51
nColumns=10
inDegrees=no

This file contains the reaction forces and moments
applied to the specified body of a joint pair and expressed  in the specified reference frame.

Units are S.I. units (seconds, meters, Newtons, ...)
endheader
time	patellofemoral_r_on_patella_r_in_patella_r_fx	patellofemoral_r_on_patella_r_in_patella_r_fy	patellofemoral_r_on_patella_r_in_patella_r_fz	patellofemoral_r_on_patella_r_in_patella_r_mx	patellofemoral_r_on_patella_r_in_patella_r_my	patellofemoral_r_on_patella_r_in_patella_r_mz	patellofemoral_r_on_patella_r_in_patella_r_px	patellofemoral_r_on_patella_r_in_patella_r_py	patellofemoral_r_on_patella_r_in_patella_r_pz
     15.13999241	    314.20321952	    -52.39344692	    -18.20031492	     -2.73350882	      0.43881851	     -6.66726879	      0.00000000	      0.00000000	      0.00000000
     15.15665906	    259.20862312	    -43.39216916	    -20.93371754	     -2.36808044	      0.52813717	     -5.37006075	      0.00000000	      0.00000000	      0.00000000
     15.17332571	    226.54237383	    -37.74432002	    -20.76971489	     -2.04520169	      0.60468057	     -4.69350865	      0.00000000	      0.00000000	      0.00000000
     15.18999236	    225.85349698	    -38.20933125	    -19.40650430	     -1.88835023	      0.68205769	     -4.74116041	      0.00000000	      0.00000000	      0.00000000
     15.20665901	    258.26435779	    -44.65012165	    -15.71045329	     -1.88743003	      0.75983062	     -5.58943462	      0.00000000	      0.00000000	      0.00000000
     15.22332566	    320.16501726	    -51.96469912	    -10.14668052	     -2.04371705	      0.85159424	     -7.40575279	      0.00000000	      0.00000000	      0.00000000
     15.23999231	    409.17663766	    -52.71168703	     -2.33008806	     -2.32221191	      0.97544310	    -10.42664858	      0.00000000	      0.00000000	      0.00000000
     15.25665896	    535.80860164	    -40.99394694	      9.58974421	     -2.69745561	      1.15040105	    -15.04616676	      0.00000000	      0.00000000	      0.00000000
     15.27332561	    724.93770714	    -10.69034191	     28.64292999	     -3.18612581	      1.38916982	    -22.00265800	      0.00000000	      0.00000000	      0.00000000
     15.28999226	   1008.04969416	     56.20333019	     57.52407812	     -3.86876590	      1.70290186	    -32.50436712	      0.00000000	      0.00000000	      0.00000000
     15.30665891	   1429.15501086	    189.95534764	     99.84015862	     -4.83750686	      2.10053457	    -48.07573762	      0.00000000	      0.00000000	      0.00000000
     15.32332556	   1974.38620858	    428.28211077	    155.59195664	     -6.04970721	      2.52382597	    -68.34461758	      0.00000000	      0.00000000	      0.00000000
     15.33999221	   2574.20697021	    788.01012561	    219.65172839	     -7.41493299	      2.90045983	    -90.68195960	      0.00000000	      0.00000000	      0.00000000
     15.35665886	   3122.20153130	   1242.38210664	    282.27199581	     -8.77624361	      3.15500343	   -110.93134739	      0.00000000	      0.00000000	      0.00000000
     15.37332551	   3474.47318650	   1654.98371538	    336.07205016	     -8.88293671	      3.09507789	   -124.08969959	      0.00000000	      0.00000000	      0.00000000
     15.38999216	   3600.04534624	   1908.80768883	    375.37848571	     -9.06771672	      3.21509967	   -128.92444225	      0.00000000	      0.00000000	      0.00000000
     15.40665881	   3590.96436730	   1974.01455929	    401.79291619	     -8.91254951	      3.28488163	   -129.22860186	      0.00000000	      0.00000000	      0.00000000
     15.42332546	   3494.04269923	   1965.24754593	    404.26467077	     -8.88571176	      3.37779071	   -125.80857769	      0.00000000	      0.00000000	      0.00000000
     15.43999211	   3308.88879199	   1872.19387107	    382.41037543	     -8.81407091	      3.43932229	   -118.81091702	      0.00000000	      0.00000000	      0.00000000
     15.45665876	   3056.92878362	   1707.43097265	    342.09564437	     -8.59380257	      3.42963773	   -109.21101043	      0.00000000	      0.00000000	      0.00000000
     15.47332541	   2785.27562719	   1512.30928028	    293.43144229	     -8.28093148	      3.35473008	    -98.82931814	      0.00000000	      0.00000000	      0.00000000
     15.48999206	   2541.05881201	   1329.17662998	    245.69267072	     -7.99937158	      3.24629017	    -89.40870355	      0.00000000	      0.00000000	      0.00000000
     15.50665871	   2345.55247025	   1171.75319538	    204.20632275	     -7.79156373	      3.11931804	    -81.78840539	      0.00000000	      0.00000000	      0.00000000
     15.52332536	   2171.30272312	    996.49864130	    171.19241224	     -7.52543194	      2.96137503	    -75.18595142	      0.00000000	      0.00000000	      0.00000000
     15.53999201	   1969.75123451	    793.88410567	    143.13244422	     -7.50058287	      2.96465984	    -67.70518110	      0.00000000	      0.00000000	      0.00000000
     15.55665866	   1711.17111329	    568.83576572	    116.95231777	     -6.67148207	      2.79046708	    -58.40625208	      0.00000000	      0.00000000	      0.00000000
     15.57332531	   1407.53428271	    360.44957937	     89.50918891	     -5.57795055	      2.48067413	    -47.48951221	      0.00000000	      0.00000000	      0.00000000
     15.58999196	   1089.07774835	    195.96256201	     61.38456150	     -4.53779662	      2.14116455	    -36.00669710	      0.00000000	      0.00000000	      0.00000000
     15.60665861	    792.93985319	     83.99958505	     35.76066294	     -3.61064472	      1.75905088	    -25.42342249	      0.00000000	      0.00000000	      0.00000000
     15.62332526	    555.81957845	     19.56160488	     15.69189995	     -2.87030670	      1.31781859	    -17.03279236	      0.00000000	      0.00000000	      0.00000000
     15.63999191	    377.31299815	    -11.11741455	      2.15604973	     -2.30279054	      0.83041731	    -10.85723124	      0.00000000	      0.00000000	      0.00000000
     15.65665856	    276.76194730	    -22.66665370	     -5.03943676	     -1.98971340	      0.54448005	     -7.40012858	      0.00000000	      0.00000000	      0.00000000
     15.67332521	    314.47882676	    -34.55376133	    -10.51744218	     -2.18903683	      1.06452906	     -8.03004111	      0.00000000	      0.00000000	      0.00000000
     15.68999186	    624.59673220	    -67.08281043	    -21.33688655	     -3.42879855	      3.55289187	    -16.11224477	      0.00000000	      0.00000000	      0.00000000
     15.70665851	   1399.61636574	   -118.56727851	    -33.56349498	     -6.37757799	      9.49802784	    -37.54205075	      0.00000000	      0.00000000	      0.00000000
     15.72332516	   2748.56850357	   -137.60082128	    -15.24858314	    -11.16843457	     19.49479876	    -77.49613510	      0.00000000	      0.00000000	      0.00000000
     15.73999181	   4461.63235659	    -44.42911184	     54.87458182	    -17.09048212	     31.56249930	   -131.27366191	      0.00000000	      0.00000000	      0.00000000
     15.75665846	   5958.26071663	    153.13383536	    145.81752358	    -22.50944537	     41.31339548	   -180.37248877	      0.00000000	      0.00000000	      0.00000000
     15.77332511	   6668.92756017	    317.99368192	    203.55740463	    -25.41923559	     45.00532172	   -204.78316839	      0.00000000	      0.00000000	      0.00000000
     15.78999176	   6379.06413214	    327.28186993	    200.08095968	    -24.73785449	     41.71941318	   -196.26828801	      0.00000000	      0.00000000	      0.00000000
     15.80665841	   5307.92400698	    196.00366298	    146.41434264	    -21.15051533	     33.44429741	   -161.80892679	      0.00000000	      0.00000000	      0.00000000
     15.82332506	   3877.04430886	     31.39113317	     74.25608924	    -16.23058311	     23.28902556	   -115.68286743	      0.00000000	      0.00000000	      0.00000000
     15.83999171	   2481.67259124	    -74.67909767	     13.91078404	    -11.33871331	     13.97995290	    -71.41484690	      0.00000000	      0.00000000	      0.00000000
     15.85665836	   1387.72236066	   -101.44124710	    -18.32669890	     -7.23017933	      7.13730631	    -37.75205082	      0.00000000	      0.00000000	      0.00000000
     15.87332501	    679.23145356	    -78.49380129	    -23.83071318	     -4.16033839	      3.01372717	    -17.05202004	      0.00000000	      0.00000000	      0.00000000
     15.88999166	    313.09798677	    -46.15448080	    -16.24372375	     -2.23225837	      1.04312634	     -7.18395385	      0.00000000	      0.00000000	      0.00000000
     15.90665831	    183.80152498	    -30.38282609	    -10.26551962	     -1.39553831	      0.42262042	     -3.94548843	      0.00000000	      0.00000000	      0.00000000
     15.92332496	    182.33404610	    -30.70348177	    -10.59744335	     -1.34014363	      0.47064949	     -3.85767113	      0.00000000	      0.00000000	      0.00000000
     15.93999161	    230.57747489	    -38.59912893	    -14.68840394	     -1.66326998	      0.70538564	     -4.94718068	      0.00000000	      0.00000000	      0.00000000
     15.95665826	    286.80120552	    -47.29159947	    -12.07210108	     -1.86026019	      0.83306057	     -6.38341094	      0.00000000	      0.00000000	      0.00000000
     15.97332491	    341.47908283	    -52.20538678	     -3.63515440	     -1.89069416	      0.81526552	     -8.11546101	      0.00000000	      0.00000000	      0.00000000
