TendonPower
version=1
nRows=51
nColumns=5
inDegrees=no

This analysis gathers basic information about muscles during a simulation (e.g., forces, tendon lengths, moment arms, etc).
Units are S.I. units (second, meters, Newtons, ...)
If the header above contains a line with 'inDegrees', this indicates whether rotational values are in degrees (yes) or radians (no).

endheader
time	recfem_r	vaslat_r	vasint_r	vasmed_r
     15.13999241	     -0.00000000	     -0.00000000	     -0.00000000	     -0.00000000
     15.15665906	     -0.00000000	     -0.00000000	     -0.00000000	     -0.00000000
     15.17332571	     -0.00000000	     -0.00000000	     -0.00000000	     -0.00000000
     15.18999236	     -0.00000000	     -0.00000000	     -0.00000000	     -0.00000000
     15.20665901	     -0.00000000	     -0.00000000	     -0.00000000	     -0.00000000
     15.22332566	     -0.00000000	     -0.00000000	     -0.00000000	     -0.00000000
     15.23999231	     -0.00000000	     -0.00000000	     -0.00000000	     -0.00000000
     15.25665896	     -0.00000000	     -0.00000000	     -0.00000000	     -0.00000000
     15.27332561	     -0.00000000	     -0.00000000	     -0.00000000	     -0.00000000
     15.28999226	     -0.00000000	     -0.00000000	     -0.00000000	     -0.00000000
     15.30665891	     -0.00000000	     -0.00000000	     -0.00000000	     -0.00000000
     15.32332556	     -0.00000000	     -0.00000000	     -0.00000000	     -0.00000000
     15.33999221	     -0.00000000	     -0.00000000	     -0.00000000	     -0.00000000
     15.35665886	     -0.00000000	     -0.00000000	     -0.00000000	     -0.00000000
     15.37332551	     -0.00000000	     -0.00000000	     -0.00000000	     -0.00000000
     15.38999216	     -0.00000000	     -0.00000000	     -0.00000000	     -0.00000000
     15.40665881	     -0.00000000	     -0.00000000	     -0.00000000	     -0.00000000
     15.42332546	     -0.00000000	     -0.00000000	     -0.00000000	     -0.00000000
     15.43999211	     -0.00000000	     -0.00000000	     -0.00000000	     -0.00000000
     15.45665876	     -0.00000000	     -0.00000000	     -0.00000000	     -0.00000000
     15.47332541	     -0.00000000	     -0.00000000	     -0.00000000	     -0.00000000
     15.48999206	     -0.00000000	     -0.00000000	     -0.00000000	     -0.00000000
     15.50665871	     -0.00000000	     -0.00000000	     -0.00000000	     -0.00000000
     15.52332536	     -0.00000000	     -0.00000000	     -0.00000000	     -0.00000000
     15.53999201	     -0.00000000	     -0.00000000	     -0.00000000	     -0.00000000
     15.55665866	     -0.00000000	     -0.00000000	     -0.00000000	     -0.00000000
     15.57332531	     -0.00000000	     -0.00000000	     -0.00000000	     -0.00000000
     15.58999196	     -0.00000000	     -0.00000000	     -0.00000000	     -0.00000000
     15.60665861	     -0.00000000	     -0.00000000	     -0.00000000	     -0.00000000
     15.62332526	     -0.00000000	     -0.00000000	     -0.00000000	     -0.00000000
     15.63999191	     -0.00000000	     -0.00000000	     -0.00000000	     -0.00000000
     15.65665856	     -0.00000000	     -0.00000000	     -0.00000000	     -0.00000000
     15.67332521	     -0.00000000	     -0.00000000	     -0.00000000	     -0.00000000
     15.68999186	     -0.00000000	     -0.00000000	     -0.00000000	     -0.00000000
     15.70665851	     -0.00000000	     -0.00000000	     -0.00000000	     -0.00000000
     15.72332516	     -0.00000000	     -0.00000000	     -0.00000000	     -0.00000000
     15.73999181	     -0.00000000	     -0.00000000	     -0.00000000	     -0.00000000
     15.75665846	     -0.00000000	     -0.00000000	     -0.00000000	     -0.00000000
     15.77332511	     -0.00000000	     -0.00000000	     -0.00000000	     -0.00000000
     15.78999176	     -0.00000000	     -0.00000000	     -0.00000000	     -0.00000000
     15.80665841	     -0.00000000	     -0.00000000	     -0.00000000	     -0.00000000
     15.82332506	     -0.00000000	     -0.00000000	     -0.00000000	     -0.00000000
     15.83999171	     -0.00000000	     -0.00000000	     -0.00000000	     -0.00000000
     15.85665836	     -0.00000000	     -0.00000000	     -0.00000000	     -0.00000000
     15.87332501	     -0.00000000	     -0.00000000	     -0.00000000	     -0.00000000
     15.88999166	     -0.00000000	     -0.00000000	     -0.00000000	     -0.00000000
     15.90665831	     -0.00000000	     -0.00000000	     -0.00000000	     -0.00000000
     15.92332496	     -0.00000000	     -0.00000000	     -0.00000000	     -0.00000000
     15.93999161	     -0.00000000	     -0.00000000	     -0.00000000	     -0.00000000
     15.95665826	     -0.00000000	     -0.00000000	     -0.00000000	     -0.00000000
     15.97332491	     -0.00000000	     -0.00000000	     -0.00000000	     -0.00000000
