Inverse Dynamics Generalized Forces
inDegrees=no
nColumns=21
nRows=51
DataType=double
version=3
OpenSimVersion=4.6-2026-03-27-4e5ffda9c
endheader
time	pelvis_tilt_moment	pelvis_list_moment	pelvis_rotation_moment	pelvis_tx_force	pelvis_ty_force	pelvis_tz_force	hip_flexion_r_moment	hip_adduction_r_moment	hip_rotation_r_moment	hip_flexion_l_moment	hip_adduction_l_moment	hip_rotation_l_moment	knee_angle_r_moment	knee_angle_r_beta_force	knee_angle_l_moment	knee_angle_l_beta_force	ankle_angle_r_moment	ankle_angle_l_moment	subtalar_angle_r_moment	subtalar_angle_l_moment
144.34	-24.11825181762005	-6.281121789214546	8.676455586913002	-56.26988171595656	205.4376068718788	39.72667063069786	-3.299597619079343	-3.586966520529741	11.34143200635362	2.935191968638108	27.07033496989606	-8.432653888138915	56.56594215492724	-0.07055464176490037	22.27537539189187	-0.04132054304539932	-74.34332307203626	2.558186559568899	16.63334127568315	-0.9595107683101742
144.35704	-19.4899605288196	1.994599946298316	1.848537673009093	-36.0190390188189	125.8936371166091	12.04471842923618	22.68735167321936	5.588785322982018	5.50749100300893	-28.55762309097091	17.36438986239079	-4.128504135732212	33.96529607503583	-0.05923896232332232	32.47608138569628	-0.02322154594021652	-47.0700962987883	1.072114450986793	9.304067265672003	-0.6889311627631337
144.37408	-9.060175667465904	5.496213741487782	-2.541958452793998	-11.91824551262154	42.54516444996332	-5.192591157753006	45.89810095123222	12.38928270389556	1.334429419262568	-52.52007699076336	12.21407730286277	-1.234746017644961	12.81331524922981	-0.04733190497369782	39.87936959263205	-0.00785777700011181	-23.03913706027464	-0.5565323375679821	3.497569679966562	-0.2134754637734122
144.39112	3.043562343912454	3.269331221254006	-3.37866713267295	9.336660286639979	-28.53702432569926	-8.58635762676481	60.23367001167858	16.5720156290079	-0.3587047642923937	-64.93143807913879	13.86885405221004	-0.591558860245927	-3.334821461792751	-0.03550642267762161	42.49839925872116	0.003312834781471281	-5.700385359896895	-2.108621462528164	0.0118588094239931	0.3601261954154468
144.40816	7.661300897647385	-0.9509625139561352	-1.467064442759134	15.88776709838634	-62.04465186281555	-3.593516963251608	61.96604589015178	20.46262824640949	-0.2362536939620837	-67.44706303205686	21.58742672684266	-2.060073558803695	-11.34190353940477	-0.0258462183998404	40.57685337895214	0.01087357050886091	3.126681549513552	-2.927790683993222	-1.321002277008907	0.5248183160507964
144.4252	2.779895988235606	-2.508146493507299	1.121087393028012	5.516996015281048	-46.94340271042117	1.504479375259562	56.22244590404907	26.44764823731878	-0.0445981073169861	-65.40800581105799	32.44740629866455	-4.381130364127195	-12.15853193844796	-0.02121816869625635	36.47097366891527	0.01576328733015647	5.009568876604552	-2.204936453279043	-1.315282185247807	-0.2682425973106722
144.44224	-3.807714984717627	-0.8878481625842582	2.52238390171983	-9.347659805703151	1.382948192877746	3.533577534367098	53.51823725241648	33.41909437125481	-1.211800255322518	-63.5538600485519	41.77828244024293	-5.561596737161769	-10.23784980302058	-0.02440123886390748	31.97265167217519	0.01605076416820512	3.765116388428623	0.3161474868096719	-0.8699938708188132	-1.742011808424569
144.45928	-3.737575816773588	0.2493719768959181	2.269564674920543	-13.0059344908164	43.77812075593637	4.59959446306524	60.31652031695961	36.56446894517766	-3.840998454910193	-64.63891123830356	42.61537325408912	-4.062452729855245	-9.752850486047585	-0.03657912971392908	25.7164015687604	0.007008426394897893	2.607669027413725	3.336589517362399	-0.5596261086493847	-1.907676834678557
144.47632	2.917389663827366	-1.66019101261876	1.451155465437982	-1.777291830251794	41.00411262853714	5.706269888838654	74.04597001150175	31.34782940579644	-6.901060149846122	-69.96083308567111	26.93239994790499	-0.001970981544833439	-12.09256586616807	-0.05540035118508638	13.39092894302606	-0.01341758836285302	2.635727736839725	3.591914138722657	-0.5473547484109441	2.817313425465803
144.49336	8.672935195308106	-4.739433412101952	1.442127471177393	12.8636856842179	-7.035198097463277	4.745469385414725	85.70280981452586	17.16952144073576	-8.921101673845447	-77.18052617950636	-9.112470534977598	5.583287804279562	-16.09012163458909	-0.07444224952910136	-9.366611995111292	-0.03896186253988094	3.376707445543292	-2.91923024853448	-0.7320079188583978	15.98803940309953
144.5104	7.147833277074183	-5.756475634850929	1.884818059894068	16.32505078938169	-52.41838040337026	1.608711436294651	86.4316904511717	-2.595114356476753	-8.489621656998029	-78.50541395017058	-59.46624555387078	13.15085489455492	-19.54732027295158	-0.08577145840682589	-43.50115947221447	-0.05678493935915097	4.005706939687963	-18.48289812700343	-0.9539857550119271	38.82134213832581
144.52744	-0.6900064115270145	-5.067641301079538	0.7833921302926738	5.341872302478137	-49.78307484154949	0.8670592049518258	73.66378244071898	-22.45832134961682	-4.881801580885166	-66.1526494695333	-108.7985124622087	24.29888153243818	-20.72939580429072	-0.08470804886456959	-84.74107002903519	-0.05740375225888786	4.095150725303585	-41.86814791315574	-1.128087696097202	68.58774580512768
144.54448	-8.376256475208077	-5.977394247993113	-2.242508901888053	-10.14758573697219	-8.925301774671972	5.950568169035698	53.06002139036917	-36.51819093809085	1.076291383019714	-41.33201940791989	-141.3878860996819	37.13212998098106	-19.22285408737778	-0.0730262052001739	-124.1408455791137	-0.04425977612934794	3.723006230615199	-68.67138802837616	-1.255992157519767	98.88592520203524
144.56152	-10.41798228811723	-8.527813650341962	-4.351879475795331	-17.73910228832931	22.78313294065149	12.08643470031548	34.29203683580918	-40.78131091702531	7.022794182938297	-14.52340748867363	-151.8848514226637	44.67502485832181	-15.8271579707651	-0.05715950552258883	-150.4338063482761	-0.03295755848487121	3.220174849202923	-93.68094123741115	-1.368370718149786	122.3417301088177
144.57856	-6.064938066074508	-7.615823270266959	-3.061763371825367	-12.72219791377024	20.38391044334738	10.00245731686051	23.52782016679457	-35.95172504561798	10.68812198878759	4.880637890557542	-147.2113723390655	41.44015495062875	-11.7439434132809	-0.04252252594681687	-154.0530110587367	-0.03946158629044717	2.85770128743017	-113.6339730896161	-1.482223706358534	134.5097220017818
144.5956	1.280384502780613	-1.293998744069494	0.1959829498129005	0.1756270448183692	1.385541271147215	-0.7203500224702224	19.2032340255282	-27.46360925164411	11.72117961740169	16.30677465861361	-136.1663702755305	29.82116836585836	-7.863386678777205	-0.02924998033422519	-131.6893723735874	-0.06740470063964359	2.678468974602417	-128.2609045438566	-1.59680360684451	136.0441535668516
144.61264	6.397792212013578	3.440517933339109	2.135884761276549	11.02233669955863	-8.201021916361412	-7.851777008084889	14.67764674723659	-21.26049162299049	11.61059198689708	24.39845273156367	-120.0253401388752	17.11005034182705	-4.539485179305366	-0.01339561681321815	-88.6337369124906	-0.1057045764292511	2.543292099573528	-138.7216538431314	-1.690952743404196	131.1431614556973
144.62968	5.909979479824423	-0.0799732687842821	1.777325248228394	12.07323820399639	-5.382682488735796	-2.092522162862905	4.468266332403521	-19.12210233296839	11.77947963665796	32.1934488399343	-97.20857809508088	7.951939312051887	-1.52247684413287	0.007827452596629036	-37.29774946448475	-0.1378020252603391	2.310087770020537	-144.9683166670358	-1.713162956873531	123.6414318591753
144.64672	1.460324672607997	-7.388605318028773	0.7671150798165771	4.357800526024499	-3.014169491892462	9.358041602774321	-12.08749308381395	-18.325312693461	12.08125157781587	40.37689967546561	-72.11472841100691	1.929597957202811	2.178426674064926	0.03195288839599712	7.613199160789175	-0.1533429586441417	1.983816987215247	-144.7827250462384	-1.601929358530263	114.3545104528507
144.66376	-2.191641894186195	-8.534736032303451	0.5328836654832082	-3.88269333949799	-5.988316236228354	12.07469770502644	-32.14094900589021	-15.37932573396771	11.22983760098134	49.74692816385048	-52.42847444650193	-2.910071431958668	8.093276711475635	0.05199897756565128	35.28665103114616	-0.1524603296442506	1.713987063800911	-135.4305056363245	-1.340435993329983	101.6755536719008
144.6808	-2.640528140660325	-1.491618997020018	0.6911584110896518	-6.278249566830516	-6.071484368218877	2.882695679769446	-52.78495119800789	-9.351782204654493	8.380348812447043	61.39938895417833	-40.01722179826083	-6.455730927262473	17.37429076474297	0.06106827541298961	42.85988484967136	-0.1414554033569805	1.634373566791409	-116.2024273056562	-0.988664379484425	84.17198096870202
144.69784	-1.5399350063942	5.770515103430047	0.2705941203841651	-3.891358660700866	3.103765441954406	-7.431958147475426	-72.81087814637257	-1.839302486086541	4.097681383527567	75.52045100897277	-29.53157700459321	-6.944547636673377	29.69656427563329	0.05689767005240903	34.72659347274833	-0.1264094622725186	1.657136894930955	-89.59928026485736	-0.6504626796986711	62.67103549246509
144.71488	-1.159673841306601	5.642036010402079	-0.5856709451518149	-1.591571943839358	15.03342325931217	-8.123887440148724	-92.00919836424103	5.201141118175732	-0.03207280029280257	91.02700908901946	-15.71939123570323	-3.988045660044393	43.06061256170891	0.04328623984001716	18.39711252528809	-0.110575250204327	1.393987661025366	-60.4246820730819	-0.3950238858568629	40.34129835059419
144.73192	-1.731736584689691	-0.5017878841117286	-0.7963627311979998	-1.829992921443124	16.67936151594052	-0.2268226763142458	-109.7424164635138	11.04183573149989	-2.53247994885115	105.5653303201654	0.6112201796944006	0.1491150059073756	54.76668827296032	0.02792294146625653	0.7172538688416839	-0.095506079901785	0.3519804758350025	-33.80701253181917	-0.1753102669107217	21.07558053867146
144.74896	-2.274327043240964	-5.011229395682228	0.1888637140777434	-3.063917465885411	2.191351414424215	6.579739849530749	-123.9206931418552	16.03258116971176	-2.916471772327008	115.6778975306107	14.3009567590709	2.610329904109925	62.56033176024904	0.01811271335019308	-13.62945803960413	-0.08244319168378762	-1.59192185161765	-13.56332594407315	0.1998585809206763	7.605048010379361
144.766	-1.757202127421132	-3.161826105179832	1.579460159494005	-2.332149322999672	-20.17100059651573	5.62805744960407	-130.468058464	20.27835846322671	-1.803957555657839	118.0268792627341	21.31805269262123	2.510214251631438	65.00705584172275	0.01668789245080754	-22.3103010140615	-0.07195199019997547	-3.71240884254863	-1.284300145996919	0.9208767322479823	0.4569794140002373
144.78304	0.5811896455964881	2.093356245683774	1.82319955314011	1.536015461013067	-31.55067102770395	-0.5590382539623727	-124.380328589364	22.43924902241625	-0.3836120741761003	110.9501696951276	21.41635637174349	1.056703029851347	61.47059594570355	0.02021042185913889	-25.17321797087525	-0.06293636216971012	-4.516219974912589	3.940862500191983	1.776730355113165	-1.901867070215105
144.80008	3.731188608171816	3.877676185177079	-0.01469184906338528	5.797880509988887	-16.16252989368586	-4.459930449461329	-103.7830066401462	20.02942054781637	0.3539259110121049	94.82563754953328	17.17036321222451	-0.2970827435071365	52.51337177755751	0.02058764642973608	-23.43991987226369	-0.05323486159974507	-2.863858126756884	4.762812654767224	1.773126108894595	-1.881544335916174
144.81712	3.843523416681925	-1.268834802011425	-3.155756421659547	4.953003761021887	19.27512598936902	-1.53636431808986	-74.44235514236863	11.50955426505142	0.1319979447274755	71.89834471033979	12.2277490084447	-1.313952290325053	40.12622371630354	0.009652759150438922	-18.62528504880029	-0.0420530305112226	0.2253574076136884	3.92170411402635	-0.4977124627079657	-1.346689344473819
144.83416	-2.112181977208665	-10.29552073771202	-5.50255060105648	-3.144069199356644	42.11197833485254	6.715210410901068	-48.18074563902673	-2.090245284228694	-0.6948361852910967	46.91244124228189	9.8675732740986	-2.807132370546266	26.28554511720825	-0.01531919187865203	-12.39013747737183	-0.03179936985489429	0.7078983639700231	3.006756150685792	-5.323892095133122	-1.008656133319634
144.8512	-10.6716112099705	-17.76920572256925	-5.717154754068748	-12.04088266090035	25.44912338783792	16.13668367351701	-33.58463763094293	-18.59002175121523	-1.584280004024712	26.91333682985585	11.22354012429956	-5.313197173413786	10.38234838614606	-0.04815603960910667	-7.062929922056861	-0.02679138499245575	-6.618785253408356	2.45868548840327	-10.27408016608575	-0.8175942770049804
144.86824	-13.34365553107402	-20.66455896410338	-4.513646857019676	-11.85310643141988	-15.24641663676656	22.71758306936206	-28.82933193062286	-36.69831922559349	-1.594779790312709	17.78570967508558	13.72698783497339	-7.885088498450272	-11.28573207820035	-0.07529677842871713	-5.130021577564749	-0.02942065137529236	-24.08131935345133	2.222502067374555	-10.635790874602	-0.6229730832044158
144.88528	-6.566624956461978	-17.6040120531753	-2.940530589827532	-1.892711811525392	-36.03000934579021	21.58730370767572	-26.7769258210227	-55.16847785936987	1.446086434891684	19.829868639807	12.17067160938072	-8.344538271813544	-42.04855949008608	-0.08310554622742869	-7.497320175801976	-0.0375486073824373	-48.67916681103588	2.185154454830521	-2.453087449826453	-0.4609781097472808
144.90232	2.391224946143795	-7.969413579780388	-0.7381361964980671	6.296349139840824	-17.99352935361736	9.564434398782877	-25.49332552200845	-72.33072338217004	9.768016675445748	27.70697308947323	3.18225494212604	-5.20463264790081	-80.47465431835573	-0.06746645313767237	-12.47852875781122	-0.04609073256903204	-74.19986007261343	2.25827130287933	14.17032530050106	-0.4516665962654717
144.91936	3.872266300608905	4.799199909440149	1.896145821882264	3.014124421397606	13.46968908794338	-7.927519042421626	-28.02646148490906	-88.18660072263521	21.96880189659949	35.28009458538484	-10.84619551270879	0.5705035566097061	-120.1363811975146	-0.03843585942215853	-16.84946498626326	-0.05109276096121956	-95.83929347111193	2.371103122606367	34.66733985770907	-0.6286896237164992
144.9364	-1.734292433827733	12.78475121851897	2.996892283700884	-6.396050545001614	25.71475109988214	-17.92548367987095	-32.92048705326507	-104.3274244261634	32.47874186131276	39.74425982408324	-23.24203357464699	6.175188553292409	-153.0239113375299	-0.01482873938182318	-18.0036770700758	-0.05172872679806274	-112.9770827843774	2.490013970302599	53.08055098106821	-0.9193257645541406
144.95344	-5.625611188821721	10.3130253870776	1.509876481868584	-8.832883864131658	14.58515490182671	-12.4411961733058	-32.64027831837183	-119.9717731710249	36.84532877452536	40.97110614783039	-28.71413390334397	9.460940657669596	-171.6262602775206	-0.01185919160242368	-15.37369595366875	-0.04844063819047864	-128.4512914599193	2.609440584312303	65.75053525170129	-1.231930696243981
144.97048	-2.961568394832802	1.081739573073625	-0.7000928822740814	-0.9111373409076858	-2.022234014318549	1.533621173184315	-22.44022147288208	-128.565188061607	35.38133491615064	38.45462479843209	-26.75286431169439	10.36475619049771	-169.7723915329258	-0.03167426666460867	-10.28949445663937	-0.04025344140036077	-145.1457810253897	2.701371583733801	72.36338647509199	-1.501086158706155
144.98752	2.446560080740942	-4.330431168430615	-1.42881208586653	7.908902803295341	-10.2637248753912	8.464068220410901	-5.367052818912124	-120.7368695215952	30.30435261584042	30.43961656205088	-19.66323650928022	9.766939283766916	-145.665496171732	-0.0641608095881501	-4.679557547261026	-0.02513320037438365	-162.2512574515043	2.696951270357316	74.17187063471941	-1.656411943376904
145.00456	4.883723883210142	-0.588112071622237	-0.9323179509083611	8.311437852107835	-10.65170361062042	1.991098235873462	12.12545239840109	-93.87600110798591	22.54709833580889	15.99316358081126	-9.10599366958758	7.761214218170252	-104.8044209282539	-0.09589678771607851	0.3894859449336885	-0.003416617161859721	-174.6973423518818	2.545987996186721	72.00454483127344	-1.618108431123196
145.0216	3.270907590239544	5.875492644754223	-0.6428686012235213	1.548058332566091	-7.901270125177437	-8.01397078904724	26.14910624821183	-57.48807753245703	12.96018404460625	-2.983306907260717	4.151786015354187	3.827445114363938	-58.27260213228092	-0.1184642737360638	5.325190179055793	0.01958448568737766	-176.528560927965	2.294967263563901	66.04199421509574	-1.376345503961519
145.03864	0.3546764896670425	5.597811138618901	-0.663599023542123	-3.878452095462871	-0.1365449953723714	-8.420562593159465	36.58889196248379	-25.94949891813192	4.110167120292761	-22.36709745398017	18.01279480897354	-1.571782900844507	-17.31097332181617	-0.1298680235252465	11.37603888581192	0.03541871590554881	-164.9106585509294	2.071596623158384	56.72615946409602	-1.055450683753177
145.05568	-1.947277831022642	-1.848917950615337	-0.09193032769890509	-3.038617824449618	15.90645654651803	1.406375392583875	44.54983718760248	-6.737327097747416	-0.8874320745163374	-38.55956393295693	28.44087184448355	-6.439761795654037	11.33498438557081	-0.1306412290356021	19.36898090641548	0.03811296340729679	-141.6038249863309	1.946067250359699	45.26150116015965	-0.8432030712026263
145.07272	-3.89763297436017	-7.74295366540689	0.9353161284867112	0.4274183016115606	30.59976968795474	9.841725647181494	50.67522243611471	2.950148226098796	-0.9938414037717203	-50.64145532984651	31.90581778071732	-8.659452028552719	26.14786580854108	-0.1206443704249131	28.89715897850884	0.02882984800502182	-111.5438057182116	1.797334188399615	33.29639627473903	-0.8316817419145487
145.08976	-4.772916944299446	-5.030448993807954	1.088339587595223	0.4051531384866027	21.67059404546421	7.166737913533423	55.93072561594023	9.293500822456327	1.733271475046728	-59.74054766678992	28.27975717500573	-7.738824841824949	28.4849321854743	-0.09994760716470963	38.39223347690203	0.01506406005086069	-80.18133422862265	1.365810479070575	22.30356083631604	-0.9411676904875769
145.1068	-1.950922340206805	3.194953094900474	-0.01603958298260771	-3.350319926863823	-21.12115239345197	-3.239567296468353	61.22209542999988	13.85988186411213	3.979475916058909	-66.26286403565872	21.13021496410915	-5.020611396630156	20.9941506991781	-0.07176878578749693	45.65217339660337	0.004651579135837928	-51.65298672384108	0.5082949328004152	13.2059880914108	-1.007827510111755
145.12384	4.525524231692141	7.413465572498097	-0.8407916454724096	-5.285536725234492	-69.86116968287955	-9.225019009746651	64.73027692339731	13.73880016210092	4.03531585148759	-68.0936360252265	15.06930643721668	-2.376932849355426	8.202281478081888	-0.04325133799853666	48.46117447462979	-0.0001653322933956943	-28.45512056355384	-0.5742306679508391	6.397792386854389	-0.9330415208465164
145.14088	8.993348975160792	2.65577056494405	0.09217068314878635	-0.8996117355759945	-66.5714706279789	-3.864029016352604	61.84742574482327	7.97551621577279	2.645241480494545	-62.08037906267518	12.57099678426695	-0.8648706208008898	-3.639869584954921	-0.02242369382804228	45.48607533011365	-0.003304875120167646	-11.82638926742239	-1.39977572208065	1.923585637207263	-0.7462224972097821
145.15792	4.503290868199917	-6.917783014758273	2.248400664550997	8.960714463848486	32.49133704571891	8.112461056465991	49.48408083650274	0.5304374084382075	1.439980250649916	-47.39286864308187	13.05880002941342	-0.4487710175419461	-9.217009688512803	-0.01375680867901861	37.24124538916347	-0.01008049096252512	-2.082348013318743	-1.545871037290102	-0.4210384577942868	-0.5482851241788512
145.17496	-10.87740183142811	-14.26620917585538	3.987911263670909	20.36570956796924	222.6005877021144	17.8278483130603	29.13909071434056	-3.810099856031153	1.252176995102147	-26.6828340966439	14.63772764431863	-0.5979865213774586	-6.99963977619865	-0.01619708387677147	25.89471469119486	-0.02243376755229097	1.53250389050772	-0.9466331879005619	-1.094310384844399	-0.4152235605208309
145.192	-33.10704100560623	-17.51000733690769	4.743854423446768	31.02598512231852	462.2405648135746	22.6360606460941	4.936082018261267	-4.454259894791434	1.835589992612988	-3.576353114207142	16.18301702515569	-0.903593774606662	0.3324967460786524	-0.02482304791397886	13.55771775013492	-0.03842443885523506	1.372565493438056	0.1083520132515575	-0.8311251196867439	-0.3453648399904451
