FiberForce
version=1
nRows=51
nColumns=5
inDegrees=no

This analysis gathers basic information about muscles during a simulation (e.g., forces, tendon lengths, moment arms, etc).
Units are S.I. units (second, meters, Newtons, ...)
If the header above contains a line with 'inDegrees', this indicates whether rotational values are in degrees (yes) or radians (no).

endheader
time	recfem_r	vaslat_r	vasint_r	vasmed_r
     14.03332693	   1268.93354837	    863.40284495	    190.97479726	    363.75287705
     14.05066025	    870.40705839	    576.23994222	    134.39669474	    252.57095084
     14.06799356	    546.89991307	    352.59126991	     90.52988996	    165.20788458
     14.08532688	    305.04835758	    206.68130841	     62.56657790	    108.47992846
     14.10266019	    157.01889170	    140.67059487	     51.06269383	     84.01460692
     14.11999351	    113.88281721	    142.02074894	     53.32799889	     86.46609326
     14.13732683	    145.75452127	    177.88662007	     63.01195637	    102.84579746
     14.15466014	    201.66257227	    216.60343493	     74.45674673	    121.46690276
     14.17199346	    257.97534096	    248.37148977	     86.15742969	    138.98158411
     14.18932677	    323.47717743	    280.85906133	     99.92383423	    158.51059207
     14.20666009	    416.86427227	    324.08392545	    118.39565157	    184.41291848
     14.22399341	    539.99743616	    378.06939723	    141.76507344	    216.61981338
     14.24132672	    673.96902430	    437.27361593	    168.62773902	    252.53844936
     14.25866004	    793.28289560	    495.08388461	    196.78694714	    288.82051540
     14.27599335	    875.67471018	    545.07107016	    223.19160790	    321.50369565
     14.29332667	    906.65570108	    585.23601508	    244.42310035	    346.69647170
     14.31065999	    887.16060429	    614.42405012	    259.00992004	    363.43134816
     14.32799330	    826.44176682	    630.47710006	    266.71687146	    372.44519816
     14.34532662	    736.67652765	    631.47544066	    267.44825452	    373.15312795
     14.36265993	    632.66215534	    617.24028501	    261.21383752	    365.50255670
     14.37999325	    527.53035849	    589.14102085	    248.01130944	    350.00947700
     14.39732657	    427.79259122	    548.44904849	    227.41211925	    325.34357658
     14.41465988	    334.51443066	    494.96727606	    199.52746811	    290.74017586
     14.43199320	    250.37479140	    428.73127886	    167.27977818	    249.28232283
     14.44932651	    178.73993834	    356.09419409	    134.61642632	    205.66198392
     14.46665983	    123.11474175	    285.65469659	    105.44778805	    165.11789452
     14.48399315	     85.95213810	    228.27946855	     83.33683225	    133.31767734
     14.50132646	     62.90233030	    186.67868986	     67.54417663	    110.05352872
     14.51865978	     50.28439637	    163.67796292	     56.91921755	     94.74382387
     14.53599309	     45.64525913	    157.13017198	     50.49937523	     86.36801917
     14.55332641	     45.99694721	    149.74779349	     46.45187137	     80.72661797
     14.57065973	     48.86238357	    115.85482477	     43.73142544	     73.15022128
     14.58799304	     54.29376513	     60.07144656	     44.54897331	     66.05331686
     14.60532636	     65.56148086	     78.09543304	     57.11122104	     79.75674448
     14.62265967	     84.55285958	    348.64527913	     93.08596955	    149.18556869
     14.63999299	    105.49027303	    994.52394304	    158.73864678	    297.65459998
     14.65732631	    116.29728888	   1931.32768745	    247.91867006	    511.52264891
     14.67465962	    110.97285388	   2898.79194513	    344.81760381	    745.93362762
     14.69199294	    100.95150637	   3649.04746900	    431.37162140	    952.16688243
     14.70932625	    113.90193140	   4051.31707662	    487.90691980	   1087.38835093
     14.72665957	    178.76260765	   4045.60266237	    493.25745074	   1109.95893163
     14.74399289	    300.31720122	   3613.60455110	    436.60178255	    995.70413288
     14.76132620	    440.51012999	   2820.76471764	    330.33865565	    765.28770302
     14.77865952	    531.33092593	   1853.07694953	    208.14323505	    487.78814640
     14.79599283	    519.15983977	    965.87111998	    106.54258407	    246.58832662
     14.81332615	    409.08825928	    360.78900795	     46.08065810	     96.33195359
     14.83065947	    260.35875252	     78.93046848	     24.14225015	     38.37154011
     14.84799278	    130.90303285	     25.80698079	     24.58595078	     37.32758463
     14.86532610	     57.22937479	     71.10594601	     32.17867003	     54.79958203
     14.88265941	     50.21504974	    111.25832400	     37.57504708	     65.94424508
     14.89999273	     92.25135664	    112.94778856	     38.42036606	     65.19231603
