ActiveFiberForceAlongTendon
version=1
nRows=51
nColumns=5
inDegrees=no

This analysis gathers basic information about muscles during a simulation (e.g., forces, tendon lengths, moment arms, etc).
Units are S.I. units (second, meters, Newtons, ...)
If the header above contains a line with 'inDegrees', this indicates whether rotational values are in degrees (yes) or radians (no).

endheader
time	recfem_r	vaslat_r	vasint_r	vasmed_r
     14.03332693	   1119.56762962	    710.87782408	    143.52011971	    263.83386370
     14.05066025	    733.66797665	    445.75201378	     92.42929052	    168.20398576
     14.06799356	    422.45184460	    240.59846890	     53.15623191	     93.91667141
     14.08532688	    189.87363824	    106.94295401	     28.17316384	     45.99711224
     14.10266019	     44.20953972	     44.52067479	     17.29778660	     24.53787245
     14.11999351	     -6.68783995	     39.88684030	     17.41624485	     23.81624352
     14.13732683	      5.41636183	     60.87826116	     21.96801450	     31.73223166
     14.15466014	     27.59949865	     76.65567210	     25.07921804	     37.44640642
     14.17199346	     33.11022087	     77.76092202	     25.10255960	     37.80784586
     14.18932677	     26.35271750	     71.54269243	     23.59460997	     35.52438834
     14.20666009	     18.53644387	     65.72618692	     22.02233809	     33.28870374
     14.22399341	     13.99210544	     61.54263963	     20.51554833	     31.38759740
     14.24132672	     11.90621755	     58.09086641	     19.03845088	     29.61310529
     14.25866004	     10.65002788	     54.43178773	     17.53628388	     27.72845785
     14.27599335	      9.60006126	     50.64272003	     16.09600590	     25.81450765
     14.29332667	      8.79090336	     47.63259198	     14.90768965	     24.19002118
     14.31065999	      8.35590074	     45.28575862	     14.07448149	     23.07168607
     14.32799330	      8.29781965	     43.53901951	     13.50678338	     22.30806400
     14.34532662	      8.61461991	     42.26669062	     13.11507513	     21.73250528
     14.36265993	      9.28063925	     41.39695714	     12.86251593	     21.34741942
     14.37999325	     10.18581958	     40.89632549	     12.70235120	     21.09550097
     14.39732657	     11.13954095	     40.75796207	     12.57980028	     20.82858171
     14.41465988	     12.09131403	     40.78290943	     12.52292689	     20.63895672
     14.43199320	     13.14251742	     40.98496415	     12.62477755	     20.65831838
     14.44932651	     14.16922475	     40.84479948	     12.83358391	     20.73280385
     14.46665983	     15.10402258	     39.93462364	     13.23546840	     20.90498956
     14.48399315	     16.16245803	     39.42611277	     14.10646226	     21.63427154
     14.50132646	     16.81462302	     40.93940419	     15.02306546	     22.60117204
     14.51865978	     17.97010541	     49.46207004	     16.32602878	     24.85842750
     14.53599309	     20.06479300	     63.58809339	     17.71737010	     28.00115962
     14.55332641	     22.48734816	     68.19424368	     18.20119098	     29.15421170
     14.57065973	     24.17995409	     40.08181050	     17.30230374	     24.84149311
     14.58799304	     25.86620819	    -15.16305894	     17.60572934	     17.75928957
     14.60532636	     31.07762310	     -4.81063893	     27.58579207	     26.60895682
     14.62265967	     42.11705486	    244.51843202	     59.10285969	     83.69111739
     14.63999299	     54.19568577	    854.20012661	    118.63256080	    211.64400732
     14.65732631	     56.64223603	   1746.28400808	    200.54343519	    399.84489637
     14.67465962	     44.48911626	   2671.46886259	    290.20436658	    608.74424781
     14.69199294	     29.09437190	   3391.09463685	    371.28960344	    794.61076790
     14.70932625	     37.13559990	   3779.32914348	    425.72973504	    918.43755153
     14.72665957	     96.75354690	   3778.11807181	    433.08029050	    941.53966894
     14.74399289	    213.03473984	   3368.77990772	    382.03354891	    840.95596088
     14.76132620	    349.58748793	   2613.69513624	    283.66484824	    635.49637101
     14.77865952	    440.70785463	   1692.59346316	    170.10826612	    388.96834011
     14.79599283	    434.41611941	    852.15335068	     76.68792750	    177.78693792
     14.81332615	    335.22461761	    285.21206242	     23.20632955	     50.52061368
     14.83065947	    198.68232176	     27.09020213	      6.40614471	      5.60660104
     14.84799278	     78.44733073	    -16.73065096	      9.80683984	      8.77702441
     14.86532610	      8.11314892	     28.04108431	     18.19780636	     25.18623891
     14.88265941	     -2.26508079	     63.84853428	     22.62103666	     33.73927669
     14.89999273	     31.06657417	     60.33262386	     21.33175738	     30.41515709
