PassiveFiberForce
version=1
nRows=51
nColumns=5
inDegrees=no

This analysis gathers basic information about muscles during a simulation (e.g., forces, tendon lengths, moment arms, etc).
Units are S.I. units (second, meters, Newtons, ...)
If the header above contains a line with 'inDegrees', this indicates whether rotational values are in degrees (yes) or radians (no).

endheader
time	recfem_r	vaslat_r	vasint_r	vasmed_r
     14.03332693	    131.63706906	    131.06376895	     47.19869893	     77.69935628
     14.05066025	    124.91837838	    116.36609299	     41.79494952	     69.52647825
     14.06799356	    117.48974108	    103.98825338	     37.26988899	     62.60694276
     14.08532688	    111.98616816	     96.03325504	     34.33633298	     58.06163481
     14.10266019	    112.06502049	     94.58175192	     33.72932698	     57.08066391
     14.11999351	    120.68045378	    100.75584454	     35.87655698	     60.36673288
     14.13732683	    140.25395051	    115.01721401	     41.00172546	     68.22685448
     14.15466014	    173.66583533	    137.63110619	     49.33275378	     80.86360555
     14.17199346	    224.42952314	    168.45998533	     61.01367376	     98.24995194
     14.18932677	    296.80880756	    207.50467741	     76.29367678	    120.46733612
     14.20666009	    398.12573052	    256.83073383	     96.34285426	    148.95870396
     14.22399341	    525.86525561	    315.20657243	    121.22336137	    183.34927177
     14.24132672	    661.95143586	    378.01876037	    149.56668219	    221.26965636
     14.25866004	    782.53790911	    439.61967111	    179.23104352	    259.62886102
     14.27599335	    865.99145856	    493.50643987	    207.07840783	    294.38598152
     14.29332667	    897.78939047	    536.76128071	    229.49999269	    321.32171566
     14.31065999	    878.73261683	    568.35327115	    244.92117374	    339.25050860
     14.32799330	    818.07094256	    586.19140162	    253.19653974	    349.07514814
     14.34532662	    727.98360972	    588.48512638	    254.32004517	    350.38764682
     14.36265993	    623.29335594	    575.12944067	    248.33835114	    343.13373183
     14.37999325	    517.24237575	    547.52803938	    235.29594256	    327.88961397
     14.39732657	    416.53383423	    506.95842535	    214.81907119	    303.47754593
     14.41465988	    322.28303519	    453.42332017	    186.99078205	    269.03094827
     14.43199320	    237.06423871	    386.93888661	    154.64027980	    227.48928548
     14.44932651	    164.36585619	    314.38377099	    121.76667956	    183.70078299
     14.46665983	    107.75712022	    244.79277856	     92.19402350	    142.85372294
     14.48399315	     69.46914328	    187.83976760	     69.20880056	    110.12630599
     14.50132646	     45.69241462	    144.57014123	     52.49568873	     85.64893254
     14.51865978	     31.81762923	    112.64547011	     40.56266587	     67.68755698
     14.53599309	     24.94957363	     91.31899917	     32.74581012	     55.65207257
     14.55332641	     22.74836855	     78.98416832	     28.21087190	     48.53632921
     14.57065973	     23.85835313	     74.19792251	     26.38979699	     45.61502890
     14.58799304	     27.59327210	     75.83196535	     26.90313141	     46.36331006
     14.60532636	     33.57199276	     83.08915423	     29.46454002	     50.34995860
     14.62265967	     41.32435680	     95.38040261	     33.85981961	     57.20118550
     14.63999299	     49.99533062	    111.98617401	     39.87510486	     66.49371164
     14.65732631	     58.39627375	    131.29446018	     47.01100502	     77.36808751
     14.67465962	     65.54744776	    150.09846829	     54.11643652	     88.03721535
     14.69199294	     71.26763258	    163.95791186	     59.47138004	     95.97227634
     14.70932625	     76.03482855	    168.98094355	     61.48825231	     98.93397988
     14.72665957	     80.14561482	    163.51906013	     59.46984208	     95.96430460
     14.74399289	     83.24694658	    148.79256461	     53.92285537	     87.76324910
     14.76132620	     84.34665167	    127.99799903	     46.16687818	     76.16276923
     14.77865952	     82.26887379	    104.92525121	     37.70698605	     63.31338321
     14.79599283	     76.27784065	     82.76257515	     29.69241971	     50.92257123
     14.81332615	     66.99455733	     63.93643939	     22.81971922	     40.12866695
     14.83065947	     57.33519418	     50.59733328	     17.71927582	     32.05682282
     14.84799278	     50.64166688	     43.38043680	     14.75083318	     27.32910464
     14.86532610	     48.92418959	     41.58314382	     13.92567484	     25.92178993
     14.88265941	     52.53260401	     44.04598018	     14.88562691	     27.27596693
     14.89999273	     60.50224361	     49.55401402	     17.02664004	     30.51180413
