inDegrees=no
DataType=double
version=3
OpenSimVersion=4.5.2-2025-05-03-6a4c6ec41
endheader
time	/jointset/ground_pelvis/pelvis_tilt/value	/jointset/ground_pelvis/pelvis_list/value	/jointset/ground_pelvis/pelvis_rotation/value	/jointset/ground_pelvis/pelvis_tx/value	/jointset/ground_pelvis/pelvis_ty/value	/jointset/ground_pelvis/pelvis_tz/value	/jointset/hip_r/hip_flexion_r/value	/jointset/hip_r/hip_adduction_r/value	/jointset/hip_r/hip_rotation_r/value	/jointset/hip_l/hip_flexion_l/value	/jointset/hip_l/hip_adduction_l/value	/jointset/hip_l/hip_rotation_l/value	/jointset/walker_knee_r/knee_angle_r/value	/jointset/patellofemoral_r/knee_angle_r_beta/value	/jointset/walker_knee_l/knee_angle_l/value	/jointset/patellofemoral_l/knee_angle_l_beta/value	/jointset/ankle_r/ankle_angle_r/value	/jointset/ankle_l/ankle_angle_l/value	/jointset/subtalar_r/subtalar_angle_r/value	/jointset/subtalar_l/subtalar_angle_l/value	/jointset/ground_pelvis/pelvis_tilt/speed	/jointset/ground_pelvis/pelvis_list/speed	/jointset/ground_pelvis/pelvis_rotation/speed	/jointset/ground_pelvis/pelvis_tx/speed	/jointset/ground_pelvis/pelvis_ty/speed	/jointset/ground_pelvis/pelvis_tz/speed	/jointset/hip_r/hip_flexion_r/speed	/jointset/hip_r/hip_adduction_r/speed	/jointset/hip_r/hip_rotation_r/speed	/jointset/hip_l/hip_flexion_l/speed	/jointset/hip_l/hip_adduction_l/speed	/jointset/hip_l/hip_rotation_l/speed	/jointset/walker_knee_r/knee_angle_r/speed	/jointset/patellofemoral_r/knee_angle_r_beta/speed	/jointset/walker_knee_l/knee_angle_l/speed	/jointset/patellofemoral_l/knee_angle_l_beta/speed	/jointset/ankle_r/ankle_angle_r/speed	/jointset/ankle_l/ankle_angle_l/speed	/jointset/subtalar_r/subtalar_angle_r/speed	/jointset/subtalar_l/subtalar_angle_l/speed	/forceset/addbrev_r/activation	/forceset/addlong_r/activation	/forceset/addmagDist_r/activation	/forceset/addmagIsch_r/activation	/forceset/addmagMid_r/activation	/forceset/addmagProx_r/activation	/forceset/bflh_r/activation	/forceset/bfsh_r/activation	/forceset/edl_r/activation	/forceset/ehl_r/activation	/forceset/fdl_r/activation	/forceset/fhl_r/activation	/forceset/gaslat_r/activation	/forceset/gasmed_r/activation	/forceset/glmax1_r/activation	/forceset/glmax2_r/activation	/forceset/glmax3_r/activation	/forceset/glmed1_r/activation	/forceset/glmed2_r/activation	/forceset/glmed3_r/activation	/forceset/glmin1_r/activation	/forceset/glmin2_r/activation	/forceset/glmin3_r/activation	/forceset/grac_r/activation	/forceset/iliacus_r/activation	/forceset/perbrev_r/activation	/forceset/perlong_r/activation	/forceset/piri_r/activation	/forceset/psoas_r/activation	/forceset/recfem_r/activation	/forceset/sart_r/activation	/forceset/semimem_r/activation	/forceset/semiten_r/activation	/forceset/soleus_r/activation	/forceset/tfl_r/activation	/forceset/tibant_r/activation	/forceset/tibpost_r/activation	/forceset/vasint_r/activation	/forceset/vaslat_r/activation	/forceset/vasmed_r/activation
14.03332692999706	0.1128267941631137	0.08668867876725558	-0.04623714159695522	2.256345245643478	1.02530363619674	1.022032829795397	-0.05799190956606053	-0.09163852461854755	0.01484869534783439	0.2480563160164443	-0.1288679571840914	-0.1695084494087541	0.6080896802158622	0.6080896802158622	1.416417679909678	1.416417679909678	0.3553949071058692	-0.1380203620669872	-0.09348067206679128	-0.2138129682031101	-1.340050651527458	-0.2750465406246825	2.734512341639205	0.1607214938075316	0.9526924494221364	-0.2082394278606466	-3.997276441728064	0.2379951730991128	-1.835346084471126	4.266733184194506	-1.405180378434143	-2.49254322182913	-2.168730368655685	-2.168730368655685	-4.428057972928379	-4.428057972928379	-8.391470422453622	3.385344338854347	-0.6531680681816812	3.090083473232034	0.01119346437153545	0.01121243291618339	0.01101612229960666	0.01087841972313285	0.01124134595581817	0.01128598991983782	0.01018751408638681	0.01055139825186296	0.2217227201574633	0.06230954661684607	0.01708342271213239	0.01899865104856628	0.01304825938220331	0.5499544983271102	0.01061064741728341	0.0103047059993277	0.01028316383011176	0.1678565730946902	0.03834431090735311	0.01973295291351788	0.1310493988296201	0.09200106855853354	0.05718462340142082	0.01065776945957007	0.4921192434730401	0.01094101055596728	0.01012795592349039	0.04522399873616605	0.294387948676383	0.4718106016010007	0.01389898613714028	0.01009363629228263	0.0102178010147503	0.3331872089201875	0.2606447485674221	0.2820635290270894	0.0129857484809162	0.07662673085075922	0.1279937419313324	0.09360896897851116
14.05066024599705	0.08606627318981909	0.07614834455476253	0.003193473941324881	2.2597906380716	1.041800289602343	1.017759186393841	-0.1222770092726881	-0.0804897185110217	-0.0269833194849735	0.3125894988283381	-0.1458088326421967	-0.2009387059800918	0.5493113318492392	0.5493113318492392	1.321705391931248	1.321705391931248	0.1855456015510913	-0.08703491967650102	-0.1068452489699589	-0.1549686475867516	-1.604835599683861	-0.8512338151847505	2.752260118620017	0.1952793023810886	0.8975147762363771	-0.2451965254794678	-3.404495857996908	0.9254132322913851	-2.178619986242626	3.667505907410378	-1.011607291439753	-1.6197150757123	-3.33109288911078	-3.33109288911078	-5.695935592602616	-5.695935592602616	-9.118072668152029	2.883517684932088	-1.039719380594038	3.669236889013931	0.03551167255702259	0.08841450235894475	0.01075610631355182	0.01063032836441706	0.01083198667978567	0.02219546041975318	0.009963273816291519	0.07971806860789149	0.1475451425398815	0.05757718023933488	0.01560111943310176	0.01572746432342569	0.03048730081101173	0.3871094318382949	0.0104156179107424	0.01020743899932791	0.01019813369015862	0.1204609634929907	0.02846067012483741	0.01660316632102212	0.1099341551408986	0.08932696681691815	0.06390810170118648	0.05611860831128136	0.4240684541887867	0.01254816860580485	0.1065938768951531	0.06123259855209048	0.28571222587712	0.3288702124718753	0.06548223544919776	0.08362801993638228	0.0373859087780059	0.2270004187406401	0.1946443982293491	0.301202475759866	0.01243122062032834	0.05146705842944852	0.08410860125547019	0.06219698626768073
14.06799356199704	0.05740588263085281	0.05834584533743569	0.04947581165324835	2.263287808287471	1.056882747471654	1.013405686597183	-0.1762549659920332	-0.06152848139726236	-0.06510882396251153	0.3718527505151406	-0.1614464972746353	-0.224524049765298	0.491909816908393	0.491909816908393	1.216327651390588	1.216327651390588	0.0225028889444775	-0.03901398242446736	-0.124639520042241	-0.08878666138129308	-1.791737477984744	-1.427615745247257	2.53570921903151	0.2105088841247964	0.7975240736377529	-0.2607168645868663	-2.576390506215571	1.538654624944837	-2.096164794217569	3.098032609113517	-0.7633913462487645	-0.8712515431626249	-3.515789876455636	-3.515789876455636	-6.757449235541839	-6.757449235541839	-9.098122916502403	2.554862205052534	-1.303398755922677	4.220964753945237	0.05912077922266913	0.1591767692650423	0.01046729084813786	0.01030443807189861	0.009901059424193927	0.03553992820851211	0.01003428913923831	0.1369547120008497	0.1076391176548642	0.05732468091510462	0.01399682550818115	0.01293950862834184	0.04443985513896264	0.2326461394413014	0.01024488454329435	0.01012258954694842	0.01012362918983151	0.07565875702317747	0.01976986528033036	0.01377820407637337	0.09594963919212982	0.08948843256793951	0.07148397549090314	0.09723953843149162	0.3744070768982727	0.01699590101248181	0.1637914798310259	0.07005627104801045	0.2917805548565299	0.1926617298308293	0.1097781472136522	0.1334216166370372	0.05742059174206061	0.1288187896580994	0.1432733725025783	0.2914003262622056	0.01178458350182556	0.02982213296065896	0.04595786114078928	0.03507780906818103
14.08532687799704	0.02630577886065456	0.03030343427760218	0.08821440269180371	2.266740528668798	1.069404206050822	1.009132923429428	-0.2117723042167944	-0.03261207767054637	-0.09436531578640182	0.4222231665825384	-0.1751947803017957	-0.2369746951171979	0.4458135537452975	0.4458135537452975	1.095728842374326	1.095728842374326	-0.1245492649676756	0.005831241312889916	-0.1468300363381158	-0.0132376423622924	-1.874009404433548	-1.901640223246631	1.958249516020186	0.2006068290037933	0.6394048427643241	-0.2436358186459393	-1.43611889926758	1.919751688658111	-1.442923406604904	2.539710329726811	-0.6580513478322801	-0.3380760772504189	-2.298443959919159	-2.298443959919159	-7.498023496344533	-7.498023496344533	-8.033610682500225	2.478695856954392	-1.322628637163087	4.57537371730244	0.082492708957776	0.2188981113628957	0.0102016585749508	0.009989353113857026	0.009431128818706339	0.05314917649969895	0.01086564689896673	0.1715605064145141	0.113648738593896	0.06173384116778696	0.01245945140858045	0.01107592496539785	0.05253185460368614	0.1092187955745294	0.01012410917963359	0.01006289564435753	0.01007093395366977	0.03944577446046392	0.01356857605284785	0.01165775407928345	0.09049196607327566	0.09177821655603764	0.07877706713942086	0.128487162326718	0.3562433417834972	0.02341122279112821	0.1650949779488874	0.06965175152071471	0.3183612005799634	0.08254061954369368	0.1396574803716944	0.1452060432200052	0.06510560243317372	0.05314473348304233	0.1159158614086397	0.2469929717432521	0.01110219427549574	0.01510703565173621	0.0195670568007988	0.016531512064495
14.10266019399703	-0.006303242562465099	-0.005117641825928698	0.1142358093630876	2.269944345599607	1.078688756785791	1.005338599654514	-0.2245479254042204	0.001357927217185606	-0.1091102333069755	0.4618600100398678	-0.1866016261558152	-0.2404226156955692	0.4273505031988006	0.4273505031988006	0.9626754961747107	0.9626754961747107	-0.2449858189701639	0.0499891713039544	-0.1687507078210558	0.06616827017116528	-1.867778359026504	-2.100615734082291	1.061612757465043	0.1746804367388071	0.4451855663434598	-0.1970513138954142	-0.1288658001007752	1.906833581025072	-0.3911696665172593	1.935601908662994	-0.5577878853460473	-0.052190615782424	-0.007811961547332325	-0.007811961547332325	-7.887681150405167	-7.887681150405167	-6.145516839042349	2.602482701647311	-1.061796923756111	4.465173115175553	0.108560002195845	0.2691538999393322	0.0101174987985867	0.009971771240940636	0.01191337013582628	0.07566322706176705	0.01243324745965057	0.1801102556702194	0.144980109608243	0.065963864815648	0.01139477124619828	0.01027325420286115	0.05440964228743109	0.03912149698104021	0.01006586217556893	0.0100343198388612	0.01004614705973719	0.01758902661050475	0.01048228814692095	0.01050319836788078	0.08704269584006778	0.09127299856875103	0.08258681236865047	0.1462084665905966	0.3670960417394389	0.02805687015591326	0.1284357961940521	0.06522054846133724	0.3572850511708159	0.01774834415725157	0.1518360860229976	0.1232641101297526	0.06050533611201205	0.01156698665915827	0.1092188798636447	0.1921714813676449	0.01056558859528577	0.008562700258799193	0.007513180947233437	0.008206045643540216
14.11999350999702	-0.03849817196837536	-0.04119423175856386	0.123768865277469	2.27273960773084	1.084597601437818	1.002429828963426	-0.2152737438996365	0.03220663937463412	-0.1057601227548422	0.4896426276158496	-0.1945014523882169	-0.239669192741598	0.4489374293194315	0.4489374293194315	0.8246383327685548	0.8246383327685548	-0.3311774506998778	0.09621985375575418	-0.184854003353007	0.1385588657885126	-1.759826652460279	-1.928212401817916	0.04130875901005351	0.1458625116611892	0.2508229137650593	-0.1349433919005324	1.041987659667639	1.511077494195895	0.7503981647653357	1.239978604219976	-0.3432824265905941	0.02602919789159541	2.572919288235621	2.572919288235621	-7.867872963379064	-7.867872963379064	-3.977116629569244	2.788838029755797	-0.623916584534607	3.732380574922751	0.1407170308656273	0.3166284504631991	0.01038248604384124	0.010497052235261	0.0192115551322229	0.1015953000717163	0.01312593187152514	0.1703631992724395	0.16750663313657	0.06464459096667143	0.01101275994415925	0.01021873725439994	0.0509629280418772	0.02217011950643029	0.01005807512904103	0.01003071550078584	0.01004488410477443	0.009728612707997296	0.009816396290182869	0.01017917264380941	0.07660946974174973	0.0828205881771984	0.07994061893114651	0.152282674625729	0.3866274624445712	0.02956745522107393	0.09083426317766542	0.06538620904770115	0.3912056979434175	-0.002525497118190712	0.1497370082925389	0.08832492979472334	0.05018349884719002	0.0006687709435369608	0.1083882716983361	0.1608131710375139	0.01030642213827155	0.007966694621826384	0.006200845611210077	0.007393909311862831
14.13732682599701	-0.06727461648952623	-0.07131720842792405	0.1166775666642844	2.275077655255145	1.087417429872165	1.000586516954443	-0.1896721180909268	0.05425732242416284	-0.08443427113507448	0.5045195300275871	-0.1975484989767242	-0.2386769528862003	0.511678786249067	0.511678786249067	0.6918611538590279	0.6918611538590279	-0.3832478174867531	0.1454978791367259	-0.192528733805481	0.1928574540352957	-1.467320321849698	-1.470631044290244	-0.8423604804990611	0.1199733765295476	0.08166054740130971	-0.07478013548584321	1.774005866076465	0.9724745308735466	1.720227961207799	0.4722606750656645	-0.03868745313048709	-0.002088431647633629	4.739117185931468	4.739117185931468	-7.247543731098835	-7.247543731098835	-2.143152675578966	2.921240699076951	-0.1927730409666519	2.473034936426532	0.1765238122748252	0.3635253910361629	0.01091833090722341	0.01127336175411	0.02964047981113069	0.1267875185522341	0.01022325619329234	0.1571412401836017	0.1668250778641946	0.05769443973536588	0.01108110184244719	0.01040151136321	0.04297849259134145	0.03824705746292521	0.01007432901308156	0.01003892284892286	0.01005515643340536	0.009200179403206939	0.0101170012398887	0.01027451770042219	0.05721922750236517	0.06722782032256944	0.07147491975809707	0.1537383504598687	0.39184569944533	0.03193342621124284	0.07558610633680511	0.07543641981594487	0.4070327715193683	0.002010697066630924	0.142140385752603	0.06233087571536183	0.04374870733369699	0.005181024137878134	0.1015501858517993	0.166472694899664	0.01027560121502806	0.009502049361507324	0.008911148629177499	0.009315620093855136
14.154660141997	-0.088464936180082	-0.09231911588896023	0.09691510737843788	2.27695415383547	1.087597853355348	0.9996879609823673	-0.1566905638882696	0.06766109623919919	-0.04887457045269271	0.5063242539134686	-0.1957601940202714	-0.2386934829349084	0.6067794549255849	0.6067794549255849	0.5776052672323788	0.5776052672323788	-0.4101542622217458	0.1971129876756706	-0.1933685606341857	0.2223705454939782	-0.919812981530885	-0.9510774226345673	-1.394320794744796	0.09420519926100999	-0.06004754165801655	-0.02996669831845456	1.947372753703128	0.6004602233830549	2.357866688275414	-0.2465944740088772	0.214715554403217	-0.01377230737363919	6.19722266414948	6.19722266414948	-5.765226661339033	-5.765226661339033	-1.075281064788436	2.99021220360932	0.05318950994497847	0.9610080635248996	0.2037655961772467	0.4007201581257326	0.01117018110806922	0.01119406340835801	0.03740797212459096	0.1455095888519939	0.003844690681935452	0.1551438364824045	0.1575233312310206	0.05082610817735651	0.01115079064418262	0.01048013971348808	0.03261633599538921	0.06736162242011924	0.01009342426939679	0.01004790782052834	0.0100645313974035	0.00864774278723849	0.01033851250367807	0.01046865774171092	0.03704962090031204	0.05316908754025698	0.06289046622068747	0.1592875352255654	0.3760184594536795	0.03981071804359191	0.07871909188389385	0.09436366021681697	0.4059875073995594	0.01057947612355824	0.1402244300671655	0.05532362878598754	0.04942787390737256	0.01098952762099829	0.09141128409505311	0.195083684994232	0.01030459040313221	0.01056028122971793	0.01087573561906516	0.01066348671211872
14.171993457997	-0.09820553734805254	-0.1052404843573422	0.07061704336879153	2.27833301774972	1.085425548405908	0.9994168877900214	-0.1246491134602724	0.07712627591210583	-0.00545484932164181	0.4974718616657859	-0.1912000191945794	-0.2384042932996335	0.7223674393704588	0.7223674393704588	0.4974296869534927	0.4974296869534927	-0.4258418666718411	0.2501773524922726	-0.192124603774098	0.2259625359814273	-0.2006805229016393	-0.5781376984067358	-1.58772689121207	0.06442104173000625	-0.1937378272118433	-0.005078199156112231	1.730174118522894	0.5441130213658368	2.57798770322193	-0.7174423068615717	0.294774806917327	0.0877175736656233	7.041641636098197	7.041641636098197	-3.35540641995891	-3.35540641995891	-0.8526475840665187	3.073921865315549	0.001949826250853576	-0.5341042966066994	0.2075182922464916	0.4137485852859716	0.01038889988578055	0.009164984292963642	0.03673082421323551	0.1523490045827078	0.002619011007363014	0.1741638541306405	0.1594945749785684	0.04989756048130766	0.01098647381402905	0.01040336558062208	0.02669339674488127	0.1002984776694045	0.01010715345662389	0.01005281963546199	0.01006622834169223	0.006175210698755645	0.01041708760799637	0.01070272749391279	0.0278148055081863	0.05062774988489392	0.06116754061848539	0.1750718523502832	0.3518038347696907	0.05153563653328873	0.08566664629930261	0.116138446062417	0.3983410946552903	0.01375607270437449	0.1534687932751679	0.06483709955437986	0.07342080784862728	0.01263732976712146	0.08929071657907264	0.2244019342109416	0.01027530320612038	0.01060481475947485	0.01101900343951487	0.01073496489684131
14.18932677399699	-0.09582877279964284	-0.1135748235214692	0.04300998556994996	2.279162304403861	1.080784099689635	0.9994384264789229	-0.09692965230952577	0.08772073701582861	0.03819457559558635	0.4837561779230427	-0.1867668201002505	-0.2350463045753542	0.849375139732649	0.849375139732649	0.4641942709439452	0.4641942709439452	-0.4430258356049462	0.3043515814888439	-0.1944915661257688	0.2064301514928502	0.4217637157915605	-0.4247294182411553	-1.563229372327702	0.03180369307434042	-0.3471405071302514	0.003910714323350575	1.512177280283152	0.7109873141308366	2.371453123126042	-0.7691189906568692	0.21378301106707	0.3570871693687494	7.531380744783875	7.531380744783875	-0.417966323709567	-0.417966323709567	-1.214309114972626	3.200328539365519	-0.3421271289857948	-1.812494919187196	0.1863748970609916	0.3969689141346976	0.008731727827868567	0.006301831026269205	0.0285284101984055	0.1435487673008977	0.02418798310572311	0.2156225936576763	0.174214568180592	0.05529750163173217	0.01070137810521971	0.01028053200055825	0.03567863757222699	0.1327249984498306	0.01011385165945584	0.01005342405165497	0.01006242268920284	0.007510394990879537	0.01087359428653727	0.01099433550998142	0.03615673426653685	0.06024974592725123	0.06685157935295151	0.2005593595047498	0.3368202257511338	0.0598745550564158	0.09014054195512522	0.1308663768963199	0.3866339897461618	0.01233067009354032	0.1824450271894961	0.08194828361938911	0.1216510324834262	0.01136598782486776	0.09799560070408463	0.2415795892166812	0.0101974009519318	0.01021065868296581	0.01033387644965464	0.01024504018861835
14.20666008999698	-0.08564210917151049	-0.1206785038370681	0.01633906476084961	2.279447764731427	1.073194099951897	0.9995285719511735	-0.0702352942473515	0.1015504671366153	0.07518275830595217	0.4728524195311649	-0.1839567505614967	-0.2253414768058563	0.9831646357740771	0.9831646357740771	0.4806030499927467	0.4806030499927467	-0.4682508383989025	0.3585200641748529	-0.204625294926008	0.1688215763505111	0.6638503121396351	-0.4233329703625305	-1.508777757774251	0.002112615378882775	-0.5333879582378867	0.004627191971651536	1.65274578893457	0.8967984737629718	1.84566863765542	-0.3910161807692623	0.1193668114251918	0.8133636236729992	7.865366761075553	7.865366761075553	2.255373952061749	2.255373952061749	-1.715514759862942	3.211576036249338	-0.8417953289482324	-2.70319416444056	0.1607225034673615	0.361839569837082	0.008451358542430849	0.007746510153872619	0.02274051945929323	0.1193202161947578	0.08372892932843626	0.2696361257198613	0.1869969403722818	0.06181874349241218	0.01051798274478482	0.01021057503130125	0.06547571404141747	0.1568665253352673	0.0101104774050891	0.01005084337029205	0.01006126254790967	0.02180950694882029	0.01189559647731977	0.01120579544040835	0.06066418184730188	0.07002118808932527	0.07096760227061211	0.2272006089781905	0.3372083461610882	0.05980240165244582	0.09402303980853839	0.1272841949153471	0.3583108869297325	0.0101344061519274	0.2138056894781504	0.09610770941647165	0.1971091253432457	0.00989031304408621	0.1043428832797939	0.2422279134782236	0.01013888843045794	0.00993328317448291	0.009833177656624333	0.009896327165512867
14.22399340599697	-0.07505470244565034	-0.1281263581667417	-0.009743153225939959	2.279275785970387	1.062236883414829	0.999592350730919	-0.03749202048739453	0.117717978932192	0.1016504539170699	0.4709010140393171	-0.1814659915444791	-0.206234220426909	1.121463631415035	1.121463631415035	0.5361541196004277	0.5361541196004277	-0.5002258662295079	0.4086913211163793	-0.2232715515752883	0.1196734600583308	0.4752139433815633	-0.450005151104475	-1.513940741431149	-0.02094780913584483	-0.7304030258759826	0.002716936960810648	2.203074505835988	0.977550563341663	1.216393054776127	0.2138592894783844	0.1855822060071526	1.419316808007569	8.068066439051062	8.068066439051062	3.98482618884404	3.98482618884404	-1.925736796933324	2.82044664181862	-1.27504984583766	-3.092988943514933	0.1577406680510323	0.3295843083510431	0.01337461547993394	0.02076403658550434	0.03111302202640003	0.08751717535538142	0.1749817802154755	0.3165228575169906	0.1853402928038235	0.0633479218780342	0.01051506491181435	0.01021262742173183	0.1080707256499776	0.162995017939843	0.01009363462607563	0.01004557348885292	0.01006760315028367	0.052769370356381	0.01262303702198378	0.01112345106377176	0.09412813256089853	0.06557688581549562	0.06307315642008743	0.2428628219559894	0.3442106629331713	0.05288771179917006	0.09789502913213798	0.1007283051828968	0.3019942378110177	0.009248762633190842	0.226967013928081	0.09870672411968778	0.2905340400439781	0.009427080071274725	0.09214200875527395	0.2240776450582519	0.01013227779676379	0.009904111999393441	0.0097747961545916	0.009858524096821713
14.24132672199696	-0.0697973420440734	-0.1356276513150009	-0.03607267492994098	2.278740993110618	1.048164555078606	0.999612301163045	0.006337986366942879	0.1345987182319582	0.1178665646677595	0.4792514386044671	-0.1758518542539453	-0.1761404595194571	1.261221564226812	1.261221564226812	0.6129335815242642	0.6129335815242642	-0.5314648694637796	0.4485558130131477	-0.2472430278544945	0.06605115842646864	0.1028743314103779	-0.4158882261999328	-1.534992283135569	-0.04023318177496167	-0.8833825746734846	0.0005419266658520778	2.875119149756648	0.9778748958545618	0.7005119398899314	0.7152516652683624	0.4814446548962854	2.044483887060112	8.017574110622268	8.017574110622268	4.671678985188232	4.671678985188232	-1.589417741621121	1.945357583317886	-1.42724273321624	-3.017435427053823	0.1840981855156967	0.312881752638032	0.02554146907370425	0.04780040522754901	0.05539077334464784	0.06232065111531691	0.263583224853878	0.3357513919347262	0.1693731821115214	0.05748083073580531	0.01061408513300763	0.01025541380427251	0.1420966304018171	0.1473535698217858	0.01006686756247803	0.01003834719667703	0.01007928683511174	0.09304883423136981	0.0113788416057906	0.01073121199140052	0.1266408733127289	0.04449980401833282	0.04278159759837094	0.2395887277474576	0.3433205868542542	0.04398770983003313	0.09839765234803594	0.06043060191424368	0.2288043389849834	0.009522346295881555	0.210263267109876	0.08677974666466907	0.3748468532474628	0.00969855930389577	0.06122456275117957	0.188960945989855	0.01015746002975993	0.00999446472366804	0.009931428449438534	0.009969840163779095
14.25866003799696	-0.07042376314502376	-0.1420558191918406	-0.06234489309931337	2.2778587494513	1.032227512908535	0.9996051872031222	0.06054570283004221	0.1516894952085544	0.1268917406983181	0.4935771623245701	-0.1638370198586381	-0.1363722338005344	1.396854432629117	1.396854432629117	0.6954076856420958	0.6954076856420958	-0.5520870586287936	0.4750103032576524	-0.2704288175880341	0.01398474358415503	-0.1361329499396091	-0.3159951787616383	-1.489657152733283	-0.06165102250851576	-0.9363740055163807	-0.0005352290525276194	3.329742103640423	0.9859806103923607	0.3778911988038983	0.8305873787421381	0.9157849897427123	2.501683763306746	7.564462737889034	7.564462737889034	4.69238446658174	4.69238446658174	-0.7022520155355609	1.052584019333419	-1.179510427084973	-2.665559863731267	0.2163598571316785	0.3035723934783321	0.04115525557610787	0.07959717887568035	0.08282354896092443	0.05330194090844551	0.3081287664753674	0.3185404573813825	0.1464290368388124	0.04633201926799566	0.01071239842455875	0.01030875017923027	0.1474503963622541	0.1155115765785312	0.01004345329096906	0.01003279808505624	0.01009618979366901	0.1305485726830797	0.007441594393501575	0.01026769015254106	0.1485441746250677	0.01888880330541675	0.02055060615843078	0.2179794140001064	0.3246120424230439	0.03671856201286189	0.09306276526770157	0.02462332935867535	0.1665646683343718	0.01005807312653883	0.1712486172990246	0.06437007789608643	0.4166520045394047	0.01005568243326786	0.02932081628373946	0.1474724381839985	0.01018211855630718	0.01007476143218166	0.01005765447509553	0.01006390183615367
14.27599335399695	-0.07337778616184185	-0.1467977005397339	-0.08712509216427727	2.276575528702116	1.016404960621107	0.9996024652549427	0.1202797110026116	0.1694064754980655	0.1313574762716359	0.5058935532273692	-0.144598786608814	-0.09103448225194813	1.520616758613385	1.520616758613385	0.7747523163202441	0.7747523163202441	-0.5541081064470323	0.494366874499938	-0.2859345839051157	-0.03272931504807605	-0.133034402814789	-0.2213705051354612	-1.34584574398853	-0.08638923144746166	-0.8665348863947647	0.0002172809996490784	3.477248579630242	1.025640983816851	0.1317463438360839	0.4569886182401603	1.2954763646959	2.679527578449304	6.631238623801531	6.631238623801531	4.368795631830896	4.368795631830896	0.5153383090738591	0.8985214130558399	-0.5581834633045996	-2.258065398326035	0.2215836693092523	0.2806714339313034	0.05108519691528293	0.09823445645638865	0.09484964467426434	0.05518518781154028	0.2936523844353748	0.2747685202673769	0.1225298082004122	0.03435843048370188	0.01077090452718672	0.01036044380855929	0.1223372274800318	0.07837486314251363	0.01003903073933298	0.01003502340304147	0.01012359081816973	0.1636551996823077	0.003827755947724552	0.009991858647521095	0.1560291288666118	0.005086336688982532	0.007257495536716243	0.1856068458120341	0.2880156817056693	0.03380983731941709	0.08344216900502256	0.006028718344426025	0.1309961591101008	0.01033240841762853	0.1305802499531374	0.03952610201219708	0.4005953839499753	0.01018884973034003	0.01562516795082051	0.1152154043703819	0.01019522687153182	0.01011456273500171	0.01008468446681963	0.010098829518384
14.29332666999694	-0.07507623723808859	-0.1505388207183686	-0.1086309271248798	2.274883032329985	1.00275476712003	0.9996163159449674	0.1810092065160815	0.1873043602891788	0.1305465945539012	0.5078909438096332	-0.1204925643895093	-0.0447318844649514	1.624127199834688	1.624127199834688	0.8451197272314732	0.8451197272314732	-0.534484999502099	0.5196452645388312	-0.2885729734390635	-0.07231974300834587	-0.01377931836105779	-0.212401917235381	-1.110622530174583	-0.1076631221578045	-0.6891208139277121	0.000805175467682861	3.462950545906129	0.9935110292272812	-0.2685117703854078	-0.3325251382086795	1.449435163815529	2.632847687510618	5.231499356002374	5.231499356002374	3.662121754849969	3.662121754849969	1.736032186836273	1.644392851400006	0.2716088807641309	-1.887930706694046	0.1879286386528659	0.2340235420140165	0.04808374271618992	0.09233135470936828	0.08215682237993444	0.05335931712415475	0.2428789802869181	0.2269735969541938	0.103425588294692	0.02615818636789841	0.01079854740259019	0.01040020888465586	0.08499518694001007	0.04709666324328705	0.01005906342518538	0.01004703635694179	0.01015079424954414	0.2086135831119901	0.007972109267026795	0.009974463157710547	0.1573277837655238	0.01298949176217177	0.005784650288602547	0.152791326011102	0.2447198572556785	0.03967547146133042	0.07247561051047864	0.003690532159400566	0.112797034453143	0.01033844466669323	0.105534137899652	0.01976902758248719	0.3438567064908586	0.01014542589366166	0.02627360733463674	0.101898128365007	0.01020552093333547	0.01014116564457371	0.01006371021523423	0.01010920710816415
14.31065998599693	-0.07469555694417647	-0.1547482200347071	-0.1252376117666809	2.272929310681658	0.992901248310735	0.9996086334729491	0.2408908641554188	0.2023674392122944	0.1202512181880505	0.4934038210628473	-0.09587393208997773	-0.0001708412217511206	1.699886829628191	1.699886829628191	0.898227902998165	0.898227902998165	-0.4957194589649685	0.5576967794936154	-0.2767590193561388	-0.1038413983653329	0.05408268403591388	-0.2880915098622283	-0.7979035097388967	-0.1148490670950245	-0.4358314753390333	-0.001710414602190006	3.425941857712882	0.7075441576253501	-0.9618646729116131	-1.385715923689321	1.330011865903693	2.499393871116942	3.450459947557356	3.450459947557356	2.349169275929777	2.349169275929777	2.677141524246877	2.444944939196072	1.069073450711375	-1.510571187401114	0.1352987579426983	0.1792146016546697	0.03404745792072865	0.06920368845257531	0.05249546075623506	0.04046629054701324	0.1937257482539263	0.194937507488483	0.0980237950154644	0.02485192739505876	0.01080384309924047	0.01040938862500882	0.05753417705822284	0.03004922371236312	0.01009190246605921	0.01006094949757823	0.01013285778723313	0.2832831506777368	0.02631035645579698	0.01011477267379195	0.1684611917827067	0.04159232711689503	0.01191448829878325	0.1286602873295961	0.2126273190586491	0.05797652165579296	0.06161474608709983	0.008287961948405628	0.09613021001616959	0.01026493774065262	0.09894821012521238	0.01085680728896636	0.2837346336930052	0.01006866972262926	0.0539088355948243	0.1052669906407432	0.01021968108061763	0.01017357015611577	0.01005227531112884	0.01012485207157737
14.32799330199692	-0.07370008912924912	-0.160008845061318	-0.1359335439463345	2.271031432349987	0.9879112709914413	0.9995374533450971	0.2994957425076966	0.2089845698542194	0.09614758758379333	0.4591658451789211	-0.07484770449619245	0.0417512904578933	1.742467966564912	1.742467966564912	0.922729886130518	0.922729886130518	-0.444128752911767	0.5995304989648447	-0.2530324391728774	-0.1272664048232574	0.01814268403533005	-0.3309945582570561	-0.4518806317968657	-0.1001834092819844	-0.1353259358310282	-0.004994984303831608	3.349316914637378	0.04232112791959869	-1.822047742540344	-2.55182716131799	1.035208156567327	2.325826544706084	1.433047346387541	1.433047346387541	0.3636904119624021	0.3636904119624021	3.198808225925389	2.212638697644909	1.612332757609106	-1.154501343997089	0.09615026928408918	0.1441748565902145	0.01840696232366347	0.04721288502800897	0.02349507901720594	0.02346542849011857	0.1675829475787728	0.1839298784606629	0.1108417039893832	0.03024283588519697	0.01078674487220176	0.01037914588464276	0.048197182636047	0.02962644281329515	0.01011586285848805	0.01006562215846669	0.01003347242756361	0.3756948964896044	0.05484184052631085	0.01027170711505682	0.1945114290580839	0.07834706385916285	0.01942008051222121	0.1176066547494386	0.2032178941174829	0.0838301256358112	0.05319041814309052	0.01188711340215392	0.08027795651542494	0.01025148529155914	0.1029348925833451	0.01833320495213845	0.2472605027703834	0.01003200171835199	0.08516121894738821	0.1171284107435	0.01022723869573319	0.01020343749553966	0.01006179414739281	0.01014329396301122
14.34532661799692	-0.07363407410694661	-0.1645791208661473	-0.1409765441057413	2.269589105650361	0.9883836407957434	0.9994684728836531	0.3553162067110778	0.2011338422505816	0.05813506531508977	0.4044510237918434	-0.05922058109573842	0.07964901077171442	1.749276115382057	1.749276115382057	0.9084878332940314	0.9084878332940314	-0.3871695585534125	0.6248185323476662	-0.2230613047366237	-0.1458243756489528	-0.0544459353402668	-0.1861635325088402	-0.157481280047921	-0.06261098043952797	0.1885956385157121	-0.0001441547249779462	3.106415337239959	-0.9409602098120327	-2.51812267923885	-3.707431170722176	0.7436163949658202	2.011786597867945	-0.6477728785731658	-0.6477728785731658	-2.051561172592266	-2.051561172592266	3.306411320219376	0.6021631453399996	1.774420379206613	-1.07426349936496	0.08646416744907431	0.1408461971774758	0.009270509844764664	0.03646157711077215	0.007843922015163839	0.0139352206708422	0.1581661803429432	0.1865748036246879	0.1322628500872843	0.03846946196187862	0.01076301211773833	0.01033038775083647	0.04841516105035634	0.04014193397538404	0.01011867051839789	0.0100649354071453	0.009925993005854943	0.4348635993469484	0.07703252659251539	0.01035585525224231	0.2165758953597474	0.1035364229682982	0.02353479924897042	0.117305508375669	0.2103588306226214	0.1017891781710316	0.05317637797525186	0.01209595151520337	0.07747357977918409	0.01033445070767393	0.110447184500354	0.0447256206527103	0.2320508791107857	0.01003454424928823	0.1079648064383155	0.1335460134582372	0.01020774678892476	0.01021553426573353	0.01006922076324702	0.01014909648151033
14.36265993399691	-0.07450127198966586	-0.1648208953298084	-0.1419914185471621	2.26896374330812	0.9944830346242339	0.9996216055011522	0.404700813742191	0.1757225584424537	0.01153010245292765	0.3304910310333192	-0.04790012312548974	0.1099652284468074	1.720427230201549	1.720427230201549	0.8515178095806106	0.8515178095806106	-0.3313355480759514	0.6145870984708612	-0.1937151983315747	-0.1675326372192014	-0.06494446861299565	0.1935370043589448	0.0187615195528709	-0.007518496663397557	0.5088473347415736	0.02060213876561524	2.590182772215999	-1.973335696238925	-2.790053657067058	-4.749754669162014	0.5918719010191401	1.431704134446606	-2.658138101528896	-2.658138101528896	-4.451939108448212	-4.451939108448212	3.090465342144717	-1.891957793901173	1.549387317004761	-1.567546412246427	0.09586023221578031	0.155056697990853	0.007684059812860624	0.03226961885335373	0.005797428657623597	0.01546705221645357	0.1462963143440993	0.1947662336975076	0.1463570963204823	0.04523453924847233	0.01076410827032943	0.01029849628784381	0.04497082236207273	0.05141811601980454	0.01011415055428599	0.01008534257104992	0.01002593047190943	0.4100894787314911	0.07674593327867682	0.01035554035802834	0.207460534635825	0.1028007015610421	0.02263112432985072	0.120885693018466	0.2166896513272074	0.09807961410149901	0.06635896468322192	0.01030765551672611	0.09511460796816681	0.01046579454299554	0.1206913876097971	0.08103004565472044	0.2179538363664494	0.0100497238312713	0.117136931639528	0.1559922024981215	0.01015894104155772	0.0102076194226283	0.01005262172154663	0.01013687224801804
14.3799932499969	-0.0749021250858668	-0.157514125211767	-0.141096068144404	2.269381829472942	1.005837707208319	1.000277178530572	0.4430096369417061	0.1348997267663904	-0.03608462850005977	0.2402530329598372	-0.03818143568673753	0.1277959450413222	1.65774457532003	1.65774457532003	0.755902764302006	0.755902764302006	-0.2812417866162636	0.5598518899922569	-0.1709305043697671	-0.2020286939870409	0.02128992761518529	0.6885251595738464	0.0782160523371266	0.05556396578876703	0.7896898502389099	0.05631505979897896	1.819232546081766	-2.71331911995986	-2.648798538373105	-5.57263910389883	0.5912676926472331	0.5802896366282098	-4.536153942740527	-4.536153942740527	-6.404916161177534	-6.404916161177534	2.664550398990265	-4.489466475886912	1.049106773860781	-2.582178069341591	0.1023702722085199	0.1633836147171393	0.009740212463592473	0.02648452007447456	0.009824733827560932	0.02190211416620069	0.1212439365664275	0.2077454665661105	0.1490897662540535	0.04960234660942051	0.01079847626608972	0.01029912883977969	0.03333359605609203	0.05617390112613035	0.01013480547907032	0.01014640804851834	0.01048621911433335	0.3041085172760183	0.054364480466205	0.01031585749088206	0.1619653425428514	0.07900689956524556	0.01859462708890073	0.122493461518728	0.2123180260349796	0.07560572801866768	0.08836340782158235	0.008849069318672305	0.1275702954763591	0.01055827485158488	0.1352335138158138	0.1064992927306837	0.1934435694272578	0.01004971996570404	0.1157935107025936	0.1835877509069913	0.01012646448007262	0.01019096627845654	0.01002221991458985	0.01011741574383557
14.39732656599689	-0.07358233989382247	-0.1419302197296663	-0.1399319163303719	2.270881151771956	1.021409368038179	1.001627524292094	0.4671524841129865	0.08541088768146966	-0.07913182214163053	0.13874747582362	-0.02769868455141262	0.1293517977064585	1.56393591994719	1.56393591994719	0.6324072403216272	0.6324072403216272	-0.2395451507987667	0.4626572281627951	-0.1576751560124165	-0.2529828053368264	0.1386144761902918	1.124096694496993	0.06261977093465172	0.115128817461345	0.9906075329154963	0.09860537666783291	0.9633877562525822	-2.964945963714593	-2.300065372446782	-6.044266062736614	0.6716199181906266	-0.402469858097753	-6.23865618114511	-6.23865618114511	-7.608390579029436	-7.608390579029436	2.138768461228543	-6.583426560479412	0.4967614266680641	-3.513223918308061	0.09210214264064129	0.1534906396222645	0.01152242868145084	0.01803375996036086	0.01296184132249024	0.02535084511689498	0.08747656012600948	0.2272349224692674	0.1498407371895527	0.05330211649721406	0.01082878216754885	0.01032357199917909	0.01925864213150144	0.05347431415579182	0.01019398944993874	0.01020504795987521	0.01099340092749929	0.1747442638141281	0.02633393067056691	0.01028633108558247	0.1030127436265217	0.04897985119717792	0.01483906920029019	0.1211735046654769	0.2024044433714921	0.05186743726960332	0.1068026376144358	0.009620497733114748	0.1654636993312223	0.01057662557661273	0.153235835833693	0.1071496899859602	0.1637692241904107	0.01001693730689869	0.1095140350228183	0.2087756020729001	0.01019391896628753	0.010179694263191	0.01002753139582009	0.01011157344427007
14.41465988199688	-0.07094081231226609	-0.1197116818657217	-0.1394175564745745	2.273296479037417	1.039508049912821	1.003700391134	0.4777069823774364	0.03520949201947883	-0.1157135180451117	0.03343127390947571	-0.01528919570931768	0.1141274613656788	1.442871343232989	1.442871343232989	0.4962282596988267	0.4962282596988267	-0.2070102899011642	0.3330740755482238	-0.1522887749510456	-0.3119799703282355	0.1702246452332711	1.42005172400466	0.008761699065841474	0.1598193894804792	1.078894530127058	0.1379850254511994	0.2646254783310435	-2.788208173361242	-1.935584806205806	-6.020179281354116	0.7798944153166795	-1.294509376541304	-7.67079609614174	-7.67079609614174	-7.858372338357377	-7.858372338357377	1.625533520249627	-7.896803948713456	0.1895538970634303	-3.540399018369995	0.06682709857413793	0.1286309279477283	0.01140096225017849	0.01100175570794713	0.01260667225600698	0.02390242281791904	0.05594990680871833	0.2472390215951637	0.1549148689249253	0.05685286332551915	0.01081772337499084	0.0103641415833261	0.0101631338823544	0.04598771870123719	0.01024855494706943	0.01014735130823848	0.01063827631573371	0.08056036981532953	0.008697771513943502	0.01029113575268849	0.05700837945348877	0.02767527134744554	0.01320665902677251	0.1192323544997265	0.1953043916096158	0.0411431169191795	0.1117361378973772	0.01340900325598637	0.204627375160248	0.01058950369769107	0.1708783915845929	0.09410099462397412	0.1367898504152854	0.009969342131757167	0.09897455535232454	0.2222925023576739	0.0103930504049454	0.01017865876375766	0.01011546908819463	0.01013376511383795
14.43199319799688	-0.06918493989126058	-0.09314632357995428	-0.1398493378101276	2.276290829685244	1.058057572658075	1.006375730296968	0.4789933461715445	-0.0100696472360862	-0.1464392801136241	-0.06612268527513376	-0.0006535547236690012	0.08590602421537766	1.300426687146784	1.300426687146784	0.3655701931597993	0.3655701931597993	-0.1824020880875739	0.1850856920203683	-0.1480934436497053	-0.3612489955365263	0.03713136108379984	1.608236645974504	-0.04595932992419019	0.1815441602227949	1.044206804266765	0.1675733242644373	-0.1013666979746932	-2.401287824735466	-1.634086853504648	-5.40383012527618	0.9000636052333978	-1.85345721541159	-8.695627023284489	-8.695627023284489	-7.006546519104933	-7.006546519104933	1.244157758154589	-8.464648197963781	0.3880911271553125	-2.355873073601292	0.0396168286399604	0.10048090964616	0.009691340138708008	0.007915528821646048	0.009763366945400189	0.0220048417467582	0.03493643060302975	0.2535608316129515	0.1594913610734802	0.05858978115631833	0.01080616215989091	0.01041699089308847	0.00790516730992869	0.03634631273992397	0.01021905137499827	0.009912521168245746	0.008745953710383459	0.03662381717272598	0.004770261723970775	0.01036095518487518	0.03204232497653188	0.01808243876366986	0.01308690659346809	0.1171544191954254	0.1885998491780673	0.04276316047133136	0.1028297287943352	0.01898123352118736	0.2386130577059799	0.01067412425389833	0.1820581104670932	0.09388349507804752	0.1128498788120399	0.009976167141654004	0.08106479114470858	0.2207901250474034	0.01056727232218069	0.01017446430647011	0.0102398253918912	0.01016506539450933
14.44932651399687	-0.0710486294952018	-0.06381803465095211	-0.1407231715916277	2.27944240224064	1.075059955825553	1.009440316121405	0.4769153654743326	-0.04838586645429939	-0.1725704349040993	-0.1498648485176453	0.01606567532866318	0.05250372803319574	1.144550977759602	1.144550977759602	0.2599735715761745	0.2599735715761745	-0.1625077207969678	0.03289332176929304	-0.1353936048512248	-0.3851348678518022	-0.2419954504235476	1.74641544344901	-0.04364822155393446	0.1787121515612924	0.9054246969210096	0.1835041797261016	-0.1286357576241693	-2.002537280346445	-1.391271977500229	-4.229047435525596	1.012665555177366	-1.882397667705565	-9.214997639677362	-9.214997639677362	-5.042557385517044	-5.042557385517044	1.097030700108862	-8.436146791716272	1.157654643290107	-0.5055125985323382	0.02529427463904324	0.08099967155730239	0.008084917875027051	0.00801420915013394	0.007518398672849621	0.02520416192173897	0.02861794628257053	0.2345639195710601	0.1574747093306736	0.05760723732092949	0.01090394459850964	0.01044335779410761	0.009318127602268749	0.02644914439839789	0.01009283784103744	0.009704257860379491	0.006607809996519844	0.02307444638311865	0.007979802098202581	0.0105440632183616	0.02093395807589389	0.01507422988486768	0.01313826543406785	0.1114056080851197	0.1703696007093133	0.04681693258663652	0.0867413816710608	0.02327946585371841	0.2487268114330864	0.01078032360224736	0.1789075493092808	0.119820992555136	0.09081882838141543	0.01010632916030271	0.05662719143166731	0.2096018738184911	0.01036444051549236	0.01014242524054805	0.01020920989872393	0.01014251714747407
14.46665982999686	-0.0780430160036827	-0.03256143252968714	-0.1406134166675902	2.282368289293642	1.089059495091758	1.012650132632797	0.4759065995392726	-0.0802121460796853	-0.1947860756978835	-0.2099997874976489	0.03432678087198404	0.02396330076606874	0.9840373065677521	0.9840373065677521	0.1966179851227747	0.1966179851227747	-0.14279217364118	-0.1098925775657742	-0.1059194470072956	-0.3800037873614172	-0.5543539709455458	1.847235516442606	0.06279163072183949	0.157071419960678	0.7038458397946101	0.1856196247932225	0.01718664703279219	-1.668471189503403	-1.15711507309744	-2.708388744788253	1.083022070745889	-1.327473681277089	-9.233453200685092	-9.233453200685092	-2.23475033365036	-2.23475033365036	1.225563200256867	-7.738487955697564	2.261957724087806	1.118219591198552	0.03053476578796094	0.07625946798748887	0.009315394396517676	0.009854534817870922	0.009943351273452056	0.03551738484292576	0.03851900566054114	0.1903337973959027	0.1505856259065163	0.05557417658941104	0.01114364286267662	0.01036227880072071	0.01076277390881061	0.01813149747184086	0.01003974046458065	0.0100230883520486	0.008329578617269951	0.01839817764614757	0.01133271483455067	0.01078497566151207	0.01541314427484737	0.01362807327601272	0.01270759670803124	0.09854525385995726	0.1327825614297829	0.0463347453957925	0.07065124257259681	0.02390881171926407	0.2162814468830024	0.01077035085185975	0.1552899549479771	0.1615454938506698	0.07442087148378158	0.01029926903103995	0.03274232806552821	0.1997128785180797	0.009592609168565934	0.01008453376605579	0.009830386771985868	0.01001500113356831
14.48399314599685	-0.08937824520660929	-0.000413153127115205	-0.1378754091688532	2.284829449684256	1.09938113836545	1.015803904486027	0.4768213341170722	-0.1063227932591495	-0.2124764692262234	-0.2436236713651775	0.05308606458200416	0.009244295211675652	0.8268259826740346	0.8268259826740346	0.1853230623415276	0.1853230623415276	-0.1187539460898565	-0.2283948649589067	-0.05785413827573947	-0.3535526010701946	-0.7519019918071742	1.854265291426554	0.2484231652914453	0.1267297982020254	0.4857185803185812	0.1784235932408068	0.09693574172588222	-1.341648649897335	-0.8490463472867046	-1.186229440454387	1.073511054491105	-0.3513443281262789	-8.841494191300209	-8.841494191300209	0.8660967148035231	0.8660967148035231	1.582155051498301	-6.084457285848389	3.218025243098876	2.02925127967956	0.04896067345352455	0.08275448400318205	0.01557503189340025	0.01291921002197784	0.01970459977660163	0.05069808368458169	0.06321405626580505	0.1324061263272917	0.1447938217728796	0.05488609964363611	0.011357950473933	0.01016876113424982	0.01096200340861776	0.01285506491069313	0.01038468996093426	0.01122202193028774	0.01824654068066275	0.0150236938809931	0.01220789173521655	0.0107831758931924	0.01219774682214131	0.01180125985689171	0.01159430576003108	0.08069239042437296	0.08200114435527069	0.04162268487928913	0.0585198047901784	0.02162357170840195	0.1476160356816225	0.01060649208910703	0.11327321002499	0.2022169897536883	0.06788983472541391	0.01028122693484578	0.0163113239260342	0.2012257099240125	0.008861345412446823	0.01007788269552242	0.009281506226903135	0.009867488003500359
14.50132646199684	-0.102063981682459	0.03022132256660887	-0.1320459531884559	2.286759844106292	1.106053435268559	1.018810519596775	0.4768951832277451	-0.1257779970406099	-0.2235629023513901	-0.2537392431482058	0.07071219066283853	0.01266481004523985	0.6792179498355774	0.6792179498355774	0.2254243893808178	0.2254243893808178	-0.08737168087935912	-0.3082178749212974	0.001791429859007945	-0.3164715259268614	-0.7198536160299017	1.665393641834345	0.4035220456935067	0.09675185642903804	0.285135500548608	0.1696626189849558	-0.06994968231135046	-0.8883434882718964	-0.3914017087134413	-0.004768839857356513	0.9530658742411995	0.7008294378955492	-8.126768047789419	-8.126768047789419	3.632395711957048	3.632395711957048	2.050160796304505	-3.560466653537475	3.541466654842301	2.330657298908227	0.06584037403571674	0.0892533100247915	0.02564194479919453	0.01654345140423903	0.03437150209399621	0.06593298858940312	0.09813246999472228	0.07828772414580341	0.1438183200766215	0.05624418271111236	0.01130322322847769	0.01010982491433887	0.01064934597937897	0.01071200138942761	0.0113428789614619	0.01277764549532661	0.03548178377256682	0.01298213535114112	0.01118497805902017	0.01019794348710374	0.01050842162316423	0.009580465237827674	0.009809488911236538	0.06471870622312891	0.03445566866080539	0.03563671244151349	0.05037784746503732	0.0196448110890432	0.07614975230635344	0.01042305458738104	0.06630442173710377	0.2362432503246323	0.07055819957470828	0.009755301337000659	0.008535342041461016	0.2166180857537196	0.009715997539871448	0.01025344743472522	0.009361742749177997	0.009979894044789037
14.51865977799684	-0.1117653493080689	0.05534211533007032	-0.1247956848743627	2.288206187640196	1.109523772043925	1.021708268291742	0.4715043436528182	-0.13556049216341	-0.2252967660578291	-0.248087562950898	0.08526214828705522	0.03211035504057844	0.5467090723888753	0.5467090723888753	0.3069534273747637	0.3069534273747637	-0.0477897540465394	-0.3435593816865261	0.05994104363761947	-0.2761912139723461	-0.4048756865009093	1.215514415710807	0.4003405353448468	0.07075672986007125	0.1171068848138838	0.1662229662865863	-0.5264158711991771	-0.2256271256490883	0.2145157823429443	0.6218666185415476	0.7259050431021981	1.457236431782371	-7.087040534387697	-7.087040534387697	5.631822253688146	5.631822253688146	2.504461253305969	-0.9650751565844216	3.056761656649961	2.315492291634957	0.06912155464146676	0.08463535926025836	0.03404798865627537	0.01878021008281028	0.04582581500044012	0.0757468534880751	0.1363003093010479	0.04527769289933609	0.1489873445645817	0.0589534274464717	0.0109913591414285	0.01060618894678376	0.01074935126718526	0.01019021349407755	0.01264645727892491	0.0132245068023025	0.05155075783037436	0.01088624894823936	0.009609058441743923	0.00936879789924997	0.009578591243069118	0.008202811507316282	0.008503007237200178	0.05595845493951207	0.005599345253480526	0.02948142757824974	0.04335658698485649	0.02104113986282225	0.03500584514387364	0.01035963485714492	0.03373446466922151	0.2682433127503423	0.07903955905468396	0.008933623602572107	0.00693530102198933	0.2394752968676795	0.01314369241733906	0.01062870359856463	0.0109389675490958	0.01059723917203152
14.53599309399683	-0.1137549566271518	0.07081624352334977	-0.1194016243802327	2.289224056085986	1.110347513268774	1.024611952049752	0.4565096645685498	-0.1325780956230543	-0.2160264397363867	-0.236536811537231	0.09544631034821242	0.06034162820425691	0.4356843592646199	0.4356843592646199	0.4154969324526586	0.4154969324526586	-0.0009619412133027097	-0.3427822617258536	0.1043571446451896	-0.237587010348778	0.1846711697318337	0.564656588169177	0.1919093231192161	0.04655977502110578	-0.02017314841865268	0.1699084826823739	-1.179184135076055	0.5620162249507625	0.849454518077628	0.6626617387595338	0.4629659182387871	1.710445487359079	-5.63271869661302	-5.63271869661302	6.774616170508809	6.774616170508809	2.864772254385024	0.7769312018849495	2.024137751232442	2.045636417687507	0.05716800390283407	0.06610151829654357	0.03503875376103672	0.01773633487194541	0.04617337346501364	0.07577157951292011	0.1680815287368218	0.04288467034710389	0.1617617094846331	0.06342449601600082	0.01089187061346014	0.01166644161990312	0.01101565955431881	0.009316079184601226	0.01335802563601383	0.01159570901608669	0.0560900209476332	0.00582574281580882	0.008920422714203208	0.009897676098408335	0.009179882591251506	0.0101655611936939	0.0104690038353671	0.05433092272345799	0.003086731559883997	0.02431969023789033	0.03532557894453104	0.02758361353977269	0.03297132681175118	0.0103399736857606	0.02890986010397864	0.3016876010912901	0.09123703941985148	0.00893673245997448	0.01022789891481542	0.2627294971968926	0.01674117363627409	0.01088181519399686	0.01338557190623041	0.01139312628538188
14.55332640999682	-0.1040567360328677	0.07470460808632839	-0.1188389871373857	2.28980759157048	1.108934646833912	1.027612828185737	0.430241966060772	-0.1166385340379273	-0.1968951323188917	-0.2279242693702132	0.1016411733814554	0.08872074103903231	0.3541109926186622	0.3541109926186622	0.537837854421278	0.537837854421278	0.05114214134553564	-0.323340773008799	0.1297700181884951	-0.2071478510038778	0.9540292632768871	-0.1010697905707518	-0.1358358541016527	0.0201511573393904	-0.141886086890483	0.1763366742865654	-1.834295458367281	1.239134798900343	1.323854597859419	0.280871363094744	0.2715568187977614	1.50065008183079	-3.699419069541744	-3.699419069541744	7.266840805328021	7.266840805328021	3.100054021222039	1.367498489066927	0.9269916577749027	1.334434009388286	0.03766089576080535	0.04088929301807428	0.02806296035518039	0.01420983375108664	0.03523152339979215	0.06479407602749047	0.1816175626107155	0.06573411282677283	0.1840328860400895	0.07282385708979584	0.01164271104713128	0.0121940090122805	0.01016262753654823	0.007665878967419663	0.01220177168387578	0.009540628399619342	0.04624944091773369	2.295907272371715e-05	0.01115148100809939	0.01384761261897562	0.01071389772394738	0.01742953145841856	0.01797182297301178	0.0559618394413737	0.02547663484854377	0.0252623296946158	0.03063267662115932	0.03933006434492303	0.0558594992043147	0.01009049839650148	0.04934234103091172	0.3306578055946187	0.1048563383570165	0.01109182141106141	0.01872764912277795	0.2901340007618013	0.01398980607144624	0.01042001064198238	0.01341836141808501	0.01118179987532441
14.57065972599681	-0.08127556610693051	0.06868873240361562	-0.1237333598544979	2.289904237115469	1.105342390733037	1.030697812547115	0.3949082183548329	-0.09182088151031656	-0.1719268760376367	-0.2268094783645182	0.1057635606607574	0.110849412981912	0.3098337363106559	0.3098337363106559	0.665578852331423	0.665578852331423	0.1059039974906203	-0.3015978837745316	0.1382176477163306	-0.1941214694462096	1.684228679941064	-0.5629868647058383	-0.4051480397519027	-0.009193019459711306	-0.2736955109767303	0.1783288381384608	-2.232917447217268	1.570796024853529	1.510482988016192	-0.1807374652253516	0.2117954970871818	1.027543004534738	-1.388483429370414	-1.388483429370414	7.438646584703828	7.438646584703828	3.186264785392843	1.122689030412515	0.07100846879215705	0.07821421930384276	0.02054123075005821	0.01998657426772444	0.01841633360337033	0.01205721503265003	0.02081774269509396	0.04624993961776409	0.168087898468376	0.09405798113268145	0.2166174259886576	0.09103711176232296	0.01318571187904673	0.01041028400228069	0.007668245507494256	0.007708324289600359	0.008790495481141764	0.01142265279753656	0.0294179131861152	0.005326169782342068	0.01881036437970275	0.02151288041058666	0.01663176897768033	0.02830820073820009	0.02906962949641129	0.05618431848983681	0.06052541457176473	0.03877441017065107	0.04179153376351739	0.05250524684114186	0.08137863637914726	0.009523300431322344	0.07706275681406477	0.3388865163024902	0.1133952030227172	0.01476026361195628	0.03043757052864305	0.3357840488286345	0.0005913854130026146	0.009122391608624245	0.007266763276873421	0.008865332830307304
14.5879930419968	-0.04862148326717196	0.05764967151193572	-0.1316509849393582	2.289493215709782	1.099165226017188	1.033747624878942	0.3572099627568698	-0.0649986325528739	-0.1457871347943888	-0.2309737615271104	0.1099376054716525	0.1239592449426321	0.307047947284051	0.307047947284051	0.7956910369438946	0.7956910369438946	0.1597726314924006	-0.2877548835589061	0.1335111790278362	-0.2062730309182745	2.065523435733147	-0.677904251303298	-0.4571807330488008	-0.03731753625664799	-0.4417081314561941	0.1713712261961696	-2.113020777675398	1.480197118726705	1.469362505965574	-0.288540878588432	0.2560972675245565	0.4944259472727919	0.9931274238709367	0.9931274238709367	7.567084497971011	7.567084497971011	3.063413890066303	0.4502321591884684	-0.6372855498662837	-1.467468593351091	0.01142776238235795	0.009659870229375539	0.01218695286973926	0.01495618443772014	0.01137785939183657	0.02717316586554004	0.1294187342909601	0.1051966343382297	0.2552824896148949	0.116875206367595	0.01400277941629322	0.006423350119489269	0.006168145188542232	0.01337473665116455	0.005604323689539923	0.02049793832254375	0.01628528327637646	0.03680049452660621	0.03370417057929451	0.03018959182939191	0.0283441070186702	0.03766093725426874	0.03760731818252261	0.05127486692747958	0.08673376936481172	0.06419463407459691	0.07943122855782365	0.0588971577077351	0.09105627558621461	0.009223891201671938	0.09027635358512238	0.3084368853394282	0.107681971556495	0.01566109343606376	0.03987797124191208	0.4043496858860665	-0.01249194454480363	0.008564446210891479	-0.002533931679927673	0.005888394283797964
14.6053263579968	-0.01435752437272372	0.04776556893480696	-0.138307491599525	2.288644159461674	1.089695713042955	1.036609202061999	0.3274079308763416	-0.0425195502149367	-0.1204806757634393	-0.2313438024849783	0.1153246061069834	0.1282539014947209	0.343446992364386	0.343446992364386	0.9286156243263828	0.9286156243263828	0.2082770366413817	-0.2873430306906721	0.1152988487085922	-0.2439443398874431	1.846559595842511	-0.4398968996449821	-0.2533728575256204	-0.05897546158316336	-0.6515139283552451	0.1563538256939328	-1.329497839152848	1.098947336684362	1.438012728089386	0.2892369914426045	0.3429097604469172	0.03779521415094285	3.052725456713616	3.052725456713616	7.769019797438952	7.769019797438952	2.677524182036171	-0.4438252454366837	-1.515829142810174	-2.755529694006777	0.009754039660300579	0.008415289257305071	0.01125933756990589	0.02263348846945839	0.009400077454090558	0.01410253594085886	0.07988552732102826	0.08923999122243315	0.2847259753392761	0.1394149130197704	0.01229996368246645	0.005833350689945753	0.01169815120233519	0.02536437234063443	0.008685150561536488	0.03408674159240833	0.01210610416274414	0.09691106026316804	0.0555727620239863	0.03633152747694333	0.04436795332285416	0.04228625529444641	0.03915026049103661	0.04027860937459409	0.08622483382410411	0.08947452991234076	0.1346344669012673	0.05172714337377345	0.07782166598352261	0.01038719415572296	0.07864914304715795	0.2370578167940707	0.0843430447783147	0.009048140965258607	0.04322829902222268	0.4690440528872634	0.00831128931189179	0.0125788235083176	-0.0007508126160101318	0.008287695104518831
14.62265967399679	0.0107827795706014	0.04404310480510461	-0.1398833175184063	2.287486638319496	1.076453566382406	1.039170529581056	0.3160668108703304	-0.02715392824728533	-0.09377085086821588	-0.2155535364605179	0.1223131524686084	0.1259829030023996	0.4103301323120624	0.4103301323120624	1.065261320615557	1.065261320615557	0.2480922690734318	-0.3034624482070005	0.07861319470437098	-0.2976715488517548	1.015464131611352	0.01556733612352323	0.1085593965903117	-0.07330661415208496	-0.8698422269215583	0.137095136546001	0.001096582272416047	0.690085571067655	1.649322100596786	1.576277995571995	0.4589985184447468	-0.2439540145811008	4.491046474747678	4.491046474747678	7.980513260482269	7.980513260482269	2.150708723244107	-1.430563762094051	-2.71711504015205	-3.257945941571187	0.01141300243383146	0.01071236916135003	0.01322997704565003	0.03116326823562866	0.01157166343350154	0.009015271604106865	0.03809258980970386	0.05570327546422535	0.2805998736628484	0.142286090190059	0.01043573109320416	0.02050336088813563	0.02937658216802441	0.03696587171824078	0.02395553160174432	0.0449429692931891	0.01502407383428068	0.167281753146439	0.08148282022521847	0.03960096740295162	0.06055994278586941	0.04489547649133965	0.0361027543790947	0.02639756430618708	0.06041445669390468	0.09810372745484626	0.1749367153939158	0.03373378969434298	0.04928165511299076	0.01368040596201028	0.05006276037854608	0.1484140354531249	0.05187515236494537	-0.0001033560478422672	0.04267685037694823	0.4811469436230884	0.1029079454410502	0.02582255184357327	0.03636586105649963	0.02493876494006734
14.63999298999678	0.01842526665054357	0.04831073658197742	-0.1348236163324717	2.286115448344232	1.059843317718409	1.04136995742353	0.3289693255859599	-0.01714596894548116	-0.06122925385512655	-0.1739383031522462	0.1316541712821414	0.1209649227168146	0.4952040971299865	0.4952040971299865	1.204293844014957	1.204293844014957	0.28116350005199	-0.3357368377691889	0.01926774735643532	-0.3511117805350446	-0.1435744001346481	0.4686745893029439	0.4753861543144016	-0.08479827727725456	-1.030974167928891	0.1154622537804628	1.441104728395518	0.4914632590525979	2.111140490166667	3.238233339307959	0.649692893834931	-0.2813852879230538	5.164369512364607	5.164369512364607	8.014424398760559	8.014424398760559	1.878815370063164	-2.240011977424377	-4.015242254039569	-2.734841591068628	0.01267538973877056	0.01220653937489446	0.01518194089852954	0.03785077685191462	0.01346784222091415	0.00917959742905532	0.01576843636862211	0.02418324729368403	0.2280250320047301	0.1177354064135601	0.01899340426135253	0.06325718903062921	0.05731031128485042	0.03710540809989104	0.05044580636303483	0.05063617703468158	0.0215624812296318	0.2233574528500599	0.1070888515739574	0.04483602701175252	0.07298019273915536	0.05009705860569679	0.03455105596476444	0.01505193832391092	0.02905354088025063	0.08249423817338834	0.1687170240522444	0.01704637140085987	0.0215482903921119	0.01768595587681398	0.02233453407883508	0.07745843879454201	0.02501928389170226	0.01252880139379881	0.04211892384482439	0.4196797187038864	0.280042295857704	0.05082912921400239	0.1239406363765325	0.06162945100661309
14.65732630599677	0.006655830617960243	0.05869551264664445	-0.1239478322164495	2.284534405843037	1.041441017423491	1.043145854460356	0.3626403384470313	-0.008009405386185772	-0.02064587291599564	-0.1043953152301696	0.1449847205151694	0.1175279929088038	0.5842263062232007	0.5842263062232007	1.340864060146596	1.340864060146596	0.316398491695033	-0.3776083641433206	-0.06014623259658408	-0.3871059812750736	-1.191332690855772	0.7211555690849192	0.7482035701085219	-0.09823679436206834	-1.07126439868817	0.08930517627374232	2.368868898353564	0.5713998230937377	2.563066460113923	4.762492444734447	0.9431530659133611	-0.09701012756719543	5.016115971380125	5.016115971380125	7.668247927088246	7.668247927088246	2.238670851467086	-2.472631927731066	-4.939818510000216	-1.317332476156864	0.01231546477823158	0.01183649356736416	0.01653130624636173	0.04475309232712005	0.01328429881746958	0.01062023374566642	0.01234607894098774	0.00784972816737169	0.1413554283745028	0.07685063281274736	0.05211627882701655	0.1386922429001348	0.08744728098844848	0.02320186319778596	0.07870570893553278	0.05961917031295515	0.030929073781201	0.2609513347440005	0.1308708542892305	0.06033204942734095	0.08177784585527449	0.05854062492369846	0.03779124102567037	0.009509609075108059	0.01149942737627807	0.05116565667738487	0.1166049636352298	0.01328785926326217	0.00654507720424612	0.01901086347039294	0.007881642288385634	0.04200332073179112	0.01233250270117656	0.08367240471020024	0.040505390425435	0.330363280640613	0.4963479766144271	0.08643062102220103	0.2538505696027127	0.116541449470933
14.67465962199676	-0.01939678152429559	0.07094081133879548	-0.1089880263544702	2.282703748348569	1.023618462394837	1.044388618708802	0.4037726419561568	0.004064475091894471	0.02493397878437027	-0.01298997854330398	0.1638385311249339	0.1183925983165385	0.6632996817231476	0.6632996817231476	1.467242322528021	1.467242322528021	0.3640860759670314	-0.4162739092931156	-0.1487918188619197	-0.3936940782580794	-1.777250066255286	0.6922097551487836	0.9395639913638762	-0.1131486735984944	-0.9657982183071663	0.05470888854939489	2.290796692952092	0.7986890624405371	2.672977938129388	5.743193597397667	1.274805043730568	0.1615827518945139	4.046342843292885	4.046342843292885	6.828223371465683	6.828223371465683	3.097969441516701	-1.853708903919038	-5.082203176407303	0.5643151430944766	0.01112833710305552	0.01066115423210615	0.01805065271377088	0.05523843219332285	0.01191170999889669	0.01119189245521304	0.01835301781791207	0.006120263024078419	0.05825696095196437	0.041379912880586	0.1127168392249808	0.2369496111835878	0.1168823526046472	0.01494284872537383	0.09921968074016357	0.08223060894961583	0.04215982516846081	0.3055264478199354	0.1593379713857902	0.09356720519350301	0.09324160089624949	0.06981576218302635	0.04684573012650207	0.00886021240296465	0.01054097671601526	0.02167523245114756	0.05200701416716989	0.02395814060798861	0.005031387661957233	0.01548340270364894	0.006438449674537312	0.03280085599099359	0.01105515643297916	0.2347134014798298	0.03530854129815936	0.2925356907795363	0.6852883497080511	0.1291139405068843	0.3995213094281422	0.1820821686816806
14.69199293799675	-0.05068294212081934	0.08072117290066198	-0.09070130978721634	2.280643910342351	1.008749817327547	1.044939488768915	0.4338719381255121	0.01958944568612116	0.06818139383693941	0.08958930707035589	0.1878930718310916	0.1230379612752457	0.7193078093532002	0.7193078093532002	1.574831857697266	1.574831857697266	0.4265867587626108	-0.4372448570871091	-0.2314991317552599	-0.3678465134171927	-1.803818783747207	0.4412535488019629	1.149507274839527	-0.1235034352528092	-0.7374539641909869	0.009630053204865922	1.116866326372412	0.9535448668516165	2.292401973082137	6.054263627414604	1.495123511367205	0.3031841694990284	2.381666174582896	2.381666174582896	5.514411035758747	5.514411035758747	3.81018199633659	-0.4783306028708558	-4.350007918127455	2.347128333697126	0.01023773001396483	0.009910479021266062	0.01935453278132071	0.06739773788485877	0.01079321891867725	0.01086716701692189	0.02347975312779113	0.01062067272746473	0.009686669394198197	0.02435419039027511	0.1828162304002555	0.3358522946307891	0.1569036139276442	0.05117911905986523	0.1107641233581869	0.1149051663133864	0.04976513765830465	0.3921184188177249	0.2061852616759933	0.1453093272406997	0.1180560063674847	0.08966245699773155	0.06512587657318505	0.01008833261681004	0.01362826121066261	0.006191781210822014	0.009362277640883238	0.04000912427469251	0.01017972229874816	0.010432240083521	0.01016681033637598	0.03061405819655793	0.01329254339775335	0.4475093409978076	0.03290272297317687	0.3376983662824192	0.8088375399447213	0.1740669032068821	0.5328833843798759	0.2488572544077831
14.70932625399675	-0.07861516736785149	0.08557418725396936	-0.06793727337119093	2.278497543625162	0.9985423049420742	1.04464040768227	0.4366021627629063	0.03574178247451162	0.1015837623889025	0.192650096057329	0.2140219511757969	0.1280780795481428	0.7425839553988508	0.7425839553988508	1.656341692714957	1.656341692714957	0.4950791670584212	-0.4310502489239986	-0.2954903898188938	-0.3158267239205067	-1.407895353617529	0.1159741615519055	1.47683349268839	-0.1221520148441565	-0.4359059670200365	-0.0433065180450388	-0.8199423728394569	0.8877497446000024	1.553371443337637	5.804690436615663	1.454669872081286	0.206884623762113	0.3124209504113159	0.3124209504113159	3.849988778831929	3.849988778831929	3.787599956552105	1.196773004969325	-3.049483451300497	3.541633519172318	0.01004858772803974	0.01001957909486185	0.01886962328892711	0.0735137972171193	0.01040938285824652	0.01038558455915465	0.0228215128057664	0.0139703551650167	-0.001618782238048881	0.0218994160977863	0.2345489616378504	0.4107312262262548	0.2235531668721422	0.1620226674733037	0.1160879992219496	0.1383208844106531	0.0470506036913661	0.5338402405809238	0.280354875192818	0.2040676076292524	0.1658059625719992	0.1273010789121188	0.09566138050271579	0.01104867768881962	0.007684116678870135	0.004493113147752912	-0.002157944474690861	0.04970488755585845	0.01433731125138012	0.01357427539419506	0.01220927009069901	0.02518164949290095	0.0139717048792636	0.6718658866470844	0.04962946494754014	0.4145503757393226	0.8714699909820609	0.2127406138918323	0.631790507056518	0.3046664977793833
14.72665956999674	-0.09788025658809585	0.08558176490583563	-0.03854201425092858	2.276508438233688	0.9938223780006075	1.043423644740107	0.4033109574405375	0.04857418307312044	0.1215005640569088	0.2880452802253217	0.2369301269215383	0.1290005822289763	0.7292784796111619	0.7292784796111619	1.707041582738369	1.707041582738369	0.5549964162067644	-0.3973806020991277	-0.335807573822369	-0.2503568758771799	-0.8150300455809231	-0.1341326842466122	1.915500754335815	-0.1049890439566102	-0.1096656901028659	-0.09555867487176276	-2.99140929226823	0.6112280132522305	0.7622338774059948	5.166284852620496	1.081667796733536	-0.148453839544244	-1.795822278866819	-1.795822278866819	1.991644785704469	1.991644785704469	2.894204640530892	2.62012408683893	-1.707107658762821	3.893715974924896	0.0103209543038536	0.01064218908428142	0.01610540049314962	0.06709918651665175	0.01041529301443375	0.01019117542124438	0.01774052189430684	0.01290222402696589	0.005482273741242995	0.0227845732151256	0.2518280889849401	0.4450204808141472	0.3151985516787426	0.3359281602770305	0.1120845073099973	0.1338081476159199	0.03409776306923008	0.7063701312752235	0.3703688723058418	0.2467497243666721	0.2377694958566187	0.1830580706572676	0.1322612054745861	0.01127954465092789	-0.004449041100417443	0.008893909915723919	0.004416421544385589	0.04719439964422237	0.0125333146250976	0.03594269110864418	0.01062664904030305	0.01672201096694005	0.01260306202303182	0.8551729506020977	0.09877496409809508	0.439787693353817	0.888640691436642	0.231317399830544	0.6749453451343724	0.332044364253738
14.74399288599673	-0.1067271512043383	0.0826240722216994	-0.00164872789755751	2.274956947548157	0.9946915231372188	1.04140222141699	0.334111389977317	0.05563824122926928	0.1294953781917476	0.3700363942466155	0.2506466492110484	0.1216435874984161	0.6815979899930584	0.6815979899930584	1.72484125179885	1.72484125179885	0.5923078882264177	-0.3439269077175548	-0.355684122182739	-0.1859497772846744	-0.2085146202754363	-0.2429052404333651	2.322633018483539	-0.07161958684023728	0.2068911640842783	-0.1349920017780273	-4.938959692935875	0.2619027782426079	0.1956014293270837	4.250608493184822	0.3835965365865608	-0.7213314151556091	-3.650947945969624	-3.650947945969624	0.07475906889233069	0.07475906889233069	1.240322113301087	3.454751978741269	-0.7104950447587733	3.442153453874658	0.01058631465147523	0.01092435770531257	0.01257700948864005	0.04942801855848594	0.01040654883468392	0.01021774780668711	0.0123631610217383	0.007756721441432314	0.01132175523868159	0.02038011886971994	0.2375865618428797	0.4341585095215056	0.4018829182485583	0.5141927062244083	0.09222549518111874	0.1003439278704071	0.0188155459289293	0.8601102076346819	0.4413549820461386	0.2502623380716029	0.3219157370518841	0.2417720179001281	0.1585182954171491	0.01095534238402924	0.002283054750265981	0.01236373160372995	0.01244886141761513	0.03521631212427336	0.004599999764802492	0.08089866000611823	0.008009442938719219	0.008146050935091152	0.01059313186390625	0.9600050984645907	0.1763357375686858	0.3723698814542715	0.8606116294359528	0.2171654357396134	0.6422309663094423	0.3145451525546661
14.76132620199672	-0.105897753585252	0.07858467424452578	0.04050525751528564	2.274107597369935	1.000751234969407	1.038885302541143	0.2354929836703444	0.05730847317327112	0.130407127775344	0.4343271856659883	0.2496732897476431	0.1029656863298214	0.6054967112063802	0.6054967112063802	1.709662168740884	1.709662168740884	0.5944430305139022	-0.2812841707472343	-0.3618166764378429	-0.1341475071894295	0.3006497886465344	-0.2678886688432385	2.504644883460791	-0.02403182147447969	0.4886374982064275	-0.1522707909478229	-6.390268040914119	0.003296410548345598	-0.05823295482651816	3.125922676326426	-0.5919735068360323	-1.430412630303529	-5.124092557615558	-5.124092557615558	-1.805807200397259	-1.805807200397259	-1.132571004583664	3.701425652241269	-0.09160315225844967	2.478868584292434	0.01036269602867786	0.009968169788145024	0.01017900419203963	0.02877239221973269	0.01026223846329074	0.01014272306179129	0.009488069300324873	0.003127897936137683	0.009063252250402488	0.01472725007746476	0.2025200798989893	0.3827468662149575	0.4409053479973699	0.6221950017115508	0.05904002469416654	0.05534353633098354	0.009220353065616062	0.9469898453680013	0.4529211265807552	0.2079793728061657	0.3947275658332472	0.279971559275121	0.1589622478236974	0.009996233563920565	0.06139110294603812	0.01192238958819147	0.01357541636961403	0.02129428585149939	-0.001110199828682178	0.1371875773074198	0.009745986623430141	0.003046680343316227	0.009173713875744395	0.9622211169717375	0.2587171123045877	0.2384342935203592	0.7803866268561199	0.1701874048811355	0.5292447896280688	0.250653600200286
14.77865951799672	-0.09772294447134025	0.07351070677099045	0.08289559744710268	2.274174550739061	1.011193114193484	1.036276386027746	0.1172222688180754	0.05634729997640097	0.128798904288086	0.4782122481013445	0.2296051498116266	0.07165206126629969	0.5075062376556976	0.5075062376556976	1.662720852405519	1.662720852405519	0.549036190693443	-0.2178209479626224	-0.358921363386576	-0.100050829990972	0.6399909292451139	-0.3534767151232384	2.352549610434221	0.03335555898104095	0.7098775050041821	-0.1467345529590058	-7.218580111029696	-0.06498560715316483	-0.1171819057604695	1.906515160032404	-1.762873787299704	-2.152489655969218	-6.208896251000737	-6.208896251000737	-3.588439002351913	-3.588439002351913	-4.17027674694401	3.586883949599587	0.3589596978270673	1.446208696637687	0.009444496686850237	0.007963425887804687	0.009470700691193518	0.01380028436956098	0.01004982614443488	0.009774566579728309	0.009131038251785149	0.008195460272300609	0.005682439324105728	0.008541865943218237	0.1549097399965663	0.3013489988843567	0.4074487663008993	0.6149295946053994	0.02655401925102462	0.02011843440999131	0.006990352545491508	0.9393559202557196	0.3874555238375372	0.1365543596832591	0.4314676345636673	0.2794618244735192	0.1310484247812574	0.008540866832915281	0.1840850171694746	0.008184056961552747	0.008463459410456778	0.01175064071587215	0.01325766768038493	0.1807701759278653	0.02114220150160478	0.009131829136991032	0.009430446164032085	0.8526954552362795	0.3140185246918547	0.1003166919785956	0.6513146615492446	0.1066851894972917	0.361814104527082	0.1606261307540963
14.79599283399671	-0.08561604888433302	0.0649081881192629	0.1199491131680914	2.275268470785285	1.024780023484526	1.033910765953657	-0.009654753883590557	0.05651427800934797	0.1262437863624853	0.5017442141931768	0.1879000579745008	0.02872481231030876	0.393455614436814	0.393455614436814	1.586143776335477	1.586143776335477	0.4466261957401436	-0.1575414739442211	-0.3478203432924467	-0.08100596030608363	0.7650305640977468	-0.6428241635984735	1.910055333865071	0.09198689602169265	0.8436255369340738	-0.1265443109145405	-7.366776121606674	0.07826028747105958	-0.1977380025821568	0.7797997387551356	-2.992452096473457	-2.737179713221932	-6.877037119887764	-6.877037119887764	-5.222763573821191	-5.222763573821191	-7.500241809696726	3.357477373808556	0.841449350801037	0.7981866993132011	0.008527919681353092	0.007633799646235636	0.009756784742482235	0.007710531318367471	0.009910778118051038	0.009419428333424285	0.009804380050483825	0.03091444800411861	0.01493737839301236	0.005215824018957123	0.102379978538723	0.2060361833290769	0.3151216353666484	0.5041436990421218	0.007739184001667036	0.004559684788761987	0.00864335296751685	0.8340648453322946	0.2664676551385042	0.06572882299576914	0.4194720436847564	0.2375554879803031	0.08704555910859617	0.008198073994394907	0.3376951386950992	0.004971708219270179	0.003851885381661345	0.008275216884050857	0.06483447483349891	0.1877328750938415	0.04268663260270875	0.03531176690398706	0.01259259451995905	0.6512537280037668	0.3196049387893417	0.01170316364956988	0.4895375578706476	0.04991808974373768	0.1909133259025027	0.0764693790097427
14.8133261499967	-0.07322712786700801	0.04872066318359818	0.1479636553476326	2.277316530667565	1.039874961016808	1.031940191534398	-0.1337418946568952	0.06122963717494324	0.1208409613953287	0.5081538073050804	0.1250538095328119	-0.0222932994027464	0.2707438184380768	0.2707438184380768	1.483015106624598	1.483015106624598	0.28791138239529	-0.1010621802971697	-0.3272839328036229	-0.06779046900976957	0.6910037953367789	-1.190558017758198	1.33224978548993	0.1394875669731639	0.8724973397014029	-0.103273280920349	-6.835888421755772	0.4065740934979643	-0.4780270044581313	-0.07698245377399307	-4.098408533786869	-3.055458945413367	-6.961637370037867	-6.961637370037867	-6.649169675407719	-6.649169675407719	-10.35610902670198	3.150910922199028	1.416249407233805	0.846139860279564	0.00952034158212778	0.01408755870009362	0.01018988418305277	0.007879169074099565	0.01004488604581383	0.009916499912432406	0.01030365545452364	0.0672304585112181	0.04657085939279368	0.009140895041737079	0.05571048943560402	0.1168387354381005	0.2080876682456627	0.3473563538539159	0.003882993749064278	0.004163303528056893	0.01039343457502855	0.6517103023763939	0.138673465123695	0.01930747891714002	0.3647161284821138	0.1694169514477114	0.04573951822216598	0.01214212799632456	0.4608584681411805	0.008773845729939465	0.009441646381113375	0.008713208620370992	0.1507597966116513	0.1515369422120739	0.0663777633762471	0.0796024565405737	0.01921822046856012	0.4115975623271963	0.2753086402424199	-0.005120226861510639	0.3186383941263953	0.01553581187354044	0.06586914120662983	0.0224421595361624
14.83065946599669	-0.06305237448894631	0.02159441031513385	0.1661502587467192	2.280016172874739	1.054631160715944	1.030325809620267	-0.2440922324985697	0.07246706726341305	0.108642459442957	0.5023204182441894	0.04558907617124183	-0.07608627010943733	0.1525468208828116	0.1525468208828116	1.357555081307682	1.357555081307682	0.09012838204451681	-0.04771231027955801	-0.2972298053080247	-0.04802961602225427	0.5107084581835883	-1.908242654435602	0.7866398851747308	0.1646956242341436	0.8012682267581179	-0.08571669718852823	-5.732215374159272	0.8417774614061622	-1.006716445489242	-0.6125378481929821	-4.89280989192707	-3.058269907024213	-6.206364258217383	-6.206364258217383	-7.80074547387933	-7.80074547387933	-11.88462621887125	2.99675363551349	1.99512886301674	1.623443316922495	0.01438954021465931	0.03123379243211894	0.01043637148936342	0.009862394562277076	0.01061134481342069	0.01194747279667959	0.01037322504241344	0.09879243755502687	0.09624554008882316	0.02329918982430628	0.02492016696294678	0.05132125172941066	0.1296217544172646	0.2077620392991623	0.007383879125010552	0.008719607941797151	0.01083067477130439	0.4349947891201907	0.04760590763153583	0.002618483577424806	0.2869006111139418	0.1005622523540266	0.02089076634307641	0.02250355553253579	0.5069025169870338	0.0244336107919154	0.0316105031886581	0.01011379847193121	0.2401880788397967	0.0901780586172128	0.0791551849137784	0.1237918365392049	0.02843133725108362	0.2001908531382083	0.2030632200085868	0.04070174403314877	0.1667727187937282	0.004282479828612992	0.00619726386309918	0.002499861327478323
14.84799278199668	-0.05538061734531469	-0.01686077273282576	0.176043940023691	2.282900756272568	1.06734692002375	1.028917265105913	-0.3316852687092438	0.08977512722904889	0.08587542082458917	0.4881900251936392	-0.04219858543896882	-0.1270800113084528	0.05896142169302079	0.05896142169302079	1.214938622377725	1.214938622377725	-0.1143855454127268	0.003075011720134425	-0.2610154533244731	-0.01081897779948221	0.3577488590176204	-2.573950581192444	0.3747753343281749	0.1642992520779273	0.6585950282911064	-0.07724216292339268	-4.297395158464531	1.219117450963006	-1.681675098943157	-0.9401130205706327	-5.224095829235893	-2.80167057936206	-4.473103279644071	-4.473103279644071	-8.630076673767292	-8.630076673767292	-11.60912941485607	2.875150520903661	2.360424057223128	2.844527388159563	0.02280294604002088	0.05645722978560047	0.01056227582747903	0.01102741363024916	0.0114907513707642	0.01490079920599645	0.01037218342776178	0.1083181141735644	0.143020282514566	0.04340068852150974	0.01215568868731122	0.01632954324403728	0.0931718314709508	0.1177893790332926	0.01087021327895822	0.01154114687712303	0.01041824156336099	0.2374448127205442	0.006552247524452143	0.004858847647099572	0.2076374818090747	0.05174935926505161	0.01398850538540904	0.03646053406900264	0.475499906505753	0.04767812561707841	0.06430750472373774	0.01089077090273011	0.2939711748410269	0.03384345020327115	0.07414249013765287	0.1486316188585815	0.03884568115966789	0.06204438418898601	0.131814954882204	0.1138760113171501	0.0594573344224292	0.00625311128709263	-0.003630797670642224	0.003771776854079294
14.86532609799668	-0.04861330222540743	-0.06357899116871585	0.1801523329994202	2.285523874903179	1.076923378394785	1.027553573155507	-0.3918187384093051	0.1102654535499593	0.05093463478070497	0.4674329097185494	-0.1287546424867503	-0.1713018110170669	0.0102285983140937	0.0102285983140937	1.060586411366772	1.060586411366772	-0.2908140027183196	0.05151639766587282	-0.2250258894216091	0.0491789457609218	0.3385214450157252	-2.93586028028388	0.1143269562461081	0.1445282274666666	0.4839015371539015	-0.07707527566948934	-2.84616958122456	1.321209212029139	-2.313178748572752	-1.259037479953214	-5.018934427130485	-2.409275976966966	-1.911091336100025	-1.911091336100025	-9.138731528757127	-9.138731528757127	-9.66993273562939	2.759681983315883	2.245439397854197	4.042737655024464	0.03122053818802076	0.07969858215284822	0.01066717735910072	0.01112925651489037	0.0122037064355114	0.01663541869040376	0.01073165873426123	0.09731775501030181	0.1591233525235576	0.05636102421125697	0.01070628725825572	0.005586121994460887	0.0799151042073966	0.07240244780420367	0.01183026135342278	0.01166755657269658	0.009983131331444666	0.1005127080421568	0.0001505807500076443	0.01121074779866734	0.1403876330034219	0.02718762159728106	0.015813249242879	0.04583383592566354	0.4056940045582934	0.06345321874557602	0.08761792382927468	0.01090391292192998	0.2950837176669221	0.003186247335319612	0.05856595309707428	0.1540742271616515	0.05018423237216062	0.00189753994448701	0.0792692782788527	0.1635321482119422	0.006463379633247846	0.01058288818793101	0.005611448539520992	0.01004449821263668
14.88265941399667	-0.04093900939709266	-0.1140904782671534	0.1808685510821887	2.287670032166305	1.083305672860273	1.026136942057594	-0.4266746722407045	0.1305443255339292	0.005391442363379387	0.4406802931407843	-0.2078111832420927	-0.2078673826560748	0.01329809542157931	0.01329809542157931	0.8993194726806458	0.8993194726806458	-0.4210318327869084	0.09789004220999044	-0.1947783769312869	0.1298798741076652	0.4818258556075713	-2.874862950144642	-0.03275912017393196	0.1156325355659843	0.3076084193316709	-0.08272836186036933	-1.606349193139173	1.021426330318269	-2.758781975535403	-1.714244991367023	-4.328251316475955	-1.993634986667659	1.120070687587073	1.120070687587073	-9.388524334032079	-9.388524334032079	-6.641657062996186	2.633834253080213	1.522038156598846	4.867053904235079	0.03567701395682746	0.0910712614736737	0.01074410164515136	0.01090009240193045	0.01226859893850037	0.01513817863740995	0.01162946825209782	0.08212964092341098	0.1288787177860499	0.04993890503227287	0.01155975940786015	0.006568666026738374	0.06275578611200967	0.04910319440515934	0.01114627121065945	0.01078843987194477	0.009894826013559149	0.03380036717259837	0.005371932378002852	0.01302471955950983	0.08753444190593759	0.01732370515976114	0.01559860745946944	0.04327637435591238	0.3398891535231895	0.05739142009470679	0.08280676857212838	0.01054105958297242	0.2558667828974923	-0.0008021971744893112	0.04648812301867493	0.1564244325129515	0.06315389296105917	-0.005384784377645448	0.04590771809480899	0.1518398220631619	-0.002819823765553025	0.0118030272967537	0.01165674813139703	0.01225622253390023
14.89999272999666	-0.03201901582802039	-0.1654074989446942	0.1800744515859637	2.289456569702491	1.087661280936212	1.024660709737812	-0.4462232115036053	0.1494004224372747	-0.04628100683694425	0.4099322130259466	-0.2801151521351479	-0.2394079612774692	0.05170993953593898	0.05170993953593898	0.7349584268411635	0.7349584268411635	-0.516412290101394	0.1429788372175599	-0.1702449572037426	0.2227270788844587	0.7322761012751657	-2.509556236105531	-0.1233961664033485	0.08461775427595862	0.1389797674921598	-0.0913283903777854	-0.5747961697573778	0.4207837180499945	-3.038216214162144	-2.300384370395425	-3.345916196684066	-1.597748470551484	4.305963344178711	4.305963344178711	-9.493453973783955	-9.493453973783955	-3.140562458841368	2.496621121666668	0.3658370988573921	5.336840098987423	0.03598990564678234	0.09098185306749826	0.01077520362535358	0.01077041654825524	0.01172420782407929	0.01076632681611927	0.01291029082245178	0.07254298846641193	0.06380491190822962	0.02619640093483023	0.01066085640908222	0.01030347312550343	0.03285263188345325	0.03104619365344884	0.01004836453722547	0.01003817677959149	0.01007250109990243	0.01255047827009809	0.01008616724847753	0.01005880836661314	0.04354971135868369	0.01185374937575694	0.01020750870512062	0.03020240033935713	0.2912081948304188	0.03159100613210718	0.05254535315523881	0.01008289667651596	0.1989182183000874	0.01006200670844203	0.04288364243642868	0.1654648936104379	0.07768086272685516	0.01004396891703303	0.02272083283677427	0.08706891593226034	0.01016677802460344	0.01005612004362843	0.01002192543865058	0.01004069472989713
