NormalizedFiberLength
version=1
nRows=51
nColumns=5
inDegrees=no

This analysis gathers basic information about muscles during a simulation (e.g., forces, tendon lengths, moment arms, etc).
Units are S.I. units (second, meters, Newtons, ...)
If the header above contains a line with 'inDegrees', this indicates whether rotational values are in degrees (yes) or radians (no).

endheader
time	recfem_r	vaslat_r	vasint_r	vasmed_r
     13.74666087	      1.26182008	      1.09477658	      1.11112040	      1.10991763
     13.76252752	      1.23191205	      1.06070667	      1.07677655	      1.07851548
     13.77839417	      1.20077106	      1.02835976	      1.04456422	      1.04897757
     13.79426082	      1.17529153	      1.00170478	      1.01829083	      1.02484702
     13.81012747	      1.16230881	      0.98413087	      1.00108417	      1.00902957
     13.82599412	      1.16523079	      0.97738560	      0.99449615	      1.00297090
     13.84186077	      1.18368573	      0.98152622	      0.99853944	      1.00668945
     13.85772743	      1.21551777	      0.99588739	      1.01258671	      1.01960462
     13.87359408	      1.25865236	      1.01993853	      1.03623775	      1.04133326
     13.88946073	      1.31134908	      1.05320760	      1.06927560	      1.07164319
     13.90532738	      1.37098179	      1.09432371	      1.11066092	      1.10949827
     13.92119403	      1.43407484	      1.14109421	      1.15856983	      1.15314170
     13.93706068	      1.49820497	      1.19200158	      1.21181179	      1.20153873
     13.95292733	      1.55517890	      1.24127856	      1.26468356	      1.24929887
     13.96879398	      1.59688265	      1.28344041	      1.31141844	      1.29105054
     13.98466063	      1.61958784	      1.31649159	      1.34945933	      1.32459502
     14.00052728	      1.62200694	      1.34012608	      1.37767660	      1.34907657
     14.01639393	      1.60572857	      1.35619591	      1.39611251	      1.36474961
     14.03226058	      1.57608489	      1.36567181	      1.40632923	      1.37329290
     14.04812724	      1.53904060	      1.36878173	      1.40955979	      1.37602020
     14.06399389	      1.49905847	      1.36572914	      1.40638936	      1.37334317
     14.07986054	      1.45774809	      1.35698948	      1.39698864	      1.36548623
     14.09572719	      1.41346907	      1.34298477	      1.38104370	      1.35196244
     14.11159384	      1.36268743	      1.32353303	      1.35778343	      1.33186314
     14.12746049	      1.30297263	      1.29690464	      1.32673655	      1.30461413
     14.14332714	      1.23360427	      1.26168477	      1.28709405	      1.26938337
     14.15919379	      1.15486638	      1.21577252	      1.23712306	      1.22446110
     14.17506044	      1.06979205	      1.15852276	      1.17666382	      1.16960226
     14.19092709	      0.98728890	      1.09480911	      1.11115342	      1.10994776
     14.20679374	      0.91090206	      1.02792135	      1.04413014	      1.04857913
     14.22266039	      0.84834915	      0.96736572	      0.98471914	      0.99397768
     14.23852704	      0.80694641	      0.92449586	      0.94280560	      0.95543854
     14.25439370	      0.79121205	      0.90712040	      0.92564820	      0.93970368
     14.27026035	      0.80293868	      0.91742810	      0.93584569	      0.94905047
     14.28612700	      0.83958129	      0.95140327	      0.96914670	      0.97965240
     14.30199365	      0.89453323	      0.99945293	      1.01608172	      1.02281687
     14.31786030	      0.95883410	      1.04952815	      1.06560263	      1.06827661
     14.33372695	      1.02253048	      1.09099072	      1.10728178	      1.10641353
     14.34959360	      1.07926084	      1.11850965	      1.13531909	      1.13197848
     14.36546025	      1.12670090	      1.13151453	      1.14868061	      1.14414291
     14.38132690	      1.16391992	      1.13134640	      1.14850740	      1.14398527
     14.39719355	      1.19070527	      1.12025164	      1.13710462	      1.13360458
     14.41306020	      1.20653947	      1.10041622	      1.11684946	      1.11514489
     14.42892685	      1.21021055	      1.07352486	      1.08964574	      1.09029564
     14.44479351	      1.20160817	      1.04167198	      1.05777640	      1.06110034
     14.46066016	      1.18494897	      1.00906262	      1.02551974	      1.03148905
     14.47652681	      1.16911335	      0.98183645	      0.99884248	      1.00696814
     14.49239346	      1.16483392	      0.96634437	      0.98372289	      0.99306121
     14.50826011	      1.17981576	      0.96642359	      0.98380015	      0.99313229
     14.52412676	      1.21454814	      0.98121009	      0.99823066	      1.00640548
     14.53999341	      1.26137937	      1.00479960	      1.02132935	      1.02763910
