Joint Reaction Loads
version=1
nRows=51
nColumns=10
inDegrees=no

This file contains the reaction forces and moments
applied to the specified body of a joint pair and expressed  in the specified reference frame.

Units are S.I. units (seconds, meters, Newtons, ...)
endheader
time	patellofemoral_r_on_patella_r_in_patella_r_fx	patellofemoral_r_on_patella_r_in_patella_r_fy	patellofemoral_r_on_patella_r_in_patella_r_fz	patellofemoral_r_on_patella_r_in_patella_r_mx	patellofemoral_r_on_patella_r_in_patella_r_my	patellofemoral_r_on_patella_r_in_patella_r_mz	patellofemoral_r_on_patella_r_in_patella_r_px	patellofemoral_r_on_patella_r_in_patella_r_py	patellofemoral_r_on_patella_r_in_patella_r_pz
     13.74666087	   2761.91663613	    -37.37905601	    137.86329658	    -10.01615122	      7.15094354	    -85.57902707	      0.00000000	      0.00000000	      0.00000000
     13.76252752	   1815.52043319	    -94.27725402	     74.00426268	     -6.98891417	      4.74489453	    -54.10590672	      0.00000000	      0.00000000	      0.00000000
     13.77839417	   1096.40567537	    -94.79072974	     32.82496823	     -4.55177666	      2.83709020	    -31.24565933	      0.00000000	      0.00000000	      0.00000000
     13.79426082	    617.05980645	    -69.92985577	     11.58176548	     -2.80257966	      1.52478127	    -16.77974846	      0.00000000	      0.00000000	      0.00000000
     13.81012747	    354.22698497	    -46.24770057	      0.91118612	     -1.87698102	      0.81716447	     -9.23876586	      0.00000000	      0.00000000	      0.00000000
     13.82599412	    274.10682735	    -37.03314959	     -3.25784114	     -1.65895283	      0.62048317	     -6.98656604	      0.00000000	      0.00000000	      0.00000000
     13.84186077	    312.08016232	    -40.86691172	     -3.00172165	     -1.85719308	      0.72741407	     -8.02932335	      0.00000000	      0.00000000	      0.00000000
     13.85772743	    398.08391650	    -46.74866349	      1.34296050	     -2.14629991	      0.91809052	    -10.59955054	      0.00000000	      0.00000000	      0.00000000
     13.87359408	    494.06496876	    -46.05969693	      9.22685880	     -2.37972332	      1.07596207	    -13.79292714	      0.00000000	      0.00000000	      0.00000000
     13.88946073	    603.15492938	    -35.27031207	     20.70897564	     -2.58099667	      1.19678571	    -17.73364013	      0.00000000	      0.00000000	      0.00000000
     13.90532738	    751.89943913	     -9.66579530	     37.36251704	     -2.83232259	      1.32918612	    -23.26406074	      0.00000000	      0.00000000	      0.00000000
     13.92119403	    971.68068882	     42.06466670	     61.64971280	     -3.21010592	      1.52344549	    -31.46796911	      0.00000000	      0.00000000	      0.00000000
     13.93706068	   1288.65025408	    138.63379346	     95.54615377	     -3.77011044	      1.80138808	    -43.23183936	      0.00000000	      0.00000000	      0.00000000
     13.95292733	   1677.70171563	    300.66689378	    136.22999618	     -4.51313215	      2.12466143	    -57.73086746	      0.00000000	      0.00000000	      0.00000000
     13.96879398	   2069.95251473	    527.50147921	    176.65545198	     -5.40416429	      2.43524080	    -72.39134087	      0.00000000	      0.00000000	      0.00000000
     13.98466063	   2386.13734090	    785.11647470	    208.39388989	     -6.36600509	      2.68673230	    -84.10747970	      0.00000000	      0.00000000	      0.00000000
     14.00052728	   2560.93180100	   1003.62998422	    226.37364254	     -7.00635806	      2.78446881	    -90.51359512	      0.00000000	      0.00000000	      0.00000000
     14.01639393	   2589.44838107	   1124.94910144	    231.12019578	     -7.04351631	      2.76831438	    -91.57098500	      0.00000000	      0.00000000	      0.00000000
     14.03226058	   2524.05311602	   1160.42540961	    224.20585860	     -7.02509461	      2.79186190	    -89.08291154	      0.00000000	      0.00000000	      0.00000000
     14.04812724	   2408.00036479	   1120.13424942	    209.91892096	     -7.02269864	      2.81560199	    -84.72014834	      0.00000000	      0.00000000	      0.00000000
     14.06399389	   2266.84462902	   1033.67016557	    189.90457808	     -6.90562096	      2.78825991	    -79.40573259	      0.00000000	      0.00000000	      0.00000000
     14.07986054	   2103.98600417	    906.86464319	    166.66339778	     -6.85526275	      2.76814395	    -73.29523955	      0.00000000	      0.00000000	      0.00000000
     14.09572719	   1914.98943422	    756.20674603	    140.99286547	     -6.81837249	      2.78534634	    -66.21472890	      0.00000000	      0.00000000	      0.00000000
     14.11159384	   1689.91923749	    583.74676599	    115.04360655	     -6.42264187	      2.73652183	    -57.94261601	      0.00000000	      0.00000000	      0.00000000
     14.12746049	   1429.19972220	    402.76018824	     90.12913084	     -5.57019533	      2.49142631	    -48.52929780	      0.00000000	      0.00000000	      0.00000000
     14.14332714	   1152.33488890	    245.89682352	     65.68054068	     -4.67165900	      2.15808406	    -38.55593348	      0.00000000	      0.00000000	      0.00000000
     14.15919379	    876.21757844	    123.30475806	     42.92699175	     -3.77923752	      1.76873500	    -28.66646560	      0.00000000	      0.00000000	      0.00000000
     14.17506044	    630.78556371	     41.33426122	     23.32683367	     -2.99003082	      1.39869543	    -19.93937640	      0.00000000	      0.00000000	      0.00000000
     14.19092709	    446.85847317	     -4.90570814	      8.09730307	     -2.40085720	      1.12119783	    -13.34976878	      0.00000000	      0.00000000	      0.00000000
     14.20679374	    316.53992935	    -26.22254097	     -3.10533970	     -1.98951882	      0.91300178	     -8.68426896	      0.00000000	      0.00000000	      0.00000000
     14.22266039	    233.74889744	    -33.27808303	    -10.52120663	     -1.75130376	      0.74098813	     -5.71957704	      0.00000000	      0.00000000	      0.00000000
     14.23852704	    177.19980990	    -31.09579656	    -13.90457438	     -1.58912552	      0.53477557	     -3.90998010	      0.00000000	      0.00000000	      0.00000000
     14.25439370	    138.91837776	    -26.28020954	    -13.01479688	     -1.42665343	      0.30566395	     -2.89433905	      0.00000000	      0.00000000	      0.00000000
     14.27026035	    166.26221970	    -30.39580635	    -13.23103168	     -1.49287963	      0.49791546	     -3.59678420	      0.00000000	      0.00000000	      0.00000000
     14.28612700	    415.88003335	    -61.58991898	    -20.72612923	     -2.46551654	      2.30186114	    -10.11950922	      0.00000000	      0.00000000	      0.00000000
     14.30199365	   1123.87328499	   -110.52794748	    -21.06163972	     -5.06123990	      7.33178169	    -30.22717294	      0.00000000	      0.00000000	      0.00000000
     14.31786030	   2396.92858366	   -110.22894235	     14.05841366	     -9.48586202	     16.11393152	    -69.02193899	      0.00000000	      0.00000000	      0.00000000
     14.33372695	   3968.39185027	     -3.29820047	     85.82402928	    -14.95260676	     26.67549270	   -119.04786307	      0.00000000	      0.00000000	      0.00000000
     14.34959360	   5335.32876896	    166.25079572	    161.78791417	    -19.86495737	     35.67353571	   -163.66480674	      0.00000000	      0.00000000	      0.00000000
     14.36546025	   6063.23757317	    282.63806847	    207.28615836	    -22.53144269	     40.23639681	   -187.75316937	      0.00000000	      0.00000000	      0.00000000
     14.38132690	   5979.56037378	    275.66219496	    207.73471575	    -22.18108424	     39.15216844	   -185.25912783	      0.00000000	      0.00000000	      0.00000000
     14.39719355	   5180.38662896	    166.48510625	    170.52779993	    -19.17985938	     33.04974535	   -159.45498952	      0.00000000	      0.00000000	      0.00000000
     14.41306020	   3929.02120241	     29.84210123	    115.37541601	    -14.57586543	     23.90856526	   -119.31840211	      0.00000000	      0.00000000	      0.00000000
     14.42892685	   2574.57458299	    -63.84742651	     63.86472394	     -9.66634383	     14.42500937	    -76.53072623	      0.00000000	      0.00000000	      0.00000000
     14.44479351	   1449.82078213	    -90.41848968	     30.13040381	     -5.59600927	      6.98157859	    -41.78288567	      0.00000000	      0.00000000	      0.00000000
     14.46066016	    720.76663679	    -73.83146405	     14.83326310	     -2.92730190	      2.50730344	    -19.90559761	      0.00000000	      0.00000000	      0.00000000
     14.47652681	    363.33151308	    -50.33221925	      8.28660325	     -1.66513422	      0.57951125	     -9.51349928	      0.00000000	      0.00000000	      0.00000000
     14.49239346	    260.05664164	    -39.64887268	      3.40395692	     -1.41068783	      0.23371817	     -6.51261980	      0.00000000	      0.00000000	      0.00000000
     14.50826011	    287.55963039	    -42.31381443	     -2.74839750	     -1.72583232	      0.54893597	     -7.17459139	      0.00000000	      0.00000000	      0.00000000
     14.52412676	    362.56231606	    -47.56831605	     -0.93423914	     -2.00596724	      0.85631795	     -9.37403003	      0.00000000	      0.00000000	      0.00000000
     14.53999341	    447.09768660	    -48.83837028	      8.08882590	     -2.12688250	      0.94958719	    -12.18601333	      0.00000000	      0.00000000	      0.00000000
