Coordinates

Units are S.I. units (second, meters, Newtons, ...)
If the header above contains a line with 'inDegrees', this indicates whether rotational values are in degrees (yes) or radians (no).

inDegrees=no
nColumns=21
nRows=1027
DataType=double
version=3
OpenSimVersion=4.5.2-2025-05-03-6a4c6ec41
endheader
time	/jointset/ground_pelvis/pelvis_tilt/value	/jointset/ground_pelvis/pelvis_list/value	/jointset/ground_pelvis/pelvis_rotation/value	/jointset/ground_pelvis/pelvis_tx/value	/jointset/ground_pelvis/pelvis_ty/value	/jointset/ground_pelvis/pelvis_tz/value	/jointset/hip_r/hip_flexion_r/value	/jointset/hip_r/hip_adduction_r/value	/jointset/hip_r/hip_rotation_r/value	/jointset/walker_knee_r/knee_angle_r/value	/jointset/patellofemoral_r/knee_angle_r_beta/value	/jointset/ankle_r/ankle_angle_r/value	/jointset/subtalar_r/subtalar_angle_r/value	/jointset/hip_l/hip_flexion_l/value	/jointset/hip_l/hip_adduction_l/value	/jointset/hip_l/hip_rotation_l/value	/jointset/walker_knee_l/knee_angle_l/value	/jointset/patellofemoral_l/knee_angle_l_beta/value	/jointset/ankle_l/ankle_angle_l/value	/jointset/subtalar_l/subtalar_angle_l/value	/jointset/ground_pelvis/pelvis_tilt/speed	/jointset/ground_pelvis/pelvis_list/speed	/jointset/ground_pelvis/pelvis_rotation/speed	/jointset/ground_pelvis/pelvis_tx/speed	/jointset/ground_pelvis/pelvis_ty/speed	/jointset/ground_pelvis/pelvis_tz/speed	/jointset/hip_r/hip_flexion_r/speed	/jointset/hip_r/hip_adduction_r/speed	/jointset/hip_r/hip_rotation_r/speed	/jointset/walker_knee_r/knee_angle_r/speed	/jointset/patellofemoral_r/knee_angle_r_beta/speed	/jointset/ankle_r/ankle_angle_r/speed	/jointset/subtalar_r/subtalar_angle_r/speed	/jointset/hip_l/hip_flexion_l/speed	/jointset/hip_l/hip_adduction_l/speed	/jointset/hip_l/hip_rotation_l/speed	/jointset/walker_knee_l/knee_angle_l/speed	/jointset/patellofemoral_l/knee_angle_l_beta/speed	/jointset/ankle_l/ankle_angle_l/speed	/jointset/subtalar_l/subtalar_angle_l/speed
16.33332564999647	-0.03972358413708637	-0.05474239833445781	-0.1419025069411005	2.050005357106094	0.956338605650132	1.022555688686911	-0.1197620656011486	0.08915103761218847	0.01533892302628427	0.4946445063217039	0.4946445065708233	0.2680109139244921	-0.009999989551485178	0.6951454606631698	-0.1182458632251454	-0.04590589097999164	1.858858070130362	1.858858068547475	-0.06959490477182673	-0.27570470326788	0.9184791351706029	2.57259966002564	1.207509612519687	0.4440925732657756	0.629853591052097	0.0586745183770887	-9.185377884162136	-3.137725725863856	-0.3802346076435345	-7.595098828884823	-7.595098833147134	-8.981103964990504	-0.09902475073698441	2.414714051839431	2.820228012419375	-0.7558930626112983	-7.06232786320225	-7.062327881914998	1.208444976089617	-0.6790131049237179
16.33999230999647	-0.03500127567044574	-0.03690893550664071	-0.1340757469398207	2.05306850666922	0.9605095121834384	1.022931463114255	-0.1784156173245175	0.06788328129105778	0.009907741848275657	0.4447092623390169	0.444709262531579	0.2038487870673974	-0.009903411810415859	0.7110414117490238	-0.09889301941980594	-0.05180515468401641	1.809570916016699	1.809570914355173	-0.06175541994844493	-0.2798160340200929	0.4901689212765687	2.764811962996135	1.144641218111914	0.4726755218888236	0.6194059050108569	0.05294755584660201	-8.38280828306279	-3.232653902442367	-1.278403073639425	-7.344832943129168	-7.344832955104447	-10.22282478013832	0.1459309254666635	2.369353018184695	2.977025635532679	-0.9911378727946453	-7.715293075490939	-7.715293080061409	1.13939046976749	-0.5479066003694912
16.34665896999647	-0.03325863163344868	-0.01807405637728354	-0.1265756180634727	2.056278975149644	0.9645736072955107	1.023247775025783	-0.231218101647674	0.04620464049814284	-0.002039564354531111	0.3972504237901273	0.3972504238908386	0.132372044056325	-0.007874536927754715	0.726894341779834	-0.07868793720953246	-0.05881808652894799	1.756087430264103	1.756087428622547	-0.05446049912908331	-0.2829425959212176	0.0300998859704117	2.869198462882452	1.110876184809896	0.4883501372656474	0.5982810078643629	0.04098678638226368	-7.438780299079836	-3.257790047971445	-2.325673051005844	-6.853237539799779	-6.853237554505093	-11.16553950437531	0.4711154513720028	2.39474528562192	3.07289061446921	-1.090508259156548	-8.323346611406684	-8.323346600825591	1.044781647636927	-0.3862782078795567
16.35332562999646	-0.03459713126693215	0.001110456129432957	-0.1191863728852761	2.059552379854995	0.9684691463156515	1.023466412533867	-0.2774036902489208	0.02463523050702012	-0.02128410106141711	0.3538459964650011	0.3538459964719608	0.05575853100640948	-0.003587368526867488	0.7430316764624748	-0.05809138206804727	-0.0660644691708191	1.698664656962658	1.698664655440521	-0.0478760579737073	-0.2849288401427835	-0.4287675702885708	2.867503300037813	1.111910062434647	0.4916811172536156	0.5693028897562803	0.02383696063671263	-6.406737270592577	-3.198180079019476	-3.454671542451345	-6.131016126629567	-6.131016139410285	-11.75624329515296	0.8115627733261785	2.447315249568405	3.092400333377863	-1.063971193768546	-8.899159002781285	-8.899158977797391	0.9275163768931427	-0.2074770733863476
16.35999228999646	-0.03890349313685933	0.0199061679815387	-0.1116709783874453	2.062809278582389	0.9721527650929195	1.023556685290107	-0.3165640394579999	0.003761684366020194	-0.04809625966457397	0.3159737910064006	0.315973790942732	-0.02351237069351085	0.002817949398977869	0.7594893347824847	-0.03764524176543618	-0.07277518195841814	1.63747729230894	1.637477290995631	-0.04211752076424104	-0.2856835860736009	-0.8553518122417503	2.75230809091445	1.148415064348552	0.4835739821362252	0.5351183576563356	0.002673014194550431	-5.339855320879899	-3.049231808057114	-4.580894364232488	-5.197493751262586	-5.197493759404098	-11.95823203152365	1.094404614930202	2.483901261344021	3.027028937357479	-0.9346800843255179	-9.454565854695216	-9.454565817486509	0.7997657864047918	-0.01690351213360659
16.36665894999646	-0.04586930423714174	0.03756475903345034	-0.1038043253221039	2.065977213582181	0.9755975183623213	1.023495630178453	-0.3486346531057052	-0.01583735203989725	-0.08215006787476352	0.2849551030146886	0.2849551029146885	-0.1027829505834128	0.01072320971105583	0.7760279267382907	-0.0179202369827312	-0.0783740231309638	1.572627175790884	1.572627174757703	-0.03719166091847609	-0.2851174791528782	-1.22249238732018	2.528094139554433	1.216220455163103	0.4652082241435782	0.4979761420721654	-0.02138675232534719	-4.287583912371542	-2.817919727959073	-5.611508915179559	-4.080183894534428	-4.080183897286533	-11.75537077751593	1.251113566502768	2.465657253842695	2.876815222986549	-0.7368580692665168	-9.999395740975046	-9.999395694763422	0.6815633743447763	0.1905836381843956
16.37332560999645	-0.05502263574714829	0.05340592332797426	-0.09540330141781243	2.068992341904235	0.9787897140868468	1.023267230433212	-0.3738600376374897	-0.03366520977107	-0.1224997346066973	0.2619030641019578	0.2619030640008143	-0.1793663666651617	0.01909973563426556	0.7921723509956733	0.0005428301883902505	-0.08253960782120622	1.504160491423831	1.504160490717258	-0.03295393208714065	-0.2830692898262656	-1.508522606440028	2.210517684040018	1.307069063422741	0.4379799065941089	0.4595871277416172	-0.04738701562738818	-3.292732398377992	-2.521435889746848	-6.455032640925459	-2.813813162947876	-2.813813160640322	-11.15552335687427	1.228763893795895	2.361166788178965	2.650619449819174	-0.5119511196374378	-10.54033078706876	-10.54033073609137	0.5976023761574266	0.4313248096379656
16.37999226999645	-0.06576871677363835	0.06688483055778828	-0.0863501534980156	2.071800706472479	0.9817250986037638	1.022861226211408	-0.3927412670935475	-0.04936463295813511	-0.1676207521930176	0.2476793371141112	0.2476793370431218	-0.2507140792799351	0.02664240773872997	0.8072693019524612	0.01728885639785465	-0.08523661067091347	1.432092351257695	1.432092350892669	-0.02909224997297899	-0.279235743079239	-1.698402960566517	1.824059839517808	1.409841022428041	0.4034504185499794	0.4210705028520177	-0.07455106327390536	-2.38912901579528	-2.18369756196959	-7.030856115927124	-1.438798517304653	-1.4387985107253	-10.19247155432087	0.9984343604433352	2.148670726944608	2.364998332319947	-0.3033726400200004	-11.07984513129869	-11.07984508072622	0.5725825834357099	0.7310717478711246
16.38665892999645	-0.07743632290103676	0.07763979700877487	-0.07660682262303875	2.074359171811569	0.9844049854783021	1.022272112607836	-0.4059704451457526	-0.06274744970713107	-0.2155113769210374	0.2428626474208897	0.2428626474049771	-0.3145890139606192	0.03194659560938165	0.8205560248777478	0.03199276856799491	-0.08670927513792592	1.356437903554135	1.356437903509766	-0.02514502110822116	-0.273122265924498	-1.784271610020204	1.398542710742255	1.511991041009144	0.3632964104460746	0.3829906893341256	-0.1022117632129774	-1.600077283585826	-1.830708709127874	-7.277697447873834	0.0007688679465232828	0.0007688776789853413	-8.925601254462808	0.5595434000138171	1.817175006906156	2.041959338322644	-0.1505859324984105	-11.61532987746627	-11.61532983269623	0.6257127932367934	1.120490236789465
16.39332558999644	-0.08932558562054675	0.08551478468992946	-0.06621965250136563	2.076636020560271	0.9868329005656876	1.021498801852427	-0.4143581168137224	-0.07379286766982	-0.2638449240274858	0.2477321892182276	0.2477321892740185	-0.3692275848217628	0.03369911562622351	0.8312324304982504	0.04448644201561274	-0.08743572231849753	1.277248345455696	1.277248345677882	-0.02055624208254901	-0.2640321936598563	-1.765327974116159	0.9651757530967671	1.600974087988285	0.3192576924671358	0.3454700552905123	-0.1296887176012436	-0.9377935280287863	-1.485979437918455	-7.160298456277335	1.459556530830295	1.459556542380214	-7.436811141846965	-0.06027816157370462	1.36637431232842	1.706076127848569	-0.08340166875036548	-12.13850954445274	-12.13850950981955	0.7652592269634719	1.628223594972699
16.39999224999644	-0.100753230553705	0.09055583813366121	-0.05531489163437798	2.078611189148883	0.989012114625752	1.020545142296025	-0.4187600351226733	-0.08261836015972138	-0.3101595031232721	0.2622683858375503	0.2622683859726516	-0.4134712871676264	0.03085426354662777	0.8385295868066822	0.05476586522498467	-0.08804718555519647	1.19464971296828	1.194649713380934	-0.01476375337082067	-0.2511078544790684	-1.647220262022892	0.5527976816635973	1.665575216970331	0.2730806885056234	0.3083339584974125	-0.156163364582184	-0.403747562387788	-1.167030366818976	-6.673894495581665	2.893742279837677	2.893742291863368	-5.824490120449695	-0.8094226335638445	0.8057171783203301	1.381541316693363	-0.1172865888591448	-12.63519655274209	-12.63519653037513	0.9842370781265725	2.272475802034824
16.40665890999644	-0.1110926329275885	0.09298484884064534	-0.0440858084432392	2.080276107133728	0.9909441260380072	1.019421135663328	-0.4200088955520129	-0.08943297486178056	-0.3520690272228947	0.2861725043773229	0.2861725045905707	-0.4468492718304158	0.02277042849819324	0.8417701998240045	0.06297987482121782	-0.08922157218423507	1.108882088361702	1.108882088882942	-0.007309533454487306	-0.2334287973018996	-1.44111545521674	0.1849288478714278	1.697079056971851	0.2264560784136741	0.2712456537210406	-0.1806010343824019	0.01018531738495178	-0.8837074663551253	-5.846056227673714	4.263865625606183	4.263865636803543	-4.194949521470216	-1.619701621790103	0.1529763918384117	1.089654011050413	-0.250493954750526	-13.08542013682319	-13.08542012637373	1.258251397591381	3.052548611819908
16.41332556999643	-0.1198066558348754	0.09315774956122277	-0.03277285105433609	2.081633105405301	0.9926279515355806	1.018144430518768	-0.418856630478571	-0.09448642049358885	-0.3874765177714876	0.3189044998223308	0.3189045001036076	-0.469597920561438	0.009290269906030851	0.84041832554011	0.06940452021282374	-0.09156619102035911	1.020336559185573	1.02033655974243	0.002044857821415097	-0.2101619177144635	-1.162461467814764	-0.1218961169896303	1.690170861979989	0.1809523576409661	0.2338122023451897	-0.2017492861102047	0.3196982955903613	-0.6386007044365355	-4.735464319872669	5.537362923831405	5.537362932794037	-2.652304485193135	-2.415671912585153	-0.5675377143673914	0.8470566839387693	-0.4637909332121906	-13.46397723429969	-13.4639772336103	1.546207462525165	3.942040040535676
16.41999222999643	-0.1264713520054583	0.09151637137542963	-0.02163883572194549	2.082694377473494	0.9940600037738443	1.016741533758161	-0.4159329473494516	-0.09802720317188011	-0.4147680197738641	0.3597353386404984	0.3597353389698318	-0.4826117855122767	-0.009244316905524732	0.8341163919092616	0.0744085578232655	-0.09550852566958669	0.9295871077116726	0.9295871082486117	0.01321840813697245	-0.1807461244637884	-0.8295121635474001	-0.3583706577501266	1.643529535294509	0.1379487486539999	0.1956533862026135	-0.2182250686098635	0.545253540753861	-0.4292312469188552	-3.427286057878143	6.690302610454766	6.690302615657117	-1.28826765453368	-3.124677241585353	-1.326954348970095	0.6648426226254598	-0.7231576931028439	-13.74139273765705	-13.74139274382966	1.794313477307576	4.885603309402243
16.42665888999643	-0.1307896070300199	0.08854292921902499	-0.01094114952056024	2.083480499848046	0.9952342934374583	1.015248153685561	-0.4117239893254979	-0.1002789769083214	-0.4329643422434636	0.4078072521873274	0.4078072525350179	-0.4873305874708361	-0.03204327674045827	0.8227091714887649	0.07841579714581404	-0.1012145092505946	0.8374149571419441	0.837414957622634	0.02574854896438017	-0.1450817959646853	-0.4618180835175583	-0.52144210186803	1.560128121433723	0.09857056509536437	0.156430812029786	-0.228684890741547	0.7089314556006409	-0.2511691847588894	-2.025196787967968	7.707998222314556	7.707998222448095	-0.1734187360082037	-3.686413715446144	-2.093741262608988	0.5484799765100054	-0.9852699143619812	-13.88520563308342	-13.88520564337724	1.943356679273989	5.80099638279926
16.43332554999643	-0.1325949574227153	0.08472398343251053	-0.0009031717885063763	2.084018542372933	0.996142729117276	1.013708224989967	-0.4065717690711589	-0.1014382434576304	-0.4418099491733917	0.462194196036662	0.4621941963665407	-0.4855765422911465	-0.05797806914116491	0.8062556853007486	0.08186903546670489	-0.1085512540645182	0.7448235232619502	0.7448235236660854	0.03878691613382797	-0.1036857658646466	-0.07878924994082961	-0.6125141755010221	1.447133164183714	0.06363193156679579	0.1158525032348961	-0.232041100088417	0.8314245433165656	-0.1011901234895944	-0.6406586160783517	8.584482554464271	8.584482548987651	0.6488017652435352	-4.06071774638284	-2.835436690700251	0.4983089570919741	-1.205251260268293	-13.86148873585835	-13.86148874828333	1.938624527088926	6.587458071115194
16.43999220999642	-0.1318459994068036	0.08052790192501476	0.008311626269120704	2.084339840206266	0.9967754469313886	1.012171506277462	-0.4006919835694006	-0.1016913753717845	-0.4417845105140543	0.5219557662660068	0.5219557665420849	-0.4793628054352059	-0.08573365918863732	0.7850297700116659	0.0851982498048976	-0.1171068557468524	0.6530425617542508	0.6530425620713191	0.05116637505408052	-0.05776984490850694	0.3016884656763854	-0.6352752096088555	1.315166761414626	0.03359246814752215	0.07368143199266486	-0.2276637107679755	0.9296015504339606	0.02017324081162469	0.6193052494730356	9.321141150512306	9.321141140057614	1.16468512704699	-4.232278540724804	-3.520338629214143	0.5102711125626797	-1.345840414208804	-13.63657531663852	-13.63657533027056	1.741040097227019	7.140039146886688
16.44665886999642	-0.1286122152340378	0.07639648236741203	0.01661839353896994	2.084477528967545	0.9971212370410458	1.010690007525882	-0.3942047098150004	-0.1012451061133877	-0.4340326737556385	0.5861804889977388	0.5861804891921132	-0.4706965502797921	-0.1139792109938059	0.7595096366554007	0.08879394213065261	-0.1262710812228649	0.5635198885649838	0.5635198887872895	0.06153967602613479	-0.009210729445896924	0.6643729476124336	-0.5937365746179392	1.17692813184247	0.00852899324225577	0.02975306518857193	-0.2155265348031811	1.015188801413388	0.1072452513259967	1.664101604333408	9.924969408914896	9.924969395206233	1.389285367982593	-4.211472994119059	-4.119062947229651	0.5767327246171222	-1.386048238005824	-13.17908311679916	-13.17908313164432	1.337025010446445	7.367202902447715
16.45332552999642	-0.1230547086505352	0.07274693946385327	0.02401945888669972	2.084463929401822	0.9971680247547166	1.009313638269138	-0.3871683698662696	-0.1003606105805005	-0.4202200070267235	0.6540173915163655	0.6540173916142609	-0.4613996896650221	-0.1415313847279227	0.7303587990632815	0.09298663044043087	-0.1353638227237759	0.4778982966604607	0.4778982967790467	0.06857152030646839	0.03959603304527514	0.99697908088926	-0.4911991688468185	1.045625822502634	-0.01188170296584034	-0.01603339721243483	-0.1962963219082986	1.095189438227877	0.1496081824330897	2.429417561691001	10.40685105748717	10.40685104255109	1.362179374860693	-4.031390354549452	-4.605482641108008	0.6875306855137338	-1.326323096164163	-12.46234030551899	-12.46234032178791	0.7442393899726495	7.207226580669161
16.45999218999641	-0.115408529909364	0.06997630428209019	0.03060324515717936	2.084327864691108	0.9969031132708537	1.008085454785612	-0.3796046539176601	-0.09937817178066409	-0.4023349980110084	0.7246967936584674	0.7246967936562301	-0.4529668237232787	-0.167486857632075	0.698403747436147	0.09803412915086057	-0.1437796459452222	0.3979749599274842	0.397974959934124	0.07115004758966023	0.08597585427487048	1.289398628424409	-0.3305852994438379	0.9337017321788222	-0.028363512312168	-0.06377840519870229	-0.1713601201318103	1.174109649366538	0.1344877497669101	2.883340506762789	10.78006398360345	10.78006396855317	1.140703281405562	-3.741706892511607	-4.956782196854467	0.8312300345582468	-1.188023347821818	-11.46720380365026	-11.46720382075969	0.01155091213568198	6.639413700103074
16.46665884999641	-0.1059728543719433	0.06845948064653409	0.03653597133990164	2.084092080136003	0.9963128811430704	1.007037025573175	-0.3715046893780561	-0.09872097655074474	-0.3824653101300524	0.7975420257039371	0.7975420255998622	-0.446473545350814	-0.1913058999252988	0.6646129777255841	0.1041170786778381	-0.1511093497699738	0.3256408571372584	0.3256408570319959	0.06857869133854823	0.1272657522571533	1.532248362585554	-0.1159197224095093	0.8519244833626477	-0.042006010862504	-0.1136729762472234	-0.1427554802592627	1.257157070921413	0.05045153123085519	3.027891385619146	11.05904594783984	11.05904593210285	0.7918231253511016	-3.400291833444351	-5.153145278132562	0.996279701905512	-1.007236758819967	-10.18523497208353	-10.18523498812746	-0.7867047456343981	5.687903320104582
16.47332550999641	-0.09511065555527684	0.06853551768389816	0.04204812392785381	2.08377106534031	0.9953819688401416	1.006184670503295	-0.3628143873665719	-0.09887318413455327	-0.3625793040338199	0.8719735456452645	0.8719735454288776	-0.4425399403789583	-0.2128355677682648	0.6300764607195689	0.1113410602255218	-0.1572060725900278	0.2627977974364458	0.2627977972352634	0.0607135348760587	0.1611033394101872	1.715634134858477	0.1457548163082362	0.8087037288686636	-0.05417715389648189	-0.1660485681858073	-0.1129771204353176	1.353051621011727	-0.1087785076872159	2.895983086455978	11.25832520886084	11.25832519053844	0.3839058997063635	-3.06371422533286	-5.178118314232303	1.171815662202827	-0.8246922409633834	-8.622240869735405	-8.622240882015848	-1.561109651936532	4.417346461574859
16.4799921699964	-0.08325341323330998	0.07048194281444421	0.04741683803868105	2.083369635590773	0.9940924557468371	1.005527366785612	-0.3534059808966744	-0.1003353567563422	-0.344341071366962	0.9475060793353473	0.9475060789826479	-0.4413462626595391	-0.2322701021886758	0.5959777987853822	0.1197429169370622	-0.1621777002920695	0.2112510095066536	0.2112510092426693	0.04802029395053115	0.1856612931824573	1.828988446902395	0.4428339312440185	0.8095448171078702	-0.06638474467716311	-0.2213225639986329	-0.08467655185934633	1.475192960432864	-0.3414980174417401	2.544599214769305	11.39147783978495	11.39147781698182	-0.0205557786361399	-2.778171860952361	-5.02052953769369	1.34813867469258	-0.6741743343012029	-6.801987892548226	-6.801987898840046	-2.220557749608725	2.92114671235417
16.4866588299964	-0.07090233267731655	0.07448172515433019	0.05294510319740222	2.082882556485738	0.992423798540268	1.005046872299088	-0.34304880764423	-0.1035662348255017	-0.3289796943229892	1.023738761262045	1.023738760740626	-0.442691860601253	-0.2500568548573914	0.5635484484731215	0.129299366901156	-0.1663051213976418	0.1725787925649115	0.1725787922816677	0.03153885356055428	0.1997862788308082	1.862251663818223	0.7585484544859938	0.8566424843240126	-0.0801064320646183	-0.2798285805479412	-0.06030846906777351	1.640744021557606	-0.6368116754707037	2.045629615059005	11.47008070572308	11.47008067802227	-0.3705549896357449	-2.5724822351298	-4.677796032451676	1.516914368364886	-0.5724357393687967	-4.769114037453159	-4.76911403693308	-2.686048836681864	1.305317673934125
16.4933254899964	-0.05861851659595455	0.08059002615135168	0.0589386825818049	2.082295326255593	0.9903541510741444	1.004710179975933	-0.3313916153814999	-0.1089223320674397	-0.3172224353574143	1.100338622746836	1.10033862202902	-0.4460848489266299	-0.2667661378229615	0.5339992672636175	0.1399355748169107	-0.1699087008231811	0.1479906847436149	0.1479906844851568	0.01276481554384689	0.2030314119312623	1.807875371487951	1.071514071045366	0.9485925270886099	-0.09661743644691206	-0.3415833888783015	-0.04179777806819797	1.868252575629269	-0.9751772865576966	1.476160040678767	11.50279309402491	11.50279306332537	-0.6301455941348773	-2.45442471876794	-4.159103836510776	1.670920696615852	-0.5143913781964573	-2.589312246185192	-2.58931223946937	-2.901140459341489	-0.3262165015233245
16.49999214999639	-0.04699901437826948	0.08870846040311457	0.0656813229365938	2.081586035868295	0.9878632725910572	1.00447393349317	-0.3179630976546952	-0.1166065766016184	-0.3092898521790255	1.177018822671037	1.177018821749526	-0.450848459139431	-0.2829493835406821	0.5084356679098569	0.1515302262702148	-0.1732083739615716	0.1381977619259763	0.1381977617287669	-0.006518971715988756	0.1956108678105574	1.662973283598941	1.35742213473876	1.080158825466581	-0.116843434579343	-0.4060512492027114	-0.03029258512476794	2.174666412708317	-1.330529893233479	0.9098239978191816	11.4947123193419	11.49471228976808	-0.7798687360648309	-2.410887575788906	-3.487012905327545	1.803282591079698	-0.4761404320566995	-0.3454593099905546	-0.3454592986331028	-2.836296529318763	-1.879805349811954
16.50665880999639	-0.0366390208242619	0.09857401099426621	0.07340864735423375	2.080728071951589	0.9849369100686646	1.004290106000783	-0.3021931347727458	-0.1266353227653549	-0.3049422963123016	1.253513578952775	1.253513577852856	-0.456229900244735	-0.2990101254194363	0.4877678060413461	0.1639149717373191	-0.1762266326542935	0.1433202034116101	0.1433202033006618	-0.02442049408636588	0.1783221849313098	1.431284187718422	1.591695330461445	1.24213438679134	-0.1412569823906906	-0.4719431449001744	-0.02603454463213072	2.572151824427501	-1.673575638827809	0.4101187594827801	11.4470236917685	11.44702366877187	-0.8161077028291664	-2.411460913698384	-2.697428156985633	1.906660632061467	-0.4241700600061227	1.869360004781031	1.869360019048589	-2.487812784433744	-3.274128699293452
16.51332546999639	-0.02808266078092759	0.109767654108136	0.0822819776054491	2.079693340715321	0.9815722691853648	1.004112137591142	-0.2834547277108645	-0.1388293346469954	-0.3035636488496349	1.329551736334603	1.329551735118717	-0.4614987394572136	-0.3151082710457606	0.4726252672047109	0.1768699178485125	-0.1787612899567761	0.1628459896808087	0.1628459896716788	-0.03909866541478649	0.1524644635232569	1.124532250585717	1.752640595384083	1.42149740085801	-0.1698252501082698	-0.5371024191411424	-0.02835021868671867	3.065186538488151	-1.975553706586679	0.02592583132558217	11.35695081026499	11.35695079931266	-0.7486569299703639	-2.41467105247356	-1.838280432446601	1.972925712091868	-0.3263702310278906	3.959932291833605	3.959932308064224	-1.873889216756552	-4.439974156281171
16.51999212999639	-0.02176851478843085	0.1217437740583957	0.09236465791447634	2.078455672182475	0.9777837658499346	1.003900751184532	-0.2611221518215714	-0.1528291704375258	-0.3042675864326529	1.404831251159813	1.404831249923227	-0.4660245177550464	-0.3311116417753225	0.4632855305201203	0.1901186860171626	-0.180428197783747	0.1956437368364653	0.1956437369429585	-0.04889269666201058	0.1197586960943266	0.7625471963636964	1.82441566274645	1.602017150738928	-0.2020072010165186	-0.5985447420086152	-0.03575355642258059	3.648734044984813	-2.211670674436415	-0.2107793975782523	11.21809803396987	11.21809803923555	-0.5970275388753922	-2.375704345816175	-0.9666404802317662	1.993309627589874	-0.1616496422110759	5.836972235375559	5.836972254021813	-1.029513856642043	-5.319977272193225
16.52665878999638	-0.01797954502718106	0.1338768695794086	0.103604017625603	2.076994098870131	0.9736078950067508	1.003628772327945	-0.234636022643828	-0.1681304864797908	-0.3060122247164669	1.478997435962672	1.478997434820831	-0.4693273652290679	-0.3466001056969643	0.459627463073684	0.2033252391880658	-0.1807583134193954	0.2400274154212729	0.240027415664172	-0.05241622794321579	0.08226782272254793	0.3718127672209249	1.799150259483903	1.765343573004916	-0.2367927936385389	-0.652683196752074	-0.04613790396515521	4.308038362447217	-2.363546374166539	-0.2852000619855098	11.02123222367074	11.02123224685193	-0.3861558150554087	-2.254228999706813	-0.144134245362247	1.958745821544492	0.07365769903637408	7.424499412100625	7.424499434657084	-0.001201949266039781	-5.869119404451377
16.53332544999638	-0.01680774502781553	0.1455181213739062	0.1158223357890191	2.075295749309021	0.9691060274997461	1.003284439257514	-0.2035640347409392	-0.1841310054352545	-0.3077109842324462	1.55162770400392	1.551627703072874	-0.4710998378556608	-0.3609186293429949	0.4611198617909035	0.216093246427823	-0.1793222312919352	0.2938655848652049	0.2938655852755847	-0.04861913811168129	0.04230795237750459	-0.01745396330208659	1.677723548543767	1.892626547144227	-0.272778752545173	-0.6957177416908866	-0.05703345345337363	5.020106921765748	-2.420221378028647	-0.1984039043872678	10.75543261336227	10.75543265286839	-0.1421597250832939	-2.021071353052029	0.5688748351344192	1.860297686005087	0.3641800304450803	8.665669072798	8.665669100629588	1.157277626333224	-6.05704766415267
16.53999210999638	-0.01814181611629126	0.156052323921704	0.1287202573223491	2.073358126972833	0.9643642403910428	1.002872829239954	-0.1676472431419162	-0.2001794540893402	-0.3083310407457224	1.622224843318224	1.622224842692454	-0.4712021069247145	-0.3732684525538743	0.4668504489052159	0.227969120088968	-0.1758476644933968	0.3547221457265314	0.3547221463404066	-0.03682581340781024	0.002336859443730853	-0.3751475821748321	1.469143033103226	1.966595244237237	-0.3082758857888643	-0.7241192303768842	-0.06591213069367545	5.756426478248494	-2.377825075867727	0.03498728922797194	10.40947264577922	10.40947269684401	0.1113378888049775	-1.662856857928675	1.119397631435076	1.689897806793037	0.6791502666363733	9.526290319218919	9.526290352244139	2.387691745321069	-5.872471218160074
16.54665876999637	-0.0216805189706904	0.1649474879711787	0.1418946234349938	2.071190598381765	0.9594899357658988	1.002415149339678	-0.1268272421771632	-0.2156200046122045	-0.3069746147096881	1.690219751736543	1.690219751471036	-0.4696355934592554	-0.3828208254011712	0.4755924746541699	0.2384523265237051	-0.1702985087527803	0.4200112880108839	0.4200112888561946	-0.01675901537192862	-0.03519049108343968	-0.6749178856824184	1.189096246804323	1.973718874939736	-0.3414367647861677	-0.7350864297475457	-0.07051894188066317	6.485754895700451	-2.238730838096431	0.3895583302324414	9.973241725906442	9.97324178168361	0.3559492124910257	-1.184081995177757	1.466718563158115	1.441866975542051	0.979938670740238	9.995505103123838	9.995505138905902	3.628966832842591	-5.328351375151144
16.55332542999637	-0.02696676727622442	0.1717939312403959	0.154869590288764	2.068814993212434	0.9546058210545594	1.001945818964147	-0.08125727207795987	-0.2298318052974924	-0.3029412691596227	1.754983308577571	1.754983308678773	-0.4665021409760314	-0.3888356196952749	0.4858965557996747	0.2470189993380396	-0.1628973871868439	0.487147348068892	0.4871473491488811	0.01144499475094075	-0.06799808029134657	-0.8966688147401671	0.8583147602593677	1.905960167063307	-0.3703934143992541	-0.7268689813597971	-0.06919638008897233	7.17610453294424	-2.011006383660078	0.8320198152993669	9.439049221571661	9.439049274578768	0.5800927449305717	-0.6065332014913588	1.58500648068824	1.115339025228888	1.229033263985135	10.08366545842915	10.08366549205657	4.818315235645919	-4.465852331476592
16.55999208999637	-0.03343437039019299	0.1763323470211916	0.1671370899754691	2.066265263193094	0.9498422771772133	1.001507539905062	-0.03130213118288686	-0.2422661928374346	-0.2957701494388693	1.815846439295196	1.815846439721181	-0.4619568943720553	-0.3907681867440593	0.4961929706297451	0.2531629738408168	-0.1540907732390503	0.5536735731921115	0.5536735744711772	0.04722953032850708	-0.09418128163628611	-1.027920640370288	0.5008868335717918	1.761784507422725	-0.3934016030487212	-0.6989297914452346	-0.06115497022927907	7.796251441668046	-1.708215967137341	1.324331761238311	8.802779693798144	8.802779737200353	0.7793095583887064	0.03356382721991208	1.463995569701157	0.7168849001211341	1.397885294201938	9.818340762032854	9.818340786990019	5.892726339906218	-3.354952688801944
16.56665874999636	-0.04046116062028652	0.1784700875275589	0.1782010497661548	2.063586172899796	0.9453291298483961	1.001144893669791	0.02247243292396403	-0.2524825980628039	-0.2852604299621392	1.872127314145075	1.872127314813551	-0.4561630518891649	-0.3883514181546858	0.5048945736683568	0.2564518620669533	-0.1444712831380188	0.6173615751883375	0.617361576586724	0.0896243177131156	-0.1123874871422868	-1.064407885372846	0.1423904793607227	1.546265603911593	-0.4089849389908564	-0.6519652048543733	-0.04663560884928153	8.317458111331819	-1.349145409833922	1.827111478158447	8.064861256413428	8.064861285096791	0.9554162031739161	0.6900153334848458	1.108603614970933	0.262220814733985	1.47167868181114	9.23970733392008	9.239707343813665	6.791746056839171	-2.090086802209866
16.57332540999636	-0.04742417239894726	0.1782841249496851	0.187619330420212	2.060831075086142	0.9411876898216371	1.000897349073574	0.07932334483251169	-0.2601809837293033	-0.2714685484232294	1.923163994711749	1.923163995514302	-0.4492554476825584	-0.3816445758067609	0.5104951568533712	0.256588782323339	-0.1346809374956476	0.6762807380924728	0.6762807394939436	0.1372770021510539	-0.1219490202335206	-1.010136314494151	-0.1922535313322798	1.270319188972461	-0.4160620482324022	-0.5878102997240791	-0.02691836314126804	8.715681562022885	-0.9569520796556248	2.303134730240811	7.230903333423711	7.230903344751827	1.114757595600954	1.312037230799459	0.5380256763583393	-0.2239295570634549	1.45024503950653	8.396271769372154	8.396271759973356	7.462138360437471	-0.7801999227316564
16.57999206999636	-0.05375432615496667	0.1760084433223717	0.1950382490425838	2.058058952394822	0.9375236742675743	1.000792784725312	0.1383706971213471	-0.2652253436841403	-0.2546828432556514	1.968349812958578	1.968349813778303	-0.4413177800198692	-0.3710452957076064	0.5116614766238577	0.2534654578831892	-0.1253202669271895	0.7288419094045357	0.7288419106762039	0.1885212407615106	-0.1229335083158228	-0.8772391632835229	-0.4813159318447701	0.9492950130491408	-0.4140359177666164	-0.5092781060562143	-0.004159124727384398	8.974443451834526	-0.5572737360580597	2.720539349227079	6.311857965462439	6.311857959524387	1.265926879509593	1.849800473403652	-0.2151835806587457	-0.710313660909948	1.345567087216714	7.341483267282922	7.341483237960619	7.863994145586104	0.4656892194915934
16.58665872999635	-0.05898966827298925	0.1720036403758067	0.2002164582824531	2.055331052782146	0.9344213437743093	1.000842624738789	0.1986584710450341	-0.2676509370715875	-0.2353792645534765	2.00716782262772	2.007167823357105	-0.4323756454341262	-0.357266051719736	0.5073190418354192	0.2471917990783417	-0.1168812883469111	0.7738213319740372	0.7738213329912137	0.2414847110566807	-0.1160926663765501	-0.6855931254876803	-0.7089752328823657	0.6012448715507601	-0.402822188300836	-0.4199513581235255	0.01892341274002914	9.087799682344214	-0.17531392730911	3.055193118901079	5.323544292816909	5.32354427230632	1.417378230958714	2.259442504935058	-1.106226434572359	-1.163559459886767	1.177458893882595	6.131093750439437	6.131093704143639	7.976092436499112	1.553691854248505
16.59332538999635	-0.06282240353353306	0.1667098649023477	0.203037047282349	2.052707615314074	0.9319393662749387	1.001039391570478	0.2592297799874241	-0.2676507263471296	-0.2141660167462066	2.039219209088018	2.039219209645462	-0.4224046381156993	-0.341280487323681	0.4967253785954497	0.2380933599677652	-0.1097093932969702	0.8103671685914973	0.8103671692573394	0.2942218380531971	-0.1027216215447881	-0.4610966509517899	-0.8674483049297416	0.2451681708227839	-0.3827892169734924	-0.3238555164633694	0.03944697635904372	9.061291188806569	0.1673144895358126	3.29153032125871	4.285260666636398	4.285260636570521	1.575357369568918	2.507027211234266	-2.081056465100385	-1.553139912257852	0.9695368591226837	4.820418984453195	4.820418926271965	7.797531668914489	2.415912393931399
16.59999204999635	-0.06512675183955208	0.1605895328038243	0.2035086063553284	2.050245348227841	0.9301094787114486	1.001356991290166	0.3191957051636116	-0.2655423554289477	-0.1917291709820461	2.064238809378645	2.064238809722207	-0.4113503967288105	-0.324247857283313	0.4795125417841903	0.2266775334366465	-0.1039872924521528	0.8379857103986029	0.8379857106520879	0.3448410183587962	-0.08446890923901598	-0.2315824405645123	-0.9578762122829015	-0.1005078343344208	-0.3545913444083124	-0.2249443470811041	0.05477417535135874	8.908916839710084	0.4551907330288878	3.421403572711354	3.217308204769541	3.217308171884736	1.742411459299873	2.571105698962314	-3.082671577669369	-1.85566194312846	0.7466914707147709	3.460988007760379	3.4609879430851	7.344529926151613	3.014309321461828
16.60665870999635	-0.0659531286354382	0.1540681587055629	0.2017573533746323	2.047996338546553	0.9289390304070672	1.001753577245094	0.3777717385996811	-0.2617201314311194	-0.1687917890406078	2.082091262584001	2.082091262719341	-0.3991563268915206	-0.3074254601559891	0.4556790558301815	0.2135743025854009	-0.09973170806387328	0.8565046214004769	0.8565046212143869	0.3915989638081953	-0.06314080780055473	-0.02110094341191323	-0.9900806821168727	-0.4190887289031114	-0.318914144842424	-0.1264791163985262	0.062869498166771	8.646829092977541	0.6810104308401459	3.441329707263411	2.137774289404733	2.137774261010237	1.916599229039093	2.443780572388845	-4.059557919786242	-2.058238213318603	0.5335949858602469	2.097187207388283	2.097187140909455	6.644258809759273	3.339048153578105
16.61332536999634	-0.06548523385236449	0.1474792660908755	0.1980123884222356	2.046008735309411	0.9284173788736255	1.002176511951687	0.4342701824597547	-0.2565961319111024	-0.1460931537634542	2.092746000731093	2.092746000710277	-0.3857936505376749	-0.2920778771950701	0.425527492037266	0.1994571937418355	-0.09680042524995394	0.8660171021127062	0.8660171014890639	0.4329529376535985	-0.04052556973142833	0.1550308552332471	-0.9816314890351578	-0.6965612491976675	-0.2762178608611525	-0.03054097018723459	0.06256700251053202	8.287100498163682	0.8468961286977655	3.349508496875671	1.059625857242037	1.059625839685266	2.091633544208089	2.130716444747439	-4.972927711858937	-2.161025092913807	0.3528525337297512	0.7640755990903032	0.7640755350018158	5.728867032846635	3.404697791474716
16.61999202999634	-0.06397371728242462	0.1410179091646042	0.1925844692839609	2.04432874183394	0.9285243417115775	1.002568747969422	0.488061964526514	-0.2505360537471044	-0.1243834468853218	2.096237852585875	2.096237852495985	-0.3712867943724252	-0.2793878227528544	0.389567166152935	0.1849519008308807	-0.09491566986047717	0.8668175656007306	0.8668175645700309	0.4675794965081356	-0.01824443439041902	0.291996174892361	-0.956111187676114	-0.9226329495347451	-0.2266279435565708	0.06206298951252739	0.05372507427471961	7.835290699792237	0.9644994368046588	3.144461332940365	-0.01047504459687446	-0.01047504735175127	2.258132677990705	1.650716059413391	-5.799556992483762	-2.178161144421887	0.22191154930034	-0.5129402639017919	-0.5129403211294115	4.631495364171427	3.246054139855854
16.62665868999634	-0.06167162631419506	0.1347101672954838	0.1858372267283828	2.043002486261019	0.9292376125841693	1.002875817802384	0.538540204695219	-0.2438012635367786	-0.1044185149241778	2.092628243286401	2.092628243230855	-0.3557275398934347	-0.2703709574612703	0.3484160100467172	0.1705480599891639	-0.09371130240568827	0.8593409793650509	0.8593409779898125	0.4943723075512486	0.002366731958025109	0.3932167052485462	-0.9399698718163786	-1.091933529768733	-0.1700902992723336	0.151399102765913	0.03725234501061695	7.293396456163052	1.052909949953121	2.826425342471003	-1.070767311108594	-1.070767298149486	2.405632298982528	1.034902601285028	-6.529277265586569	-2.135673633362954	0.1491942766250571	-1.716771487873463	-1.716771533112381	3.38378153131305	2.912910135926132
16.63332534999633	-0.05879539008312862	0.1284085117132066	0.178150866242835	2.042076040706853	0.9305362322303348	1.003052543356744	0.5851174772868087	-0.2365125455098133	-0.08693753895885033	2.081983149784199	2.081983149862927	-0.3392752851199574	-0.2657986128216548	0.3027328418521932	0.1565365083400759	-0.09280447243404552	0.8441149894991147	0.8441149878769341	0.5124256728341753	0.0203350211556022	0.4653112488880335	-0.9580367719229543	-1.204959420113511	-0.1067476467870681	0.2376719077167816	0.01499724714212056	6.666472225030924	1.134385810860753	2.400795302422998	-2.121009944786024	-2.121009917968339	2.524613667989343	0.3250918359684621	-7.158819621817453	-2.066067797793815	0.13090210933489	-2.836240578148868	-2.836240606179652	2.014041754522574	2.463091191069851
16.63999200999633	-0.05552170553631837	0.1218179650751261	0.1698824309473047	2.041592737359062	0.9323990007600074	1.003068563837449	0.6272686465736695	-0.2286454177449947	-0.07261739746073363	2.064374936646473	2.06437493693949	-0.3221455008999894	-0.2661350377015239	0.2531942440634515	0.1429888973232204	-0.09188196445687824	0.8217303114740508	0.8217303097339435	0.5210094602384492	0.03507879125629251	0.5128201220090371	-1.029080485447064	-1.26804443956764	-0.03733416143694825	0.3205062405705597	-0.01049351330289953	5.968963803930386	1.229504278921226	1.881209007832803	-3.159070864990971	-3.159070828358237	2.607949172152902	-0.4289679289596294	-7.685129532220528	-2.001484069607083	0.1500159004005731	-3.863072732050952	-3.863072738933815	0.5467035876967956	1.954988019023598
16.64665866999633	-0.05201369020089644	0.1145468495444126	0.1613308413857654	2.041588390622447	0.9347991160063491	1.0029118957764	0.664604515427155	-0.2200542249216737	-0.06201440928145645	2.039901583216999	2.039901583771	-0.3045911722181124	-0.2714969754460401	0.2005098176551607	0.1297800834262716	-0.09078360728034535	0.792832070797692	0.7928320690862933	0.5195475125194329	0.04639103239648215	0.5349851295362644	-1.16308048938773	-1.291950503382957	0.03661580823951824	0.398572630831435	-0.03631518887384654	5.227200821184405	1.353618683542028	1.290000063631503	-4.179331999420955	-4.179331958880272	2.651557939270872	-1.173507347947986	-8.100883430049805	-1.968095044997109	0.1781830022135357	-4.788699714652882	-4.788699699272386	-0.9959683393107552	1.44191386558122
16.65332532999632	-0.04845857165753699	0.1061682713517012	0.1527149499632495	2.042085978307085	0.9376978408947305	1.00259008243916	0.6969454827403551	-0.2105131785360612	-0.05551324432637805	2.008708853903803	2.008708854721199	-0.2868822608726658	-0.2816421839170553	0.1454560289152076	0.1166392950463556	-0.0895648564497773	0.7581314176255293	0.7581314160845596	0.50761537547254	0.05439537987465489	0.5255502849621061	-1.36068288741376	-1.289520441783668	0.1128118130923059	0.4696688871928631	-0.05957362615290233	4.476952826783942	1.515307351984311	0.6557497546117308	-5.173334892744565	-5.173334855525961	2.654378344710571	-1.855406694404183	-8.393480479323989	-1.983145525660939	0.1798847827051737	-5.601502678776323	-5.601502643796855	-2.589965188243448	0.9695538214791335
16.65999198999632	-0.04509712150603947	0.09627997246961836	0.1441674381936107	2.043091292919185	0.9410400081706377	1.002129032531129	0.7243653617944473	-0.199762292960745	-0.05329756106840879	1.971002982889065	1.971002983922983	-0.2692869690690842	-0.2959896964989524	0.0889050342582484	0.1032128497391549	-0.0885275713667759	0.7184317611438359	0.718431759884835	0.4849669385401793	0.05949256599263574	0.4753083914572767	-1.614052061833507	-1.2734531027447	0.1884360901178596	0.5311617204259443	-0.07769704324751536	3.757252822281288	1.716325705385807	0.009558111192419332	-6.131774865312263	-6.13177483870893	2.617901110829543	-2.42691498557942	-8.547451411122431	-2.054288397759208	0.1176084235531647	-6.285313958742861	-6.285313910417687	-4.205137260585131	0.5752533358272783
16.66665864999632	-0.04223035680943305	0.08455655860269388	0.1357409852055755	2.044590412209178	0.9447531046223664	1.001570118313671	0.747188305578233	-0.1875507940901559	-0.05534469165566847	1.927048964467884	1.927048965627097	-0.2520566778309695	-0.3136692958584842	0.0318294629067555	0.08912659725727798	-0.08821530491962505	0.6746593055020935	0.6746593045862923	0.4515861866171194	0.06230155024969904	0.3760681241324546	-1.908200476667917	-1.25487522271339	0.2604420232145656	0.5805792733012627	-0.08864460313492226	3.102985053359177	1.952296836836097	-0.618236074917642	-7.046649059215034	-7.046649048987408	2.545603042483112	-2.849530429646746	-8.548917367398044	-2.180159079311289	-0.04270495386673532	-6.819640149958513	-6.819640096851894	-5.802327048926676	0.2868024217298826
16.67332530999632	-0.04020061205640184	0.07079226631608458	0.1274219795095646	2.046549128216845	0.9487501617987724	1.000966176952339	0.7659400095598878	-0.1736751963474947	-0.06143875974385317	1.877156354736546	1.877156355900114	-0.2354136869066897	-0.3335911690500186	-0.02472288629642191	0.07404286074493942	-0.0893705863225636	0.6278868179762246	0.6278868174049754	0.4077498759443117	0.06358718794157021	0.2240579384518596	-2.222493906257358	-1.242392264786246	0.3258324653243301	0.6161273276201502	-0.09103516355126558	2.538972731420889	2.213537628951795	-1.20030719496287	-7.912770777587649	-7.912770786741955	2.442752550537594	-3.096009916454831	-8.389773572981571	-2.351349551100968	-0.3256011306301562	-7.181395753615774	-7.18139570481463	-7.3330222102837	0.1195703115034141
16.67999196999631	-0.03935550002568262	0.05493298289752228	0.1191505917990285	2.04891405111128	0.9529354325162858	1.000376798664287	0.7812688468718473	-0.1580123346713147	-0.07119594703462843	1.821657922314543	1.82165792335229	-0.2195381269866926	-0.3545209368634342	-0.07967676837100758	0.05771059607969301	-0.09284916219434275	0.5793420738191463	0.5793420735367858	0.3540840063357026	0.06416445917316568	0.02159709200552452	-2.532382558835264	-1.241094821234571	0.3818826037026125	0.636999007332122	-0.08423524364750776	2.076925647502356	2.485747251149709	-1.713782550162195	-8.728394458487839	-8.728394486766033	2.31684684638864	-3.149983009335048	-8.070146870651557	-2.551473222814722	-0.7393977061908641	-7.347689694611775	-7.347689657810834	-8.741493939047198	0.072583641156929
16.68665862999631	-0.04000619128766562	0.03709575921863141	0.1108471040646239	2.051615032591166	0.9572113799770038	0.9998632036243236	0.7938557239811718	-0.1405473809895979	-0.08409706585697772	1.760886927526422	1.760886928320338	-0.2045508346788835	-0.3751459793310939	-0.1319877950636944	0.04000722984698397	-0.09949239054188776	0.5303957687405848	0.530395768650026	0.2915998348322391	0.06477927626075769	-0.2227790272925622	-2.811435494621601	-1.25178684304379	0.426316238558845	0.6434609154766658	-0.06838584579732246	1.715007746089678	2.750940065978912	-2.140984909528262	-9.495028047355733	-9.495028091460437	2.178258009536129	-3.003966531330726	-7.599181125742036	-2.758708150084626	-1.27085155981819	-7.299078176204317	-7.299078155858143	-9.96860735835217	0.1259360338601519
16.69332528999631	-0.04238859631959657	0.01757358252518111	0.102440809697997	2.054568655424708	0.9614855467282607	0.9994832744360505	0.8043282089500923	-0.1213929785168308	-0.09952255818593655	1.695157886323069	1.695157886785104	-0.1904934856741749	-0.3941274993519263	-0.1807014038521821	0.02096702009628157	-0.109976656000346	0.4825282263737995	0.4825282263625641	0.2217018497977192	0.0659840456507297	-0.4952504142482633	-3.033724467912604	-1.271056526911066	0.4574505285518441	0.6367358470152702	-0.04432577884567034	1.439467707968558	2.989239460766849	-2.469419714754094	-10.21660585731913	-10.21660591172859	2.040294004352129	-2.65730504532142	-6.994496713142847	-2.948328976922377	-1.883913676023122	-7.022571726507723	-7.022571722700098	-10.95630868476007	0.2420579296918308
16.6999919499963	-0.04663305903341996	-0.003176454330129289	0.0938953900033606	2.057682580524632	0.9656761103677216	0.9992873975958099	0.8131905409423422	-0.100793730750964	-0.1167853442333634	1.624754422836598	1.624754422920004	-0.1773114067859337	-0.410141343954337	-0.2250050037168532	0.0007899951464552642	-0.1246698671705052	0.4372778376587854	0.4372778376277999	0.146164188806903	0.06803490370581353	-0.7782407685370709	-3.176359702889243	-1.292199398393764	0.4743066924045761	0.6187408748106933	-0.0134366186979258	1.227611291432129	3.181363169255582	-2.691205850080951	-10.89822679989508	-10.89822685791328	1.918338047064591	-2.114913898800001	-6.2808010208353	-3.09585494141707	-2.522919095616361	-6.514107807479087	-6.514107816313004	-11.6526523641101	0.370672999276068
16.7066586099963	-0.05274467856012269	-0.02456125991299379	0.08522661877040447	2.060860482017788	0.9697154751338846	0.9993153970859603	0.8207751575433712	-0.07911406991844909	-0.1351591785616446	1.549926346425616	1.549926346129572	-0.1648447482396094	-0.4219134279989035	-0.2642698933989358	-0.02016958067014397	-0.1435202750463041	0.3961749803544365	0.3961749802389586	0.06707168133128552	0.07082962310280677	-1.052006797543116	-3.221772810137737	-1.306519937290931	0.4766734542305934	0.5917745064071558	0.02251921213761905	1.051145504564038	3.310996903225027	-2.802361129396362	-11.54468481484205	-11.54468486952032	1.828239968331004	-1.386908852079214	-5.488278995808952	-3.179919277594656	-3.118898823405847	-5.780379753308614	-5.780379768771255	-12.01727505490702	0.4558663389245322
16.7133252699963	-0.0605939645607155	-0.04589342663536088	0.07651098453507704	2.064007217724535	0.9735517784133985	0.9995944583906164	0.8272164558761222	-0.05681208764071927	-0.1539025123721481	1.470896707635768	1.47089670700453	-0.1528324642898738	-0.428255701175679	-0.2980818050967039	-0.0414316782474239	-0.1659958445175979	0.360667441317945	0.3606674410937634	-0.01327387287519538	0.07389854448264756	-1.296182613004677	-3.159480816016775	-1.304741256597429	0.4651132914534805	0.5582080073965938	0.0615329026696891	0.8795152372657412	3.366609692792736	-2.802184370665821	-12.15896656360837	-12.15896660849219	1.784087300135073	-0.4891592784243709	-4.650713527258273	-3.184467522237866	-3.598397926018215	-4.839433714064994	-4.83943373037903	-12.02609204168877	0.4449402682375489
16.71999192999629	-0.06991834561886141	-0.06644253169577249	0.06788465222538245	2.067033846294072	0.9771484038703921	1.000137875217351	0.8324472141686213	-0.03440330506873553	-0.1722786445677786	1.387878686124161	1.387878685241297	-0.1409329998194802	-0.4281089938247175	-0.3262568477246878	-0.06243116874550703	-0.191089102555432	0.3320472900368039	0.3320472897122529	-0.09247304812565002	0.07645869415835037	-1.491521811221522	-2.987177916174391	-1.278485999028325	0.4409108469425002	0.5201998066251208	0.1014637354309139	0.683381445657224	3.342644031027671	-2.692758779113189	-12.74081746115387	-12.74081749103439	1.795462932748758	0.55523053175799	-3.802961809582128	-3.100185943829409	-3.894057215757267	-3.719647243426696	-3.719647256810963	-11.67425061701629	0.2981627862508834
16.72665858999629	-0.08033595653849988	-0.0854909397439531	0.05953262928556941	2.069862125137038	0.9804817614258498	1.000944516175235	0.836218353583537	-0.01241898608064704	-0.1895730646830853	1.301101586978003	1.301101585955573	-0.1287638239092381	-0.4205977765540623	-0.3488389652959866	-0.08256478105923319	-0.217392988508364	0.3113888926313593	0.3113888922312983	-0.1681626223296049	0.07752825958691399	-1.62179309456812	-2.710965833117343	-1.221698784961633	0.4059702075804814	0.4794691668897183	0.1401407371561302	0.438071324997448	3.239929303905971	-2.478626435359038	-13.28545808045233	-13.28545809210294	1.864640773594338	1.713940150652683	-2.978031645950148	-2.924925031968542	-3.954934400071239	-2.457526677215594	-2.457526686492346	-10.97761702677339	-0.00338879198372841
16.73332524999629	-0.09137153158037843	-0.1023880576477881	0.05166928565392876	2.072428178789231	0.9835378845905791	1.001998925382138	0.8381401027289477	0.008635361163165545	-0.2051096794252761	1.210844614887237	1.210844613850508	-0.1159579028621972	-0.4050976148519862	-0.3660784298593588	-0.1012374336824107	-0.2432386088855837	0.2995036506025259	0.2995036501521262	-0.2381554101350884	0.07608013903324225	-1.675441898883669	-2.344673812452003	-1.131779760887856	0.3626704327031197	0.4371737525819456	0.1754513588216247	0.1264506960966643	3.065216907535829	-2.166816464798003	-13.78255336765399	-13.78255336042606	1.984430621407749	2.943755646779759	-2.204427944195574	-2.663132167848956	-3.754475036580835	-1.094986563970247	-1.094986570074457	-9.973078538131968	-0.4541672234420185
16.73999190999628	-0.1024914760145325	-0.1165975141328278	0.04451282411582919	2.0746850968293	0.986308622760524	1.003271983693267	0.8377389683362828	0.02831583441246808	-0.2182689769049772	1.117476354205482	1.117476353274149	-0.1022304577735628	-0.3813102518672403	-0.3783951955847734	-0.1179025431309911	-0.2668744823702688	0.2969131858393596	0.2969131853533777	-0.3005775912712799	0.07120396015016775	-1.646637306735065	-1.908462137019802	-1.010244392475985	0.3136912456667393	0.3939105890435515	0.2054229233866886	-0.2592592365313318	2.829996762257298	-1.767418892719403	-14.21555074966454	-14.21555072593415	2.137346566397137	4.190105764831237	-1.504332015185805	-2.324693554156857	-3.294835754895216	0.3233941432959159	0.3233941383596911	-8.717438122147557	-1.025271178122719
16.74665856999628	-0.113143571953562	-0.1277334570854162	0.03825709798878549	2.076604314736177	0.988788197568087	1.00472213785895	0.8345229986393395	0.04626665391975952	-0.2285118441607299	1.021497130920216	1.021497130187793	-0.08744549654093851	-0.3493355764893636	-0.3863333775438192	-0.132094023791297	-0.2866610454241817	0.3038401367280459	0.3038401362072177	-0.3539929396762257	0.0622460737261479	-1.535636835490613	-1.427004465165655	-0.862866488917363	0.2618251839765046	0.3498165834202754	0.2283156689085031	-0.7167797280701962	2.548951305317377	-1.294674767732864	-14.56149486568704	-14.56149483086666	2.296557807309619	5.388554868026752	-0.8927299437525366	-1.923681842274304	-2.607170247509587	1.752910702500614	1.752910696684787	-7.284506973925266	-1.669736007892195
16.75332522999628	-0.1227973635817506	-0.1355841940780367	0.03304397970303803	2.078175742953137	0.9909706100458047	1.006297352243408	0.8280487383943136	0.06223641742430291	-0.235411569480184	0.9235806927071661	0.9235806922233083	-0.07166961637912343	-0.3097260459773014	-0.3905121982214107	-0.1434509826778431	-0.3012554001410788	0.3202156894464406	0.3202156888801048	-0.3975000410563649	0.04890512376280523	-1.348650785191406	-0.9275620991319025	-0.6993839502646308	0.2097920652107356	0.3047142605174238	0.2427486643174711	-1.233932202122747	2.238497382926142	-0.7682786085739597	-14.7914420802511	-14.79144204183639	2.428746418696028	6.468593007626482	-0.3771657600283356	-1.477490250640043	-1.748599720279891	3.151268314346958	3.151268306414777	-5.759819987951395	-2.330196331538549
16.75999188999628	-0.1309818546252028	-0.1401234995186608	0.02893911196763631	2.079406693478875	0.992848070593547	1.007938001081422	0.8179842344296672	0.0760859090811172	-0.2386942671678715	0.824610656285526	0.8246106560478546	-0.05520093612253654	-0.2635082493811731	-0.3915771213924731	-0.1517387443540873	-0.3097672841553291	0.3457043539927009	0.3457043533669284	-0.4307861382391297	0.03127420582716169	-1.097117608524454	-0.4382530407815389	-0.5327614840535431	0.1600647018099813	0.2582717425186798	0.2478512580298958	-1.789724821426447	1.915737686632307	-0.214552710275366	-14.87164600294027	-14.871645968722	2.498646771152343	7.359666331573499	0.04189796114352906	-1.006596412036274	-0.7966637603829405	4.481170315520896	4.481170305864072	-4.233041178886578	-2.947024660233686
16.76665854999627	-0.1373155026845772	-0.1415114772150176	0.02591437813534853	2.08031969749725	0.9944105429909141	1.009580744431654	0.8041606608807823	0.08779030076562717	-0.2382857601993668	0.72570608177463	0.7257060817327841	-0.0385635874398617	-0.2121578875598213	-0.3901566473713748	-0.15686964893828	-0.3118694654936152	0.3797445945785655	0.3797445938894081	-0.4541264979077491	0.00982925934356231	-0.7960952714179954	0.013353662444843	-0.3779010706281213	0.1147117349982855	0.2101761316722821	0.2433987041748012	-2.356708525266689	1.597793899574057	0.3328700815851781	-14.76564393121946	-14.76564390756899	2.474716232657753	7.999001654381606	0.3696878708052586	-0.5346254288728993	0.1588666291710575	5.712352786209088	5.712352777493527	-2.789551010614242	-3.466306736787092
16.77332520999627	-0.1415232051187134	-0.1400867401520077	0.02384059976089327	2.080949360170942	0.9956464109574905	1.011163141839419	0.7866046940585684	0.09743749417088235	-0.2343595055779738	0.6282301679293163	0.6282301679981831	-0.02246319564888098	-0.1575196030190946	-0.3868314851357307	-0.1589232476505334	-0.3078447452341997	0.4215994716407777	0.4215994709094394	-0.4683302131133277	-0.01463452069982175	-0.4621018460882665	0.4014849636570983	-0.2499147334131804	0.07526818652795507	0.1602862869958039	0.2298935737618689	-2.904248032418315	1.301273312845871	0.8335729486179749	-14.43721589200987	-14.43721588287106	2.334966107387619	8.340049894394053	0.6149426024876434	-0.08798290579451286	1.026678306697148	6.82252432140086	6.822524318362202	-1.503021172230539	-3.847336334064064
16.77999186999627	-0.1434397834118585	-0.136349994898822	0.02249207935006671	2.081338482356176	0.9965438956643216	1.012628580951902	0.7655490430802824	0.1052227921283317	-0.2273742915178588	0.533776702644208	0.5337767027219951	-0.007706682397575915	-0.1016740306634763	-0.3821176721648062	-0.158161008914616	-0.298557566245421	0.4704103206542414	0.4704103199364609	-0.4746422496330959	-0.04111127504273129	-0.1113935973187282	0.7035347186392703	-0.1623767022965325	0.04264701297993994	0.1086943927605033	0.2085773869332658	-3.401617420839461	1.041680837018149	1.243035961728016	-13.8540696189492	-13.85406962530576	2.071594928177015	8.359486084403034	0.788119988713764	0.3054715025001238	1.725457763430895	7.797424862741005	7.797424870654082	-0.4297496093496238	-4.068333073708935
16.78665852999626	-0.1430054622398014	-0.1309376797979822	0.02156177439731411	2.081533757720837	0.9970924737540017	1.013931021106742	0.7414251714095001	0.1114391651121047	-0.2180855165779363	0.4441301177704075	0.4441301177597897	0.00490122281368434	-0.04676906445559221	-0.3764576952829564	-0.1550287562413278	-0.2853524742780972	0.5252493285849532	0.5252493279673243	-0.4746138316830537	-0.06852077865383288	0.2406839220770402	0.9016752937306638	-0.1259192822688232	0.01710139952361716	0.05566628487187351	0.18136077929574	-3.820208215877213	0.8326650164621732	1.51785632178659	-12.99202501709728	-12.99202503658047	1.69318348256728	8.06066603115036	0.9008411905372711	0.618749389493231	2.193931230574099	8.630496763614772	8.630496786122199	0.3951599030085413	-4.128845377316452
16.79332518999626	-0.1402601838108617	-0.1245842979151657	0.0206843857114639	2.081581405180635	0.9972836011825964	1.015038951982644	0.7148439983199952	0.1164615135548681	-0.2075149401973274	0.3611970896673806	0.3611970894979074	0.01466633645335732	0.005157211486456759	-0.3702115441415991	-0.1501410159337848	-0.2698955293928288	0.5851691007560108	0.585169100339711	-0.469954055923806	-0.09584802225723307	0.5794861404300712	0.9846066588481127	-0.1472577285413526	-0.001756112993932569	0.001504695452498998	0.1506555996877919	-4.135001866862296	0.684942462455735	1.622773048951276	-11.83927198843135	-11.83927201545059	1.22395571395833	7.472659838847973	0.9663583359908006	0.8287722653484233	2.397757434546248	9.322296220779222	9.322296258509226	0.9595514446202948	-4.04836516391681
16.79999184999626	-0.1353405127495745	-0.118073280908369	0.01946465020165205	2.081523127905712	0.997110476558235	1.015937900109918	0.6865679492462982	0.1207224140815484	-0.1968718640726241	0.2869113144813887	0.2869113141275424	0.02109950732987975	0.05233363391980969	-0.3636433228736711	-0.144243985978517	-0.2539823754756816	0.6492470466450011	0.6492470465253348	-0.46237749479846	-0.1222624674130814	0.8906016364844976	0.9491963985875016	-0.2285987337036962	-0.01487471794861026	-0.05359014860455951	0.119110432899559	-4.3257578669271	0.6048322006304465	1.537918629954256	-10.40003893869228	-10.40003896565862	0.7004764337475597	6.645400499693533	1.000290937585994	0.9196500049242361	2.332574403799081	9.879504553141848	9.879504603832528	1.273651038477165	-3.861769975870264
16.80665850999625	-0.1284789972073521	-0.1121783285552283	0.0175082709486775	2.081392789607566	0.9965670464807682	1.016630950789461	0.6574751419820796	0.1246775901268797	-0.1874299782227392	0.2231177028158199	0.2231177023035328	0.02398296636528236	0.09337096292048951	-0.3569040248998421	-0.1381577523351175	-0.2393394669214274	0.7166216566253042	0.7166216568754484	-0.4534630060334806	-0.147199125024875	1.159663344198754	0.8016178387677573	-0.3674520335057355	-0.02363049021654085	-0.1095995391056742	0.08928947197181998	-4.378225746114834	0.5927389817905137	1.264611884231615	-8.697002969750299	-8.697002989207682	0.1666858245198315	5.642107308098802	1.020938041200778	0.8854900236730844	2.023000263531992	10.31349240138023	10.31349246080405	1.367336777014414	-3.612602734960909
16.81332516999625	-0.1200025886191114	-0.1076002487551049	0.01445255168152702	2.08121414048942	0.9956468171317918	1.017137125304411	0.6285147467699626	0.1287631733941617	-0.1803741915909312	0.1714459642739268	0.1714459636721472	0.02340102875654021	0.1273207487331446	-0.3500152274910037	-0.1327037255886479	-0.2274449996557114	0.7865179884469627	0.7865179891069166	-0.4445365225812944	-0.1703906049028385	1.372881822681978	0.5574794911935577	-0.556917390632647	-0.02964970735867179	-0.1666597307733919	0.06336233015375944	-4.285610593653279	0.642347306856844	0.82839330914041	-6.772012736049138	-6.772012742873956	-0.3316455640691706	4.530242987021653	1.048615917393807	0.7318873688920826	1.517805072471385	10.63854431673652	10.63854437916817	1.285780039868712	-3.345272824889232
16.81999182999625	-0.110324610733399	-0.1049072834454497	0.009993473894584352	2.080999787533195	0.994342236520237	1.017487919146546	0.600651833774164	0.1333518703466529	-0.1766389183896131	0.133185767547587	0.1331857669472495	0.01973488811608358	0.1536732296379461	-0.3428609836975577	-0.1286282508115855	-0.2193925835975522	0.8582607166447028	0.8582607177106607	-0.4365865495834253	-0.1918469958721309	1.51841147702078	0.2406381556085327	-0.7864571999217216	-0.03461808611995201	-0.2249206292333503	0.04287257334435646	-4.050181940368429	0.7411529567212056	0.2784390336076731	-4.68484361101818	-4.684843603892134	-0.7519772340205242	3.372575677215645	1.103911142157959	0.4755439053750492	0.882123693489266	10.86994445532554	10.86994451329298	1.084093452650453	-3.097435854262006
16.82665848999624	-0.09992632817017541	-0.1044872644665857	0.003906262125959918	2.080751375344394	0.9926452710375455	1.017722698863222	0.5748033258289424	0.138717083368615	-0.1767638380440232	0.1091776754750221	0.1091776749621562	0.01362777127195343	0.1723017725628437	-0.3351930553329402	-0.1265347457263384	-0.2158125241190309	0.9312747510008712	0.9312747524134297	-0.4302171616469396	-0.2117896445322348	1.587952422702689	-0.1190832940510478	-1.043050407737344	-0.04011511673852668	-0.2843421230391698	0.02863210771725205	-3.684132224592977	0.8722373123000821	-0.3171366130785066	-2.509660939202267	-2.509660920826497	-1.058718935026837	2.220451345579753	1.20561608042168	0.1421778618505641	0.1882596062885003	11.02221449536636	11.02221453979103	0.8215042917862315	-2.894036460269296
16.83332514999624	-0.08932948541846297	-0.1065171496656219	-0.00394244375341412	2.080460694204901	0.9905493208204977	1.017883857953713	0.5517736156850928	0.1450112994925655	-0.1807943720082671	0.09973544628401391	0.0997354459164123	0.00593092724537398	0.183375128385526	-0.3266479559341804	-0.1268336674094689	-0.216854070891706	1.005075394125721	1.005075395763557	-0.4256403097414089	-0.2305544898177019	1.577755935507407	-0.4887433102431482	-1.312512892741145	-0.04750470884825311	-0.3445077093521497	0.02075269841627576	-3.208736808144894	1.016662513955761	-0.8798738829042603	-0.3292210868276751	-0.3292210626465322	-1.225258715626361	1.111053030965797	1.369371401461997	-0.2366163556891041	-0.49312802643443	11.10776873027832	11.10776875205102	0.5554602141704421	-2.744283294645022
16.83999180999624	-0.07906479364890873	-0.1109523509621734	-0.01359100314530812	2.08011131403472	0.9880521854101992	1.018012559050475	0.5322011301714067	0.1522609662009744	-0.1882490036206475	0.1046121552933012	0.1046121550895274	-0.002358991620181796	0.1872656479817701	-0.3167699969956335	-0.1297152331090241	-0.222221213276314	1.079251200265376	1.079251201953698	-0.4227060880814211	-0.2484861700865734	1.488879809981468	-0.8353359579971226	-1.580707321829709	-0.057884592281161	-0.4044990275532901	0.01878148415374651	-2.652062061422355	1.155956112423444	-1.332118998484831	1.772249651746033	1.77224967580843	-1.234614696121858	0.06880455873462019	1.607154269384876	-0.6269819664824167	-1.100118395786306	11.13606679703258	11.13606678969779	0.3362645247281443	-2.641850283811414
16.84665846999624	-0.06964023541830566	-0.1175365668599899	-0.0249862415543591	2.079680415169232	0.9851596173574235	1.018145558387564	0.5165222079986208	0.1603771278963705	-0.198163974941225	0.123014403129395	0.1230144030728842	-0.01016401409039791	0.1844776553538604	-0.3050363945578296	-0.1351467180155625	-0.2312482622415261	1.153442746880672	1.153442748417751	-0.4209646657835632	-0.2658422691550523	1.327036100543671	-1.128848364305129	-1.834424496109079	-0.07207358091205188	-0.4628485504905639	0.02187944487638593	-2.046206663004654	1.274278332586049	-1.60875338233273	3.71616226898622	3.716162288575927	-1.079313795722591	-0.8902089716994612	1.927093192563691	-0.9964922251340449	-1.584330041477255	11.11322911623225	11.1132290784982	0.2030758235618796	-2.567538693603597
16.85332512999623	-0.06151143459295874	-0.1258311398650667	-0.03799147826432051	2.07914064735646	0.9818888494398037	1.018313200309444	0.5049533784387203	0.1691780339137145	-0.2092127989984269	0.15366120311538	0.1536612031685918	-0.01638671052332895	0.1756115490265812	-0.2908832318915815	-0.1428933318847598	-0.2429995578571244	1.227320317310429	1.227320318506864	-0.4197487957996194	-0.2827207014197043	1.10210884604816	-1.34499410016058	-2.061872293215634	-0.09061207755137327	-0.5175999640481349	0.02898595670962377	-1.424576436260834	1.35976128462394	-1.667597912679505	5.435743213539874	5.435743226745899	-0.7608904137063416	-1.75220240137618	2.33339591847684	-1.317438754037417	-1.913374492775938	11.04208807648446	11.04208801337752	0.1817470831078609	-2.493428666474862
16.85999178999623	-0.05505629781047574	-0.1352605273156766	-0.05239663170512299	2.078461999823276	0.9782713352503178	1.018538347349035	0.4974906600814972	0.1784169891194274	-0.2198850116664928	0.1948787022231407	0.194878702343002	-0.01996828208710395	0.1613678842727662	-0.2737318289138405	-0.1525581491556456	-0.2563782486113048	1.300563056424793	1.300563057143988	-0.4182653699740551	-0.2990182695417981	0.8273973527943969	-1.467266291445707	-2.252824073840325	-0.1137551875123236	-0.5664785658382945	0.03892971173828906	-0.8196222623660374	1.40474221036602	-1.496394816646424	6.88043668236904	6.880436689279708	-0.2893213166096466	-2.500196150001625	2.82624038881734	-1.569178308916673	-2.071177260276345	10.92253958551658	10.92253950753832	0.2841582769759543	-2.388038118963422
16.86665844999623	-0.05055468384382059	-0.1451685660141095	-0.06792849185863499	2.077613782340923	0.9743541289509432	1.018835812670703	0.4939202691557795	0.1878086046588619	-0.2286940043673168	0.2447156171774479	0.2447156173248371	-0.01994372447497695	0.1425784574270714	-0.2530170950348699	-0.1636334196706729	-0.2702311712588845	1.372840751288411	1.372840751474989	-0.4156883508101097	-0.3144261715298751	0.5189117389360289	-1.48809568060488	-2.398547504418894	-0.1414451865933613	-0.6071184042112923	0.05046829059697162	-0.2617676734435488	1.405114961938761	-1.114284832572471	8.017609196415552	8.017609197910669	0.3172485842607812	-3.111795766886733	3.401243395090611	-1.73915587820738	-2.056565978403967	10.75194235439421	10.75194227486104	0.5083884090230235	-2.22216286067879
16.87332510999622	-0.04817262680619198	-0.154879031286665	-0.08426034458747311	2.076566855273699	0.9701996913578272	1.01921186798112	0.4938327531524949	0.1970488012063578	-0.2343745505747519	0.3010609277020123	0.3010609278432657	-0.01549591436737671	0.1202379870510075	-0.2282204628922858	-0.1755538818447132	-0.2834399916485039	1.443798184479862	1.443798184167121	-0.411248305868544	-0.3284644616746908	0.1946387594991311	-1.408959575929283	-2.491720107589112	-0.1732665003605546	-0.6373044260060787	0.0622787743646339	0.2207123093102431	1.359156176934254	-0.5673826014228323	8.831669374645934	8.83166937137678	1.032647735890234	-3.561126905069588	4.048735775571696	-1.822496070438597	-1.880659479192241	10.52550924230554	10.52550917394443	0.839600198858743	-1.974520722796324
16.87999176999622	-0.04795274519407704	-0.1637534062489314	-0.1010215148501164	2.075296169585612	0.9658840696466167	1.01966367730386	0.4966378928136986	0.2058262603070823	-0.2360356200436769	0.3617503500650295	0.3617503501693794	-0.006007259245726185	0.09551297067703481	-0.1989062895791603	-0.1877434677621186	-0.2949927334384199	1.513042530952387	1.513042530247996	-0.4043127798810966	-0.3405499760542065	-0.1266111575329542	-1.239473579249524	-2.526504005800752	-0.208401269526298	-0.6552141496579283	0.07295477593562211	0.6019518057584565	1.266220829651435	0.07982334753463972	9.321796079605502	9.321796071836339	1.823384634804793	-3.823409026402547	4.753521946068753	-1.820542603011069	-1.563712129696338	10.23685621185569	10.23685616383055	1.25195448500923	-1.635953834369069
16.88665842999622	-0.04981326505277174	-0.1712402637976521	-0.1178079508878152	2.073783546117691	0.9614935959135866	1.020178872256723	0.5015827916944032	0.2138265589858686	-0.2332482877710807	0.4246557293221038	0.4246557293604504	0.008896462043849611	0.06971608226165643	-0.164758200235501	-0.1996510713349485	-0.3040343564580597	1.58013513375419	1.580135132809247	-0.3944501319601562	-0.35008499903049	-0.4265327079917726	-0.9958714350408646	-2.498768639349623	-0.2456047645717472	-0.659608311032211	0.08105731918418971	0.8591220030677281	1.125975981979353	0.7550053856796188	9.499164490514925	9.49916447856234	2.650280541960993	-3.880527354175932	5.49504954191947	-1.739188996185923	-1.132084988188985	9.878754371200444	9.87875434715048	1.711627009891704	-1.211375383225494
16.89332508999621	-0.05355491882419648	-0.1769136857851625	-0.1341945842320629	2.072020511362186	0.9571206601448108	1.020735705206524	0.507774146628132	0.2207345494629435	-0.2260621489282449	0.4877552768481235	0.4877552767945397	0.02931561221806304	0.04424295340321796	-0.1256142406760465	-0.2107764737267682	-0.3098988842433303	1.644588663086106	1.64458866205549	-0.3814704357561525	-0.3565508512091036	-0.688310320560494	-0.699271982632978	-2.406398531895588	-0.2832151103440156	-0.6499122126741732	0.08523821173163604	0.9730220559017015	0.9386666265059587	1.388624532322218	9.384035201057479	9.384035185560597	3.47077578602775	-3.72656435457395	6.247572124322279	-1.587648396099707	-0.6157823284419399	9.443973457057766	9.443973454521586	2.180600406134893	-0.7193189900534267
16.89999174999621	-0.05887315900413945	-0.180499568012165	-0.1497500933602112	2.070010924649064	0.9528593247335457	1.021304253539616	0.5142045488985607	0.2262415066569573	-0.2149552488813467	0.5491852680385415	0.5491852678720998	0.05506279267621487	0.02047588522200195	-0.08150053715423286	-0.2206896797931585	-0.3121273320153207	1.705869958496302	1.705869957500937	-0.3654397654965463	-0.3595912247853724	-0.8972730177687636	-0.3737580859677115	-2.249713575207153	-0.3192072898815264	-0.6261865879666506	0.08442852849438763	0.9287643037818947	0.7061866161563848	1.922981271777273	9.003198211820889	9.003198193603147	4.241549655288508	-3.371925086778287	6.980519435914863	-1.377664000346486	-0.04664501251282849	8.926135533700286	8.926135545297557	2.620781868973222	-0.1893898959254094
16.90665840999621	-0.06537438005201049	-0.1818882313805938	-0.1640547729878169	2.067773088321827	0.9488014027831544	1.02184900219139	0.5197845365620671	0.2300603025750438	-0.2007328371641592	0.607277063063867	0.6072770627694717	0.08566666892599975	-0.000331320887035126	-0.03266042283010932	-0.2290456526639373	-0.3104753505769926	1.763408481801916	1.763408480904342	-0.3466671590637821	-0.3590730527025983	-1.041470609961618	-0.04419152439991861	-2.03195429835493	-0.3512939315504041	-0.5890240069443865	0.07805457684698176	0.7168223924438855	0.4333047913979745	2.318346933082994	8.388143630727495	8.388143610746555	4.921169233983246	-2.844717762812385	7.659546714344259	-1.122876224030414	0.542973982295223	8.320537585450925	8.32053760157968	2.998012762033084	0.3418185987364777
16.9133250699962	-0.07259599096840731	-0.1811318705492877	-0.1767212070629994	2.065341041998629	0.9450333736664095	1.022332781638218	0.5233824812006673	0.2319476034139994	-0.1843969286163377	0.6605840241738176	0.6605840237443719	0.1203926328330348	-0.01716719800951372	0.02042637763244881	-0.2355948290268673	-0.3049127382530965	1.816610044167155	1.816610043367682	-0.3256663202804252	-0.355116872286926	-1.112253304140852	0.2661145344593738	-1.759587746648171	-0.377068093573768	-0.5394068105671266	0.06621668492732458	0.3342763523527554	0.1284656820665758	2.55555678177977	7.573795020508393	7.573795000321687	5.47243134571367	-2.188998716625306	8.248481170812958	-0.8381711321034236	1.121383982816914	7.624904983608668	7.624904995745247	3.285573830848385	0.8356798545657018
16.9199917299962	-0.08003023608054677	-0.1784266845609888	-0.1874156820394121	2.062764789194448	0.9416342900393861	1.022721587401616	0.5238723179532001	0.2317289009038934	-0.1670099927003899	0.7079006762689559	0.7079006757116025	0.1582771390462985	-0.02935557333938241	0.07704038410878235	-0.2401889250737663	-0.2956148477757937	1.864875176129368	1.864875175383265	-0.3030967279071371	-0.3480932837265778	-1.10479550453248	0.5376209449436333	-1.442201734429914	-0.3941789075362317	-0.4785558592312734	0.04976575662602702	-0.214155348856353	-0.1962023124820785	2.635281127167064	6.597382311906451	6.597382294302218	5.864081738301511	-1.460401227182182	8.712074887152554	-0.5388989854257689	1.658831659003698	6.840015534140887	6.840015537674021	3.466786193720041	1.256611799953618
16.9266583899962	-0.08715077792938848	-0.1740812070458503	-0.1958774514347744	2.060109280917039	0.9386746703418631	1.02298945706643	0.520186119282654	0.2293205834282869	-0.1495721703986227	0.7482739333071096	0.7482739326518253	0.1981709732493649	-0.03661333907037024	0.1362387428334893	-0.2427807800640479	-0.2829452745668999	1.907620874825611	1.907620874074696	-0.2796917073219555	-0.3385876756564491	-1.018355467401241	0.7564365246958672	-1.091984539197919	-0.4005259609117029	-0.4077881580081689	0.03024112611386106	-0.9157733261511838	-0.525776215659408	2.574885863712959	5.497157910897928	5.497157899833543	6.07176949104444	-0.7201379872604952	9.019059746137177	-0.2398542549023154	2.128802908643115	5.970061456575033	5.970061452127396	3.536240841157217	1.576356396566019
16.9333250499962	-0.09343950968848889	-0.1684739915167706	-0.2019335360290287	2.057452095743841	0.936216275957492	1.023122465144571	0.5113656550390721	0.2247434920140911	-0.1329242866081801	0.7810049581544172	0.7810049574584741	0.2387864265952574	-0.03906608034306104	0.1968910767242907	-0.2434165852510719	-0.2674304722038848	1.944303499289182	1.944303498495099	-0.2561840110554408	-0.3273415142190615	-0.8560776754274304	0.9156007344668087	-0.722928947609715	-0.3944522788684038	-0.3283972833708638	0.009671205406570758	-1.750553863429116	-0.844159798014351	2.404001483411605	4.310875355693232	4.310875355130451	6.078283835059625	-0.02854938791706518	9.144851324138891	0.04597243216429597	2.509110811688147	5.022621023840147	5.022621016418051	3.499287847547198	1.776636433942757
16.93999170999619	-0.09841117720192079	-0.1620051443113875	-0.2055075906919618	2.054879896128506	0.9343125052643411	1.023121014205912	0.496607162755856	0.21812397062911	-0.1176825452772625	0.8056404953693037	0.8056404947116904	0.2787440473177593	-0.03722198106879311	0.2577318802025138	-0.2422193952503331	-0.2497280053919079	1.974440284154016	1.974440283319617	-0.2332401110967901	-0.3151817209301657	-0.6246448342107944	1.015642671355141	-0.3498580509605266	-0.3749156129962611	-0.2415986448124969	-0.009730925592478921	-2.69237187812041	-1.136174596190161	2.159517212960441	3.074208115494358	3.074208127723492	5.873217402808443	0.5608441763474246	9.07389249506911	0.3087371671495922	2.782739015635015	4.008306149676797	4.008306146151181	3.370060020829115	1.850164304575628
16.94665836999619	-0.1016374928585553	-0.1550463596024113	-0.2066218499790717	2.052483852581335	0.9330087342463735	1.022999891063124	0.4752993966889804	0.2096799963782101	-0.1042078587929977	0.8219546659896434	0.8219546654556898	0.3166157052711716	-0.03190907052384908	0.3174294463010974	-0.2393637334505295	-0.2305894274380739	1.997628178100479	1.997628177272925	-0.2114096149659081	-0.3029463289621983	-0.3346078614403392	1.064493816227333	0.01266260634188218	-0.3416250705384205	-0.1486106765963114	-0.02592303936148254	-3.709592525175853	-1.389904810029392	1.880216089164406	1.819551073632096	1.819551098177409	5.452229142394373	1.006355557009879	8.802397852402494	0.5430473937426978	2.938646703177918	2.940361282521885	2.940361288931404	3.169117004185575	1.800931255786767
16.95332502999619	-0.1027765533371343	-0.1478936072152973	-0.2053917819781105	2.050354312163978	0.9323416228801398	1.02278597694098	0.4470614138042046	0.1996919583371874	-0.09261138576389036	0.8299250006595718	0.8299250003221259	0.3509620814754347	-0.02418293577528217	0.3746747234136802	-0.235042346485474	-0.2108177071821269	2.01356030768302	2.01356030694215	-0.1910893934635746	-0.2914088947799157	-0.0015400517728896	1.076748426561905	0.3513959445395684	-0.2951273584742064	-0.05087156130273372	-0.03736913103948212	-4.764668689651176	-1.598841911981127	1.601376378078829	0.5754969443470903	0.575496978043893	4.816164062802699	1.281901067777678	8.341397116983876	0.7489356377067092	2.972568359138737	1.834337817644674	1.834337837614225	2.921379964732838	1.64423300068655
16.95999168999618	-0.1016093184192842	-0.1407277739299043	-0.2020141584405705	2.048575139085955	0.9323368794535473	1.022514000719114	0.4117824201176707	0.188462090128196	-0.08279399279269689	0.8297067658758537	0.8297067657800794	0.3803648920713152	-0.01521501032368208	0.4282862145883536	-0.2294291041464071	-0.1912202671681962	2.022039838077988	2.022039837518799	-0.1725022172599966	-0.281206336080234	0.3532871361499517	1.071956905836899	0.6553110493177505	-0.2368136343792104	0.04974434707098117	-0.04327991033058771	-5.814274322356487	-1.763002582750926	1.350145608275891	-0.6332136428247682	-0.6332136049426782	3.970427770418344	1.378964175139922	7.718088604500854	0.9319475380393818	2.887454369833425	0.7075734412956086	0.707573475785672	2.653656739421991	1.405363376112476
16.96665834999618	-0.09807516132339297	-0.1335903552888769	-0.1967501923894298	2.04721833868047	0.9330059955468025	1.02222114674328	0.369654399960133	0.1762714658228071	-0.07451201909738378	0.8216077645202762	0.8216077646750588	0.4034569256023478	-0.006174476028294165	0.4773129481283014	-0.2226452628600909	-0.172561236772081	2.022988892670524	2.022988892386479	-0.1556953341777104	-0.2727828178843366	0.7039477755398382	1.071855413272741	0.9161870556775437	-0.1688267628015531	0.1508470053033037	-0.04371222994276058	-6.811424543576788	-1.888533004602059	1.142320319749707	-1.785508517334026	-1.785508481021525	2.92500608807217	1.30660108739613	6.973809116458895	1.102050781950812	2.693253016230672	-0.4217792155737757	-0.4217791679205632	2.391160421285948	1.116115969273459
16.97332500999618	-0.09229501903361077	-0.1263798611639393	-0.1899053288935571	2.046339607994863	0.9343429693525021	1.021941478657046	0.32118477908416	0.1633439457566682	-0.06745985283593871	0.806065375111546	0.8060653754876674	0.4189548410350966	0.001884998718074117	0.5211137144807907	-0.2147361596647881	-0.1555170017055255	2.016449833893116	2.016449833961903	-0.1405633450078394	-0.2663618608799058	1.022393796717998	1.097042614320892	1.12904021170933	-0.0938806014633513	0.2495995389399256	-0.03952831063278928	-7.709141309189404	-1.98611912732914	0.9804773942156606	-2.863463249126782	-2.863463219858688	1.695267328556169	1.09011329235623	6.159201226912774	1.271687163225282	2.40619973139236	-1.536017980290925	-1.536017922784018	2.153953860697561	0.810107614612233
16.97999166999617	-0.08457528782036287	-0.1188702647909223	-0.1818063892247114	2.045975288419906	0.936321844944114	1.021701028422158	0.2671829929688428	0.1498231401897769	-0.06136085707221485	0.7836284770366321	0.7836284775730487	0.425699437083891	0.008126603073774613	0.5593993234951424	-0.2056622692669784	-0.1406371690867163	2.00257803973356	2.002578040205917	-0.126891266230045	-0.2619490363829383	1.281560649988394	1.163788713343666	1.292500267068298	-0.01502720672805367	0.3428869960021945	-0.03224190994913697	-8.464442783923644	-2.068737507152783	0.8533690921969207	-3.851371092120679	-3.851371073727176	0.3033409637959888	0.7687874415223352	5.328199584932955	1.453484278954241	2.04794088958678	-2.61913408631607	-2.619134023575945	1.954581634054947	0.5184584972162225
16.98665832999617	-0.07539107105247299	-0.1107488846604761	-0.1727764979379414	2.046140917589877	0.9388956093284554	1.02151420961293	0.2087217058152696	0.1357657885834178	-0.0560569435595347	0.7549463945851856	0.7549463952043667	0.4227057804136829	0.01201240188908376	0.5922343402925468	-0.1953056873657234	-0.1283117068852282	1.981626982687418	1.981626983582021	-0.1144085766477322	-0.259360670248354	1.458360927515745	1.281461828756437	1.409067705836811	0.06458231388623716	0.4275497229403719	-0.02377933950777608	-9.041857750270683	-2.149007999277934	0.7370424632080255	-4.734617579874111	-4.734617573330556	-1.220393860583619	0.3922368814097882	4.532052322612339	1.65795560469478	1.644536271865168	-3.657862854513606	-3.657862791327839	1.797094683523293	0.2663062029022368
16.99332498999617	-0.06535139989567884	-0.1016683894834804	-0.1631093307445178	2.046831276929783	0.9419967573452912	1.021382022912616	0.1470777925397196	0.121153486060874	-0.05158341502783249	0.7207651887673259	0.7207651893957867	0.4092221317940075	0.01335476227074681	0.6200016625195239	-0.1834913717780778	-0.118745664459545	1.953927162042606	1.953927163348663	-0.1028460339716091	-0.2582730828730176	1.536008747139011	1.450913290083126	1.48502155954368	0.1419017529647542	0.5006425061140073	-0.01618734749553506	-9.415891660636472	-2.236398027429241	0.5981786458803622	-5.498642636092858	-5.498642639270424	-2.836237426669369	0.01486636368862213	3.814295794235754	1.891410489883456	1.225146974794542	-4.642464364465408	-4.642464304774043	1.677163234863499	0.07015834555720026
16.99999164999616	-0.05515239453687119	-0.09130575869072793	-0.1530455793739056	2.048021617392701	0.945539540788445	1.021292254413653	0.08366151053977555	0.1059222598840859	-0.04821436315693586	0.6819299531385467	0.6819299537252064	0.3847935340522144	0.01232549801059817	0.6433387816911803	-0.1700209517551477	-0.1119440994496777	1.919860950874806	1.919860952559109	-0.09198810738138621	-0.2582856306385971	1.505280505923252	1.664021579187668	1.529842325267789	0.2141382367025217	0.5596742370866491	-0.01133697186530691	-9.572085173688656	-2.334757481347116	0.3994992011903348	-6.128212621999921	-6.128212630520426	-4.494883607547401	-0.311130912584361	3.207354899863228	2.154315854473049	0.8202801134325151	-5.567156171089811	-5.567156117680558	1.583317363895428	-0.06349728602107925
17.00665830999616	-0.04552547166948767	-0.07942040189434398	-0.1427547638841024	2.049669698879239	0.9494236794900262	1.021221502376435	0.01994282268485869	0.09000592715223163	-0.0464670842544016	0.6393902916932147	0.6393902922194925	0.3493241745071115	0.009416402506171118	0.6630571174853321	-0.1547152989812743	-0.1077101269123528	1.879835850819149	1.879835852833438	-0.08171280688691752	-0.2589872501170063	1.364801827335537	1.904382891316072	1.555201500964387	0.2788504375115106	0.6028061550933751	-0.01067961282750992	-9.506907253818362	-2.440733899246595	0.1065096279845268	-6.607235337475535	-6.60723534626328	-6.138092899773579	-0.5431488332219574	2.730807220927013	2.440338090112141	0.4596176061966293	-6.43015877655003	-6.430158731181948	1.499497674705483	-0.1377940861308956
17.01332496999616	-0.03718549576279524	-0.06590423609878247	-0.1323250110206685	2.051718368147581	0.9535392725083256	1.021138548478946	-0.04261968872969867	0.07338584813002717	-0.04705955906407887	0.5942046034726846	0.5942046039508877	0.303131764930736	0.005352810937056859	0.6800537914703988	-0.1374607914678367	-0.105658728508442	1.834258614747131	1.834258617034144	-0.07201046475881845	-0.2600140055630557	1.120871257888935	2.149007062038371	1.573588892563833	0.3340151218591559	0.6290155931508866	-0.01509090648209998	-9.227210851130668	-2.543495685278843	-0.3053205693188313	-6.919324315009083	-6.919324320207267	-7.700429733861036	-0.6546784237615846	2.390735300390671	2.736212024341413	0.1694622788180996	-7.233404530651423	-7.233404494337833	1.408753000609346	-0.1632177328005598
17.01999162999616	-0.030780563680646	-0.05081752452736083	-0.1217630086701345	2.054098517235054	0.9577726834573892	1.021008445032752	-0.1026462282579413	0.05613743084710966	-0.05082161169153737	0.5475381330310075	0.5475381334898133	0.2469866401195704	0.0009701049909923606	0.6952213425399564	-0.118253339107958	-0.1052485994016049	1.783512207852259	1.783512210348605	-0.06297559449791607	-0.2610862193394061	0.7871534365151055	2.370868017703057	1.59665833248453	0.378076115329144	0.6382199847452236	-0.02481272203590962	-8.749677464769224	-2.626004641272643	-0.8440660904644769	-7.049066885866599	-7.049066886679221	-9.112105619314171	-0.6397082211364201	2.17974755520214	3.022570501041575	-0.0300730664028823	-7.981984567941966	-7.981984541676896	1.297489767352907	-0.1538375274676663
17.02665828999615	-0.02684481784670225	-0.03440537945150863	-0.1110051867542325	2.05673232293793	0.9620129984140992	1.020796651491762	-0.1588986803549058	0.03846300255983832	-0.05856932781384653	0.5006511358859432	0.500651136346329	0.1821284558004141	-0.002928880146068769	0.7093605271565249	-0.0972332302234501	-0.1058323365314283	1.727937322668489	1.727937325301219	-0.0547710494654628	-0.2620172154362979	0.3840038648518002	2.542110570698095	1.633582634012106	0.4099799234777093	0.6313149263148422	-0.03949673254116759	-8.099922549558014	-2.667795126824403	-1.497093298096833	-6.983652537649963	-6.983652537188084	-10.3028285880128	-0.5138994752637304	2.077978851976665	3.275885423468373	-0.1276469854675414	-8.683327626463745	-8.683327612282273	1.159365898879066	-0.1226867028299318
17.03332494999615	-0.02575799328940573	-0.01709161565412603	-0.09993869302554426	2.05953668452737	0.9661583253084635	1.020472557509888	-0.2103351195424628	0.02070224022779319	-0.07096262261742926	0.4548760075464326	0.4548760079976368	0.1102543750694808	-0.005711825193424942	0.7231043080947234	-0.07470344193265843	-0.1067212760077835	1.667820379343114	1.667820382020625	-0.04757011816662481	-0.2626907811806383	-0.06289629200518598	2.637567012346595	1.689816017325596	0.4291999406974822	0.6100861067997082	-0.05834129792899102	-7.310850315651153	-2.648819531451525	-2.230411195173632	-6.714512074957249	-6.714512079329495	-11.20647474145222	-0.3120105542283525	2.055461613510647	3.471439033668146	-0.1224154051231442	-9.346074274046511	-9.346074275484657	0.9978724365727862	-0.07715392340177001
17.03999160999615	-0.02771614312490432	0.0005505692457615639	-0.08842866101056521	2.062426784997845	0.9701211115383308	1.020011877756849	-0.2561511140854941	0.003315558953748557	-0.08837156313780771	0.4115840038124807	0.4115840041994625	0.03347396569779531	-0.007026073038558209	0.7368616285444624	-0.05112597133973541	-0.1072579512182998	1.603389964475117	1.603389967079154	-0.04148771817598855	-0.2630105475367729	-0.524474911255597	2.638107834182019	1.766450614531625	0.4357486196361025	0.5770093742819831	-0.0802845539323855	-6.420400054768102	-2.553562297739318	-2.991879371034472	-6.238778030920206	-6.238778046826939	-11.76635911506745	-0.08196681293691853	2.075593277457782	3.586837411097723	-0.02456480152710997	-9.978684595531785	-9.978684616813178	0.8269512264814249	-0.01531672899435584
17.04665826999614	-0.03271622614916891	0.01784829662399022	-0.07634784690151084	2.065319675238719	0.9738318797165131	1.019397724071702	-0.2958050516100526	-0.01315821180510016	-0.1107748297996557	0.372143208603508	0.3721432088325501	-0.04577210367552216	-0.006860134740038219	0.750786236627822	-0.02709486339826908	-0.1068878375938066	1.534823176277546	1.534823178664033	-0.03651474622562401	-0.2628303704351684	-0.9704453822770253	2.533325402889963	1.86013785139207	0.4301707541770284	0.5349836323587909	-0.1041989928248662	-5.469058746566549	-2.374487856992351	-3.717452623423206	-5.560424806251538	-5.560424838155988	-11.94074925985317	0.1232651998161281	2.099089495424876	3.605372162004665	0.145445549154322	-10.58787632757487	-10.58787637191367	0.6694245054936565	0.07597286591895346
17.05332492999614	-0.04055539556034176	0.03409314859363535	-0.0636050742787667	2.068137730924452	0.9772410746546591	1.018620511811212	-0.329026765335561	-0.02816265544213637	-0.1377065512614848	0.3378703709164772	0.3378703708775472	-0.1248294601292338	-0.005547948386058353	0.7647721427006828	-0.003289116496309498	-0.105221604762673	1.462262639148653	1.462262641160313	-0.03246992346826064	-0.26187950459229	-1.371518393906116	2.323121120624588	1.963518988878516	0.4135113653826118	0.4870373665736256	-0.1290403885012051	-4.497361082283055	-2.114038794152619	-4.339238327642745	-4.690946891991618	-4.69094694011962	-11.70807373772824	0.2544549875983118	2.087960833433277	3.51860618300283	0.3589762816815387	-11.17700579497261	-11.17700586286676	0.5533663563173168	0.2206610914066715
17.05999158999614	-0.05084487785937893	0.04861141077066211	-0.05016916132796528	2.070811804009865	0.9803189599348165	1.017677099882015	-0.3558097075913599	-0.04119177594011635	-0.1682594615176213	0.3099800573448332	0.3099800569417307	-0.2009792098297238	-0.00371691126615116	0.7784748224649227	0.01958784469261203	-0.1020790751339746	1.385844144287612	1.385844145776323	-0.02898143976279686	-0.2596992578757435	-1.701554346492916	2.017919346712186	2.06614886822187	0.387256023079789	0.4360422578095574	-0.1539270173940492	-3.543463934265688	-1.784756120533395	-4.79413858174916	-3.649473613309768	-3.649473673413788	-11.07112301591788	0.2739477465046478	2.009217611740287	3.327770617648704	0.5825785037496742	-11.74452413219622	-11.74452422026632	0.5069037340204131	0.4504666387990738
17.06665824999613	-0.06303768987371756	0.06083096939589402	-0.03608511444551223	2.073283881452312	0.9830537188832211	1.016569639059908	-0.3763874770845855	-0.05185248104683236	-0.2011444741617019	0.2895350340129391	0.2895350331887149	-0.2716096158477856	-0.002190537953479899	0.7913554513830654	0.04087356876201396	-0.09750717268605885	1.305733845096187	1.305733845950636	-0.02550632227393205	-0.2556081950592291	-1.939528487325983	1.637466861524465	2.155878732956682	0.3532425147240023	0.3844667860424651	-0.1781494710310123	-2.640911134799953	-1.407546513601796	-5.031956537689659	-2.462287739705885	-2.46228780462536	-10.05947020796938	0.1612555959236752	1.838016371882827	3.04382711805595	0.7823505618108453	-12.28269102718122	-12.28269112777141	0.5522489128753347	0.7993951624713556
17.07332490999613	-0.07646801816017949	0.07033611598336122	-0.02148000126267751	2.075509059564384	0.9854481525702725	1.015304553860475	-0.3911969110319797	-0.05991061686847035	-0.2347996721389037	0.2774017068089323	0.277401705557638	-0.3343960648348873	-0.001863801936093013	0.8027430472212197	0.06000812334005182	-0.09176723881682403	1.222172484679559	1.222172484852374	-0.02138953144584794	-0.2487108457801309	-2.071001627134182	1.20847061459971	2.220526607782046	0.3135442812263195	0.3342080458465477	-0.2011232559866824	-1.816903381759263	-1.00859875726685	-5.021956792572394	-1.161802985451357	-1.161803047412584	-8.729445181375786	-0.0844348655223803	1.55980219722899	2.686277284844961	0.9286341287245771	-12.77679611980318	-12.77679622159033	0.6999156634710134	1.296288986322479
17.07999156999613	-0.09039794286219792	0.0769039705786087	-0.006557506423051691	2.077456661308235	0.9875155890771595	1.013891976733865	-0.4008321299908262	-0.06531412739143894	-0.2675355494785215	0.2742140352262964	0.2742140335909324	-0.3874715000557882	-0.00357303643142066	0.8119065082033331	0.07658413431705646	-0.08529233145423046	1.135522456010909	1.135522455537504	-0.0159580236213392	-0.2379600151252498	-2.088838416505657	0.7615276523759948	2.249556596123702	0.270331416288543	0.2865236172708205	-0.2223052256433207	-1.091322358992683	-0.615743665165423	-4.757075199189498	0.2149564130442541	0.214956360782927	-7.16125950029476	-0.4451399031450844	1.171120751147214	2.280949583940378	1.000177840305218	-13.20511686779058	-13.20511695768775	0.944207644787649	1.95642010254877
17.08665822999613	-0.104066668859536	0.08051943288388649	0.008418097314088475	2.079110385678245	0.9892756295937913	1.012345764288777	-0.4059942255632987	-0.06819228463018223	-0.2976992118680015	0.2803493056177523	0.280349303681347	-0.4295679210062338	-0.007982264774132422	0.818128023294774	0.09037959428816236	-0.07862074430211845	1.046312343212218	1.046312342213108	-0.008637451753717929	-0.2222739814312557	-1.993284545235947	0.3278326622493075	2.235546009840189	0.2257219001798862	0.2420451105096621	-0.241109195198168	-0.4763482802917236	-0.2550315668613554	-4.255360602025787	1.628393320464289	1.628393283177677	-5.453227947545622	-0.8880219175788485	0.6792828197744827	1.857109113543392	0.9869971131820459	-13.53972687347854	-13.53972693956768	1.261109749229369	2.773730642071766
17.09332488999612	-0.1167387038635666	0.08136876452683145	0.02314655659957921	2.080467479205713	0.990750172414164	1.010683979835255	-0.4074397823217715	-0.06883457425448157	-0.3238385970079581	0.295918949292779	0.2959189471690337	-0.4601107540497024	-0.01550362286186343	0.8207713601996085	0.1013703009383077	-0.0723164857588334	0.9552730941849727	0.9552730928480628	0.0009273017380099039	-0.2006983585037939	-1.791583545182333	-0.06386223594934609	2.175259134089312	0.1816398603534821	0.2008447118755985	-0.2568547171336807	0.02350785962780556	0.05186387411829241	-3.558531926999217	3.038770189483415	3.03877017111497	-3.713531522935103	-1.371486467666807	0.101193223780926	1.44430838573693	0.8913412360534154	-13.74820386037914	-13.74820389475876	1.609316966829497	3.715467223381398
17.09999154999612	-0.1277479237451179	0.07981492111819539	0.0373215739581816	2.081537030005743	0.9919600168925771	1.008929554280479	-0.4059312508807221	-0.06765608532556952	-0.3448474805613713	0.3207759499131992	0.3207759477374278	-0.4792527410733963	-0.02626238561659828	0.8193398645039993	0.1097215974975519	-0.06689071229312066	0.8633598411088509	0.8633598396563131	0.0127695092552375	-0.172591426492917	-1.497120098456814	-0.3896280922300426	2.070148724764651	0.1396962784783713	0.1625405153000146	-0.2687666145862319	0.410858887611015	0.2890717091959032	-2.727675790099676	4.408685313868645	4.408685316898657	-2.050509247970533	-1.852276700421283	-0.538549782188768	1.069392468955757	0.7264140006488418	-13.79620865354613	-13.79620865398826	1.934573965799337	4.720743841745374
17.10665820999612	-0.1365344929953817	0.07635985124116747	0.05066198624766278	2.082337572639533	0.9929222441846925	1.007110756533104	-0.4021927237960811	-0.06515727735881498	-0.3600729819750584	0.3545378563683572	0.3545378542863566	-0.4878417052743246	-0.0401096188061129	0.8135199170465387	0.1157616904065929	-0.06273896763035137	0.7717542081021547	0.7717542067510994	0.02653746499155778	-0.1378023009545083	-1.12816331939714	-0.6318723379008984	1.926231479126288	0.101102970539157	0.1264193873738678	-0.2760333094822995	0.6943920504774926	0.4468207208469489	-1.836384012123626	5.705228104021741	5.705228129046375	-0.5627452348464528	-2.292496765947027	-1.210056497402833	0.7540213985256425	0.5129794464061916	-13.6507013240715	-13.65070129425585	2.177112404685636	5.704301978772631
17.11332486999611	-0.1426725250645176	0.07159974410737099	0.06294011658071144	2.08289425169519	0.9936484055690862	1.005261092296967	-0.3968739263861104	-0.06188479548293366	-0.3693707360611053	0.3966224148360248	0.3966224129904685	-0.4873250504861772	-0.05667844349202383	0.8032076296918313	0.1199409276847724	-0.06010661016346516	0.6818441906449692	0.6818441895706905	0.04148940563244648	-0.09680487144645887	-0.7063585428946368	-0.779940136487881	1.753366280179225	0.06662724701903693	0.0915541297801144	-0.2779164227967897	0.8874735540060162	0.5208751791474311	-0.9620787441560902	6.901582160803948	6.90158220627092	0.6698014210464474	-2.665476468283422	-1.880736507567243	0.5129647107065629	0.2744133847261307	-13.28337698783559	-13.28337693636907	2.281441961462406	6.566006477831296
