PennationAngle
version=1
nRows=51
nColumns=5
inDegrees=no

This analysis gathers basic information about muscles during a simulation (e.g., forces, tendon lengths, moment arms, etc).
Units are S.I. units (second, meters, Newtons, ...)
If the header above contains a line with 'inDegrees', this indicates whether rotational values are in degrees (yes) or radians (no).

endheader
time	recfem_r	vaslat_r	vasint_r	vasmed_r
     14.91999334	      0.17672830	      0.24160488	      0.05941802	      0.39501679
     14.93639332	      0.18501888	      0.25458792	      0.06245600	      0.41450902
     14.95279331	      0.19257908	      0.26708930	      0.06533178	      0.43298872
     14.96919329	      0.19733423	      0.27634890	      0.06745960	      0.44665157
     14.98559327	      0.19778872	      0.28000021	      0.06830400	      0.45206016
     15.00199326	      0.19375244	      0.27727728	      0.06767388	      0.44802507
     15.01839324	      0.18603778	      0.26902434	      0.06577564	      0.43584097
     15.03479323	      0.17566838	      0.25691927	      0.06299468	      0.41796910
     15.05119321	      0.16363317	      0.24265730	      0.05966697	      0.39661250
     15.06759319	      0.15146251	      0.22798917	      0.05615107	      0.37412180
     15.08399318	      0.14063925	      0.21410591	      0.05272238	      0.35225614
     15.10039316	      0.13232512	      0.20203466	      0.04964397	      0.33268962
     15.11679314	      0.12747406	      0.19311112	      0.04727343	      0.31779063
     15.13319313	      0.12561525	      0.18710550	      0.04560626	      0.30748794
     15.14959311	      0.12551723	      0.18298095	      0.04455807	      0.30114366
     15.16599309	      0.12503800	      0.17991398	      0.04383886	      0.29659809
     15.18239308	      0.12291828	      0.17764619	      0.04329958	      0.29315895
     15.19879306	      0.12015714	      0.17622911	      0.04295849	      0.29097163
     15.21519304	      0.11854508	      0.17561221	      0.04280902	      0.29001089
     15.23159303	      0.11949755	      0.17557087	      0.04279898	      0.28994633
     15.24799301	      0.12419095	      0.17587904	      0.04287374	      0.29042706
     15.26439300	      0.13381306	      0.17647792	      0.04301861	      0.29135771
     15.28079298	      0.14847642	      0.17749378	      0.04326305	      0.29292507
     15.29719296	      0.16558572	      0.17909867	      0.04364587	      0.29537047
     15.31359295	      0.18052690	      0.18136216	      0.04417954	      0.29875634
     15.32999293	      0.19074859	      0.18433184	      0.04488280	      0.30312653
     15.34639291	      0.19787840	      0.18825769	      0.04592516	      0.30943794
     15.36279290	      0.20495707	      0.19370712	      0.04743545	      0.31880203
     15.37919288	      0.21378737	      0.20117379	      0.04941967	      0.33127200
     15.39559286	      0.22478180	      0.21070002	      0.05186462	      0.34678883
     15.41199285	      0.23603253	      0.22144494	      0.05454781	      0.36389757
     15.42839283	      0.24472053	      0.23179856	      0.05707408	      0.38001510
     15.44479282	      0.24999986	      0.24031369	      0.05911192	      0.39305523
     15.46119280	      0.25165055	      0.24501905	      0.06022387	      0.40018331
     15.47759278	      0.25035105	      0.24489799	      0.06019538	      0.40000062
     15.49399277	      0.24642197	      0.24060705	      0.05918153	      0.39350127
     15.51039275	      0.23918043	      0.23415354	      0.05764109	      0.38363949
     15.52679273	      0.22799298	      0.22787831	      0.05612410	      0.37394970
     15.54319272	      0.21387299	      0.22341283	      0.05503231	      0.36698655
     15.55959270	      0.19996728	      0.22156810	      0.05457820	      0.36409130
     15.57599268	      0.18974331	      0.22257021	      0.05482511	      0.36566551
     15.59239267	      0.18509435	      0.22632459	      0.05574541	      0.37153385
     15.60879265	      0.18609976	      0.23279863	      0.05731520	      0.38155593
     15.62519263	      0.19163202	      0.24226036	      0.05957313	      0.39601097
     15.64159262	      0.19954796	      0.25476362	      0.06249666	      0.41477011
     15.65799260	      0.20714379	      0.26938684	      0.06585880	      0.43637533
     15.67439259	      0.21199524	      0.28348224	      0.06911422	      0.45723801
     15.69079257	      0.21225331	      0.29283386	      0.07132544	      0.47128673
     15.70719255	      0.20737129	      0.29432242	      0.07168351	      0.47354762
     15.72359254	      0.19857516	      0.28806232	      0.07018976	      0.46408844
     15.73999252	      0.18848676	      0.27753008	      0.06773227	      0.44839926
