Coordinates

Units are S.I. units (second, meters, Newtons, ...)
If the header above contains a line with 'inDegrees', this indicates whether rotational values are in degrees (yes) or radians (no).

inDegrees=no
nColumns=21
nRows=1000
DataType=double
version=3
OpenSimVersion=4.5.2-2025-05-03-6a4c6ec41
endheader
time	/jointset/ground_pelvis/pelvis_tilt/value	/jointset/ground_pelvis/pelvis_list/value	/jointset/ground_pelvis/pelvis_rotation/value	/jointset/ground_pelvis/pelvis_tx/value	/jointset/ground_pelvis/pelvis_ty/value	/jointset/ground_pelvis/pelvis_tz/value	/jointset/hip_r/hip_flexion_r/value	/jointset/hip_r/hip_adduction_r/value	/jointset/hip_r/hip_rotation_r/value	/jointset/walker_knee_r/knee_angle_r/value	/jointset/patellofemoral_r/knee_angle_r_beta/value	/jointset/ankle_r/ankle_angle_r/value	/jointset/subtalar_r/subtalar_angle_r/value	/jointset/hip_l/hip_flexion_l/value	/jointset/hip_l/hip_adduction_l/value	/jointset/hip_l/hip_rotation_l/value	/jointset/walker_knee_l/knee_angle_l/value	/jointset/patellofemoral_l/knee_angle_l_beta/value	/jointset/ankle_l/ankle_angle_l/value	/jointset/subtalar_l/subtalar_angle_l/value	/jointset/ground_pelvis/pelvis_tilt/speed	/jointset/ground_pelvis/pelvis_list/speed	/jointset/ground_pelvis/pelvis_rotation/speed	/jointset/ground_pelvis/pelvis_tx/speed	/jointset/ground_pelvis/pelvis_ty/speed	/jointset/ground_pelvis/pelvis_tz/speed	/jointset/hip_r/hip_flexion_r/speed	/jointset/hip_r/hip_adduction_r/speed	/jointset/hip_r/hip_rotation_r/speed	/jointset/walker_knee_r/knee_angle_r/speed	/jointset/patellofemoral_r/knee_angle_r_beta/speed	/jointset/ankle_r/ankle_angle_r/speed	/jointset/subtalar_r/subtalar_angle_r/speed	/jointset/hip_l/hip_flexion_l/speed	/jointset/hip_l/hip_adduction_l/speed	/jointset/hip_l/hip_rotation_l/speed	/jointset/walker_knee_l/knee_angle_l/speed	/jointset/patellofemoral_l/knee_angle_l_beta/speed	/jointset/ankle_l/ankle_angle_l/speed	/jointset/subtalar_l/subtalar_angle_l/speed
14.65332713999715	-0.1074801574973786	-0.03079505725178073	-0.1097626642993026	2.27137429246588	0.9653088910511188	1.054945478002775	-0.108409007938814	0.06546985523114836	0.08651629469762523	0.2492046783180913	0.2492046773341796	0.05253162215776903	-0.1290571844214109	0.4529505456556089	-0.08777000003050422	-0.1131947399306497	0.9301343353486247	0.9301343362424082	0.06884514150515117	-0.3654644426961818	-1.044175507159978	2.008762036390451	0.2541447998378277	0.02793888416998805	0.4935697274037768	-0.1141040651055732	-1.687511368459942	-2.527458006743816	-1.122742272245132	-1.654599068218164	-1.654599115148577	-6.309425839841383	-0.299834749228677	2.014072633563238	2.82724245745917	0.05159618305406988	-7.653177485521766	-7.653177456149899	0.6465465505158392	2.49483592669972
14.65999379999715	-0.114259669404565	-0.01794874796883917	-0.1075708150107475	2.271575047826738	0.9685801999967975	1.054138412336405	-0.1186634901404211	0.04918805444405128	0.07746408370141607	0.2400995609097218	0.2400995595974604	0.01035102366213559	-0.1307475523872258	0.4652043446119892	-0.06933334364422691	-0.1126032471115915	0.8772906981715254	0.877290699301893	0.07314258126277665	-0.3471283563021423	-0.9857008386825261	1.836670021733175	0.3966892501166598	0.03232593211277569	0.4869498009861853	-0.1274853385491459	-1.393149261602005	-2.347649057434804	-1.581056678784321	-1.071984427516179	-1.071984478005869	-6.326079575146665	-0.2061047955031209	1.6539953652393	2.693632142734085	0.1249835941191243	-8.194706269657948	-8.194706228689077	0.6478657074627416	2.992494423312209
14.66666045999715	-0.1205685025270181	-0.006410172825186927	-0.104569518273919	2.271805757470637	0.9717893397541066	1.053252808060273	-0.1270441226642543	0.03427538606716041	0.0655933531426896	0.2349721761087599	0.2349721744673801	-0.03157436799307457	-0.1317871538742747	0.4748999672028064	-0.05198308120067007	-0.1115422620187116	0.8209538788954147	0.820953880323482	0.07754954145374629	-0.3257732770773556	-0.9027795288906538	1.617871484373712	0.4961857400693982	0.03691752195388542	0.4748358127183136	-0.1376642484641084	-1.125703933164187	-2.11958212679488	-1.968660570382565	-0.4621481930016076	-0.4621482400347293	-6.234180060924649	-0.1043641193188866	1.24728468084169	2.502510953009081	0.1921840171619458	-8.699151257978707	-8.699151210773383	0.6788387634144177	3.396430233283309
14.67332711999715	-0.1262399243563029	0.003541129214038772	-0.1010559112004241	2.272067660517612	0.9748980354360938	1.052309805415176	-0.1337375353705402	0.02099323111793635	0.05135928877412796	0.2339845012038716	0.2339844992797909	-0.07255336674462171	-0.132123061008686	0.4817429488745458	-0.03607413462097295	-0.1100553113563923	0.7614142756860277	0.7614142774280834	0.0822477808126829	-0.3020989488102873	-0.7943312964125002	1.362374041467837	0.550444547319145	0.04168074066580421	0.4567366189865144	-0.1447377727539972	-0.8873565493330935	-1.861748692859501	-2.291672808180017	0.1687235323473827	0.1687234955929831	-6.044372604902338	0.004381463519469954	0.799363772715346	2.263092917297649	0.2529072217735319	-9.153010810876832	-9.153010765365575	0.7339838585892318	3.685285065790227
14.67999377999714	-0.1311023720035903	0.01170041079493081	-0.09732495610329289	2.272361859169043	0.9778648155679255	1.051329259064059	-0.1389445885741999	0.009474211184607326	0.03515448413575559	0.2372501828330331	0.237250180712705	-0.1119822329861511	-0.1317279733854766	0.4854862298454771	-0.02188824557444534	-0.1081816270188335	0.6990639449161137	0.6990639469303144	0.08736863026303868	-0.2769235969320573	-0.6602206599590433	1.08244730420693	0.5622355368021291	0.04660581883079373	0.4321856969921751	-0.1489871823653974	-0.6800386179825281	-1.59394155606915	-2.562247605054466	0.8122888441764687	0.8122888226766113	-5.771998035542399	0.1132545524317229	0.3192443970790044	1.987865455245577	0.3084731882810374	-9.539199236607434	-9.539199202033968	0.803701721190364	3.845096598542737
14.68666043999714	-0.1349904308807885	0.01794966960184076	-0.09363842226943363	2.272689429201444	0.9806452113253539	1.05032866154758	-0.1428751456105017	-0.0002799539593350563	0.0172792207932023	0.2448202291839683	0.2448202269785913	-0.1493699478131092	-0.1306416880729606	0.4859581616242883	-0.009617180103285475	-0.105950804746962	0.6344217760979901	0.6344217782815544	0.09296722678473868	-0.2511303586024705	-0.5026154217023439	0.7917078206322069	0.5385930474617493	0.05169209917465698	0.4007558084080832	-0.150832305300456	-0.5043554921537007	-1.335362491235353	-2.795363583771713	1.458146625396128	1.458146621580334	-5.435136898567378	0.2090293672274632	-0.1793328486690665	1.691109052216799	0.3601768940153535	-9.83676008117801	-9.836760066236087	0.8748857488884104	3.870531343386039
14.69332709999714	-0.1377625996149648	0.02226418506996881	-0.09019992649835037	2.273051440300899	0.9831922124722725	1.049322365177586	-0.1457371304136554	-0.008389730017482014	-0.002066099529178913	0.2566704148499842	0.2566704126792597	-0.1843480940791486	-0.1290115273151479	0.4830948125425823	0.000645319614608232	-0.1033882112716795	0.5681580736113444	0.5681580758109736	0.09900276501788871	-0.2256069559749526	-0.3264925169386873	0.5044289233017826	0.4897185892643626	0.05693744833388849	0.3621304376746407	-0.1507886614328653	-0.3591493650741324	-1.103301077250822	-3.005457011720464	2.094196824435403	2.094196838551355	-5.052045787098299	0.2729121887245846	-0.6779515250409587	1.387815186393618	0.4077730761766128	-10.0213988483317	-10.02139885917936	0.9320967930477647	3.765592399669706
14.69999375999713	-0.1393180293842363	0.02471510164638528	-0.08713831018261721	2.273448932930816	0.9854574485925383	1.04832107310457	-0.1477265607028127	-0.01508232627724608	-0.02276698895705579	0.2726915014035797	0.2726914993840014	-0.2166635263032628	-0.1271230881713175	0.4769661430798952	0.008906009728816538	-0.1005288276025335	0.5011122350284776	0.5011122370626391	0.1053281429535354	-0.2011839609573534	-0.1388538885049836	0.2350093775211465	0.4275937188982394	0.06233477416260274	0.3162450497705715	-0.1494295634402198	-0.2421876400748419	-0.9124065177604597	-3.203431161618223	2.7071367667155	2.707136797697129	-4.63868139479727	0.2826943082494434	-1.155266069510192	1.093062871102446	0.4485389118958482	-10.0670159238458	-10.06701596260127	0.9591821780048632	3.543240946783606
14.70666041999713	-0.1396052656212585	0.02546841490999965	-0.08450088268331492	2.273882867941674	0.9873933937430734	1.047331567039824	-0.1490240391513546	-0.02067271662284807	-0.04476384103746067	0.2926836906982561	0.2926836889365894	-0.2461565706584569	-0.1254119698990342	0.4677867643600411	0.01527127972924861	-0.09743422139532423	0.4342972232948636	0.4342972249838069	0.1116912521847134	-0.178580423073408	0.05273101997298564	-0.00259890688659275	0.3644357314940323	0.0678652711757784	0.2634394773700357	-0.1473529717717297	-0.1512269196548144	-0.7743149796260357	-3.394603534072376	3.28327570433446	3.283275750357738	-4.206901652524001	0.2162584330606768	-1.589690783643841	0.8215967488623083	0.4773243566885632	-9.948098278903089	-9.948098342843991	0.9410924947013916	3.223536567366274
14.71332707999713	-0.1386216787606486	0.02477977225244759	-0.08225695358775625	2.27435399212943	0.9889564013055709	1.046356643267843	-0.1497966051441849	-0.02554280559847089	-0.06801118181124627	0.3163580921801561	0.3163580907679165	-0.2727301915426869	-0.1244491609550123	0.4559088450109629	0.0199435139643947	-0.09420547778208914	0.3688859981539129	0.3688859993522634	0.1177480321939862	-0.1583666157440877	0.2413234835722774	-0.1955772212730926	0.3111905685793198	0.07347908479188658	0.2045428740618849	-0.1451516973713081	-0.0844168859261766	-0.6974391971057943	-3.577853025755787	3.809830886019761	3.809830944217988	-3.763570841338677	0.0558177223372695	-1.961892714459117	0.5873844143878284	0.4876944266898822	-9.642677578781491	-9.642677660418112	0.8655405788815043	2.830439203856845
14.71999373999712	-0.1364075149761883	0.02298421717139819	-0.08031069157606562	2.274862528848631	0.990109926603725	1.045395246048185	-0.1501985554397303	-0.03011922579996548	-0.09243502287248223	0.343348137514164	0.343348136518028	-0.2963164816374798	-0.124898729094225	0.4418014291887288	0.02321382265269281	-0.090985668550919	0.3061776666040836	0.3061776672292872	0.1230854864586345	-0.1409506746197421	0.4209851219117007	-0.3330824846410183	0.2762763380312252	0.07906286791920145	0.1408404130572056	-0.1433832216184994	-0.03957721295183926	-0.6867331777753307	-3.745866890254709	4.276563048969335	4.276563114627173	-3.310671448026561	-0.208205638927137	-2.256290303617722	0.4029287191120522	0.4738400001426561	-9.135353673773078	-9.135353762040333	0.7243284728822931	2.387994976111579
14.72666039999712	-0.1330402331368016	0.02047965906232107	-0.07852102766088995	2.27540763071878	0.9908271207587698	1.044442816819102	-0.1503644718805704	-0.03484903560114065	-0.1178949075992035	0.3732319246875567	0.3732319241352378	-0.3168474598503595	-0.1274535468421388	0.4260236349729031	0.02544882986847377	-0.08794876165478378	0.2475450041606259	0.2475450042101781	0.1272526496803811	-0.1265899702271911	0.5863899988698371	-0.4072833794487951	0.264748032330574	0.08440297274622788	0.07392309188433641	-0.1425344644294996	-0.01270677448061757	-0.7432908761130491	-3.886269730792077	4.677341141824256	4.677341207982596	-2.846476303537505	-0.5745709955704846	-2.461434469774396	0.2781626188367387	0.4326092421036067	-8.41976251272359	-8.419762595052964	0.514433458483803	1.91689608750228
14.73332705999712	-0.1286323566456785	0.0177030883297705	-0.07672544911292659	2.275986610780575	0.9910921695025274	1.043491898432423	-0.1503922870888266	-0.0401723803220565	-0.1441559523336508	0.4055634730606567	0.4055634729275921	-0.3342366941840449	-0.1327588675696997	0.4091976999762967	0.02706892887178289	-0.08527670203212888	0.1943687513430479	0.1943687508970063	0.1297984348788597	-0.1154216213501873	0.7322743914963502	-0.4144634240605595	0.277975815153581	0.0891579795772392	0.005472669341641099	-0.142981249174932	0.003346383861089361	-0.8638705995537888	-3.983465593462887	5.011182131462743	5.01118218961646	-2.367558902967774	-1.030196609351395	-2.56978404208231	0.2190412015944304	0.3649067660578676	-7.500015792118079	-7.500015856658498	0.2390063573100518	1.432305797515506
14.73999371999711	-0.1233319349056073	0.01509989823783407	-0.07476409182915049	2.276594047302937	0.9909001641845605	1.042533002646589	-0.1503203232659114	-0.04649231819230069	-0.1708749502490417	0.4399082169560052	0.4399082171606002	-0.3483758217029666	-0.1413344437307815	0.3919840244102985	0.02851708920317819	-0.08313091042884714	0.1479665779195676	0.1479665771291431	0.1303160882726637	-0.1075015081796862	0.8532543935926491	-0.3559448004595311	0.3138806162987311	0.09284865942473576	-0.06295435588522472	-0.1449521366668159	0.0192877527114877	-1.040549240833825	-4.020962507767439	5.282448521200323	5.282448563119749	-1.871161854995657	-1.550745822421017	-2.577376307899624	0.2261782198023531	0.275905202349759	-6.390824359423705	-6.390824396978578	-0.09163943989393152	0.9435587186476697
14.74666037999711	-0.1173227295305928	0.01308826919870627	-0.07250048403751026	2.277220875899958	0.9902556556809043	1.041555670413052	-0.1501051826375289	-0.05414315713317563	-0.1976025205049827	0.4758767583647821	0.4758767587780177	-0.3591465136437578	-0.1535058877132911	0.3750585285503432	0.03021969774849662	-0.08162700448071024	0.1095259738550125	0.1095259729191781	0.1284941254448098	-0.1028382012795684	0.9440637794455691	-0.2386137831688804	0.3676834241688029	0.09486338011712167	-0.1301005671443856	-0.1485079278457569	0.04875505685597448	-1.260637487425329	-3.983785063604646	5.500142156918577	5.500142176982181	-1.357370319222666	-2.102802067561865	-2.483442752550783	0.2938697695749274	0.1738632843877114	-5.116206068861182	-5.116206074547338	-0.4590968246272876	0.4559895374881195
14.75332703999711	-0.1108220131200852	0.01202188425879696	-0.06983608257400813	2.277853559346384	0.9891702659120167	1.040549611393898	-0.1496062738304351	-0.06335938531919723	-0.2238003765874721	0.5131513653996057	0.5131513658688014	-0.3664448337385087	-0.1693553538367285	0.3590929824609886	0.03254295840802336	-0.08082159972131472	0.08004975401246185	0.08004975314501248	0.1241725473224763	-0.1014083135115788	0.999997441237602	-0.07486794242994174	0.4329761513630133	0.09447611069777305	-0.1951125743300904	-0.1535375688526662	0.1070122811479688	-1.506963503121069	-3.860530978157688	5.676477566280651	5.67647756318244	-0.8305818758356001	-2.647432477064007	-2.289913869266218	0.4097815552284766	0.06776189513200477	-3.707092094848312	-3.70709206920789	-0.8362878914372949	-0.0254438998825807
14.75999369999711	-0.1040750585048543	0.01215532938779142	-0.0667173102342116	2.278473431948996	0.9876598952144529	1.039505833497434	-0.1485805269927973	-0.07424807670691677	-0.2488702396751225	0.5515012987658959	0.5515012991449899	-0.3702120671902665	-0.1886993232331561	0.3447382887875549	0.03575011714775709	-0.08071682999025162	0.06031898943445468	0.06031898882731349	0.117400158579795	-0.1031447020998971	1.017467699040391	0.1181531331177566	0.5028602693210706	0.09088242314166979	-0.257553360805935	-0.159764130925397	0.2092165355900868	-1.758651687840269	-3.644778095794429	5.824998620972344	5.824998597895847	-0.2999455472439225	-3.144650799559868	-2.001117722301899	0.5555468039241679	-0.03547299251527029	-2.198666500833846	-2.198666449743109	-1.187825043315454	-0.4918962043894415
14.7666603599971	-0.0973451651975499	0.01361715856071562	-0.06313540111099127	2.27905637548047	0.9857422160914431	1.038417717001691	-0.1466901111970151	-0.08676841182147815	-0.2721896869920284	0.5907846963517575	0.5907846965278256	-0.3704648033845235	-0.2110971325157604	0.3326073169533698	0.03996619516076694	-0.08128154935750814	0.05087151367823333	0.05087151347039382	0.1084844086331769	-0.1078988489200434	0.9948248659005114	0.3200944533560913	0.570931021739278	0.08326489165965137	-0.3173015165321353	-0.166754352074239	0.368230832676065	-1.992489015362112	-3.335757617137808	5.958464776371811	5.958464739811387	0.221290769814052	-3.558035407015341	-1.624336722562891	0.7084332518136207	-0.1330001744656469	-0.6285337777997932	-0.6285337108909851	-1.472001954574069	-0.9274522914672281
14.7733270199971	-0.09089681635304003	0.016395466576656	-0.05912078563032908	2.279573053245656	0.9834352280128935	1.03728203283806	-0.1435264165205644	-0.1007223841319122	-0.2931501467251398	0.6309362619669872	0.6309362618768016	-0.3673173887627266	-0.2358882787353552	0.3232495264113906	0.04515734641919821	-0.08248076004546448	0.05198734854857799	0.05198734880924976	0.09802104621476805	-0.1153901869577992	0.9336032964737271	0.5095874561597059	0.6318973679827311	0.07089543142985065	-0.3743364883063688	-0.173924804243772	0.5919537784927388	-2.184915153197871	-2.938339416829656	6.086756338517994	6.086756296602815	0.7173802315848816	-3.858588385496598	-1.171752598944723	0.8440352145707273	-0.2263935506727212	0.9634343350812027	0.9634344069581038	-1.644904428636964	-1.308601987974815
14.7799936799971	-0.08496960632529489	0.02033984145588321	-0.05473498881266074	2.279989932313595	0.9807575202682106	1.036099935792968	-0.1386523818181331	-0.115760725450984	-0.3111928445808778	0.6719420458524931	0.6719420454876851	-0.3609913357379494	-0.2622506158491399	0.3171085813397854	0.05113081926217492	-0.08430071452629002	0.0636692054787777	0.06366920620797097	0.08688932121921401	-0.1251631078788663	0.8399549869955343	0.6669135535688913	0.6817009939490346	0.05326612071795172	-0.4284524968082825	-0.1805445416489861	0.8806182683724307	-2.314572261018995	-2.462462477083554	6.215167450782336	6.215167411550045	1.172326782448306	-4.027048213609635	-0.6634454056872118	0.9396910158867222	-0.3200476141749874	2.533564921943706	2.533564989250136	-1.666552457122225	-1.607093728950993
14.78666033999709	-0.07974406504219082	0.02518158171440482	-0.05006318055195368	2.280271192081511	0.9777304357034466	1.034877907615287	-0.1316601240827844	-0.1314069246228184	-0.3258397183888353	0.7138052904042118	0.7138052898048282	-0.3518088295341554	-0.2892680142400525	0.314460435381695	0.05755863439658812	-0.08675836506160507	0.08561013232261434	0.08561013346615147	0.07620191577366153	-0.1365732234491057	0.7254862623743226	0.7767377288889794	0.7172460288728311	0.03021747850276918	-0.4789922039861838	-0.1857518835414133	1.225102954110696	-2.365103485204747	-1.922239146555351	6.34349052406379	6.343490493720232	1.572314348739599	-4.05444395511474	-0.1299215181957758	0.9780668625673101	-0.4182274027293323	4.032351259102639	4.032351315303049	-1.508098533924773	-1.795663814988329
14.79332699999709	-0.07530637544912692	0.03057081554790578	-0.04520886748065907	2.280381360180979	0.9743816564110371	1.033628463740994	-0.1222334678794861	-0.1470990686978602	-0.3367179876104312	0.7565094511708299	0.7565094504080899	-0.3401710306707081	-0.3159970413851268	0.315341722848465	0.06402361202699033	-0.08988972765459986	0.1171513533688212	0.1171513548404394	0.06720820309228885	-0.1488167731244366	0.606644779920237	0.8303410845848556	0.7360947470209185	0.002021506793286838	-0.5247010821190194	-0.1886127559126229	1.60727151842126	-2.327578880510893	-1.33498275733417	6.466090250888554	6.466090232411331	1.907745284584564	-3.9413685998629	0.3878033746935873	0.950139227077579	-0.5219223836455867	5.403883435290147	5.403883477238138	-1.158285913674564	-1.854857120366139
14.79999365999709	-0.07162305439233992	0.03612514620660143	-0.04028971225181714	2.280288257095359	0.970749169615855	1.032370283028605	-0.1102003868160596	-0.1622445873936517	-0.3435783968918482	0.7999847904519145	0.799984789604645	-0.3265254647552668	-0.3415266419044398	0.3194895045243609	0.07008100861698274	-0.09372067280101289	0.1572461962871732	0.1572461979884408	0.06116269698764448	-0.1610017901627349	0.5023494184994318	0.8267587875121445	0.7364760544438566	-0.03061196312927481	-0.563765056690494	-0.1882361122060753	2.002641748399225	-2.201833121082012	-0.7202904225098111	6.572866124242605	6.57286611697335	2.174416765173635	-3.696719651128105	0.8417944340155225	0.8567733122531446	-0.6269613024526871	6.588450316304301	6.588450343225825	-0.6271178163469454	-1.778267497567005
14.80666031999708	-0.0685366073768814	0.04148113385626625	-0.03543186333317685	2.279965708545473	0.9668843228183228	1.031127397406596	-0.09556083362400886	-0.1762789411656193	-0.3463075416360424	0.8440836891883818	0.8440836883207572	-0.3113290540920917	-0.3650290165605457	0.3263173519592799	0.07532437949056633	-0.09823260945893642	0.2044536710379843	0.2044536728681323	0.05918241421525792	-0.172242253558628	0.4301641531502522	0.7724663619688521	0.7177156755224113	-0.06660908119820905	-0.5940438145565633	-0.1839364051891803	2.384983163491338	-1.99627910045652	-0.09917768341742478	6.650861447598504	6.650861448002015	2.3736494214701	-3.33634747358676	1.184368023854436	0.708364339008668	-0.7244606418227033	7.528759151428835	7.528759163084509	0.05459314415429802	-1.573950336323845
14.81332697999708	-0.06578906314177102	0.04633894981339675	-0.03076053164359635	2.279395573389743	0.9628527940765066	1.029927246453801	-0.07848042288545364	-0.1887181106887933	-0.3449344437923537	0.8885679894353642	0.8885679885821693	-0.2950135114520209	-0.385801220771553	0.3349466960898904	0.07944255041744426	-0.1033388695427234	0.2569820117566051	0.2569820136108758	0.06212080092610924	-0.1817476183238283	0.4019930635951867	0.6796997674349792	0.6808689837539026	-0.1046560366690201	-0.6134472947860705	-0.1754023723421669	2.731692665842091	-1.726297908763325	0.5067930042120862	6.686198400386781	6.686198403423498	2.511488605358525	-2.881600015440698	1.377044055279236	0.5225959717997548	-0.8034348737025128	8.17829600198708	8.178295997297678	0.8395629526145336	-1.261796456367822
14.81999363999708	-0.06307122532111081	0.05049259527712108	-0.02638691227093749	2.27856891561918	0.9587329180125554	1.028797756756324	-0.059251006153572	-0.1991970611726793	-0.339631050507105	0.933109070296419	0.9331090694578414	-0.277958413380468	-0.4032964644004415	0.3442948184588074	0.0822571126460271	-0.1088820922456031	0.3127870441499365	0.3127870459133757	0.07047927409412431	-0.1888861695627502	0.4209664843695275	0.5639099897410095	0.6291062297709005	-0.1433234209027233	-0.620327322220547	-0.1628103987234857	3.028005831890482	-1.411750408384824	1.076481457128443	6.665880112343629	6.66588011291767	2.597249006154619	-2.357693112050663	1.398002422453371	0.3209858675518689	-0.8542100629909138	8.508887148247311	8.508887125379674	1.670657285456358	-0.8687020629727935
14.82666029999707	-0.06008487541589543	0.05384204292212399	-0.02239436207652366	2.277486456473699	0.9546117247288118	1.027763988971428	-0.03823156716671132	-0.2074904172967891	-0.3307057122351778	0.9772983210346849	0.9772983201811073	-0.2604752578749806	-0.4171442104726549	0.3531996183258734	0.0837353759289817	-0.1146526768949427	0.3697107781167883	0.3697107796633688	0.08436534111540693	-0.1932151318493567	0.4807611033760107	0.4409854841032869	0.5675283371787656	-0.1811545528569819	-0.6137568784687846	-0.1468367584559144	3.268575492091484	-1.074215971478573	1.590310715831224	6.57906581554148	6.579065810092843	2.641736478128812	-1.792003048027282	1.245410524912638	0.1251235646895095	-0.8711182487117255	8.514916322702277	8.514916280460202	2.487986089791325	-0.4237292858742484
14.83332695999707	-0.05660161033549085	0.05638759689696217	-0.01882760399921886	2.276158573384518	0.9505796359507166	1.026845053193888	-0.01578730198721917	-0.2135150569663642	-0.3185886178144625	1.020664056526979	1.020664055614757	-0.2428033811754699	-0.4271589765535272	0.3605515985140215	0.08397942125979262	-0.1204201390922602	0.4256343504312635	0.4256343516338617	0.1034961472425256	-0.1944822584193905	0.5671469950686849	0.3247708242664022	0.5024842684601866	-0.2167152263493652	-0.593653709342521	-0.1285685918584591	3.456588140846891	-0.7343881900559066	2.031511841749148	6.417741936624966	6.417741924725027	2.655530948635467	-1.212401904273623	0.9364172680536231	-0.04662819516960855	-0.8535978790296852	8.213437221728805	8.213437161214486	3.235302173101682	0.04549801726709404
14.83999361999707	-0.05250667853446091	0.05820981170008754	-0.01568734440433949	2.274605043217445	0.9467248162079817	1.02605186618136	0.007760123345079082	-0.2173168089255092	-0.3038092017882204	1.062691276138396	1.062691275133388	-0.2251162623417836	-0.4333385306268883	0.3654082826946116	0.0831962727294869	-0.1259660915708569	0.4786196702451307	0.4786196709942493	0.1272405950057799	-0.1926084707839578	0.6607829798210146	0.2252687971355898	0.4406782755912747	-0.2486247058989056	-0.5607640165421001	-0.1093472888783348	3.601463144326082	-0.4099653785916738	2.387239340494372	6.176933513348516	6.176933498202719	2.647619469966338	-0.645766552185607	0.5031344872486572	-0.1814286533299845	-0.8056255957574426	7.640846641373291	7.640846566794568	3.865099838258088	0.5148786261017506
14.84666027999707	-0.04782214089576155	0.059440382360463	-0.01293082911607987	2.272854576022388	0.9431280424384755	1.02538605868852	0.03216448796195602	-0.2190455748046673	-0.2869673738782719	1.102841754781938	1.102841753679969	-0.20753538456621	-0.4358530675128871	0.3670755111712969	0.08165699211970322	-0.1311090665494915	0.5270206596564427	0.527020659879792	0.154690067346199	-0.1876613682613198	0.7405438811021621	0.1477499128456482	0.3883154221160168	-0.275590928263336	-0.5165260332176432	-0.09058718400179477	3.715885250139165	-0.1143249699061402	2.649262568586519	5.854613908680813	5.854613895685875	2.624509853155513	-0.1167709664465931	-0.01310147966795704	-0.2729615660256282	-0.7339322830658539	6.847299237010585	6.847299155124704	4.342049000271351	0.9645145125514021
14.85332693999706	-0.04270711546543994	0.06023021128549607	-0.01047743376805232	2.270944057609126	0.9398588300558958	1.02484006318985	0.05726589848498945	-0.2189245770495412	-0.268702164403457	1.14057279865198	1.14057279748495	-0.1901482301279274	-0.4350272390516559	0.365147420561597	0.07965352249198948	-0.1357149229213739	0.5695532071293259	0.5695532068041067	0.1847458938066427	-0.1798285043454405	0.7870190882264452	0.092779675863498	0.3504745372717234	-0.2964638890929865	-0.4628340213710153	-0.07360826506660963	3.812503936292928	0.1439194611549873	2.814032200308525	5.451404239998075	5.451404234140043	2.589880292825985	0.3530578835281155	-0.5682426847465769	-0.3211277618792207	-0.6455446296059288	5.890108647717125	5.89010856633395	4.64456861373101	1.378122198058681
14.85999359999706	-0.03743506287272735	0.06072025015263793	-0.008217298300726721	2.268917368544067	0.9369733618543906	1.024398200797974	0.08297941549013078	-0.2172192077587813	-0.2496620116214575	1.175353444563155	1.175353443388565	-0.1730269477241565	-0.4313168661326649	0.3595028754478152	0.07746129320917128	-0.1396900081737714	0.6053209609168192	0.6053209600714147	0.2162111284734245	-0.1693981615065017	0.7858245694688875	0.05697986477903851	0.3308308156026285	-0.3103086195651956	-0.4017425251444652	-0.05950551839661351	3.900638280315665	0.3606411962792792	2.882148599418857	4.970118512051952	4.970118515771928	2.5447061959976	0.74596492100582	-1.12191751532982	-0.3306959301759615	-0.5451700879661519	4.827276882654013	4.827276809100528	4.764576813779579	1.741458362752447
14.86666025999706	-0.03235130142351727	0.06101898251521917	-0.00602075653424291	2.266823674545294	0.9345143959916924	1.024038514591543	0.1092636528897381	-0.2142091667273695	-0.2304798212261509	1.206677415331147	1.20667741421158	-0.1562449330075426	-0.4252829118025375	0.350262827224315	0.07531265932046134	-0.1429585738014311	0.6338012722755785	0.6338012709827159	0.2478754805678414	-0.1567514774022809	0.7300885081337788	0.03419663620147889	0.331664703010212	-0.3164883270943776	-0.3351829164319053	-0.04905374479038101	3.983726128734304	0.5355595779143805	2.857532206508238	4.415273289873619	4.415273302221776	2.487747708948366	1.048167953997371	-1.642551106824314	-0.3095334276765469	-0.4332681600145191	3.712168113436306	3.71216805358001	4.705775001006826	2.040721108590034
14.87332691999705	-0.02781895011654975	0.06118802065922087	-0.003747409270720745	2.264715183324291	0.9325127797621453	1.023735155592281	0.1360776291770907	-0.2101649800434717	-0.2117532617578795	1.234073175152303	1.234073174133339	-0.1398889491648625	-0.4175648225231512	0.3377211814410951	0.07338129153395455	-0.1454327120417142	0.6548017367462781	0.654801735111631	0.2785856420512896	-0.1423611095302797	0.6213280985213989	0.0167150715621385	0.3539149510623469	-0.3147370693355434	-0.2647774579038988	-0.04263540482141488	4.058488423851023	0.6716165129249986	2.746756291184075	3.792733099650139	3.792733116611036	2.416413128681833	1.249939313825047	-2.110034905336692	-0.2672041029778066	-0.3058901708257584	2.590104829094306	2.590104786905159	4.481095439148191	2.262410748034269
14.87999357999705	-0.02416523274942666	0.06123540363541234	-0.001255287188996331	2.262644521331226	0.930989752638419	1.023461170868221	0.1633388620369114	-0.2053282700970897	-0.1940281535856209	1.257112314231032	1.257112313324448	-0.1240641734413444	-0.4088521691512441	0.3222672509285844	0.07177363787982277	-0.1469883498846906	0.6684010477608175	0.6684010459094711	0.3072974233425574	-0.1267840959150299	0.4685137429362601	-0.003648686043280554	0.397083230947326	-0.3051977091030649	-0.1917877960489855	-0.04019486603631243	4.116080367177614	0.7744491403965114	2.558787426381385	3.109560630458076	3.109560646166713	2.327998283085378	1.346099315552526	-2.515649125863439	-0.214227682706698	-0.1565908383344731	1.497015796978237	1.497015774262916	4.1098614530494	2.395126460632389
14.88666023999705	-0.02163834067745113	0.06111589412178985	0.001588850343904102	2.260662008701675	0.9299592298841639	1.023191449160689	0.1908936926677755	-0.1998959529443203	-0.1777827489434267	1.275417415648892	1.275417414825857	-0.1088903955990684	-0.3998513650645022	0.3043155341010632	0.07052414745949744	-0.1474584810064107	0.6748861686698671	0.6748861667309406	0.33310878896957	-0.1106394655668842	0.2859923456201934	-0.03452799378509761	0.4590107999100678	-0.288414385686585	-0.1171625513952933	-0.04124076992520557	4.144419839420456	0.8516877118240527	2.304907337306421	2.37398835636127	2.373988364786088	2.221031817022024	1.336933873998065	-2.860152268333295	-0.1615962659446318	0.02054402087149815	0.459556353220374	0.4595563493439855	3.614925918175444	2.432047401118839
14.89332689999704	-0.02037961577074029	0.06073777186793608	0.004897896978808883	2.258813122069282	0.9294295961620929	1.022905442415676	0.2185041425691366	-0.1940100999387505	-0.1634131882780324	1.288669684789083	1.288669683984413	-0.09449028033654792	-0.3912466820480291	0.2842512238753035	0.06959412824691361	-0.1466463218937046	0.674693315852035	0.6746933139421381	0.3552742304153566	-0.09457164505930879	0.0910632766071242	-0.08210514760097778	0.5357579846474223	-0.2652854749202165	-0.04162922486376287	-0.04491184984778591	4.130691283534731	0.9119828146409158	1.998369210195113	1.59534463786503	1.595344634359262	2.096217071254363	1.228835970152264	-3.151097684140734	-0.1201345027931853	0.2281671253750888	-0.5039480424563698	-0.5039480305590388	3.019967553238234	2.37250914189028
14.89999355999704	-0.0204120085496589	0.05997466332741416	0.00875318020938508	2.25713637253125	0.9294048329953342	1.022589243672848	0.2458505795977106	-0.1877544588659232	-0.1512229515433832	1.296615461243977	1.296615460369611	-0.08097406433374026	-0.3836601242108121	0.2623948116700915	0.06887555493271247	-0.1443527050774555	0.6683570248409118	0.6683570230498819	0.3732022213765336	-0.07920859236060702	-0.09845795488644533	-0.1505287041880883	0.6218795424480382	-0.2369876697682186	0.03420071401760955	-0.05010152819597102	4.063552133177863	0.9640324407605484	1.653534373806135	0.7837757456688316	0.7837757282003612	1.956515635146653	1.033942052283632	-3.39982016798574	-0.09966994508476489	0.4642198610713572	-1.382051645585464	-1.382051622703224	2.347158126899143	2.221993365948151
14.90666021999704	-0.02164462463904912	0.05868011609755131	0.01319639348895576	2.255661762662944	0.9298849186055435	1.022236717161043	0.2725480425930924	-0.1811569767124029	-0.1414192989329928	1.299070256714493	1.299070255680259	-0.06842639090591339	-0.3776166426537283	0.2389875085526368	0.06820067787361936	-0.1404089533551634	0.6564701473598438	0.6564701457431119	0.3864391739997052	-0.06512397128395861	-0.2666260288837188	-0.241644511915364	0.7110399519292199	-0.2048794631381949	0.1097172313820131	-0.05561016694103704	3.93505510804257	1.015745942464623	1.284720357173698	-0.0501841024269882	-0.05018413234177767	1.806513750550162	0.7690487081046632	-3.618222256687751	-0.1081526459106831	0.7215947252809731	-2.168379328079392	-2.168379299552229	1.615510964101459	1.991134728400277
14.91332687999703	-0.02389296122722866	0.05670343308387968	0.01822560277301185	2.254409930348586	0.9308653982560706	1.021849652641136	0.2981750837589377	-0.1741976801835299	-0.134116851105634	1.295920132373602	1.295920131112222	-0.05689782363453866	-0.3735159361379534	0.2141984711356667	0.06735698708295693	-0.1347112947151487	0.6396568667467333	0.6396568653248363	0.3946458056981341	-0.05280518719316288	-0.4016788671158401	-0.3548691804803497	0.7965559118348274	-0.170393656729604	0.184175956117139	-0.0602787538361351	3.742512478738633	1.073467953700493	0.9052864098706046	-0.895941126340601	-0.8959411634030329	1.651769073415455	0.4548781697804221	-3.815467393255445	-0.1509824005364279	0.9878471295852419	-2.859539340358188	-2.859539311232611	0.8403155748617361	1.695176147740436
14.91999353999703	-0.02691394365337596	0.05390576223734087	0.02379422173645279	2.253392005576696	0.9323360000115946	1.021437153324833	0.3223147545791414	-0.1668212017568602	-0.1293459570579488	1.287121492552107	1.287121491041815	-0.04639966938429239	-0.3716069850836285	0.1881537523707322	0.06610521545202619	-0.1272578751699056	0.6185602453744401	0.6185602441360448	0.397573849810111	-0.0426219423835146	-0.4981099999230183	-0.4872757723490495	0.871781387662889	-0.1349337226252187	0.2565540068665171	-0.06308600334166986	3.490202185052191	1.141410548794547	0.5270773853417761	-1.743011061924775	-1.74301109806443	1.498453068141407	0.1158976023349638	-3.99484796520319	-0.2307873562505287	1.244838861230335	-3.452896585759564	-3.452896560526828	0.03378208023345701	1.354244178663677
14.92666019999703	-0.03045252651478043	0.05017448823493686	0.0298128004975757	2.252610103948703	0.9342784246138276	1.021014463058028	0.3446045052322562	-0.158951739235239	-0.1270643016722135	1.27269971382694	1.272699712102959	-0.03690103583382113	-0.3719643516351439	0.160983437414131	0.06419762593815997	-0.1181850679223859	0.5938437536471578	0.5938437525536803	0.3950501668693088	-0.03479370193552751	-0.5579281981387982	-0.634006422020549	0.9305977980101794	-0.09978815791824434	0.325460285378287	-0.06322170178652295	3.190166087423772	1.22149485241506	0.1599814047908533	-2.581236467393373	-2.581236494038963	1.352969276069317	-0.2201902773528269	-4.151665476696679	-0.3474856956258325	1.469528851740959	-3.944736626554848	-3.944736608790365	-0.7934776266208386	0.9931159483974041
14.93332685999703	-0.03429129302738459	0.04543458424175342	0.03615429824349821	2.252058314929094	0.9366639597108664	1.020601377751139	0.364785374853819	-0.1505082455563888	-0.1271708184125064	1.252745801348018	1.252745799496608	-0.02832925815780242	-0.3744706671597079	0.1328755212253197	0.0613965464735487	-0.1077922292153139	0.5662012199522632	0.5662012189467682	0.3869717326800948	-0.02936434861167953	-0.5901299092647889	-0.788683008236597	0.9679076290006847	-0.06606766356498626	0.3891852307221787	-0.06013568749313906	2.861035602805948	1.313367688526275	-0.1882462493604367	-3.401157894957756	-3.401157905809588	1.221324780918364	-0.5237962773589887	-4.273579525374244	-0.498047275701258	1.636657379033941	-4.329725975001853	-4.32972596645527	-1.630783687530177	0.6391733227106616
14.93999351999702	-0.03828879002530873	0.03965844179996434	0.04266165537159693	2.251724037146277	0.9394520131687732	1.020220454102256	0.3827352061766389	-0.1414199091605446	-0.1295187091738603	1.227410253469746	1.22741025160552	-0.02057500927595381	-0.3788103425501245	0.1041165027339421	0.05749651444199001	-0.09654331185837611	0.5363644477625671	0.5363644467851703	0.3733105769252442	-0.02619704788660581	-0.6078804475309824	-0.9434334184447686	0.9797992657565401	-0.0346636555767536	0.4459228603787718	-0.05354816363758463	2.524469090497657	1.414284318002192	-0.5115026097730059	-4.194461555759728	-4.194461548832385	1.108392368440836	-0.7654001420483864	-4.344203430398888	-0.6756757871404564	1.722852829185762	-4.602131794207426	-4.602131793922841	-2.466146000383318	0.3184933791611416
14.94666017999702	-0.04239433586140708	0.03287620421218395	0.0491555199698032	2.251589515382996	0.9425904607359826	1.01989527514649	0.398473507708443	-0.1316423210940495	-0.1339232785727457	1.19689402421226	1.196894022446918	-0.01350197519233131	-0.3844773725287737	0.07510121676554873	0.05235213535118349	-0.08503951065770032	0.5050989101020184	0.5050989091084317	0.3541250150788386	-0.02499800625740402	-0.6246320685613348	-1.088821255779517	0.9634920581083729	-0.006229992063958808	0.494065174011502	-0.04342503461793255	2.200598433527101	1.519107508092104	-0.8043428375627842	-4.954380544986647	-4.95438052307662	1.017325580668959	-0.9177758362593642	-4.348234873186046	-0.8691007657029366	1.710988259935339	-4.757921904715839	-4.757921909086538	-3.285590663980662	0.05140916038026717
14.95332683999702	-0.04663954085734241	0.0251850704999592	0.05544203590859906	2.251633413653101	0.9460177208851768	1.019648939392684	0.4121393004756044	-0.1211718737521285	-0.1401630104392979	1.161437321523533	1.161437319936813	-0.006959153220954234	-0.3907980921118125	0.0463119898799051	0.04590722286619446	-0.07396572837469757	0.4731869347545752	0.4731869337301032	0.3295742235594278	-0.02536617564129449	-0.6513057666305934	-1.214303549306687	0.917465034062356	0.01880990637491171	0.5324035517473469	-0.02993932704444139	1.904785149874399	1.620887456852579	-1.061036144448848	-5.675926495584069	-5.675926465199321	0.9493928675096921	-0.9582101946087545	-4.275122165096681	-1.063030549322988	1.593495461899241	-4.796206890216989	-4.7962068942708	-4.072788158433434	-0.1505713373662071
14.95999349999701	-0.05111667991844399	0.01675333830778713	0.06132249733000367	2.251832277000438	0.9496656947868694	1.019502797952099	0.4239539028350257	-0.1100542917271828	-0.1479754679495986	1.12130751479655	1.121307513418293	-0.0007926622110504704	-0.3969683559738849	0.01828130119936542	0.03821630516355988	-0.06402038467463236	0.4414051862340457	0.4414051851962779	0.299934374451498	-0.02685666600444264	-0.6950586557928083	-1.309302210660935	0.841862812087864	0.04023912451727261	0.5601947434457852	-0.01343755136213636	1.646225670293529	1.711983767139279	-1.274960941184677	-6.355934687577345	-6.355934656739191	0.9042609042894256	-0.8706248812408881	-4.1204842663237	-1.23990954580232	1.374023591118527	-4.71956279635469	-4.719562795704445	-4.809006576705393	-0.2858390868980481
14.96666015999701	-0.05595159635604788	0.00781646740821247	0.06660588952434313	2.252161812175897	0.9534628875073969	1.019475381569503	0.4341778343211383	-0.09838512520766539	-0.1570499700839511	1.076787240445555	1.076787239255023	0.005145045325494961	-0.4021049133271353	-0.008450915698749586	0.02945203397746887	-0.0558398364672664	0.4105022460819587	0.4105022450711693	0.2656131472244741	-0.02904582933652931	-0.758743962291454	-1.364442079875027	0.7388968877744727	0.05801794312697797	0.577159578544266	0.005584124169286258	1.42744856150495	1.785272776508777	-1.438205658222874	-6.992953942246892	-6.992953917608245	0.8804326877710631	-0.6477234333500168	-3.886477192638687	-1.382253666282248	1.067378145763665	-4.533763594423787	-4.533763586828375	-5.473671469533825	-0.3621572903315267
14.97332681999701	-0.06127465736844268	-0.001334535594938127	0.0711232739631437	2.252597958371032	0.9573373530127368	1.019581470913774	0.4430668950092148	-0.08630309309506461	-0.1670179038192026	1.028164121094701	1.028164120038934	0.01098875726679817	-0.4053105977526057	-0.03337981968168818	0.01989692397933676	-0.04992969110475179	0.3811794199114337	0.381179418974105	0.227158701689921	-0.03158705028943203	-0.8409450685014336	-1.372580448149369	0.6129701943097934	0.0722495681976426	0.5834261442314994	0.02650031383968702	1.24467388270695	1.835037781403115	-1.541265917933434	-7.586835538572845	-7.586835522813203	0.8756378913665173	-0.2928861339637111	-3.581281507064743	-1.47495255549699	0.6974571742897223	-4.247046698501261	-4.247046684315238	-6.045407433880507	-0.3943033824850301
14.979993479997	-0.06719469940393051	-0.01037060849496713	0.07474185484953953	2.253117715955837	0.9612190337287125	1.019831304657552	0.4508345537620117	-0.0739789827446122	-0.1774418106888349	0.9757245851941952	0.9757245842187514	0.0168564598227394	-0.4057494553722591	-0.05607090299708605	0.009920656171906289	-0.04661639969617816	0.3540781273983327	0.3540781265712986	0.1852609285598068	-0.03424443960487077	-0.9367872767115719	-1.329545892492332	0.47045914152066	0.08314369900754484	0.5794114498751328	0.04857719549127375	1.08927505307506	1.857420556873288	-1.573032062502208	-8.137930307980294	-8.13793029892217	0.8871431416495186	0.1788336248774867	-3.217513524362512	-1.50726113011318	0.2933714924089554	-3.868942973754085	-3.868942955367429	-6.503301591851888	-0.3999655435194899
14.986660139997	-0.07377866653539022	-0.01894631730288871	0.07737652450610605	2.253699773003101	0.9650413369549253	1.020229921557665	0.4576247534031768	-0.06160248645408933	-0.1878062525821526	0.919753605597563	0.9197536046750048	0.02284648416236468	-0.4027248129367037	-0.07618461950956623	-5.424341026451228e-05	-0.04602708913262642	0.3297743409305612	0.3297743402308022	0.1407432232140642	-0.03689829095418728	-1.038618750800246	-1.234675089866313	0.3191809832171413	0.09099560040148677	0.5657309872231102	0.07099160608062464	0.9491680034057401	1.850637805331707	-1.521383559603172	-8.646184682043494	-8.646184674199111	0.9117407751248724	0.7408050311513168	-2.810950894636338	-1.474257245744504	-0.1148575761976907	-3.409515339599523	-3.409515320387611	-6.828528640471944	-0.3957862347075128
14.993326799997	-0.08103304954172476	-0.02672452369842792	0.07899696284389074	2.254325070285903	0.9687424254579793	1.020776625349929	0.4634907681623192	-0.04936792494615792	-0.1975153368581962	0.8605400593457185	0.8605400584878257	0.02903299019613753	-0.3957532147533668	-0.09349705507748686	-0.009594028203011617	-0.04809559764659648	0.3087746939007398	0.3087746933225786	0.09454187298127374	-0.03952998025273953	-1.135907705620031	-1.091149161224278	0.1676094108306868	0.09618674789002496	0.5432015808836322	0.09284955929946505	0.8092784010887272	1.815077236039702	-1.374618865462585	-9.110347314408862	-9.110347302043603	0.9452918534150574	1.35599707132975	-2.38057581965193	-1.377537889960544	-0.4997572109301635	-2.879605474243516	-2.879605457458773	-7.006406207315927	-0.3952526607013226
14.999993459997	-0.08888473119335484	-0.03340197205191315	0.0796290473307667	2.254977377282262	0.9722666255479236	1.02146459132994	0.4683773456944008	-0.03746063574912484	-0.2059027712690402	0.7983878307784821	0.7983878300279523	0.0354582020439221	-0.3846257715258735	-0.1079215517701723	-0.0182968807765009	-0.05258876250085696	0.2915094566860516	0.2915094562047997	0.04767155861252178	-0.04219790012895158	-1.215453735519577	-0.9058802978366221	0.0239808282614471	0.09918168461947026	0.512849892675651	0.113212067487746	0.6524080050278923	1.752922163851781	-1.123771594059663	-9.526955082483362	-9.526955062417446	0.982332138224986	1.979670773841857	-1.948412774755033	-1.224956087893959	-0.8391297272005415	-2.291311919663869	-2.291311907686329	-7.028388672831078	-0.4078716554787074
15.00666011999699	-0.09716821784631051	-0.03873202761742821	0.07935036360638954	2.255643757546244	0.9755655776852934	1.022280705792568	0.4721146992838192	-0.0260482097943706	-0.2122596941379265	0.7336353998619718	0.7336353992702397	0.04212391948472464	-0.3694456692513675	-0.1195229675587095	-0.02583104651352711	-0.05914998825539995	0.2783246091306977	0.2783246087089752	0.001179547558793171	-0.04500852391739785	-1.263179050331693	-0.6887740345608989	-0.1045642518752612	0.1004962927937666	0.4758186989988889	0.1311416183795365	0.462022185977024	1.667099677827524	-0.7655533976704074	-9.888805016910847	-9.888804989744552	1.016291182623284	2.563801880251894	-1.53735296651982	-1.029412352458263	-1.11852597661387	-1.657701321981479	-1.657701316298718	-6.893394941105736	-0.4384335706594301
15.01332677999699	-0.1056292559842182	-0.04254098394394118	0.078280323991228	2.256314737867195	0.9785984718786098	1.02320581775565	0.4744363087551576	-0.01527965866902749	-0.2158827039319448	0.6666863907364492	0.6666863903396443	0.04898643613284361	-0.3506319576792424	-0.1285117343883938	-0.03196272349558131	-0.06735741950705461	0.2694781880876658	0.2694781876797222	-0.04390616567338847	-0.04808315505360931	-1.267028323125534	-0.4516092882413727	-0.2127311203777641	0.1006441089610016	0.4332030584497898	0.1457803009045445	0.2263156145495619	1.5600937374328	-0.3053621415441043	-10.18331812095038	-10.18331809044359	1.04023059442277	3.062620238911271	-1.167571739402693	-0.8070777524493087	-1.332993805127346	-0.991945266395359	-0.9919452681265508	-6.608310133780005	-0.4866175256307728
15.01999343999699	-0.1139472362897563	-0.04473689236346089	0.0765658462175999	2.256984109127925	0.9813312739589278	1.024215612276685	0.4750226118972158	-0.005290632940418671	-0.2161402927048733	0.5980491204804509	0.5980491202838395	0.05595690674693931	-0.328885381999839	-0.1352149980351245	-0.0365717393275509	-0.07678865839200485	0.265141913248424	0.2651419128012692	-0.0866297249427008	-0.05152602566721621	-1.219467710039976	-0.2069830607279712	-0.2976356470742548	0.1000828376460909	0.3859283423651171	0.1564560758051098	-0.05839693653146897	1.43342711461444	0.2403195622334022	-10.3916073753633	-10.39160734669348	1.047673779514063	3.438296020304727	-0.8535435919850176	-0.57559346269636	-1.48717188250009	-0.3067183740335243	-0.3067183842173609	-6.187812008141787	-0.5479120992529004
15.02666009999698	-0.1217701118822753	-0.04531241688436442	0.07436420192320464	2.257648411084335	0.9837354630680364	1.025282237857449	0.4735612529677404	0.003791328581929409	-0.2125512957044186	0.5283782047719043	0.5283782047464252	0.0629066388876173	-0.3051185511331433	-0.1400333311158895	-0.03965634710034909	-0.08707966783607575	0.2654048733846196	0.2654048728398739	-0.1261570871398309	-0.0554035751989805	-1.118685517915929	0.03240461031368204	-0.3590688147798894	0.09917400260370829	0.3347272109275181	0.1627989255727456	-0.3861942981034081	1.288180836041361	0.8428359877812399	-10.4888610077611	-10.4888609858173	1.033216047561436	3.665781557555124	-0.6027467601704333	-0.3526534794038318	-1.593497981774755	0.3858365562302674	0.3858365371766858	-5.653578834676898	-0.615962446918685
15.03332675999698	-0.1287530339496333	-0.04434415796297794	0.0718253994345505	2.258306199370921	0.9857868974832554	1.026376671885447	0.4698105508296649	0.01184809116222957	-0.2048643525348454	0.4585084815943866	0.4585084816823681	0.06967520923725803	-0.2803595464568047	-0.1433939429849733	-0.04133034063514442	-0.09796699219181473	0.2702764647214462	0.2702764640231835	-0.1618181065432989	-0.05974177507645025	-0.9685682781588554	0.2541078615118292	-0.3993583808838982	0.09815801834340634	0.2801936637702527	0.1648414683850316	-0.7420166398016109	1.126373401847943	1.462240729004236	-10.44627795619448	-10.44627794455268	0.9927397182728888	3.735763429058328	-0.4158003148631462	-0.1551240351326271	-1.669135768832155	1.073935306698112	1.073935280130645	-5.032790047992801	-0.6854440051462387
15.03999341999698	-0.1345938097201843	-0.04199047664880037	0.06907698122782929	2.258957203422721	0.9874651709292286	1.027471620986345	0.4636543035442641	0.01878297074996602	-0.1931236391123256	0.3894708505170569	0.3894708506431498	0.07607843750569571	-0.2556448571799982	-0.1457078257582642	-0.04181601482703818	-0.1093075999887637	0.2796887591660028	0.2796887582760287	-0.1931362677185914	-0.06454125588928829	-0.7778223194328449	0.446052020517061	-0.4227827785832258	0.09714735013079148	0.2228696485077882	0.1630733584201461	-1.103748046887083	0.9527145775912284	2.050570904712515	-10.23453802488197	-10.23453802515922	0.9231522375685325	3.654778411012676	-0.2874304018566565	0.001340951550047572	-1.732469623408628	1.746202829441425	1.746202799408656	-4.355947693033554	-0.7543724211889555
15.04666007999697	-0.1390602773832131	-0.03848888401627374	0.06621406355817437	2.259601520139619	0.9887535678113939	1.02854454400495	0.4551380081134935	0.02454408918725793	-0.177704750950952	0.3224805092794196	0.3224805093660905	0.0819131273141378	-0.2319225893061252	-0.1473352730165835	-0.0414357464780317	-0.1210759729046423	0.2935003253033063	0.2935003242194399	-0.2198423995138928	-0.06980388227227181	-0.5584517774533243	0.5965794270573355	-0.4346094150738136	0.09614535627067078	0.1633343913352375	0.1584195569803741	-1.445666596341153	0.7761402785065314	2.557468409053005	-9.828536462145861	-9.828536473250493	0.8217027178627079	3.442001423222409	-0.2079971172194842	0.1023723470842027	-1.799886594636154	2.392044904117767	2.392044877249476	-3.654317626956438	-0.8251568624816414
15.05332673999697	-0.1420059588425349	-0.03415274783732247	0.06329646953555564	2.260239025514897	0.9896395588113819	1.029580233025937	0.4444787246829803	0.02915542555081705	-0.1593072090050974	0.2588913196290309	0.2588913196165445	0.08695654610841952	-0.2099868702070914	-0.1485630536314023	-0.04060323547870207	-0.1333421196669189	0.3115031764998226	0.3115031752693396	-0.2418712485060971	-0.07556160556996054	-0.323823406996842	0.6946512027276872	-0.4399738532873221	0.09509139484363519	0.1022725015025985	0.152129514405378	-1.742768908697177	0.6104735113378301	2.937367245907426	-9.212633019558128	-9.212633037253168	0.6851587475838955	3.12333110759882	-0.1654165641739258	0.1349829602353088	-1.883327656961617	3.002181672838718	3.002181657050692	-2.957414149230647	-0.9042525276627873
15.05999339999697	-0.1433727959871915	-0.02936541414317173	0.06035306281467649	2.260869124378378	0.9901155885451896	1.030572390960205	0.4320461740943173	0.03274755623115121	-0.1388981590693086	0.2001170966586714	0.2001170965239636	0.09096150376725723	-0.1904552307607978	-0.1495944669341107	-0.03981283605043066	-0.1462363850412116	0.3334333516432846	0.3334333503653132	-0.2593424325968541	-0.08189924649489713	-0.08683202461045844	0.7304601164145773	-0.4428899107448115	0.09391208124874122	0.04048757489650749	0.1455916418647183	-1.97484330802694	0.4735811808139971	3.156626359099141	-8.38506189072519	-8.385061908544442	0.5094282574578012	2.724844087008504	-0.1469969068924389	0.08811120619991922	-1.988778380066644	3.569185133514079	3.569185136129012	-2.290877776840406	-1.000779840685232
15.06666005999696	-0.1431835560185886	-0.02456840032376112	0.05739143277587207	2.261490770589445	0.9901797013974994	1.031523826900003	0.4183212561116734	0.03557685576234407	-0.1176140066531928	0.1475306545622647	0.1475306543264251	0.09365237205537273	-0.1737846738554922	-0.1505497571935279	-0.03962287927178194	-0.1599072344969039	0.3589847960137189	0.3589847948293173	-0.2725292733711793	-0.08896622799268064	0.1413079949992343	0.6966032539074396	-0.4456800701006162	0.09254578763187339	-0.02116026396809084	0.1401123685337145	-2.128994372580752	0.3847664417647377	3.198738032190812	-7.359966313370529	-7.359966324991726	0.2903204175823925	2.268084205558458	-0.1406552690830246	-0.04609502232289246	-2.115659233312274	4.087909940552809	4.08790996657287	-1.674996116093245	-1.124676252053059
15.07332671999696	-0.1415284734631402	-0.0202401037840612	0.05440930067123416	2.262102487938789	0.9898355574910209	1.032445209917138	0.4038446539293354	0.03802249825136012	-0.09663729317990831	0.1023600281742253	0.1023600278930679	0.09473105076226118	-0.1603090386662658	-0.151472497620666	-0.04062799178283563	-0.1744778031850679	0.3878252651669352	0.3878252642389314	-0.281820352639133	-0.09697551951433112	0.3516295501985637	0.5897141122816874	-0.449055471956689	0.09091570926813353	-0.0818659922313496	0.1367141156540801	-2.20009433503126	0.3608546612636954	3.066439127700529	-6.16614522058047	-6.166145222205808	0.02577101607652788	1.768451536212003	-0.135552535429593	-0.2703028102047393	-2.257054399216214	4.555632444353996	4.55563249511103	-1.124009954318016	-1.28474239524237
15.07999337999696	-0.1385493638676214	-0.01686305188832574	0.05140309924059158	2.262702016746515	0.9890917047392382	1.033352686010097	0.3891686270159984	0.04055581356847306	-0.07707070546180372	0.06560391800443259	0.06560391774789409	0.09390200401688736	-0.1502770370515833	-0.152339315353486	-0.04341704605177034	-0.1900064610381718	0.419611733978307	0.4196117334633493	-0.2876789472038596	-0.1061896140851454	0.5376416582068471	0.4121851555950944	-0.452858865206467	0.08884529229960911	-0.1409822004001815	0.1360032575095769	-2.189451263451669	0.4120137154174859	2.780470435188189	-4.842648400928643	-4.84264839208763	-0.2807580452681047	1.236511576725729	-0.1224935341562794	-0.5797639296666235	-2.400657099745231	4.971763783909029	4.971763856105462	-0.6461384594550879	-1.48672677813439
15.08666003999696	-0.1344233231812226	-0.01488110176856801	0.0483701676870425	2.263285255444103	0.9879602963036667	1.034264928234431	0.3748224444022142	0.04368436965787961	-0.05983000311432646	0.03798414278907476	0.03798414262130138	0.09092172402913004	-0.1438735761410667	-0.1530711996718858	-0.04851763792407619	-0.2064555581840622	0.4540029837516714	0.4540029837683393	-0.2906042755639804	-0.1168943999565595	0.6951779334615176	0.1733260260633012	-0.4571633821850292	0.08593840260836777	-0.1980819086068247	0.1381332150760641	-2.102121092481538	0.5385662498974452	2.375210338704681	-3.432346616110883	-3.432346598775333	-0.6165302485054901	0.6815924214595893	-0.09391865280125489	-0.9606802209910026	-2.530256437660902	5.337360648608684	5.337360734215405	-0.2440393134407622	-1.731659500090113
15.09332669999695	-0.1293494082083944	-0.01465317070693731	0.04530376800092421	2.26384445650365	0.9864555168772526	1.035200231977019	0.3612983290617802	0.0478815599213094	-0.04557440897853817	0.01994210707341207	0.01994210704136358	0.08567065513925089	-0.1412119046254524	-0.1535421528924947	-0.05633479238117205	-0.2236717444305998	0.4906694761458463	0.4906694767468268	-0.2910963373920885	-0.1293636316557344	0.8216496245175774	-0.1108821623555794	-0.4632449405362137	0.08148937334944213	-0.252983240782043	0.1428496295172536	-1.943648299129221	0.7300000112288116	1.892030951403532	-1.975580987737513	-1.975580964864098	-0.9568221285867708	0.1167023882896681	-0.04309697554979419	-1.39027940629519	-2.627723024259263	5.654854486034454	5.654854573675618	0.08461564502580751	-2.014742866274102
15.09999335999695	-0.1235414247691692	-0.01641446871253458	0.04218334485279885	2.264366145594421	0.9845920150013699	1.036174068811117	0.3490564759263085	0.0535185876595008	-0.03468371796376119	0.01167007709717564	0.01167007722795328	0.07823495864203892	-0.1422940996015365	-0.1535808303158179	-0.0670975808279311	-0.2413807637866104	0.5293023355985762	0.529302336756734	-0.2896246035548027	-0.1438182380698886	0.9150899452869952	-0.4197550492752772	-0.4739684303966473	0.07450009800062453	-0.3057161052193332	0.1495742022939878	-1.7179432117707	0.9666472203633996	1.372330190860897	-0.5064697828745174	-0.5064697573422164	-1.26494987425619	-0.4373354486138675	0.03699520619433334	-1.839081859222665	-2.675286052772655	5.927997851172639	5.927997928762485	0.346551734454525	-2.324899477808707
15.10666001999695	-0.1172253810534264	-0.02025475701257875	0.03896508953708723	2.264829600165531	0.9823838754309212	1.037197193839533	0.338535443859885	0.06081454605694755	-0.02727643286213459	0.01315338366479877	0.01315338396789659	0.06897571406553907	-0.1469537685347587	-0.1529669665998447	-0.08082611268292705	-0.2591964601184782	0.5696213017093354	0.5696213033220963	-0.2866010849246433	-0.1603844051468445	0.9738410846132299	-0.7308528035969335	-0.4932821965129169	0.06382844482684528	-0.3563875900024119	0.1574807419174551	-1.427971239911378	1.223208646046409	0.8525020257334287	0.9465898273762072	0.9465898531883216	-1.496069988542597	-0.9510107251622006	0.1539309749838201	-2.274520328224948	-2.6573737093095	6.161511047067963	6.161511104416722	0.5521278755787119	-2.644832343945857
15.11332667999694	-0.110635527525594	-0.02611646060868344	0.03557879246111818	2.265206654863862	0.9798448510800479	1.038274173890548	0.3301478452163212	0.06981236356190082	-0.02325173948625588	0.02419642213172623	0.02419642260248558	0.0585610589008267	-0.1548067011197104	-0.1514309799993607	-0.09732349575850349	-0.2766387633866149	0.6113781771692247	0.6113781790767916	-0.2823596175876535	-0.1790538090420374	0.9972864153547432	-1.022850520000381	-0.5248916802668889	0.04842771533273982	-0.404944935658242	0.1655459713322985	-1.079311547061378	1.472800155791923	0.3618229217127081	2.356845141310179	2.356845165518883	-1.604289387018053	-1.389310371916457	0.3146185520275852	-2.664639901324299	-2.56143964070567	6.360074273591437	6.360074303852033	0.7142201897392577	-2.951656771936079
15.11999333999694	-0.1040029711647405	-0.03381015338332077	0.03193484673090168	2.265463217410936	0.9769903361147065	1.039402222730843	0.324247227575437	0.08038114503843699	-0.02233730798268024	0.04441584413143895	0.04441584475409896	0.04794457648516552	-0.1652329987941586	-0.1486654802450048	-0.1161908170999452	-0.2931544616345902	0.6543518922229158	0.654351894232264	-0.2771437215396279	-0.1996509562198048	0.9872263281313109	-1.277851360321058	-0.5706606634157217	0.02760784058938909	-0.4509064407549835	0.172596953063026	-0.6848521800719265	1.690752253781622	-0.07737808072961497	3.693895917381127	3.693895938539271	-1.551320733237949	-1.717647067173753	0.5230965533155487	-2.981265261865755	-2.378095581466066	6.526903333148754	6.52690333322925	0.8467961326794594	-3.218452636925146
15.12665999999694	-0.09753527790296944	-0.04304333553474179	0.02794082198965622	2.265562384917052	0.9738409528155361	1.040570448798554	0.3210666876648403	0.09224202745620093	-0.02413197469707022	0.0732023602321321	0.07320236098284326	0.0382870295741732	-0.1774020744088806	-0.1443517906409439	-0.1368611377488413	-0.3081388331965891	0.6983343169248528	0.6983343188354643	-0.271104264050203	-0.2218140991645837	0.9490568976173641	-1.483046903362947	-0.6294429164088442	0.001241751048965652	-0.4931633675487824	0.1773931307184219	-0.2681772462695449	1.857807102888404	-0.4485765907301669	4.920007561790331	4.92000757892617	-1.314458164749044	-1.908448880632648	0.7784312246384497	-3.20252768779407	-2.101364282889751	6.662503307388652	6.66250327818771	0.9634563647207501	-3.416725936587232
15.13332665999693	-0.0913911211429199	-0.05345777173431759	0.02352305895892919	2.265468571995491	0.9704269757538924	1.041759828911411	0.3206449244974311	0.1050122520048848	-0.02814095000134087	0.1096693486310614	0.1096693494810065	0.03083279979692976	-0.1903383721657462	-0.138197151678896	-0.1586479153777159	-0.3209608643818914	0.7431098809623052	0.7431098825938343	-0.2643060861944868	-0.2449942620586468	0.8919798517007795	-1.631599248491346	-0.6967848404383065	-0.03014463104537659	-0.5299371753650868	0.1787624606175806	0.1362710666583527	1.962313917852894	-0.7401124887953513	5.990058754570532	5.990058767139273	-0.8919115857596281	-1.946496671074053	1.073747863060919	-3.31463691922387	-1.729525246939668	6.764116754880648	6.764116701578031	1.07623866662039	-3.51929596031163
15.13999331999693	-0.08565764667381297	-0.06466976552464744	0.01864708580764998	2.265151792224796	0.9667924237293539	1.042944233802032	0.3227636906911102	0.1182594610222813	-0.03380728612799911	0.1526148366379145	0.1526148375554751	0.02676322026130856	-0.2030143792219488	-0.1299733296050332	-0.1808021690470612	-0.3309957308385252	0.7884342933011605	0.7884342945216203	-0.2567414510884061	-0.2684740119981546	0.8279967912264423	-1.722630620790452	-0.7655568037568519	-0.06541432883994137	-0.5589210207503542	0.1757751180552887	0.4866972152311084	2.001057003720082	-0.9450396912136255	6.855514652723512	6.855514660391661	-0.3042877739560128	-1.831609621910213	1.39676244348145	-3.312699083519271	-1.266371659857448	6.825986272699721	6.825986204498174	1.194760415976504	-3.503321034184
15.14665997999693	-0.08033760299275511	-0.07630739831907934	0.01333136094944628	2.264591301580239	0.9629976768146313	1.044092616411509	0.326917867858279	0.131556534500435	-0.04054460080953506	0.2005200878001901	0.2005200887519059	0.02705348418564542	-0.2144512765056502	-0.1195477507063012	-0.2025715028203047	-0.3376655048509818	0.8340170754797214	0.8340170762285243	-0.2483482614063324	-0.2914067595643309	0.7700747287829695	-1.760335308850222	-0.8272665002582937	-0.1029609673627621	-0.5775718693619932	0.1679102858608908	0.7399602272839507	1.978589750888749	-1.061565900783907	7.471117171433894	7.471117173999237	0.4078886314931464	-1.578274963834767	1.731393713860037	-3.200445386036696	-0.7223231462814412	6.840182527403826	6.840182456206145	1.325637203597104	-3.353410269528331
15.15332663999692	-0.07535063690838155	-0.0880391471558952	0.007650917679141377	2.263778093608479	0.9591197665430848	1.045172170223891	0.3323300096698771	0.1445271660233505	-0.04777314192719508	0.2515964587900306	0.251596459742196	0.03235731676076962	-0.2238078202007293	-0.106901099705169	-0.2232536283117716	-0.340485369006686	0.8795108314881053	0.8795108317867459	-0.239031226971357	-0.3128762164629691	0.7297022010210821	-1.752296854464612	-0.8737281368073735	-0.1409050025815295	-0.5835126095327441	0.1551759361484042	0.8587696032856524	1.905146202545045	-1.093532902546882	7.802384146314436	7.802384143966618	1.189863569906849	-1.212561110172835	2.060259960660565	-2.988860826509976	-0.1149028633955829	6.79778384540426	6.797783783482507	1.472191014103197	-3.064459488656997
15.15999329999692	-0.07055386659611709	-0.09958905172379275	0.001729369439766731	2.262715997330337	0.9552496701689148	1.046152087264157	0.3380153877597535	0.1568734958349868	-0.05495809891946843	0.3038807297455292	0.3038807306677975	0.04293731873740034	-0.2304409806322995	-0.09212393745812057	-0.2422374257511656	-0.3391101226646405	0.9245095039741261	0.9245095039194233	-0.2286838178673364	-0.3319719496504085	0.7135213317023859	-1.707188106424242	-0.8988446077375301	-0.1773118944867109	-0.575022073164117	0.1381681955243203	0.8195412140599889	1.793435445331028	-1.05055566126604	7.832429154836142	7.832429148404976	1.980455198037419	-0.7668664005240347	2.368527026066581	-2.693868285759311	0.531675748468993	6.690386151928415	6.690386109159744	1.634510380801773	-2.643530087383794
15.16665995999692	-0.06578602623924791	-0.1107359982397211	-0.004280348362268235	2.261421345046021	0.9514863311974284	1.047007479945616	0.3428970138354491	0.1683810321538929	-0.06164633867663844	0.3553691646475614	0.3553691655169406	0.05864994300753643	-0.2339284220690651	-0.07538520552757837	-0.2590269012111299	-0.3333747834898291	0.9685571207787825	0.9685571205189945	-0.2172088041950271	-0.3478728212643589	0.7199869513588859	-1.632452421491017	-0.900113519784542	-0.2103952136786572	-0.5514930759632306	0.1180570761826334	0.6189614438417164	1.655254353213867	-0.9472823441150774	7.566415076883106	7.56641506768978	2.720296834138287	-0.274137827136976	2.648079954361788	-2.333658168215345	1.187857277191152	6.511642370929959	6.511642352608752	1.809784304444453	-2.110299818635806
15.17332661999692	-0.06092626758174367	-0.1213001407072055	-0.01022274873938083	2.259921468947546	0.9479283867717232	1.047722886187503	0.3459490163470419	0.1789043489393144	-0.06749307323023319	0.4041676017438089	0.4041676025468158	0.07898090792518718	-0.2340583863865646	-0.05688056632045409	-0.2732488343692973	-0.3233235400301459	1.011164964479823	1.011164964180736	-0.2045362412396484	-0.3599286062143273	0.7387672869088988	-1.532912383235215	-0.8792910450508915	-0.2386582447139777	-0.51362465631663	0.09647222140047343	0.2752985537932309	1.499327630830512	-0.8010182392489645	7.031639227292311	7.031639216824319	3.358398588758951	0.2356927353295692	2.898862766351082	-1.926620605790867	1.820838066616362	6.258136959669658	6.258136965778299	1.992701856112753	-1.496096837687523
15.17999327999691	-0.05594352978514238	-0.1311247411226055	-0.01596742804852712	2.258252514894998	0.9446658707243465	1.048294680257517	0.3463257053987275	0.1883448651498437	-0.07226716449166487	0.4486258286796206	0.4486258294127642	0.1031150097219061	-0.2308075255113846	-0.03678639352370019	-0.2846504285156876	-0.3092232956840843	1.051831302088126	1.051831301899548	-0.1906388719431005	-0.3677309731551932	0.7540646380383413	-1.410788594166291	-0.8420055790238657	-0.2609592846213499	-0.4632425034958656	0.07529476895642358	-0.1770026606715087	1.331097227333792	-0.627847609489762	6.272910172804488	6.272910162561639	3.85585894503274	0.7358184759430939	3.125958528833753	-1.490432313333463	2.397029973295453	5.929304671489063	5.929304697474318	2.175835112946924	-0.8416949943170045
15.18665993999691	-0.05091591733550182	-0.1400619180673303	-0.02143138613931988	2.256456999131855	0.9417740047225935	1.048731921725808	0.3434403996884131	0.1966323434862458	-0.07582965942122585	0.4874307837326156	0.487430784402238	0.1300220904863724	-0.2243253451884332	-0.01524151303583666	-0.2930940928244269	-0.2915603784011724	1.090058582515089	1.090058582545604	-0.175544685721702	-0.3711658038982319	0.7497703065697993	-1.266732842769257	-0.796619204979841	-0.2765302406518138	-0.402889437159535	0.05640699282178271	-0.6961986717828729	1.153862581865106	-0.4388210536072512	5.345283171636615	5.345283163043641	4.187165657204856	1.20092775884298	3.334785330978804	-1.042004620219335	2.88462688174977	5.526868852180025	5.526868890503663	2.350142391507141	-0.1939216873832608
15.19332659999691	-0.04601787426092334	-0.1479665136530646	-0.02659231223083765	2.254581296708933	0.9393098729095735	1.049055540269216	0.3369860553842109	0.2037151283830376	-0.07809255085721666	0.5196499828939501	0.5196499835149292	0.1585464939772771	-0.2149275452773461	0.007642258431887229	-0.2985527985614104	-0.2710198697066287	1.125367072767174	1.12536707306956	-0.1593452322189832	-0.3704391655635013	0.7136002421227966	-1.10110988488401	-0.752705963746151	-0.284982365918036	-0.3353996376041506	0.04144948673045989	-1.24124979779871	0.970073847336766	-0.2380842423747679	4.306757432559237	4.306757426681985	4.340082566917774	1.606539394782235	3.527678780418881	-0.5975931858916211	3.256258372874284	5.054406769366938	5.054406811068901	2.505754004374839	0.398809037808288
15.1999932599969	-0.04148704136388336	-0.1546977142525521	-0.03149122515078642	2.252673099723111	0.937311639153955	1.049296008369141	0.3269119034236058	0.209557154039251	-0.07897387907117358	0.5447307320088463	0.5447307326005795	0.1874926656736378	-0.2030869185970169	0.03175549574290731	-0.3011051529198124	-0.2484471483870461	1.15730662584688	1.157306626413491	-0.142197788388158	-0.3660712547857165	0.6390307122736228	-0.9149850377932862	-0.7194256282445497	-0.2863092425061567	-0.2635692792792508	0.03161421477389557	-1.776916422654143	0.7820103652881144	-0.02361849760374418	3.212456115749017	3.212456112786215	4.314636072159797	1.930365468240427	3.70307125531249	-0.172550895854366	3.491621984114486	4.517208577656921	4.517208613826411	2.633002280015942	0.8915086648909878
15.2066599199969	-0.03758427112491612	-0.1601257701273144	-0.03622469435018069	2.250778888322895	0.9357996233861814	1.049489819675757	0.3133750916127315	0.2141373158167077	-0.07836435219776321	0.5624666685873312	0.5624666691664431	0.2157010360991807	-0.1894112793748829	0.05696740533109942	-0.3009272880456377	-0.2247932283314237	1.185467866905864	1.185467867674483	-0.1243204835487269	-0.3588574785233712	0.5255911603885873	-0.7106687710124762	-0.7040681040268981	-0.2808774818586577	-0.1899221731249463	0.02749722503609008	-2.276349231760624	0.5918656507449696	0.2102696289536852	2.110634939821572	2.110634938719651	4.121195832059402	2.154531937980305	3.856308495256581	0.2193583465488161	3.57960919741152	3.922188565004959	3.92218858848986	2.723460277103108	1.247321265843113
15.2133265799969	-0.03455442623580006	-0.1641410332730072	-0.04092852652909264	2.248941545380413	0.9347787166246513	1.049675243472948	0.2966803638841744	0.2174484159431494	-0.07611280867901214	0.5729433300510208	0.5729433306235391	0.2421080790662754	-0.1746082295099413	0.08310896659956295	-0.2982793172893183	-0.2010491756113184	1.209492208637262	1.20949220950875	-0.1059810356499456	-0.3498010144846991	0.378443586178057	-0.4918788246482481	-0.710971622049394	-0.2693910753224438	-0.1165401237446378	0.02903115017723993	-2.722209956355004	0.4015802328232066	0.4699475960758855	1.040349206439599	1.040349205202652	3.777685280461935	2.267156373002654	3.980747823665178	0.566858391500269	3.519392329584617	3.277602292702173	3.277602299813815	2.770803248622984	1.441309657160988
15.21999323999689	-0.03259155660134262	-0.1666628700679231	-0.04575577503068699	2.247198311409683	0.9342416949425204	1.04988791831779	0.2772163033052842	0.2194945474782333	-0.07203152336182378	0.5764733651470525	0.5764733657055245	0.265786012205894	-0.1594423213252854	0.1099631207000651	-0.2934856873354195	-0.178177293965181	1.229079308852315	1.229079309716924	-0.08748052322667252	-0.340023970764369	0.2074651822138227	-0.2635356166193547	-0.7409132524677757	-0.2528256364697286	-0.04496770067117752	0.03550445569252551	-3.10654722084013	0.2125372723397397	0.7595567377379742	0.03067438074186378	0.03067437754508007	3.306366510996617	2.26312614766463	4.068804497445013	0.8620730692013806	3.320315183007048	2.592582479232417	2.592582470465822	2.771426767555294	1.463054238522981
15.22665989999689	-0.03181228330061358	-0.1676459610702109	-0.05085244143079985	2.245579253805224	0.9341728532290328	1.050156852649222	0.2553970782153844	0.2202860038091352	-0.06591964381713904	0.5735314825391762	0.5735314830679501	0.2859613631246739	-0.144688517708332	0.1372624023152579	-0.2869096965821144	-0.1570467000489771	1.243991175442114	1.243991176205312	-0.06913408535826233	-0.3306658641219998	0.0256998680590524	-0.0311918643243761	-0.7910353656030196	-0.2323421719471527	0.02378735540262717	0.04566283127260584	-3.429274729914893	0.02514128297770775	1.078541619687061	-0.8986323288145823	-0.8986323344647705	2.730807876095636	2.144458291749694	4.113156367897229	1.101344285968322	3.000712543326378	1.87661184847796	1.876611827632645	2.724730935612818	1.317809844908654
15.23332655999689	-0.03224125389359803	-0.1670818867474528	-0.05633457348746127	2.244106340303515	0.9345513407763422	1.050501341027024	0.2316182817721321	0.2198314667735989	-0.05760039609750157	0.5646976477659424	0.5646976482517002	0.302015298734446	-0.1310847017978429	0.1646949821612243	-0.2789233096419839	-0.138379903314076	1.254052690379415	1.254052690977616	-0.05125107571246871	-0.322779862357014	-0.1526634858918154	0.199779932934301	-0.855336181830113	-0.2091941322379165	0.08916948959288809	0.05787938778308515	-3.695553189044925	-0.1615372708539896	1.420061631601701	-1.735398757481306	-1.735398764424619	2.07351342215718	1.920200870696132	4.108023130371288	1.285790354055856	2.585817338284869	1.138978957975569	1.138978930173299	2.632998493709401	1.026002354991469
15.23999321999688	-0.03381079829753701	-0.1649950862069915	-0.06227031320126297	2.242793125341731	0.9353537286895516	1.050929176450325	0.2062323734802833	0.2181286152141053	-0.04696526492323871	0.5506140764968035	0.5506140769381485	0.3134713873994441	-0.1192862642817564	0.1919189281606399	-0.2698747020094888	-0.1227157044202372	1.259148553367918	1.259148553770552	-0.03411721843240429	-0.3172377948975266	-0.3144845356692971	0.4250210657360186	-0.9256327337820001	-0.1846377161654226	0.1509337111512786	0.07036764887882323	-3.912611335444264	-0.3498577424730728	1.770470295256746	-2.472707298375639	-2.472707304321002	1.354572091762339	1.60596844501509	4.050337798408288	1.421394411987023	2.10502476483978	0.3882628844783931	0.3882628542464418	2.500943096837341	0.621150646442596
15.24665987999688	-0.03637503895398585	-0.1614339885283889	-0.06866912833746168	2.241645007911774	0.936555509122289	1.051436315806982	0.1795458001782742	0.2151552828222515	-0.03401891493732715	0.5319585111720224	0.5319585115844985	0.3199782348854402	-0.1098238103459385	0.2185838174918691	-0.2600573550041064	-0.1103909929350376	1.259217232613612	1.259217232815312	-0.01798026752887725	-0.3146529429466899	-0.4497658234086628	0.6417472383230688	-0.9926842405171978	-0.1598507055109567	0.2089708378063431	0.08139704559230264	-4.086509450285148	-0.5433318387123718	2.109534478236247	-3.106417146166917	-3.106417148440799	0.5914645024853548	1.223532895484608	3.940778398610532	1.518418793421991	1.589071788714237	-0.3680232140121402	-0.3680232437024173	2.335156273415915	0.1467273426877453
15.25332653999688	-0.0397367209956635	-0.1564601105955534	-0.07547800126064722	2.24065999403467	0.938131401266617	1.052007875154737	0.1518362594909919	0.2108639524456006	-0.01892117009051418	0.5094331772449463	0.5094331776613498	0.3212942090733056	-0.1030630412021257	0.2443585218715361	-0.249685666882432	-0.1015398853085889	1.254243410460148	1.25424341047027	-0.003038970690062812	-0.3153253352647286	-0.5533116430389325	0.8487703207254083	-1.047115449655191	-0.1358626951214181	0.2631308192232882	0.08947120437459882	-4.219442720403551	-0.7458937267640675	2.411096144155541	-3.633019526317287	-3.633019522517894	-0.2001751572229914	0.8005303616219779	3.78454831983619	1.590038160264885	1.067726120734085	-1.123522123737552	-1.123522151346556	2.143697208851952	-0.3473599719585864
15.25999319999688	-0.04368258811555008	-0.1501388427646001	-0.08258299118712346	2.239829876534062	0.940054600861983	1.052620139091882	0.1233842887576877	0.2051825116596335	-0.002022079987543566	0.4837656617998723	0.4837656622666033	0.3172792802386489	-0.09916784274327817	0.2689623429886227	-0.238881796385717	-0.09610614022718597	1.24425051869506	1.244250518530587	0.01056575734913766	-0.319211047048092	-0.6255654506074406	1.046003082345769	-1.080143638888348	-0.1135004464812914	0.3130917776833786	0.09345392961648497	-4.308256467450001	-0.9607757449739706	2.644635722686241	-4.048275573064805	-4.048275561582663	-1.005272082871978	0.3696220548778603	3.591508437195072	1.650402245748948	0.5680777583479132	-1.872951324214662	-1.872951348838825	1.935801826449707	-0.8084887612083587
15.26665985999687	-0.04802030755233341	-0.1425346258007626	-0.08981567212340895	2.239141717180831	0.9422954775251882	1.053243250993054	0.09450855672074297	0.1980234265962929	0.01611935238161105	0.4557150199428023	0.4557150205135117	0.3078954563067537	-0.09807432155708216	0.2921930472640968	-0.2276761207242194	-0.09386574161012219	1.229293697996358	1.22929369768045	0.02275714850635319	-0.325918137049361	-0.6721500159960042	1.233669521139249	-1.084338301633427	-0.09335225958686995	0.3583353413470159	0.09264866500890748	-4.344958485619336	-1.189124173026437	2.778771358554337	-4.347088592434577	-4.3470885727279	-1.808147219596532	-0.03419112922081037	3.374998959729092	1.712556059795774	0.1131592335673353	-2.612095283370809	-2.612095303976805	1.721349062848575	-1.185673686124044
15.27332651999687	-0.05260689584189882	-0.1337120604491361	-0.09696466239902209	2.238579499178117	0.9448205774507383	1.053844282183906	0.06558938464882492	0.1893027517754091	0.03474744123794	0.4260736383795936	0.4260736391076628	0.2932125289540304	-0.09949180536084039	0.3139413887507385	-0.2160211964361398	-0.09445769344741188	1.209452226871436	1.209452226434996	0.03352375508104553	-0.3347341241662059	-0.7017774434694295	1.411320691543933	-1.05434883062918	-0.07575264456818209	0.3982622753222521	0.08683163713318127	-4.319730191319709	-1.428461446934943	2.786952805623362	-4.524900605063264	-4.524900577776824	-2.592170998479706	-0.3789623187434635	3.148984644004959	1.786496477187413	-0.2791011911438943	-3.337959035058968	-3.337959050415475	1.509863146542503	-1.434587799242151
15.27999317999687	-0.05735935485805575	-0.1237438748033988	-0.103791353878411	2.238125804422113	0.9475927122951519	1.054390351783938	0.03706648642320282	0.1789687961418275	0.05296306955520118	0.395656299121746	0.3956563000517824	0.2734131895805268	-0.1029448436660635	0.334183226252022	-0.2038177213994113	-0.0974200418678438	1.184820970962477	1.184820970443908	0.0429134586904716	-0.3446863145536226	-0.7232355490519605	1.576815111332303	-0.9874300854102246	-0.0607914623636378	0.4323818016682354	0.07623379957616405	-4.225274257999162	-1.671453243168771	2.65361106575974	-4.579905009853241	-4.579904977012665	-3.340203900216065	-0.6421427932742813	2.92447644013204	1.877559686763409	-0.5963774013434199	-4.04885118762312	-4.048851196794703	1.309487019712625	-1.52213746869831
15.28665983999686	-0.06224657601191833	-0.1127246135875042	-0.1100486606325496	2.237763329268577	0.9505721724438591	1.054851468796848	0.009410391332146743	0.1670356208989076	0.06981158799576566	0.3652761865972854	0.3652761877554349	0.2487946811809678	-0.1078502709060175	0.3529506379745534	-0.1909491589264479	-0.1022273121003748	1.15550236027367	1.155502359715975	0.05102258781892495	-0.3546272892087592	-0.7430282703006147	1.725704186045597	-0.8838461400477499	-0.04835355007616968	0.460439411281404	0.06147742750107648	-4.059966168628924	-1.905823935374867	2.377996066928051	-4.514502701279723	-4.514502666376364	-4.035072623109798	-0.8142070131351659	2.707086228983182	1.98550876758012	-0.8318888666401461	-4.744115793236078	-4.744115795741648	1.126623103545683	-1.429306689595029
15.29332649999686	-0.06727005709591327	-0.1007860828407059	-0.1155021021202333	2.237476052173212	0.9537184056069621	1.055202829952832	-0.01691930507399651	0.1536120418474651	0.08438443298559381	0.3357161298404941	0.3357161312258587	0.2197680651114386	-0.1136045925068838	0.3702930513939364	-0.1773190668526012	-0.1083259122838358	1.121601321126379	1.121601320575352	0.05798508660193583	-0.3633333986651905	-0.7643553564440644	1.851333713464689	-0.74713346776768	-0.03818061145673071	0.4824321108388296	0.04347772297202902	-3.828686263096082	-2.115762285528094	1.974452932072492	-4.335296717344852	-4.335296684866508	-4.659862129377244	-0.8982510233426567	2.496436714804084	2.104665784719683	-0.9838462624219069	-5.423548327688772	-5.423548323095854	0.9662219020606819	-1.152357961524447
15.29999315999686	-0.07244107795949818	-0.08810998285454094	-0.11995146998608	2.237249963420153	0.9569915473679298	1.055426373405653	-0.04151541751437498	0.1389176268637744	0.09591225872689181	0.3077034603833311	0.3077034619644619	0.1868548713051984	-0.1196595511675126	0.3862390701072823	-0.1628841289789054	-0.1151641915333779	1.083224585055362	1.083224584560072	0.06396394949566969	-0.3696083601939149	-0.7869857519745493	1.945537886201278	-0.5839761184529459	-0.02993868660801127	0.498557202409444	0.02332052472543533	-3.542052204944066	-2.284283928517	1.469763212471331	-4.052117639714305	-4.052117614152518	-5.198477969075865	-0.9071563175293125	2.286856844032177	2.225010891065146	-1.054417361176256	-6.08668516505562	-6.086685152859684	0.8320710678757964	-0.7032633683306049
15.30665981999685	-0.07775950016250623	-0.07493480917207014	-0.1232501837874616	2.237073337573661	0.9603534516532246	1.055511498135356	-0.06405537583931736	0.1232819304288372	0.103832801222938	0.2818935773759346	0.2818935790944777	0.150678760582713	-0.1255738277564107	0.4007665080882514	-0.1476780492801508	-0.1222146585969779	1.040485195142336	1.040485194754045	0.0691437360740908	-0.3723872039315612	-0.8079116906430919	1.999616859063907	-0.4036637694570086	-0.02328866681906651	0.5091110920192562	0.002139208631068214	-3.214375496011758	-2.395788649401794	0.8983172948956418	-3.676387811590964	-3.676387796353215	-5.636532580673292	-0.8592886392577723	2.069182458057466	2.333718685721167	-1.048481272636997	-6.731930607586733	-6.731930587748757	0.7268563336687862	-0.1092481205806068
15.31332647999685	-0.08319979581991646	-0.06155590511744594	-0.1253201634385709	2.236936525784164	0.9637678719591886	1.05545503405572	-0.08431572743950211	0.1071274878300107	0.107821541321694	0.2588662134135173	0.2588662151947571	0.1119509692295109	-0.1310321338056238	0.4137880948489358	-0.131825161873412	-0.1289884144909968	0.9935135497765842	0.9935135495438285	0.07372336914970408	-0.3708319995401723	-0.8228011164554728	2.005396567715087	-0.2173110472904694	-0.01795764903483378	0.5143415985697054	-0.01898420028812971	-2.8605262027129	-2.438320323107148	0.2960071538088016	-3.219042174681546	-3.219042171121588	-5.962307689236575	-0.7732135043153636	1.833555613106192	2.416672424894637	-0.9725977623617998	-7.355493612876391	-7.355493586278159	0.6522100425505515	0.5892948306281144
15.31999313999685	-0.08870728588075372	-0.04831824052770465	-0.1261607658914994	2.236831334325137	0.9671996913944759	1.055260648605783	-0.1021659492607158	0.09093933052113554	0.1077821777745725	0.2391344797548852	0.2391344815239193	0.0714488675697057	-0.1358311468253104	0.4251561682648093	-0.1155438897405241	-0.1350440132796376	0.942475292040831	0.9424752920034192	0.07790900712063853	-0.3644084157264034	-0.8274167921757991	1.956361056344318	-0.03683842016488198	-0.01378614207167079	0.5143266990139571	-0.03909080445731176	-2.493184917548426	-2.405337990782849	-0.3053889975731957	-2.688981097561243	-2.688981104324304	-6.167897173865466	-0.6634709068075085	1.572068148836206	2.460050142116832	-0.8343681810108752	-7.950476929045189	-7.950476897373806	0.6086271377476709	1.342348023663271
15.32665979999685	-0.0942012318519193	-0.03560129819924225	-0.1258498935029891	2.236750246677917	0.9706136441049097	1.054937833594159	-0.1175495044904345	0.07522445529958005	0.1038058134230804	0.2231596984068284	0.22315970010653	0.02998605677459424	-0.1398466141154003	0.4346811384032255	-0.09913866819122572	-0.1399933519241098	0.8875936920189148	0.8875936922032708	0.08190517701036025	-0.352935852969145	-0.8182067434628908	1.848880174249136	0.1263524986106724	-0.01072555635660454	0.5089469006868987	-0.05740039242195753	-2.121856411229271	-2.296950422219743	-0.8818453942918458	-2.092944935086222	-2.092944948336089	-6.250561295405578	-0.5392864979177319	1.28017871211762	2.452200495673218	-0.6421897832574751	-8.50646526970548	-8.506465235298126	0.5950285476294039	2.094571369342356
15.33332645999684	-0.0995796450940873	-0.02379582860336087	-0.124535653149026	2.236685829954352	0.9739731144007324	1.054500568243817	-0.1304636327017489	0.06046511267116529	0.09611305537546022	0.2113625888984709	0.2113625905018416	-0.01162597670441842	-0.1430012567934075	0.442155756290657	-0.08297904676543323	-0.1435075046741031	0.8291731957976441	0.8291731962118594	0.0859025153215958	-0.3366069650524031	-0.79235348256178	1.683378458220605	0.2628393246232175	-0.008788315332996947	0.4979255040285003	-0.07335222155173207	-1.753291571928736	-2.120508262557861	-1.418653735527171	-1.436619501087547	-1.436619515942783	-6.213793186869255	-0.4058847337097072	0.9571778118586977	2.385524175488054	-0.4055064074973576	-9.00954670323795	-9.009546669309879	0.6082665535738054	2.790196858094875
15.33999311999684	-0.104724672572587	-0.01327384677591583	-0.1224187556027788	2.236630560837315	0.9772392574454398	1.053965772914933	-0.1409433900930815	0.04707080572003066	0.08499116709319705	0.204125172532552	0.2041251740430931	-0.05262074008004284	-0.1452460595694284	0.4473816770971791	-0.0674677732066751	-0.1453259321408751	0.7676220688360376	0.7676220694635252	0.0900632960429834	-0.3159727602809511	-0.7479760228344995	1.465137871871708	0.3664384328976131	-0.007977550688079857	0.4808782429155101	-0.08662661152253311	-1.392189431457674	-1.890368280385572	-1.910403376054477	-0.7261879739337856	-0.7261879864282399	-6.067557964343534	-0.26696449961782	0.6065039814380838	2.25781892102805	-0.1355366667689142	-9.442535862563613	-9.442535833244726	0.6429987230655438	3.378387022246517
15.34665977999684	-0.1095100154073182	-0.004355361585176484	-0.1197280946666116	2.236577093939619	0.9803704579519998	1.053351685290099	-0.1490501716662187	0.03533497178367273	0.07073621553398879	0.2017824808608149	0.2017824823016056	-0.09231817784263656	-0.1465588910304002	0.4501978751174499	-0.05300262838161572	-0.1452712256804459	0.7034729906105965	0.7034729914062978	0.09450761511685193	-0.2918923241827081	-0.6844485129579898	1.204436812187954	0.4349470041431713	-0.008229444770311985	0.4573708438357234	-0.09714677372265709	-1.041898866952751	-1.626724168451755	-2.359484477767781	0.03020980297039406	0.03020979464332808	-5.827654585827676	-0.1273083331922316	0.2358806157008596	2.072792282888568	0.1538701853233306	-9.785390203187042	-9.785390182670618	0.6919936651163245	3.818336590776155
15.35332643999683	-0.1138088838554635	0.002723289524564411	-0.1166936116076937	2.236518823001555	0.9833223253694248	1.052676285813916	-0.1548666318909007	0.025402219906278	0.05361033916734741	0.2046051478307778	0.2046051492293942	-0.1301595540381617	-0.146959593689665	0.4505070625653841	-0.03993747784181663	-0.1432687285367197	0.6373995741459887	0.6373995750406916	0.09930264452323963	-0.265451755178102	-0.602129401456623	0.9159412279802676	0.4702093457511984	-0.009383192409822081	0.427029116965506	-0.1050626708213123	-0.7057448726011963	-1.353658910250558	-2.77307071645662	0.8211943844864646	0.821194379944839	-5.514412915574094	0.004939736972710065	-0.1435540955984471	1.839822663717914	0.4456958750465294	-10.01606594006356	-10.01606593116469	0.7467167296231952	4.083296331091433
15.35999309999683	-0.1174975642037348	0.007834999769042048	-0.1135208005107873	2.236450564367085	0.9860486186368072	1.051955878505022	-0.158502826444557	0.01725020734493514	0.03382295885775728	0.2127742252693857	0.2127742266451959	-0.1657315478319051	-0.146538060520757	0.4482922122375154	-0.02854671035819975	-0.1393675671277186	0.5702250973166502	0.5702250982301114	0.1044561806053904	-0.2378613965505575	-0.5014091546176871	0.6175225760147314	0.4775867986889002	-0.01117298241267005	0.3896997325864535	-0.1107215132266425	-0.3889255483264921	-1.096757186812416	-3.159108232963832	1.631152504135787	1.631152501408916	-5.150741423665841	0.1167543517529803	-0.5192344654972441	1.573218794234321	0.7199334859190469	-10.11200793610664	-10.11200793922802	0.797995554122418	4.162988579183641
15.36665975999683	-0.1204528453641555	0.01097829319360454	-0.1103702654372741	2.236369229494056	0.9885032124419389	1.05120390222088	-0.1601132865670708	0.01068809940239972	0.01153893911972946	0.2263517853158966	0.2263517866715883	-0.1987749094135707	-0.1454878626026233	0.443619110306889	-0.01899593092452426	-0.1337571170816687	0.5029193622834819	0.5029193631410427	0.10991428692918	-0.2103434806580413	-0.3820013937327056	0.3287217389547353	0.4649952578657924	-0.01324008992143921	0.3455874680736627	-0.1146281021791312	-0.09963264512580947	-0.880554358014079	-3.522446849752324	2.440080373019783	2.44008036917328	-4.759455497619178	0.1902218991370422	-0.8791473838647378	1.291083929275425	0.954816855378656	-10.05218797884184	-10.05218799200239	0.8365512529131578	4.064002119793925
15.37332641999682	-0.1225476335868631	0.01228273595844511	-0.1073447900988173	2.236274335910637	0.9906427174954464	1.050430046491872	-0.1599158509581469	0.005371967208692935	-0.01309088262698304	0.2452546848084739	0.2452546861256459	-0.2291736202250818	-0.1441332472364445	0.4366284429650002	-0.01132156936659695	-0.1267714769309059	0.4365807252751394	0.4365807260208452	0.1155616562400897	-0.1840247821159022	-0.2431311651885774	0.06901109722657817	0.4416360049747382	-0.0151695523841599	0.2953098567780328	-0.1173925358690733	0.1515834779610478	-0.7260465656690274	-3.862117809274702	3.224711032181818	3.224711023924309	-4.360197069003898	0.2045474341499725	-1.212945316671991	1.013780343371626	1.129171439989189	-9.819480864694025	-9.819480884458608	0.8532764817897052	3.807867123879204
15.37999307999682	-0.1236503752704808	0.01200246265180386	-0.1044853840252273	2.236168199664278	0.9924291712148423	1.049639760194786	-0.1582010322470712	0.0008358946431742166	-0.03988620921947725	0.2692397392796643	0.2692397405182102	-0.2569241420737089	-0.1429369640219733	0.427523247360415	-0.005421890409131316	-0.1188751543790589	0.3724018105114699	0.3724018111139792	0.1212230513143313	-0.1598497928925022	-0.08441448865461057	-0.1440099198610941	0.4166149928166029	-0.01654747906086619	0.2398657764967002	-0.1196653429962393	0.3538960628628821	-0.6485083771598261	-4.170204504300459	3.960731261693947	3.960731245858326	-3.966678297542847	0.1396614227282769	-1.512279896843023	0.762063513374716	1.225633456744633	-9.40313275587852	-9.403132778457659	0.8392997294962972	3.426878433863328
15.38665973999682	-0.1236313598528959	0.01049786378233131	-0.1017761583198693	2.236055707715541	0.9938322751870809	1.04883421801671	-0.1553249130421366	-0.003464044152420643	-0.06859189772276042	0.2979058058534051	0.2979058069529732	-0.2820894521696	-0.1424812721189952	0.4165558221296382	-0.001061176684952165	-0.1106258683557397	0.3116194797249183	0.3116194801771195	0.1266648977396636	-0.1385276615568273	0.09302938294724808	-0.2963336644949773	0.3977155339578092	-0.01702778255449629	0.1805338532086804	-0.12206617912812	0.4989263189054219	-0.6558521090973326	-4.432398629483454	4.625542544525414	4.625542518206568	-3.584969940739321	-0.01949854358343656	-1.770674536702992	0.5550215743893803	1.234170879357433	-8.800940213075489	-8.800940235092963	0.7860033168909768	2.958299540275358
15.39332639999681	-0.1223760463602755	0.008206634920387687	-0.09915636103322766	2.235943644560242	0.9948307823940318	1.048010767297417	-0.1516839283080175	-0.008097326444085898	-0.09884147802129957	0.330714551802372	0.3307145526843941	-0.3047463510752912	-0.1434206875503348	0.4040163472663482	0.002112182946166163	-0.1026154276500135	0.2554525804647716	0.2554525807788851	0.1315975783455	-0.1205199346968695	0.2856466705181138	-0.3789807702135155	0.390492024362289	-0.01639770613379547	0.118723642211715	-0.1251117900350385	0.583331596115413	-0.7477621579780409	-4.630053576318913	5.201019218672485	5.201019179371498	-3.213231789282713	-0.2789383436386595	-1.98317202930684	0.4079976256993081	1.15495053245051	-8.020652912594574	-8.020652931750293	0.6852711805732219	2.438160237685997
15.39999305999681	-0.1198032030817455	0.005606758123011068	-0.09653726030084023	2.235839603962504	0.9954128110897495	1.047163840636243	-0.147674537793047	-0.01360382396395894	-0.1301379363185925	0.3670282414866032	0.3670282420589801	-0.3249360772673471	-0.1464109931550691	0.3902243391527482	0.004534265639521408	-0.09539686568985471	0.2050343558035635	0.2050343560014537	0.1356811586157246	-0.1060667281561893	0.4869564834128622	-0.388956136567371	0.3977241690382188	-0.0146362355429585	0.0558065743669138	-0.1291499719747528	0.610682816938952	-0.9157630854006072	-4.743198781789078	5.675782360727118	5.675782307052084	-2.842965367417626	-0.6326848519047279	-2.145824850913769	0.3307009478579385	0.999421181126452	-7.080090926675431	-7.080090942483497	0.5303333558222998	1.896188137743628
15.40665971999681	-0.1158847595585106	0.003175070661058688	-0.09382136732880392	2.235750542236554	0.9955750305178706	1.046286250897805	-0.1436435865665518	-0.020442179186066	-0.1618559025362901	0.4061599407952688	0.4061599409633625	-0.3426279093247371	-0.1520247930874597	0.3755243484525552	0.006682870839692894	-0.08941245423665029	0.1613494635185799	0.1613494636184705	0.1385395852661948	-0.09523909424133399	0.6875238121398717	-0.3296041602942168	0.4192740762379363	-0.01196259817648457	-0.007049318712046039	-0.134313955247267	0.5923479861388349	-1.144190104862429	-4.753839295393428	6.046592264481374	6.046592197245035	-2.46160489726247	-1.061778318381187	-2.254915084126054	0.3257470266878756	0.7889192446627633	-6.005612713508244	-6.005612727485916	0.3174865059779167	1.353182659061054
15.41332637999681	-0.110664339797821	0.001345618302693962	-0.09092099303781846	2.235681061379587	0.99532083640073	1.045370670824451	-0.1398366241175992	-0.02894716821620075	-0.1932651782909748	0.4474291888539153	0.447429188538455	-0.3577033350625976	-0.1606680130892025	0.3602876955065379	0.009027340284925082	-0.08493900957712459	0.1251866044199214	0.1251866044257191	0.1397891447720319	-0.0879990833090234	0.8753846272156273	-0.2103137845183184	0.4524455925097223	-0.008866668426053362	-0.06901163509899309	-0.1405152160362224	0.5471902977678593	-1.411875732154464	-4.64897751027344	6.318555766286311	6.318555689387063	-2.05600182259811	-1.535593445206747	-2.305962315872064	0.3879436803728157	0.5509799331158696	-4.829031521845543	-4.829031536503845	0.04859443630385305	0.8213326585906024
15.4199930399968	-0.1042714451462612	0.0004721455544642158	-0.08777261683209742	2.235631590661645	0.9946578446788569	1.044411008025279	-0.1363525053923333	-0.03929997330254855	-0.2235722202515172	0.4902146803859823	0.4902146795447535	-0.3699646390238098	-0.172512954787276	0.3449206056583941	0.01197693293967852	-0.0820630243261385	0.09711514977631026	0.09711514967693685	0.1390847607244346	-0.08424886898635113	1.03692051186383	-0.04558013841298434	0.4928684270620926	-0.006106529953408122	-0.1296513017250825	-0.1474814665097022	0.4999903719558763	-1.694287177539777	-4.422907802559026	6.504024348686908	6.504024269292464	-1.616142145194128	-2.015435598996404	-2.29286848138763	0.5046017112278732	0.3142675362034181	-3.583650339891653	-3.583650356895117	-0.2661837885739412	0.307041907019927
