DataType=double
version=3
OpenSimVersion=4.5.2-2025-05-03-6a4c6ec41
endheader
time	pelvis_tilt	pelvis_list	pelvis_rotation	pelvis_tx	pelvis_ty	pelvis_tz	hip_flexion_r	hip_adduction_r	hip_rotation_r	hip_flexion_l	hip_adduction_l	hip_rotation_l	knee_angle_r	knee_angle_r_beta	knee_angle_l	knee_angle_l_beta	ankle_angle_r	ankle_angle_l	subtalar_angle_r	subtalar_angle_l
12.2066636099986	0.07990163567945834	0.07365253479591981	-0.03492697551047876	2.361348764222813	0.9141295223121196	1.027984529656719	-0.1503919010286107	0.03699193013067055	-0.02635515404893955	0.5610207969106068	-0.2385172288949082	-0.05923547304641203	0.5111783264370139	0.5111783264370141	1.800239697093675	1.800239697093675	0.4813363046265131	-0.2851322305808642	-0.264613414328894	-0.2867703833429375
12.22013026319859	0.07132012423101819	0.08903165866872978	-0.01840067639922472	2.363969413576944	0.9255674933638628	1.025111973638605	-0.2264137711521034	0.008269444776720775	-0.04991880656522858	0.5919241253472916	-0.2145555737352537	-0.1123125275906236	0.4715694271117304	0.4715694271117304	1.705614230882456	1.705614230882456	0.294595253815935	-0.2517037591044546	-0.220961443758153	-0.3058943375626036
12.23359691639859	0.05717424290512587	0.1019818027459976	-0.0008893697659927841	2.366750647302392	0.9363670084027189	1.022101824559443	-0.2928365984237407	-0.01712907462861222	-0.07034225014734999	0.6222954022849122	-0.1902562549342214	-0.1636963993126494	0.4333687737749445	0.4333687737749443	1.601377064419629	1.601377064419629	0.1062453052095307	-0.2155270441476754	-0.1801680849594333	-0.31362009173007
12.24706356959858	0.03484774485807185	0.1099476192565206	0.01798572112948406	2.36971108209749	0.9459924167231657	1.01887587569174	-0.3426450068193627	-0.03580518218147662	-0.08395410626380979	0.6504988765943689	-0.1657740549952432	-0.211077239784419	0.4016470081009232	0.4016470081009229	1.481163541580902	1.481163541580902	-0.07818517796658182	-0.1746219823823075	-0.1457167437610871	-0.3010360312271841
12.26053022279858	0.005909222652166398	0.1106788000622881	0.03761108700439214	2.37269676334939	0.9540972084450707	1.015451638774837	-0.3728762892179914	-0.04480660724866848	-0.08695193604588626	0.673237745651569	-0.1417820625461531	-0.2517967077226505	0.3857743752398228	0.3857743752398225	1.343328846280886	1.343328846280886	-0.2450447140720032	-0.1284767099840331	-0.1217064948004093	-0.2639249277146126
12.27399687599857	-0.02481871605188522	0.1030993709029888	0.0563511540674434	2.375469927614696	0.9605595021037918	1.011944343123482	-0.3845365799609723	-0.04263188239477656	-0.07675638578967998	0.6859264150829885	-0.1190776262104655	-0.2839517761103508	0.3965604050735134	0.3965604050735133	1.190459363940374	1.190459363940374	-0.3782549665900619	-0.07846700869970838	-0.112124166943287	-0.2041974146627682
12.28746352919856	-0.05149323292366444	0.08795961810310007	0.0719094911974307	2.377833734449773	0.9654367947229678	1.008534903179114	-0.3813379010005506	-0.03004676880884545	-0.05347620326455804	0.6839793448934992	-0.09815230154139472	-0.3074295158606503	0.4419756364328613	0.4419756364328613	1.02805287992654	1.02805287992654	-0.4670791837546525	-0.02767857006668268	-0.119900690004597	-0.1299863211699671
12.30093018239856	-0.06951138877946934	0.0677289255342254	0.08200470247003216	2.379708869767249	0.9688522226612908	1.005412569983619	-0.3679847032211634	-0.01012743722266809	-0.02051126574565635	0.6645123831745545	-0.07900527338468788	-0.3239834592737941	0.5240491167368768	0.5240491167368768	0.8634077371373956	0.8634077371373954	-0.5108308113726642	0.02002682851404925	-0.146367754559788	-0.05414367916973389
12.31439683559855	-0.076927456558499	0.04570758367631401	0.08513809684888013	2.381135460457464	0.9708674209424377	1.002711100090469	-0.3485844866530902	0.01259341312842278	0.0161999053977634	0.6277130468541139	-0.06125750232404163	-0.3361900662047665	0.6383458227791519	0.6383458227791519	0.7049144515398029	0.7049144515398028	-0.5183670083208275	0.06147289180939113	-0.1911751983540554	0.008628204170636236
12.32786348879854	-0.07476180902444825	0.0247918317846768	0.08112442207942575	2.38222274194667	0.9714084508323599	1.000465468971903	-0.3254754549066134	0.03357705826032759	0.05006429313018083	0.5772565242531327	-0.04451129347387366	-0.3458753326253952	0.7758686800813197	0.7758686800813197	0.5613866938787953	0.5613866938787953	-0.5035786404996739	0.0955012847330325	-0.2520743218537077	0.04537450392099913
12.34133014199854	-0.06633024181199404	0.006474809828876841	0.07110096360507644	2.383082142712508	0.9702896037678209	0.9986126008126917	-0.2986718660767865	0.04978204109746085	0.0760321389486063	0.5195111050038532	-0.02883606190135813	-0.3528945860784743	0.9261615427980546	0.9261615427980546	0.441150958849957	0.4411509588499571	-0.4798015970907523	0.1233645254146572	-0.3241577470264303	0.04834497457344059
12.35479679519853	-0.05590544023870418	-0.009487565538488988	0.05693632685103165	2.383770059976657	0.9673387278201873	0.9970409812549561	-0.2661263165117801	0.06059925922395162	0.09211726813421978	0.4617216209803959	-0.01516635624366163	-0.3549500895902776	1.080065451294212	1.080065451294212	0.3509858222599906	0.3509858222599906	-0.4558172212355623	0.1478716473967656	-0.3990975081974558	0.0173475163304313
12.36826344839853	-0.04716458799308806	-0.02463537088272416	0.04026363810056537	2.384256336308387	0.9625767495765462	0.9956665230819151	-0.2247998808521489	0.06773386684427019	0.09957430465089714	0.4097470953860173	-0.005299659289407324	-0.348619173335156	1.23100176152995	1.23100176152995	0.2951304528214633	0.2951304528214633	-0.4346793909896611	0.1721069043308636	-0.4654978704360537	-0.0399027722999092
12.38173010159852	-0.04200632485713584	-0.04083095525765243	0.02164283121867206	2.384430414439609	0.9563599623073078	0.9944904995263421	-0.1721088868280386	0.07401892349689314	0.1017194222326657	0.3661501156374048	-0.001248348766096458	-0.3311295487745082	1.374584199236742	1.374584199236742	0.2743724324916244	0.2743724324916243	-0.4150197781868077	0.199074789224902	-0.5110004430859272	-0.1099012579417862
12.39519675479851	-0.04023399884162233	-0.0592641509046353	0.0004017036549362508	2.384149752667485	0.9493940736325339	0.9935995327891507	-0.1070683357852829	0.08179960354588872	0.1020271374676818	0.3293851595825963	-0.004099840294783143	-0.3019476198589202	1.507261941484866	1.507261941484866	0.2851835076787281	0.285183507678728	-0.3935231947795546	0.2322289363951849	-0.5256717295211143	-0.1774058656521511
12.40866340799851	-0.0401719942546202	-0.07994175856887815	-0.02464167034047104	2.383316472574243	0.9425971533137016	0.9931037526769105	-0.03069079568954792	0.0918022258067243	0.1024112508521799	0.2944592208687068	-0.01304547318574345	-0.2633057412597744	1.62503889892471	1.62503889892471	0.3193476032457116	0.3193476032457114	-0.3672191929624161	0.2750188678577152	-0.5053087482992586	-0.2298744539961395
12.4221300611985	-0.03977026078946417	-0.1018198825569378	-0.0539494526748357	2.381949235775187	0.9368814887789234	0.9930529715205896	0.05428688198271157	0.1029709136026321	0.1023804138846209	0.2548465339950509	-0.02530099304745742	-0.2194368095694836	1.723006580331467	1.723006580331467	0.3649278183156429	0.3649278183156427	-0.3348014583822804	0.3284820187209113	-0.4531779202975037	-0.2606300730487169
12.43559671439849	-0.03758339532914957	-0.1233386301762033	-0.08627703958892198	2.380216546144832	0.9329626739574548	0.9933856192817831	0.1439856294383497	0.1130750430966185	0.09927748362946812	0.2048936005035091	-0.03709765833529299	-0.1750509675429446	1.795820768794577	1.795820768794577	0.4088857230638813	0.4088857230638812	-0.2968487987485923	0.3887509027314949	-0.379378876717311	-0.2698902278120636
12.44906336759849	-0.03326384007148844	-0.1430027038073293	-0.1185607854687072	2.378417066169436	0.9312621464047613	0.9939413276233213	0.2340118395152681	0.1196151120385741	0.08937767103623059	0.1417353775106909	-0.04524281571564091	-0.1339326677747131	1.838764801276339	1.838764801276339	0.4404270922504296	0.4404270922504297	-0.255269464477484	0.4470231937772386	-0.2980627903454328	-0.2636564608301037
12.46253002079848	-0.02758916538647697	-0.1597750901327211	-0.146808045676482	2.376916581239415	0.9318959017214796	0.9945285933608744	0.3201066413147092	0.1206935181961318	0.06937510054915116	0.06601273680904622	-0.04842249192914125	-0.09831159719519447	1.848866254152856	1.848866254152856	0.4534064739418031	0.4534064739418031	-0.2124472589512172	0.4922358513728452	-0.223572825185589	-0.251050107836264
12.47599667399848	-0.02224102907062861	-0.1731733139205743	-0.1675680342996332	2.376065278859023	0.9347007492019344	0.9950111819046557	0.3988658594855204	0.1156573284196874	0.03774362303021016	-0.01869141022044697	-0.04755226853094102	-0.06911434266691149	1.825620731104224	1.825620731104224	0.4466351458604332	0.4466351458604332	-0.1704835531917107	0.5144816676355347	-0.1668532099197229	-0.2411067434424798
12.48946332719847	-0.01947937794104176	-0.1830285804546528	-0.17926235657507	2.376119725499624	0.9392628195982319	0.9953709808962758	0.4684064520875634	0.1053154596240342	-0.004420311657255763	-0.1071835168236687	-0.04496362999636935	-0.04668014912615438	1.771088043176222	1.771088043176222	0.4223113129135702	0.4223113129135702	-0.1307335074620059	0.5071715210417634	-0.1331640134325861	-0.2401151738238254
12.50292998039846	-0.02167510772040145	-0.1889818227714983	-0.1827286489195204	2.377187084427184	0.9449542285061178	0.9957178552180543	0.5286394926124045	0.09156861885997561	-0.05326758692158426	-0.1940272446245758	-0.04281922275148371	-0.03129214441505212	1.689366102846312	1.689366102846312	0.3839796467269242	0.3839796467269243	-0.09366512433056677	0.4675128346406406	-0.1214942680344478	-0.2501504972977535
12.51639663359846	-0.03062730101520882	-0.1899636547847725	-0.1807395363009202	2.379202301559663	0.9510083134239786	0.9962422419291496	0.5808398898901516	0.0765269324600228	-0.1028027785312696	-0.2744364089441501	-0.04157547803710245	-0.02307391491702687	1.585662136014381	1.585662136014381	0.3355609904637216	0.3355609904637217	-0.05899379675914938	0.3962938264770983	-0.1254536547022996	-0.2688913192952094
12.52986328679845	-0.04677473679222018	-0.1840362980036938	-0.1767891381019974	2.381944587439477	0.9566489948208227	0.9971335964753403	0.6265472429018674	0.0615383014865915	-0.146137332845458	-0.3446144098234901	-0.03933632603272878	-0.02134709535920325	1.46531249418875	1.46531249418875	0.2819887245283784	0.2819887245283784	-0.02605118725121271	0.2978707043531911	-0.1351198306566267	-0.2906325773326247
12.54332993999845	-0.06864799843308282	-0.1688967062290073	-0.1737736291855349	2.385093274440018	0.9612474827264907	0.9985028813934365	0.666273595291113	0.04669541677046195	-0.1771824486809296	-0.4017846731814891	-0.03252925283735135	-0.02407466019379919	1.333113094992987	1.333113094992987	0.2305881410608243	0.2305881410608243	0.00564024512661789	0.1801327012346766	-0.1393773167596959	-0.3084607484236561
12.55679659319844	-0.09293571049148823	-0.1429742967363187	-0.1731469978200302	2.388310205733092	0.964444008371611	1.000341802146989	0.6987041052178964	0.03111477808376647	-0.1923725867977978	-0.4441971627574748	-0.0176367011740016	-0.02808845915824351	1.193211829411283	1.193211829411283	0.1915966327852631	0.1915966327852631	0.03568965192419227	0.05373015798638538	-0.1285027632099291	-0.3172142692648421
12.57026324639843	-0.1152630210462779	-0.106612364130023	-0.174812208376649	2.391320314727526	0.9661741523281835	1.002531683025313	0.720876325054271	0.01379315787061745	-0.1917941338242538	-0.4712120059339463	0.006892610714010813	-0.03028000487550669	1.049601722394098	1.049601722394098	0.1767684108055602	0.1767684108055602	0.06231912325974237	-0.06962166393142291	-0.09681294122648569	-0.3161097339463531
12.58372989959843	-0.131415289453264	-0.06265472336117618	-0.1776551754121322	2.393958338794775	0.9665803563423687	1.00489360164624	0.7293516912445069	-0.005451674266394263	-0.1791159072366239	-0.4833260088013688	0.03955262563377693	-0.02914623504410837	0.9069958452398448	0.9069958452398448	0.1964275849582661	0.1964275849582661	0.08238631375851221	-0.1794349561006259	-0.04494450954444607	-0.3096223663755974
12.59719655279842	-0.1385665028745901	-0.0160086313707952	-0.1803982745797626	2.396167158630423	0.9658444401709191	1.007256599723114	0.721940773637774	-0.02542657961058	-0.160153046698617	-0.4819133808519608	0.07608513249988702	-0.02563313210541996	0.7716561082638381	0.7716561082638381	0.256437767595215	0.256437767595215	0.09226752051210815	-0.2688179692672749	0.01902312432965742	-0.3059087029217393
12.61066320599841	-0.1361277298220223	0.02773923197218931	-0.1823698828525058	2.397960778567078	0.9640190555929212	1.009514880904997	0.6992715420483274	-0.04365962923267978	-0.1405718705252665	-0.4686006552314989	0.1110597034294627	-0.02256995196479166	0.6516579092475319	0.6516579092475319	0.3565303268893724	0.3565303268893724	0.08958025855575885	-0.3359976664620947	0.08045217792763254	-0.3134002630627364
12.62412985919841	-0.1259785496880452	0.064095974698462	-0.1838365801940568	2.399379552382486	0.9609469633788159	1.01164877241335	0.6654488585361217	-0.05715050982762578	-0.1237287675851415	-0.4444665832456294	0.1399885388799873	-0.02297552706947631	0.5561538035062628	0.5561538035062628	0.490556095145986	0.490556095145986	0.0751528215358139	-0.3838931383748615	0.1214103090921185	-0.3372430499276312
12.6375965123984	-0.1120036242373236	0.09104626748580727	-0.1857051495164241	2.400457973964201	0.9563268182182176	1.013697696910979	0.6273177652637242	-0.06350902772193978	-0.1095999656107138	-0.4094264223263994	0.1609643679181443	-0.02832674310559634	0.4935385007763843	0.4935385007763843	0.6483027214326762	0.6483027214326762	0.05420386329277126	-0.4176382689406443	0.1257679495950902	-0.3771398768636757
12.6510631655984	-0.09902616839793271	0.1094084516514722	-0.1886712450031795	2.401208993411548	0.9499157184691055	1.01569468722028	0.5924014806749758	-0.06199485437408421	-0.09523173308914498	-0.3621474344741809	0.1750286001407088	-0.03779314564973436	0.4689853495075368	0.4689853495075368	0.8180124367435261	0.8180124367435261	0.03585528043968744	-0.4414982976696333	0.08455744179401149	-0.4271520841885119
12.66452981879839	-0.09140746148948171	0.1219923604530188	-0.1922224932833535	2.40162086278329	0.9417784729467427	1.017594802673742	0.5662064053042147	-0.05393665052468874	-0.076458048331959	-0.3006784020168544	0.1851397781519545	-0.04865929785642002	0.4822827807310524	0.4822827807310524	0.988657106148688	0.988657106148688	0.03087645178436533	-0.4570354685875824	-0.0005649904369352948	-0.4772642243321612
12.67799647199838	-0.09171794608411941	0.1320036014397031	-0.1941057726445461	2.401666164401456	0.9324508391608309	1.019240091027754	0.5499368716265096	-0.04229596744900003	-0.0501478817809993	-0.2236820588366389	0.1943884759907525	-0.05747747784894534	0.5268884949632404	0.5268884949632404	1.151288071184718	1.151288071184718	0.0484154330836818	-0.4633107641022218	-0.117442747441845	-0.5162890774838431
12.69146312519838	-0.09989698776576868	0.1415412703674105	-0.1907177664767616	2.401325725049029	0.922919860301453	1.020388390189062	0.5395627083259673	-0.0306083179126087	-0.01608298275542458	-0.1318308548700286	0.204478585560437	-0.06134453795204776	0.590705616798976	0.590705616798976	1.299271667707829	1.299271667707829	0.09289309557120923	-0.4585179564076307	-0.2472523054595966	-0.5354225975765419
12.70492977839837	-0.1131829085503533	0.1509212901050836	-0.1783685654324814	2.40062275509515	0.9144233067755968	1.020796659735283	0.526702198857027	-0.02181471214952154	0.02230903319450618	-0.02874151792013483	0.2151926525396862	-0.05887707353114392	0.6585233410865144	0.6585233410865144	1.427738496669928	1.427738496669928	0.1620842018520841	-0.4417813583523127	-0.370380793446579	-0.5313401696953359
12.71839643159836	-0.1268861995209283	0.159023907273073	-0.1548028483940314	2.399651776232716	0.9081599195468616	1.020315576431986	0.5011100744342115	-0.01744344951840692	0.05872950836683972	0.07909696199762291	0.224863779433647	-0.0506561934944595	0.7154221226471196	0.7154221226471196	1.532858671794271	1.532858671794271	0.2469042895725089	-0.4140844529155998	-0.4717755945923264	-0.5076082818270284
12.73186308479836	-0.1358574081875061	0.1642963638353648	-0.1201642517105148	2.398586110477192	0.9050219713443274	1.018945970050027	0.4539300395461094	-0.01736581935432087	0.08600569547014048	0.1835974326657902	0.2313299787025555	-0.03907422751494905	0.749926961677133	0.749926961677133	1.611474538010596	1.611474538010596	0.3328771392172355	-0.3780236274444163	-0.5436974109068277	-0.4736704479473176
12.74532973799835	-0.1362620316640838	0.1657480987610377	-0.07693025361521855	2.39765790674317	0.9054194268988424	1.016833110414188	0.3805622851161322	-0.02009282295452142	0.09846140532512707	0.2772240427842524	0.232749852926849	-0.02768637892107381	0.7557843186458624	0.7557843186458624	1.661264671362001	1.661264671362001	0.4028409048442081	-0.3367671681706392	-0.585346220268354	-0.4416077025285834
12.75879639119835	-0.1270485306254486	0.1633630522261175	-0.02895965037733521	2.397115866684828	0.9092136144339112	1.014210719013738	0.2821632210081922	-0.02338295592840005	0.09371062269110184	0.3552038910535569	0.227944183543198	-0.02027268774962143	0.7320347959498669	0.7320347959498669	1.681220137299674	1.681220137299674	0.4402451082745104	-0.2929019387158727	-0.6003755272584607	-0.4218192366189675
12.77226304439834	-0.110436188602498	0.1577450918077076	0.01976239670141442	2.397171164064337	0.9157530756081254	1.011328487930574	0.165329006165619	-0.02485865626435344	0.07329585930061139	0.4168071298467505	0.2163055900003094	-0.01980955601246009	0.6819711584739214	0.6819711584739214	1.672021382149058	1.672021382149058	0.4324629769119286	-0.2477268768086582	-0.5939606296104565	-0.4192426869329826
12.78572969759833	-0.09103478383272259	0.1492826441021297	0.06604952399013433	2.397943068790038	0.9239990188098095	1.008397338830847	0.04017008765722126	-0.02242493114207924	0.04211274805558641	0.4650139588457978	0.1975156112897306	-0.02756850315880556	0.6119661125476472	0.6119661125476472	1.635995625090524	1.635995625090524	0.3737124783864801	-0.201196932977454	-0.5707635978004357	-0.4315131308226881
12.79919635079833	-0.07382083934621536	0.1373962657943431	0.1077630275470658	2.399417462040466	0.9327207859638189	1.005571530096183	-0.0824766363838641	-0.01449479349353401	0.0069062301034103	0.5046240547219815	0.1712727634753183	-0.04265225302282261	0.5308479892446561	0.5308479892446561	1.576611027070571	1.576611027070571	0.2670656663529187	-0.1523937943333525	-0.5343585990073797	-0.4496846500837206
12.81266300399832	-0.06184697152734063	0.1203548716108614	0.1434698143090944	2.401434952640609	0.9407258170408899	1.002964268828268	-0.1937235879389958	-0.0001696662898762746	-0.02574098690442789	0.539682707034937	0.1371095919830041	-0.06226401779020886	0.4497089541150717	0.4497089541150717	1.497740325887702	1.497740325887702	0.1246686197618533	-0.1002397211921264	-0.4878550547440207	-0.4611720151984509
12.82612965719832	-0.05485387912779507	0.09579531649793431	0.1719575166138415	2.403724169227779	0.9470752903619821	1.000673134719598	-0.2883801244236514	0.02055648207066191	-0.05134870978517303	0.5715561900539146	0.0943427690337702	-0.08272888659553407	0.3812257463063453	0.3812257463063453	1.403047570015169	1.403047570015169	-0.03468512937225644	-0.04414920914348963	-0.4348339624686183	-0.4537942230400349
12.83959631039831	-0.0496293583302419	0.06171826465149574	0.1921437296679642	2.405981852413541	0.9512401837086486	0.9987849134574986	-0.3653957888445343	0.04671908701760695	-0.06861708681426093	0.5987711570485312	0.04229170220633778	-0.1008565998289651	0.3374110763604551	0.337411076360455	1.295755659301072	1.295755659301072	-0.1906735011267704	0.01563662113299109	-0.3795931476336495	-0.4195019118090862
12.8530629635983	-0.04207102956187077	0.01754461660838877	0.2036207175878786	2.407977084429815	0.9531735148667275	0.9973447931013665	-0.4271422388245736	0.07665838208521689	-0.07904330102918759	0.618818780230459	-0.01910242914048782	-0.1149889976493238	0.3256338227066287	0.3256338227066286	1.178804529353332	1.178804529353332	-0.3280080584598287	0.07816526274930349	-0.3262073118907449	-0.356636743744277
12.8665296167983	-0.02985172951930751	-0.03519755182252178	0.2075139318717221	2.409636883183649	0.9532971436408517	0.9963074099764645	-0.4780849696295449	0.1086323134717568	-0.08535854788177849	0.6308754483960386	-0.08844370747963801	-0.1252842853557019	0.3444552877008198	0.3444552877008198	1.055175991965376	1.055175991965376	-0.4419936136291024	0.1422454477640166	-0.2768492270873416	-0.2702390886091328
12.87999626999829	-0.01399061514730369	-0.09287813420146197	0.2069143046921474	2.411068965938357	0.9524095890318097	0.9955124297107401	-0.5235410483906029	0.1413705474181953	-0.08997893778313693	0.6375542613100613	-0.1624414524898697	-0.1333075552289106	0.3821113970339734	0.3821113970339736	0.9281042465720806	0.9281042465720806	-0.5401747717177988	0.2069272072058524	-0.2306715767025017	-0.1706473390579354
