PennationAngle
version=1
nRows=51
nColumns=5
inDegrees=no

This analysis gathers basic information about muscles during a simulation (e.g., forces, tendon lengths, moment arms, etc).
Units are S.I. units (second, meters, Newtons, ...)
If the header above contains a line with 'inDegrees', this indicates whether rotational values are in degrees (yes) or radians (no).

endheader
time	recfem_r	vaslat_r	vasint_r	vasmed_r
     15.07999286	      0.16893844	      0.22903657	      0.05615684	      0.37429572
     15.09559284	      0.17120553	      0.23633911	      0.05792622	      0.38555053
     15.11119283	      0.17405168	      0.24379118	      0.05970549	      0.39690807
     15.12679281	      0.17640959	      0.25022827	      0.06122334	      0.40661861
     15.14239280	      0.17715906	      0.25444101	      0.06220799	      0.41292616
     15.15799278	      0.17570548	      0.25562386	      0.06248344	      0.41469182
     15.17359277	      0.17210064	      0.25361006	      0.06201424	      0.41168454
     15.18919275	      0.16678398	      0.24875730	      0.06087797	      0.40440768
     15.20479274	      0.16033501	      0.24171130	      0.05921137	      0.39375077
     15.22039272	      0.15341739	      0.23330897	      0.05719534	      0.38089639
     15.23599270	      0.14668526	      0.22442783	      0.05502542	      0.36711526
     15.25159269	      0.14045630	      0.21550621	      0.05280009	      0.35299321
     15.26719267	      0.13534850	      0.20746960	      0.05074537	      0.33999260
     15.28279266	      0.13188865	      0.20110773	      0.04906596	      0.32944285
     15.29839264	      0.13011382	      0.19644156	      0.04778839	      0.32147714
     15.31399263	      0.12994105	      0.19303131	      0.04688627	      0.31590321
     15.32959261	      0.13127736	      0.19061924	      0.04631607	      0.31235443
     15.34519259	      0.13394189	      0.18917153	      0.04598605	      0.31023088
     15.36079258	      0.13779287	      0.18865035	      0.04586684	      0.30946209
     15.37639256	      0.14272472	      0.18899847	      0.04594649	      0.30997587
     15.39199255	      0.14854018	      0.19010814	      0.04619974	      0.31160655
     15.40759253	      0.15507717	      0.19186107	      0.04660245	      0.31416486
     15.42319252	      0.16226935	      0.19418908	      0.04718033	      0.31771298
     15.43879250	      0.17017362	      0.19705507	      0.04795923	      0.32253859
     15.45439249	      0.17900192	      0.20075095	      0.04896986	      0.32884171
     15.46999247	      0.18926260	      0.20571146	      0.05028699	      0.33710538
     15.48559245	      0.20164968	      0.21241979	      0.05201783	      0.34803412
     15.50119244	      0.21640093	      0.22112581	      0.05420738	      0.36192467
     15.51679242	      0.23238569	      0.23136204	      0.05672329	      0.37789444
     15.53239241	      0.24847561	      0.24284116	      0.05948002	      0.39546713
     15.54799239	      0.26170849	      0.25390761	      0.06208364	      0.41212926
     15.56359238	      0.26847669	      0.26181985	      0.06392148	      0.42391704
     15.57919236	      0.26707279	      0.26423398	      0.06448057	      0.42750618
     15.59479235	      0.25864164	      0.26057617	      0.06363330	      0.42206748
     15.61039233	      0.24633062	      0.25249739	      0.06175447	      0.41002017
     15.62599231	      0.23329063	      0.24280116	      0.05947052	      0.39540641
     15.64159230	      0.22154691	      0.23399423	      0.05736102	      0.38195076
     15.65719228	      0.21171089	      0.22743808	      0.05576577	      0.37181298
     15.67279227	      0.20339117	      0.22339350	      0.05476984	      0.36549381
     15.68839225	      0.19623981	      0.22178349	      0.05437081	      0.36296184
     15.70399224	      0.19009130	      0.22238450	      0.05451994	      0.36390819
     15.71959222	      0.18491123	      0.22486052	      0.05513215	      0.36779241
     15.73519220	      0.18082671	      0.22886397	      0.05611468	      0.37402801
     15.75079219	      0.17807230	      0.23410649	      0.05738814	      0.38212338
     15.76639217	      0.17676976	      0.24026538	      0.05886675	      0.39155010
     15.78199216	      0.17661849	      0.24669502	      0.06039230	      0.40129996
     15.79759214	      0.17687395	      0.25237877	      0.06172675	      0.40984261
     15.81319213	      0.17653851	      0.25611649	      0.06259805	      0.41542661
     15.82879211	      0.17479755	      0.25701663	      0.06280731	      0.41676849
     15.84439210	      0.17152725	      0.25512532	      0.06236739	      0.41394787
     15.85999208	      0.16742527	      0.25161663	      0.06154854	      0.40870109
