NormalizedFiberLength
version=1
nRows=51
nColumns=5
inDegrees=no

This analysis gathers basic information about muscles during a simulation (e.g., forces, tendon lengths, moment arms, etc).
Units are S.I. units (second, meters, Newtons, ...)
If the header above contains a line with 'inDegrees', this indicates whether rotational values are in degrees (yes) or radians (no).

endheader
time	recfem_r	vaslat_r	vasint_r	vasmed_r
     15.07999286	      1.28060328	      1.10192828	      1.12347875	      1.12081412
     15.09559284	      1.26380837	      1.06848749	      1.08919844	      1.08966301
     15.11119283	      1.24334618	      1.03644685	      1.05677632	      1.06006742
     15.12679281	      1.22689674	      1.01032192	      1.03060816	      1.03611298
     15.14239280	      1.22176048	      0.99394781	      1.01431598	      1.02117553
     15.15799278	      1.23176232	      0.98944841	      1.00985025	      1.01707815
     15.17359277	      1.25729970	      0.99713398	      1.01748081	      1.02407855
     15.18919275	      1.29698903	      1.01617137	      1.03644767	      1.04146274
     15.20479274	      1.34868119	      1.04518866	      1.06558473	      1.06811840
     15.22039272	      1.40898287	      1.08210701	      1.10310137	      1.10231544
     15.23599270	      1.47315137	      1.12416397	      1.14655559	      1.14171340
     15.25159269	      1.53802351	      1.16993454	      1.19483087	      1.18536106
     15.26719267	      1.59569052	      1.21456312	      1.24316634	      1.22882533
     15.28279266	      1.63729775	      1.25244058	      1.28568116	      1.26667289
     15.29839264	      1.65950273	      1.28179298	      1.32002498	      1.29692986
     15.31399263	      1.66169682	      1.30414876	      1.34540391	      1.31902685
     15.32959261	      1.64487768	      1.32044713	      1.36195522	      1.33351392
     15.34519259	      1.61234594	      1.33043015	      1.37172229	      1.34234416
     15.36079258	      1.56755846	      1.33406181	      1.37528520	      1.34557138
     15.37639256	      1.51374093	      1.33163382	      1.37290254	      1.34341280
     15.39199255	      1.45488809	      1.32395407	      1.36538225	      1.33660980
     15.40759253	      1.39402178	      1.31200457	      1.35359196	      1.32608160
     15.42319252	      1.33274297	      1.29647041	      1.33702471	      1.31176570
     15.43879250	      1.27139711	      1.27785379	      1.31532649	      1.29281006
     15.45439249	      1.20931475	      1.25463641	      1.28820206	      1.26890415
     15.46999247	      1.14447514	      1.22479484	      1.25448842	      1.23894305
     15.48559245	      1.07504098	      1.18667144	      1.21278256	      1.20154893
     15.50119244	      1.00279256	      1.14067016	      1.16384068	      1.15735074
     15.51679242	      0.93493593	      1.09104792	      1.11227134	      1.11064627
     15.53239241	      0.87552724	      1.04042103	      1.06077742	      1.06372533
     15.54799239	      0.83219754	      0.99599067	      1.01634489	      1.02303668
     15.56359238	      0.81170573	      0.96655168	      0.98716162	      0.99624366
     15.57919236	      0.81586984	      0.95792462	      0.97861397	      0.98838912
     15.59479235	      0.84184040	      0.97105921	      0.99162615	      1.00034527
     15.61039233	      0.88299430	      1.00143362	      1.02175542	      1.02799851
     15.62599231	      0.93137494	      1.04058909	      1.06094674	      1.06388009
     15.64159230	      0.97986938	      1.07899584	      1.09991862	      1.09942133
     15.65719228	      1.02466347	      1.10953750	      1.13134927	      1.12794669
     15.67279227	      1.06596187	      1.12928146	      1.15190040	      1.14654935
     15.68839225	      1.10428003	      1.13734304	      1.16034585	      1.15418947
     15.70399224	      1.13954568	      1.13431991	      1.15717506	      1.15132115
     15.71959222	      1.17108857	      1.12203727	      1.14433816	      1.13970675
     15.73519220	      1.19724241	      1.10274474	      1.12432194	      1.12157854
     15.75079219	      1.21556056	      1.07848792	      1.09939940	      1.09894907
     15.76639217	      1.22442297	      1.05135601	      1.07181557	      1.07380909
     15.78199216	      1.22546071	      1.02449101	      1.04477242	      1.04908526
     15.79759214	      1.22370926	      1.00189426	      1.02221366	      1.02841865
     15.81319213	      1.22601012	      0.98758696	      1.00800378	      1.01538362
     15.82879211	      1.23809451	      0.98420426	      1.00464965	      1.01230496
     15.84439210	      1.26146116	      0.99133966	      1.01172689	      1.01880015
     15.85999208	      1.29206738	      1.00486437	      1.02516969	      1.03112864
