Joint Reaction Loads
version=1
nRows=51
nColumns=10
inDegrees=no

This file contains the reaction forces and moments
applied to the specified body of a joint pair and expressed  in the specified reference frame.

Units are S.I. units (seconds, meters, Newtons, ...)
endheader
time	patellofemoral_r_on_patella_r_in_patella_r_fx	patellofemoral_r_on_patella_r_in_patella_r_fy	patellofemoral_r_on_patella_r_in_patella_r_fz	patellofemoral_r_on_patella_r_in_patella_r_mx	patellofemoral_r_on_patella_r_in_patella_r_my	patellofemoral_r_on_patella_r_in_patella_r_mz	patellofemoral_r_on_patella_r_in_patella_r_px	patellofemoral_r_on_patella_r_in_patella_r_py	patellofemoral_r_on_patella_r_in_patella_r_pz
     14.06666097	    907.68242097	    -23.16646083	     49.97594067	     -3.82643063	      0.99603294	    -25.69382368	      0.00000000	      0.00000000	      0.00000000
     14.08226095	    682.03327302	    -53.12251560	     22.71291007	     -3.26449882	      0.93182814	    -17.88573796	      0.00000000	      0.00000000	      0.00000000
     14.09786094	    514.51590927	    -62.62378139	      3.42425394	     -2.83542936	      0.88314153	    -12.38960320	      0.00000000	      0.00000000	      0.00000000
     14.11346092	    411.49317289	    -61.68907692	     -7.97876710	     -2.56917642	      0.86410805	     -9.20715941	      0.00000000	      0.00000000	      0.00000000
     14.12906091	    371.41902583	    -60.48363385	    -14.52850396	     -2.52313590	      0.88219943	     -7.99477207	      0.00000000	      0.00000000	      0.00000000
     14.14466089	    393.54174193	    -64.56698950	    -13.79280783	     -2.58721899	      0.91842487	     -8.50699989	      0.00000000	      0.00000000	      0.00000000
     14.16026088	    473.96232202	    -72.60830718	     -5.22468001	     -2.70202900	      0.95918028	    -10.70951806	      0.00000000	      0.00000000	      0.00000000
     14.17586086	    600.38787047	    -75.92024104	     10.82706418	     -2.83864988	      1.00382418	    -14.57885712	      0.00000000	      0.00000000	      0.00000000
     14.19146085	    754.31588238	    -63.72262190	     31.95917546	     -3.02530526	      1.06401636	    -19.84318184	      0.00000000	      0.00000000	      0.00000000
     14.20706083	    924.93281515	    -28.81715856	     56.41145338	     -3.28931668	      1.14501253	    -26.19206677	      0.00000000	      0.00000000	      0.00000000
     14.22266081	   1122.64812039	     34.98157041	     86.10869382	     -3.62302717	      1.23479316	    -33.89368970	      0.00000000	      0.00000000	      0.00000000
     14.23826080	   1384.22921850	    137.20256165	    125.86473535	     -4.04160797	      1.32263796	    -44.02670278	      0.00000000	      0.00000000	      0.00000000
     14.25386078	   1724.56151678	    293.28776023	    178.83512305	     -4.51377343	      1.38228815	    -57.02516042	      0.00000000	      0.00000000	      0.00000000
     14.26946077	   2087.17125424	    506.86219802	    238.83867137	     -4.98722187	      1.39432012	    -70.91369298	      0.00000000	      0.00000000	      0.00000000
     14.28506075	   2387.45196608	    748.50596140	    292.62675995	     -5.45127117	      1.36966450	    -82.38095991	      0.00000000	      0.00000000	      0.00000000
     14.30066074	   2539.77590953	    929.13309817	    330.28666679	     -5.23090111	      1.09624345	    -88.31201840	      0.00000000	      0.00000000	      0.00000000
     14.31626072	   2517.27580192	    987.80104934	    343.14030910	     -5.15751068	      1.06068272	    -87.66699380	      0.00000000	      0.00000000	      0.00000000
     14.33186070	   2361.66028320	    913.11771759	    333.03324181	     -4.97585933	      1.05393545	    -82.27720038	      0.00000000	      0.00000000	      0.00000000
     14.34746069	   2154.14182664	    820.72005656	    299.79781568	     -4.98225672	      1.10399636	    -74.74876924	      0.00000000	      0.00000000	      0.00000000
     14.36306067	   1931.73062855	    726.58882775	    253.84255671	     -5.05416131	      1.17175015	    -66.53870649	      0.00000000	      0.00000000	      0.00000000
     14.37866066	   1721.52239647	    642.01631340	    203.78353250	     -5.15202846	      1.24250084	    -58.70171268	      0.00000000	      0.00000000	      0.00000000
     14.39426064	   1515.64804554	    531.55488857	    157.06704853	     -5.10614770	      1.28079268	    -51.13160100	      0.00000000	      0.00000000	      0.00000000
     14.40986063	   1309.78130900	    407.30138779	    115.95294630	     -5.33724790	      1.58806433	    -43.46514906	      0.00000000	      0.00000000	      0.00000000
     14.42546061	   1100.08478204	    274.60173851	     82.30610817	     -4.91279598	      1.57092377	    -35.77569901	      0.00000000	      0.00000000	      0.00000000
     14.44106060	    903.65830093	    165.76615232	     53.78364412	     -4.42017542	      1.41454822	    -28.55394657	      0.00000000	      0.00000000	      0.00000000
     14.45666058	    729.25385494	     84.14387367	     30.63699993	     -3.95476677	      1.19722824	    -22.14769845	      0.00000000	      0.00000000	      0.00000000
     14.47226056	    587.53464467	     26.52870237	     12.29864888	     -3.56157763	      1.03848298	    -16.86860032	      0.00000000	      0.00000000	      0.00000000
     14.48786055	    469.09036142	    -11.43018736	     -3.05994069	     -3.18395162	      1.03871618	    -12.47600117	      0.00000000	      0.00000000	      0.00000000
     14.50346053	    374.52416394	    -32.39157619	    -15.61426138	     -2.79770850	      1.19202825	     -9.09408591	      0.00000000	      0.00000000	      0.00000000
     14.51906052	    303.23650727	    -40.90252730	    -24.31850817	     -2.41985228	      1.32550467	     -6.71234281	      0.00000000	      0.00000000	      0.00000000
     14.53466050	    241.59579858	    -39.90187279	    -26.55056350	     -2.13597993	      1.08915719	     -4.94631454	      0.00000000	      0.00000000	      0.00000000
     14.55026049	    189.01170254	    -36.97702430	    -20.02979060	     -2.20313152	      0.10704581	     -3.46722702	      0.00000000	      0.00000000	      0.00000000
     14.56586047	    209.13027316	    -47.94902794	    -11.86631048	     -3.16341342	     -1.40361082	     -3.37147429	      0.00000000	      0.00000000	      0.00000000
     14.58146046	    482.76843682	    -93.32275928	    -21.47271374	     -5.72091688	     -1.69615293	     -9.08115423	      0.00000000	      0.00000000	      0.00000000
     14.59706044	   1285.67230795	   -166.27440550	    -59.90485929	    -10.48202943	      2.43802357	    -28.85408433	      0.00000000	      0.00000000	      0.00000000
     14.61266042	   2808.26515391	   -198.94487972	   -105.90019156	    -17.98005463	     13.47562123	    -70.24562251	      0.00000000	      0.00000000	      0.00000000
     14.62826041	   4928.72582059	   -100.37056286	   -118.09393022	    -28.15833199	     29.89074851	   -131.77527723	      0.00000000	      0.00000000	      0.00000000
     14.64386039	   7139.86419849	    149.55746518	    -78.85350676	    -39.33227829	     45.95010795	   -199.08808066	      0.00000000	      0.00000000	      0.00000000
     14.65946038	   8768.04111067	    437.14830550	    -13.34120708	    -48.10931737	     55.80307000	   -250.67210457	      0.00000000	      0.00000000	      0.00000000
     14.67506036	   9257.34651363	    583.52136032	     34.64352934	    -50.91926953	     56.75544313	   -267.60985333	      0.00000000	      0.00000000	      0.00000000
     14.69066035	   8462.76227432	    498.21940727	     39.90842337	    -46.50659972	     49.78720834	   -244.30973698	      0.00000000	      0.00000000	      0.00000000
     14.70626033	   6716.44976086	    255.53390681	     12.80003625	    -36.64580429	     38.05464405	   -191.22890390	      0.00000000	      0.00000000	      0.00000000
     14.72186031	   4602.62993849	     17.34688174	    -16.87531726	    -24.75533598	     25.11937362	   -127.53710258	      0.00000000	      0.00000000	      0.00000000
     14.73746030	   2695.43802476	   -104.64027511	    -26.83245049	    -14.15726572	     13.96249933	    -71.72954927	      0.00000000	      0.00000000	      0.00000000
     14.75306028	   1344.78380622	   -114.63139200	    -16.16761263	     -6.74950436	      6.21627768	    -33.93465410	      0.00000000	      0.00000000	      0.00000000
     14.76866027	    597.80319623	    -79.35020380	     -0.27815474	     -2.78098907	      1.96202904	    -14.13712676	      0.00000000	      0.00000000	      0.00000000
     14.78426025	    314.82874084	    -54.14448278	      5.21377926	     -1.50886689	      0.37755206	     -6.91815362	      0.00000000	      0.00000000	      0.00000000
     14.79986024	    297.10490908	    -54.17304239	     -1.74707278	     -1.74665182	      0.30848190	     -6.21723921	      0.00000000	      0.00000000	      0.00000000
     14.81546022	    376.20019875	    -66.32509451	     -9.17771472	     -2.32247370	      0.71141429	     -7.88197714	      0.00000000	      0.00000000	      0.00000000
     14.83106021	    452.28151687	    -74.99831276	     -6.89122435	     -2.55244923	      0.94774284	     -9.79923455	      0.00000000	      0.00000000	      0.00000000
     14.84666019	    501.13122914	    -75.42240374	      4.89742152	     -2.37460455	      0.89303612	    -11.43211838	      0.00000000	      0.00000000	      0.00000000
