PassiveFiberForce
version=1
nRows=51
nColumns=5
inDegrees=no

This analysis gathers basic information about muscles during a simulation (e.g., forces, tendon lengths, moment arms, etc).
Units are S.I. units (second, meters, Newtons, ...)
If the header above contains a line with 'inDegrees', this indicates whether rotational values are in degrees (yes) or radians (no).

endheader
time	recfem_r	vaslat_r	vasint_r	vasmed_r
     14.06666097	    169.22944417	    160.08182434	     61.97081217	    100.11237765
     14.08226095	    157.86592175	    134.98870672	     51.61782045	     84.82295845
     14.09786094	    146.21485138	    115.41655487	     43.69689012	     72.88365740
     14.11346092	    139.35667174	    103.33086762	     38.81431171	     65.38873266
     14.12906091	    140.94277793	     98.82114511	     36.91791003	     62.41753632
     14.14466089	    153.42123543	    101.08517555	     37.69272221	     63.56936999
     14.16026088	    179.05014998	    109.26253871	     40.81841153	     68.35450768
     14.17586086	    221.04156641	    122.90016876	     46.15472997	     76.48903700
     14.19146085	    284.25070018	    141.93929061	     53.77670633	     87.96351691
     14.20706083	    374.35290334	    166.22960926	     63.77508286	    102.74550931
     14.22266081	    494.64104327	    195.03975919	     76.03222391	    120.45374789
     14.23826080	    648.43974575	    228.88454561	     90.96263290	    141.56912837
     14.25386078	    830.05959349	    266.87667581	    108.51860540	    165.88354911
     14.26946077	   1002.77986858	    304.46598768	    126.93925264	    190.77239961
     14.28506075	   1119.86825333	    338.34769431	    144.68767195	    214.24194211
     14.30066074	   1145.74088495	    370.42880607	    160.63497951	    234.98551611
     14.31626072	   1070.96389390	    400.47203449	    173.77699842	    252.52934691
     14.33186070	    928.27900302	    422.13078638	    183.34592643	    265.42778486
     14.34746069	    759.52393187	    429.92889476	    186.91862896	    270.20401459
     14.36306067	    599.41310983	    421.56742742	    183.38824164	    265.36596049
     14.37866066	    466.29883080	    399.63708665	    173.93105902	    252.53225687
     14.39426064	    358.31816753	    369.86388669	    161.06342011	    235.29478375
     14.40986063	    268.05665030	    338.52818066	    145.64103760	    215.21280282
     14.42546061	    192.84638425	    305.70103429	    128.49483524	    192.56098803
     14.44106060	    131.62153805	    268.37684967	    110.22694672	    167.95169013
     14.45666058	     84.71480074	    228.29324400	     91.68935768	    142.38793575
     14.47226056	     52.29737952	    189.80459775	     74.68205293	    118.43221725
     14.48786055	     31.28381896	    154.50232898	     59.74446307	     96.85529015
     14.50346053	     18.87455140	    124.34259851	     47.40230313	     78.51711491
     14.51906052	     13.01032022	    102.79153717	     38.74273409	     65.32728576
     14.53466050	     11.55902077	     90.73640365	     33.85502588	     57.71723988
     14.55026049	     13.06057351	     87.57697330	     32.45698068	     55.46202665
     14.56586047	     16.61437442	     92.07367201	     34.08933010	     57.94057802
     14.58146046	     21.83494382	    102.95270731	     38.26561083	     64.38985111
     14.59706044	     28.70456124	    118.98672573	     44.54710521	     74.02849776
     14.61266042	     37.07892329	    138.61877403	     52.42315736	     85.93717198
     14.62826041	     46.18219094	    159.36457757	     60.98211011	     98.64981766
     14.64386039	     55.03181848	    177.89605685	     68.84621009	    110.11659265
     14.65946038	     63.64051337	    191.20076319	     74.64619957	    118.44685384
     14.67506036	     73.16304031	    196.93030404	     77.24743432	    122.14425020
     14.69066035	     85.13561465	    193.82104131	     76.01890652	    120.38142801
     14.70626033	    100.46759613	    182.44352426	     71.22434578	    113.51582842
     14.72186031	    118.11541723	    164.97966557	     63.90413137	    102.93207350
     14.73746030	    134.43458556	    144.56151479	     55.47797318	     90.55851547
     14.75306028	    145.63438876	    124.96576554	     47.52141564	     78.67218969
     14.76866027	    151.06245952	    109.12024356	     41.16173221	     69.00884254
     14.78426025	    154.08913303	     98.55552468	     36.91454627	     62.45267213
     14.79986024	    160.29236673	     93.79580058	     34.94931084	     59.36843109
     14.81546022	    175.03581150	     94.70314004	     35.21547374	     59.74076586
     14.83106021	    201.70364372	    100.47141898	     37.40176122	     63.09850257
     14.84666019	    239.91715590	    109.35546362	     40.82624439	     68.35660656
