DataType=double
version=3
OpenSimVersion=4.5.2-2025-05-03-6a4c6ec41
endheader
time	/jointset/patellofemoral_r|reaction_on_child_1	/jointset/patellofemoral_r|reaction_on_child_2	/jointset/patellofemoral_r|reaction_on_child_3	/jointset/patellofemoral_r|reaction_on_child_4	/jointset/patellofemoral_r|reaction_on_child_5	/jointset/patellofemoral_r|reaction_on_child_6
15.31999314999686	-6.882553593045487	11.71495837521893	-60.00983491502121	2155.301019986851	-934.3877270860387	39.73925307646911
15.33519313479685	-1.816938769517042	7.294419526871653	-43.61213252110478	1539.836185442503	-834.5293571100042	154.9205420231186
15.35039311959684	0.3991603746979429	2.520112527126961	-20.67171094873592	729.3137399649593	-464.6100434766718	143.0957758839271
15.36559310439684	0.3844154119494954	0.8263157993421749	-9.081255503767402	322.0184369591787	-230.032497475077	84.76511312212318
15.38079308919683	0.2263985829827075	0.7346948677315919	-7.112392236488119	245.5805799795063	-191.9870966676439	69.28093850087498
15.39599307399682	0.3826271736726714	0.6053171602048169	-7.624208810512092	244.7348311154871	-210.8352069344186	78.15053923784171
15.41119305879682	0.5970065926822559	0.4470998009932962	-9.55105306711701	277.9863351345347	-263.6877922688471	94.30535642086247
15.42639304359681	0.8219862902571649	0.2361771542417129	-13.69734373656507	356.3396722004823	-369.4343217570532	120.1300670989333
15.4415930283968	0.8011547912761886	0.1156345018367769	-20.5272073129143	479.2439901477827	-537.7701515421988	147.8656498556906
15.4567930131968	0.2335165831183215	0.5227163939087873	-27.32409427571872	586.0502909532941	-701.6793581786039	150.1753858227959
15.47199299799679	-0.6531725465795378	1.339946212294152	-34.77964974904978	699.1720166915572	-885.8608421627154	141.7627321822433
15.48719298279678	-1.87174813958217	2.402075528954474	-46.55338063704194	889.7696356519924	-1186.565731798621	142.5024798658648
15.50239296759677	-3.51865465183397	3.829496834428114	-61.64131208345181	1142.192084831647	-1585.190058882654	142.7131517565589
15.51759295239677	-5.250070557906551	5.524495520489219	-76.89092648407789	1413.215943960783	-2015.685942464427	137.9358207634672
15.53279293719676	-6.604756936296582	6.665404358587678	-88.97856639475773	1639.316142973116	-2396.164313427502	135.6234995020753
15.54799292199676	-7.064355165823383	7.065624776502932	-94.94386545018051	1762.217244775464	-2627.692799388602	145.6567936742953
15.56319290679675	-6.487975266024941	6.416701081382795	-96.51436589474032	1719.958113001936	-2708.244877375144	197.2948491661697
15.57839289159674	-4.707315616108953	5.153146416771229	-95.54767431294873	1721.643972705854	-2660.19676163157	271.5452482424649
15.59359287639673	-1.776588270618588	3.719719383445948	-91.15908997669223	1754.552007573351	-2454.809267632875	351.2547651911979
15.60879286119673	1.489525570221636	2.885866113436462	-83.59590897625777	1786.649096805153	-2106.856496550458	409.304781777069
15.62399284599672	4.165740961864044	2.865587530069737	-73.93556427190592	1777.022490936352	-1673.471636294242	435.4822805571831
15.63919283079671	5.925402830636536	3.353985679734828	-64.33619701705737	1726.104817884904	-1239.203727548392	442.7886696182366
15.6543928155967	6.859836719846258	3.88166085470368	-56.38981465073582	1656.546956437964	-856.1888380699693	447.081464759479
15.6695928003967	7.247388246867104	4.042437560840082	-50.57495864290067	1570.479177303356	-548.2868131800462	452.3943973094613
15.68479278519669	7.288953847318928	4.024432949700206	-46.72493318987402	1477.664127807143	-319.9260913990903	458.6864883521297
15.69999276999668	6.442260131818482	3.69089404915054	-41.06966899538251	1302.244735571726	-133.3931856103334	422.8499017129632
15.71519275479668	4.765266069262685	2.944345843480002	-32.77339243288726	1038.0570387866	-4.548396338658926	338.8491260348471
15.73039273959667	3.076109654923532	2.22254751466674	-25.93453480715992	825.5801979544017	71.80001913791652	261.0827758764046
15.74559272439666	1.494206463478804	1.507229687357103	-20.69145136163872	670.7191599656886	113.1414800475638	194.3602580196234
15.76079270919666	0.130980456084846	0.7530782580923502	-14.78288914876262	498.9480029031566	116.2291870945999	122.3509950483742
15.77599269399665	-0.6586554599406715	0.2141913697228451	-8.795932859427595	319.2344015816208	88.16329283378303	57.5604716580368
15.79119267879664	-1.042524889702286	-0.05025462376834956	-5.516459402269228	223.1404575758308	66.07576297729358	21.14706483716475
15.80639266359663	-1.377942727735741	-0.1877635426991646	-4.261552868338804	193.4723348269486	57.54679685680395	0.1967595638157543
15.82159264839663	-1.697326845724248	-0.2263932724974774	-3.863896604962371	189.2883608539765	53.35130560189459	-15.44472799009594
15.83679263319662	-2.090063865736087	-0.1872451988918168	-4.227429042983244	210.5227609456115	53.5402352543444	-28.04512606451602
15.85199261799661	-6.497399323509281	-3.24417133068877	-9.248842360421373	494.6005937306406	102.3827851053049	-88.77901939059444
15.86719260279661	-15.83236523601203	-8.962544022428153	-21.43090466400746	1094.648821051227	175.5364695335398	-221.4862281162738
15.8823925875966	-32.52938409282806	2.009670087222936	-62.44407400774343	2675.43039519667	335.7831776371435	-550.0593451093706
15.89759257239659	-55.18250008161603	32.6387838854717	-127.0509725294852	5032.126881871211	367.0321849468463	-1118.8137928222
15.91279255719659	-69.99124697001302	53.10251293592165	-160.809875195315	6260.769152888164	32.05770856645238	-1613.112530672695
15.92799254199658	-75.37252859548978	59.29583103895588	-162.6358887736334	6346.281236143892	-465.4748010740403	-1918.411654907381
15.94319252679657	-67.82888549256116	56.81837406832221	-140.9432328234414	5526.081955917994	-892.1640733975537	-1905.829366943607
15.95839251159656	-49.38262892911812	46.90145050255767	-106.0717373068271	4164.920909128406	-1080.31067294218	-1548.434517818281
15.97359249639656	-28.69501842850835	32.14558875410043	-68.86632253074272	2716.796160643123	-993.6252230815629	-1016.449395586416
15.98879248119655	-11.39221613687691	15.14771112440422	-33.57084900877977	1346.596210146252	-646.4472425519554	-455.9864309612052
16.00399246599654	-3.341346873438193	4.733966457897943	-12.76914102557955	533.9856812551469	-320.1696735091767	-136.203099200596
16.01919245079654	-1.548276563070945	1.781048429121876	-5.37879027875269	238.6630725336504	-166.2119575011324	-48.10942576695638
16.03439243559653	-1.050506725697425	1.145056566659921	-3.335511095716369	144.6680389984222	-111.5385452253223	-23.33500140525
16.04959242039652	-0.8500092372130663	1.060897494004164	-3.61352757866841	144.4893979649891	-123.3782102481227	-7.262179963916275
16.06479240519652	-0.5269515235231981	0.7949228186157696	-4.249383192888706	157.4807269829008	-146.6694283811646	21.10143267202828
16.07999238999651	-0.07328035492883238	0.3329371674132373	-5.411536784544888	180.2539617651648	-182.4582248710765	61.14381329933907
