Inverse Dynamics Generalized Forces
inDegrees=no
nColumns=21
nRows=51
DataType=double
version=3
OpenSimVersion=4.5.2-2025-05-03-6a4c6ec41
endheader
time	pelvis_tilt_moment	pelvis_list_moment	pelvis_rotation_moment	pelvis_tx_force	pelvis_ty_force	pelvis_tz_force	hip_flexion_r_moment	hip_adduction_r_moment	hip_rotation_r_moment	hip_flexion_l_moment	hip_adduction_l_moment	hip_rotation_l_moment	knee_angle_r_moment	knee_angle_r_beta_force	knee_angle_l_moment	knee_angle_l_beta_force	ankle_angle_r_moment	ankle_angle_l_moment	subtalar_angle_r_moment	subtalar_angle_l_moment
11.81333003	44.57696823343312	10.8197228522195	2.478329462837427	-27.39510059458207	-282.8637842205319	60.5764378654603	14.27762749920008	-51.89946592986443	13.40715518204122	27.915427503451	-12.1627681791183	8.079759290331074	-42.89356298723284	-0.06697214527457705	4.721189447500573	0.01728957673690663	-123.7444552349185	2.811004055281324	39.43927565084069	-1.287284474080334
11.82826334	18.67293732113982	0.6050651320885492	1.78433019505283	-16.40417755157838	-119.9550447601935	37.63992513452704	17.08674492433849	-41.9577530283336	4.308274283050419	6.01503156923767	-11.51101541503952	13.38027895669557	-23.81389402935982	-0.06662891467042564	0.7130192572564098	0.04062699186856328	-80.44087588044437	2.300400359548545	25.4017038484799	-1.338635469326837
11.84319665	1.493361890394568	-5.252175360459699	1.535835000360528	-3.71916674365419	-7.197217150737565	16.30322587598114	22.60095315682495	-26.73195282208142	-2.233300878459882	-13.64676049335889	-7.121493695720094	15.70890228964093	-8.385274379288848	-0.06381894723865264	-0.4598267519434707	0.06026790145712151	-43.38124429579855	1.851490708473656	13.55034583700543	-1.303925718343964
11.85812996	-3.727122025190039	-4.161303125244117	1.259609587597371	7.918217012243431	37.17954957998618	-1.945108359448406	30.7055573517775	-4.338533996583173	-4.995483999377171	-28.82367401215164	2.662020959427256	13.56908364424756	1.745418356224946	-0.05738996769865636	2.898201309118978	0.07179923993834408	-16.85006166723997	1.56800579911927	5.342943572507841	-1.13892665094058
11.87306327	-0.9864931681803257	2.523339460670827	0.1464677006198926	12.53938936093851	31.84443326426233	-14.9076904688788	38.39252689470793	21.43184109500083	-4.531115544063591	-38.57726077608282	16.48696927153231	7.807809392428836	7.265509065451998	-0.04813747908785827	10.6065655129029	0.07167705457564827	-1.929598511930514	1.530292628782897	1.014505178604858	-0.8445203360151242
11.88799658	2.412958943513059	9.205348353356948	-1.447026399761898	7.442952987049367	11.02025944636986	-19.29534294697114	42.80016992030199	41.93027959630347	-2.385555923280975	-44.41959625462566	30.55544018375833	1.209674585202406	9.629471058356472	-0.03833661343807982	20.80494148052405	0.05976166806011463	3.518589273636439	1.65103284167183	-0.4028474096224619	-0.4514971662750875
11.90292989	2.279817378616747	9.602210324565021	-1.754997869084975	-2.250798672856834	-1.7244314259802	-12.78169268584609	44.49838362034782	48.33888048008367	0.110560531879364	-49.50345491978787	40.26392965641624	-3.130445669123882	9.278907193337382	-0.03049922084032805	31.12806880181428	0.04003760179538839	3.536513441275341	1.598931189076915	-0.4621784591357316	-0.04707621665034353
11.9178632	0.02515188350178479	1.990332606493074	0.4833671872817909	-7.274739478857532	-4.454189411478392	2.296131084915982	47.44126374357318	37.60700884624869	2.267979329788273	-56.59759505305459	42.09848001686954	-3.54725696311458	5.578145064331852	-0.02626892958493724	40.08374148352921	0.01890739471433661	2.045271448380901	0.9376857075795283	-0.4452332728415057	0.1557202215830796
11.93279651	-0.8819556660282671	-8.617238917852301	4.011322670841547	-3.143437778775555	-7.33033088932431	17.47481226358492	55.42419863455915	15.0335871251589	3.586200172232411	-66.69734331061591	34.87908305357725	-0.4658101963474417	-1.679970702531473	-0.02610090492880303	47.60211445149861	0.002492993286401289	1.330745119792603	-0.479002817607224	-0.8446360478663675	-0.1681646047894766
11.94772982	0.2805011816161597	-13.94017113489988	5.638495517106802	5.125607494406786	-14.59206414671455	22.1915083051054	68.54280588793064	-8.880739421340586	3.434410213310992	-78.82654103704303	19.95016689555884	4.199997005660324	-11.10925521905257	-0.02963328234414932	54.22890226129311	-0.005602197618894676	1.824038887452084	-2.03401195899221	-1.453845904612869	-1.172131876257587
11.96266313	1.015843372889553	-9.270050168768401	3.231911616318453	7.969783397416954	-17.50068939879575	11.76580575635356	82.80025382855634	-24.98871064410766	1.487861929826595	-90.36942311101561	0.6236799987941417	8.159381698350291	-20.14147358758675	-0.03615454583060429	59.39666499388536	-0.005503568684605746	2.882121371606464	-2.240650809844256	-1.836232645224954	-2.271254666959326
11.97759644	-0.615950073646881	1.967947752995321	-1.907933796151178	1.437271445329846	-6.335472895315126	-7.174371558714789	92.79274413592442	-30.39117117319668	-1.629680293515133	-97.73468925997203	-18.88224964071298	9.648981759758639	-26.47499301416367	-0.04460248834597497	60.17151444036846	-0.001004315994739341	3.731495717325957	0.4906736549421635	-1.749114899820883	-1.688216788898594
11.99252975	-3.202239618209024	10.45984616537893	-5.831399402325694	-8.02865182718142	12.81467146821798	-20.12808052829732	94.95048516078353	-28.33064247560375	-4.445004061389087	-97.8504256017607	-35.21809517600697	8.087621591073907	-29.24341615498479	-0.05309430222387615	51.96653276748249	0.002096679515459876	3.999994941812222	6.247849236570401	-1.271953460260073	3.2583993238238
12.00746306	-3.705955640584151	8.974807341314051	-5.377701004122089	-10.03112789135824	20.11999355502672	-16.21688013259541	88.96374068885223	-24.12309201636918	-5.619687918055271	-89.85961597422113	-47.82898949811349	4.676634774593253	-29.1196548673776	-0.05869211438493215	31.23315074278073	-0.001057429748089684	3.759577180198983	12.28566532467956	-0.6731794614966192	14.95883306724276
12.02239637	-1.103407503796349	-0.8998795577662775	-1.101750449712541	-1.304939518198068	4.87613927775455	1.717802125100722	77.0350810498316	-21.057457305784	-4.909491966735981	-75.25975527999859	-59.16974266457475	2.417405324617861	-27.53395088828028	-0.0581684519813901	-1.788664746492705	-0.01173522308847958	3.301260356312847	13.49904087172811	-0.2090614635150212	34.09058541975929
12.03732968	2.619288501127815	-10.03032986031195	3.233825085289627	10.95622685625752	-19.47989246050899	18.65461674053768	62.26839375812968	-19.27599518576026	-3.135638215928581	-56.56247602752071	-72.29041202748522	4.58885950605333	-25.71052776201224	-0.04961942892381138	-42.27860311335198	-0.02718625522404336	2.895388231042527	4.947293588923854	-0.01297582331434548	58.88614584994097
12.05226299	4.561433056652778	-10.19702518291344	4.181633942327097	16.62261024395698	-29.50673544557558	20.41570016785387	47.48119570581724	-17.44286092238819	-1.252851745768363	-36.42190487078053	-87.58413528512335	12.17674019772303	-24.10134663624117	-0.0337473171787214	-82.34066579218653	-0.04282256286628686	2.671140202243048	-15.17959600962777	-0.09816995546693846	85.47067390306196
12.0671963	3.378332906944552	-1.553830991429117	1.62137719919802	11.85030471410249	-17.18068698021057	6.20947093383186	34.69140879736833	-14.8413095768397	0.4770183087601931	-17.49058117998612	-101.5358277182866	22.55940263746846	-22.37264503143011	-0.01372897575351789	-113.8249008294305	-0.05525414327217046	2.618100995809876	-44.19612712159338	-0.4047227065445265	109.0212797040152
12.08212961	0.178495497946032	7.977053501139691	-1.519425029502155	1.036421798837691	3.990520830646325	-11.22244729360116	24.89863285522818	-12.00614669044528	2.432964695460304	-1.730323287599358	-108.6943766703473	30.98280201658839	-19.78433813031164	0.006255379699166061	-131.0875982248721	-0.06382471780984116	2.647836581992314	-75.95122478191746	-0.8313106941884092	125.1792864198983
12.09706292	-2.491785322334475	10.24536624981038	-2.172467854087836	-8.284313140698872	15.15505989954172	-17.52936036514122	17.96938038870083	-9.863546475456422	4.923272128748271	10.39788783658607	-105.449391187283	33.68989477764649	-15.70535542491013	0.02280243631700333	-132.350916390753	-0.06987374925352498	2.65671896033115	-103.3495904284377	-1.250513776309227	131.180566720004
12.11199623	-2.769530638371783	3.896548369656578	0.182603387880047	-11.44784054424596	9.683783498590211	-9.083174780950518	12.78428258853197	-8.572105437695306	7.61034473272385	19.44387303278519	-92.53330408546498	30.18000556144272	-10.02002601063847	0.03437351287027981	-119.2206103134042	-0.07494175345168219	2.564768313268226	-120.7237867820216	-1.533633949358984	126.3982540711068
12.12692954	-0.9785059138065142	-5.186306812585741	3.247432438633404	-8.666392834011686	-3.971473578007195	5.239458258105368	7.722957578883137	-7.129734762538133	9.575966998467761	25.67553653649734	-74.16317913554434	23.06002738156895	-3.220704304305992	0.04135730439719007	-95.32304721365955	-0.07957314348417101	2.333620586533473	-125.0814342473561	-1.591309206815732	112.222012156216
12.14186285	0.8231998666187614	-9.50296772215356	4.019756656079499	-2.988622626427742	-12.43505919857277	13.06815277516627	1.222793086961294	-3.974888743799976	9.901480747022488	28.87612341455258	-54.77251406676643	15.95326747354107	3.896418670278473	0.04537161287361312	-65.37460230467566	-0.08326583279643972	1.97421961224431	-116.3095880229499	-1.408870540824977	91.44846740980338
12.15679616	0.8168071979780462	-6.133307197649205	1.392689874237264	2.475797521817196	-8.864183794367706	9.185139944451471	-7.918662929568945	1.924203590580303	8.28904410434188	29.73142567880416	-36.27643501346935	11.19477726514033	10.76470196095499	0.04823643716790121	-34.92257251118021	-0.08501335273484123	1.544019802848995	-96.81181165628425	-1.051488162924076	67.54696876401155
12.17172947	-0.911231591466654	1.469955028211409	-2.869657401443589	5.632458375667369	3.325942459263491	-1.272657128250198	-20.48580792391136	10.27774193835148	5.301701733092581	31.09061661115994	-17.92636042606052	8.827025291259703	17.40958108827719	0.05098640567369458	-9.843534818655398	-0.08383669081175861	1.119913661504644	-70.87285348582104	-0.6299269639540799	44.06618169203445
12.18666278	-2.581989296669209	6.834249865673796	-5.506066490999796	5.297179672977617	14.95943496875762	-8.488619728049047	-36.69998579293001	19.5402079771782	2.078615889374021	37.03559074814056	1.588488681724668	7.290440183267225	24.30299287475865	0.05332474981851339	5.230182478049808	-0.07924438488043578	0.7374346035058098	-43.79178411281735	-0.2394750081235096	24.13536684325902
12.20159609	-2.66052967497526	5.797633015383633	-4.383705445396551	1.489420570148037	18.29719883447493	-6.598510733927313	-55.81751313490753	27.78572878105223	-0.2769948580309478	49.81438630280585	21.72780362465014	5.090052346605735	31.80116806683747	0.05389087224225365	9.00481039752211	-0.07168925100841213	0.3212569758001965	-20.67596080941791	0.09212874531975654	9.873832414717
12.2165294	-1.412024010576602	-0.3539902997530735	-0.279935312603919	-3.759384853851056	11.21681399071959	1.942809174593984	-75.81108895273431	33.73702342734364	-1.216144537601957	67.47918351688813	39.23510239389623	2.100072201982054	39.69464418284649	0.0512539112460442	4.235343718984277	-0.06273854913188609	-0.3174561253226635	-4.936078328910018	0.397297179482507	1.798482649966415
12.23146271	-0.2007394699155456	-6.152642439673027	3.681955204519764	-6.659050353003073	-3.229435044904283	9.057533880658978	-93.67710136614049	37.18148204518048	-0.8355109478998575	85.02208134583401	49.51628301441364	-0.5252398345898633	47.33227709482022	0.04496522443119558	-4.168643068377929	-0.05459525989047822	-1.326799879616446	2.86697065325667	0.6739376561708934	-1.285944722897191
12.24639602	0.3171896931843483	-6.517905683515773	4.532821267891342	-4.303405880579988	-18.869926689192	7.984338622661517	-106.4277963618755	38.49694344628013	0.4278973594347056	97.92338656503229	49.51068968110213	-1.597148149277224	54.12992966736316	0.03594497641415109	-12.17093303222549	-0.04910275651306972	-2.504912284871361	4.828955496931592	0.7559028899396398	-1.566685846960161
12.26132933	0.4469487802855366	-1.025627697225271	1.807995264054288	1.896330032755845	-27.10705811319374	-1.059345072931651	-112.1468754240581	37.64959285165862	2.168189749995774	104.3202694226892	40.11401514857405	-1.053509767927096	59.65280523880075	0.02593351685605644	-18.07933953858116	-0.04688199167345885	-3.054691070160357	4.083754173420791	0.3031495509898293	-1.054270578370366
12.27626264	0.2286529380561249	5.615981379344684	-2.203973321236477	6.168703391018362	-18.87971252568806	-10.72018088905311	-110.4454454224605	33.38851416461227	4.156287117740351	104.3786128142001	26.12637599513238	-0.1061732652726048	62.69978435430843	0.01634132752493802	-21.85853980710958	-0.04721646873839395	-1.835115973860079	3.024620349129503	-0.912743113945117	-0.7978908804664463
12.29119595	-0.8910906475610907	7.453569491354282	-4.449885984285208	3.355136585510243	7.495016267738074	-12.17368710278095	-102.3249559301096	23.41520574502161	6.25143352294694	98.88214295445988	13.40666828547447	-0.3723124232487187	60.07637514064149	0.007355538921891358	-23.89820375118825	-0.04874283278391638	1.544500781183689	2.604237373173132	-2.427736108628048	-0.9044231888456918
12.30612926	-2.994819475627724	2.513110165904445	-3.590596731418519	-5.570151247574752	37.90369094893613	-2.726386128929753	-89.92387488558265	5.938236777983683	8.301261652082758	88.88351083823873	5.29930404334916	-2.601989790205316	46.95288289774321	-0.001859238805051185	-24.51178123992343	-0.05033592338198604	5.106817008328686	2.732875979406228	-2.579967415526148	-1.064741590012155
12.32106257	-5.105301803113656	-5.111947285319195	-0.8408226993027271	-13.66795733392278	48.42997357385315	10.71608439689341	-76.08255135077121	-18.10276869833343	10.22318821626213	76.063136501423	1.142837669677003	-5.902199973133386	19.92152969027007	-0.01193988418564463	-24.03442936204365	-0.05134620845054578	3.749722240339532	3.004257555300159	1.280546427220382	-1.046664663494346
12.33599588	-5.84331631661043	-8.57417010918579	1.465354821004917	-14.1152006020025	27.58611608937121	16.38948041884196	-63.00233970482169	-44.17330233328999	12.18206596345639	62.57416926081981	-2.091169048329685	-8.181412288483287	-19.35621502876107	-0.02225301615486456	-22.89517049865892	-0.05099273827366084	-8.930906591770174	3.14844924376518	11.56343036398488	-0.8657861428515063
12.35092919	-4.268754504239527	-4.481581217098124	2.067677254489356	-5.912273629228902	-9.325098004574118	8.031428019505249	-50.62588069190183	-66.26462979286605	14.58380125905791	50.13155527738417	-6.66007247262057	-7.645982421039374	-63.75143847407222	-0.03118771192523343	-21.44887785256277	-0.04777789224020112	-36.35540771666355	3.10983069578475	28.79773566698704	-0.6821417650428069
12.3658625	-0.609790712442927	3.69552528902576	1.536324140316794	5.649198006320215	-33.94843367889553	-8.286824288064931	-37.22574917570189	-80.71122176879454	17.75671225453623	39.28022687739686	-12.16978151746702	-4.194648562614303	-103.9839933376963	-0.03776968080955751	-19.8058258214504	-0.03995906373824883	-75.37025299850339	2.940024543269461	50.71841743432729	-0.6252312561526279
12.38079581	3.118937042884108	8.580402763366104	1.086190061615659	12.9435616294483	-31.38268679220353	-18.53716316548567	-22.3449719949813	-87.93283608526113	21.44357706760796	29.66070310018838	-16.31549971119692	0.4619884150987217	-132.1915451220962	-0.04313252105331992	-17.89517308709161	-0.02692719194717815	-116.8381011357074	2.699859501835012	72.71158989234161	-0.7058182337288195
12.39572912	4.114470340593923	5.757619100668971	1.065094590476228	11.27801347950981	-9.494241213897697	-13.47751738986792	-8.171986727908136	-90.15560992582822	24.41794871973203	20.94388296262539	-17.18590030268199	4.053965962614003	-143.5629814170191	-0.05022852299970272	-15.69568957857644	-0.01014601063323293	-150.1255393361939	2.434238466861343	89.35092939177193	-0.8445110092528229
12.41066243	1.497323434958751	-1.999273253618903	0.7486518252464239	2.272173812709977	13.87157410544794	2.414072108666494	2.702415875979764	-87.94548228864481	24.74246792963125	13.39826113933708	-14.94649367441456	5.339635107966235	-136.885360900952	-0.06158972474526878	-13.38013859530006	0.007397917032982435	-167.7350376716872	2.183654787324918	96.2983084131115	-0.9537789466821147
12.42559574	-2.420342170789032	-7.46827925413516	-0.6153430742160484	-7.394140904500567	26.40111712520568	15.12230427452031	9.865097510518284	-79.94298878701028	20.91574221559027	7.52055002637338	-11.64816436172532	4.824628135046278	-114.7656938300132	-0.07678372837058828	-11.20959750151644	0.02285415864692029	-167.1184030248846	1.984915670320605	91.81793917505922	-0.9980897632740102
12.44052905	-4.270412962919147	-6.07309655535313	-2.69647407341955	-11.27467694360215	24.6685774438467	14.47232871912117	14.67062327831012	-66.04428410827138	13.19978628891336	3.147993179741427	-9.645464674831402	4.199923657252961	-83.02049964837049	-0.09175516840929593	-9.235674804386806	0.03493930122436672	-149.9241569766584	1.853455563372439	77.33386921193988	-0.9992836626001531
12.45546236	-2.792498899199285	-0.1116355052061406	-3.91423866200673	-7.977822036010838	8.810539037040904	3.243831412901486	18.1279899004408	-49.70820215191267	3.915388594029309	-1.000348117498233	-10.01919178039215	5.036878857557463	-49.00985007598798	-0.1008415695965908	-7.052210757005819	0.04408161148291404	-120.5654692897516	1.771334474994574	56.83506775393837	-1.001320448753973
12.47039567	0.4136269334708984	4.073502038276643	-2.510590064347221	-1.453617101027537	-19.53883911881379	-6.718156042371154	20.24404040857746	-36.00131660157179	-3.713120618821243	-6.685088266528258	-12.02540409288694	7.685239241881034	-19.5635299628192	-0.1000844346871871	-3.887983038795676	0.05122266827977431	-85.1340135434742	1.702776258991367	35.39846806008483	-1.029595877921277
12.48532898	2.760949511065389	2.716030805318205	1.650074958438543	2.92493206031906	-51.39982513319011	-6.62234978139426	21.11745886724548	-27.10328549710398	-7.391002759794478	-14.62021050248319	-13.66823823218304	11.06132504258918	0.8150090645524446	-0.08949812294427857	0.847978994294583	0.05620183567722916	-50.35354166512286	1.632148218258959	17.44418753936201	-1.072267769905753
12.50026229	2.576210693533269	-1.816414801383215	5.866687296748111	2.665542626321705	-64.59487561732095	1.15202443941816	21.41648436665	-19.98751391391048	-7.082671668233967	-23.21931321427227	-12.84581477997211	13.37862565815679	11.10881014540101	-0.07291002849956772	6.865489676606446	0.05709002978479814	-22.11895439274982	1.592656327867785	5.432844738681349	-1.088823376198539
12.5151956	-0.5009630495080186	-3.561357946421393	5.41656030666714	-0.3624979209110688	-29.42806835456839	5.73600127993925	21.42553972067576	-8.693944456785015	-4.979189082591871	-28.9696374896476	-8.351831521076521	13.25542355202806	13.74708961121945	-0.05575277677328296	12.77123271514374	0.05125899060676107	-3.900879309504341	1.653536781800198	-0.4888046508162963	-1.032808320276105
12.53012891	-5.778144174788181	1.760491050847905	-3.608267052875792	-1.661814213270697	73.69455345015353	-2.872702633900344	20.57955387311407	11.06241280909685	-3.991775276804094	-28.60092539747152	-0.2106809533551717	10.4067535590215	12.86851579560077	-0.04233468838387834	16.76397765454948	0.03743085223388556	4.112038579405445	1.868861255929839	-1.846086701350822	-0.8731809039967441
12.54506222	-11.93657314996755	14.06610315741801	-21.62485953259281	2.268778861707069	239.9278346383817	-26.85118406039458	18.39603412655635	39.2161528785268	-5.769264740451653	-21.41166102902138	10.65496744535548	5.516075167087623	11.76683232727479	-0.03407473157463849	17.90273708618956	0.01683169668679421	4.463630014011188	2.233625505013326	-0.661209689130778	-0.6092807630064678
12.55999553	-18.04929727872396	30.24794830740863	-45.21693322992416	10.78076103731145	442.4733750955023	-60.48685422847919	15.24747204406301	72.22367996492929	-9.731560987768749	-9.855417317015769	22.93245225883798	-0.3743932795186766	11.43882620616966	-0.02933321633393548	16.94351479071263	-0.007456654814293731	0.9240665153574308	2.685830072318418	1.497652794429251	-0.2785617187716359
