Inverse Dynamics Generalized Forces
inDegrees=no
nColumns=21
nRows=51
DataType=double
version=3
OpenSimVersion=4.5.2-2025-05-03-6a4c6ec41
endheader
time	pelvis_tilt_moment	pelvis_list_moment	pelvis_rotation_moment	pelvis_tx_force	pelvis_ty_force	pelvis_tz_force	hip_flexion_r_moment	hip_adduction_r_moment	hip_rotation_r_moment	hip_flexion_l_moment	hip_adduction_l_moment	hip_rotation_l_moment	knee_angle_r_moment	knee_angle_r_beta_force	knee_angle_l_moment	knee_angle_l_beta_force	ankle_angle_r_moment	ankle_angle_l_moment	subtalar_angle_r_moment	subtalar_angle_l_moment
11.87332986	139.5866334202208	-44.23475425233322	7.968580190933639	106.2201790218931	-141.1663176481234	132.9199594219327	19.91875581888794	-133.488549945432	13.5791781155131	108.5732239338724	-27.94677719654619	30.53392062184799	-15.113194077687	-0.1107008335028597	-17.86372155662018	0.003996349929717844	-100.4848941076966	6.737648886109766	35.62141764301338	-4.194722365146209
11.88839651	66.14374014931583	-3.641577454679467	4.325266594707258	57.75795922379177	-44.30339742400071	42.67638762597596	19.9872309835056	-75.90839699409683	11.07301852897537	45.95730322604164	-32.94570656773867	42.141800861292	-0.9184920173990557	-0.09045951138263986	-9.943070681729903	0.0445730226536967	-62.73991441909681	5.472604670963664	21.42886082354039	-4.183604846652567
11.90346316	8.760454544340135	22.85224137429302	0.7188256744818396	16.04644181825567	17.20565713917298	-20.59725497944182	25.68401236024986	-30.49932553735295	8.343128023840126	-10.85385037692508	-31.55991301719157	48.97326995297087	7.988002130851929	-0.0713263902886747	1.685686099076461	0.07306309169049641	-30.33892977308028	4.307728523358616	9.400470243835837	-3.972273233293193
11.91852981	-22.01033829221868	27.09742935807352	-2.414298660146008	-11.91026219655601	34.025036300504	-41.0933011524204	39.06370383793903	-5.056773753829506	5.400549573654695	-55.61085978283703	-20.46662501199971	47.85892089138149	9.380531744410526	-0.05532459610150456	18.29159650892043	0.08140084674196865	-7.526959768696872	3.191436559690672	1.250594829873645	-3.378288914604816
11.93359646	-25.61719523404684	11.05414608116258	-4.513646581871242	-21.8990336138623	21.24606129826472	-22.25630800615117	58.46987898725712	0.4703255202807529	2.456432723170932	-85.16838469874799	-1.319307029697055	38.8031290999671	4.304407513606561	-0.04477539529321964	38.35204487523953	0.06982831693234623	4.315394682469239	1.843652665611308	-2.537438529290535	-2.304413810124477
11.94866311	-11.96955919307866	-12.82019087750886	-5.326805213324964	-16.07592703266895	-1.22693533937151	13.37777513074475	80.75746191914776	-5.574339341020761	-0.562741295607454	-102.927432024893	19.21716768509099	25.30039385101403	-4.835008245097653	-0.04066728303277211	59.18809506852679	0.04739007660015637	7.506708020048865	-0.05009296459678819	-3.030973862080264	-0.8604934007815137
11.96372976	4.160937023890254	-27.45945610328484	-4.840619839087807	-2.504630673666817	-20.50800088003096	36.49419620460334	102.839028942189	-10.88010053131647	-4.379599746896628	-116.3566236120547	32.51051437767111	12.37814758262535	-15.73928285507985	-0.04186003416486105	78.57033578610358	0.0261527040989027	6.430460989737036	-2.322059717798927	-2.042351697891968	0.5328203181395192
11.97879641	11.8586242484979	-22.42278162972122	-3.109673577774087	9.322086253801769	-28.55666770784428	30.406944146057	121.967820286712	-6.531154701151825	-9.740184627058909	-130.3784348201546	33.90289581925234	3.488075311175754	-26.48232836334532	-0.04600367868754349	94.68135489789348	0.01339130428899803	4.784110200945047	-3.889606231954639	-0.9642646045609622	1.180028443062882
11.99386306	9.315060311677746	-2.301346463138104	-0.5547626062726645	13.14134891224485	-19.5580273054378	2.72860134647717	135.9388565905362	7.938697672229295	-16.19115473567372	-143.7735875715224	26.99303441362111	-1.127367288431346	-35.48049641571929	-0.05125103575998634	104.7588890215672	0.008195786014670432	4.160057855631271	-3.105904172917775	-0.3312688384752011	0.3914761194073388
12.00892971	1.797559193051721	16.79537449234139	1.801348336451865	7.996266478680262	3.668229305311066	-22.51035768583225	143.4389300308335	25.97722267566653	-21.80613917192229	-151.9638833616021	20.68826412949183	-3.231856699186612	-41.62200693878263	-0.05718995841943664	104.0244409313852	0.004504069441393844	4.461981803139171	0.7389838178443661	-0.1164303846799609	-1.9413748485138
12.02399636	-4.492655064031198	21.15919902767315	2.909839085895941	-2.141878528754232	24.21974052514173	-26.64950448270875	144.0104485557499	40.29765553563548	-24.53581382131252	-152.0633910318367	20.38308866005933	-3.98927627410211	-44.37637088902094	-0.06422416805176159	86.38688720736941	-0.002789709214412511	4.99873724575731	5.438002073975444	-0.1358352174283091	-4.624827505316601
12.03906301	-6.522236554885143	10.85669184121688	2.504947392960445	-10.55339543675706	22.6080242616125	-11.73930800651675	137.7533709664091	48.04884080195696	-23.96445083633979	-144.3659868044531	22.22771774481307	-2.650620825253779	-43.83538299439346	-0.07204046794629151	47.28156360395704	-0.01358696054263682	5.251243902971034	5.260783917309205	-0.2282659891265836	-4.879274619094178
12.05412966	-4.445315368116209	-2.515306726945051	1.106862999335747	-11.61219729788442	-1.654433047112787	5.013555596832295	125.3226480766892	50.60890734430168	-21.6366533691405	-130.1134360879286	16.85031557956274	2.368961752734328	-40.70754759248074	-0.07860316579387812	-12.885315702245	-0.02287054458865309	5.090525784908364	-6.560202068205051	-0.2799855441130211	0.7583331820410688
12.06919631	-0.1755654719536776	-8.470319899535221	-0.5589020257123384	-4.642926070477262	-26.3230550457607	10.27162302601443	108.2346207533759	49.36531281221357	-19.49704422440983	-110.1893712493683	-1.838523907244872	11.5095894631553	-36.12243636469789	-0.08060782222412709	-87.38871516609285	-0.02479444497563354	4.66466342087356	-33.1063689446185	-0.2410118314658743	14.43419355117784
12.08426295999999	3.464743498274486	-6.735568578138686	-1.824939984421401	5.303437905294083	-29.20837867810534	6.120817381456506	88.96268819983774	42.60953199413059	-17.95126052562357	-86.66020292934729	-32.30389233826885	23.30766684416696	-31.18274123244832	-0.07511207722664358	-165.0019852085077	-0.01767291091847589	4.206899473137494	-70.67354483926761	-0.1568071564854935	35.25177051536092
12.09932960999999	3.933784642151715	-4.003033291081894	-2.064951032847777	11.09919130357422	-10.51070722213081	3.222730700865247	70.47439715020516	27.06747946264594	-15.52136677933082	-63.80198949197187	-68.60703364874875	35.27281226627132	-26.51576401129564	-0.06123436375090703	-233.1653586994379	-0.006654307213494373	3.894244916051737	-110.4427810496848	-0.1520442640334944	59.28807422644565
12.11439625999999	1.043407052077099	-4.084520707790842	-1.055428387515797	9.180850027145333	10.48265455733142	5.933127602657468	55.35344319123188	2.460030270501919	-10.44485306553945	-45.88236872182122	-105.4648376296453	45.11902269522095	-22.15883571334698	-0.04084136507920337	-280.4047377469548	-0.002135015394027471	3.786135873123021	-143.5455008077433	-0.3429455974685228	81.38159098246992
12.12946290999999	-2.290552462302757	-3.922697696526551	0.5265307653782438	2.31213344395552	16.49149746926542	7.699050235715202	44.93277442032818	-25.82832824072782	-2.563447530989746	-34.01239156818563	-138.8780776233706	51.16162803030753	-17.82926257463332	-0.01783638711410739	-298.0140829954697	-0.01436699652485387	3.830615377801773	-165.0839278865731	-0.7422434996759528	97.30750081091509
12.14452955999999	-2.561565011547793	0.5961143006478596	1.460880637658283	-3.469631600753066	6.684466406782692	1.234451997050956	38.83441154828473	-48.96224668376223	6.327378519377898	-25.90725133622287	-163.023160320374	52.0369493547928	-13.31845806298347	0.003554841891228962	-282.0129504981172	-0.04710450562035022	3.912253116793142	-174.4080698345701	-1.238425330438433	104.9400006627559
12.15959620999999	0.6108397852764328	7.571391301353112	1.184648734418101	-4.791118468030904	-6.895889755887066	-10.36459752652566	35.06071195583453	-59.79401454648118	13.75990723544386	-18.61485111305684	-169.4329002110357	46.82161595762621	-8.69055608010302	0.02065328410911574	-235.1881734101063	-0.09404828297231586	3.911869861312823	-172.8007147208831	-1.660841625790073	104.1033678798789
12.17466285999999	3.827942713969199	10.25154600237664	0.4141733154859655	-3.327064376006298	-12.80352836933877	-15.88131175190016	30.51302355362255	-56.46638092583014	18.08833743874586	-10.76760096515158	-151.8622512432798	35.99503237700331	-4.12281777537804	0.03337222524800873	-167.683265382198	-0.1406836665720835	3.754780539913193	-161.4263350815698	-1.871911084531323	95.7968653607535
12.18972950999999	3.420372686569291	4.89571991057517	0.2310151656801112	-2.290042914755027	-9.169293084590539	-8.657030704228999	21.76251118437686	-42.21081842825643	19.06315241334109	-1.956554894920863	-112.8834504921107	22.21085425910944	0.5201703711281893	0.0436881470711547	-94.8978415167787	-0.1711780424874944	3.439872849397197	-141.0814668502858	-1.82771717280481	81.58522221250611
12.20479615999999	-0.6253470143029959	-4.568845946659403	0.6580306815594523	-1.90882827066467	-1.743262763960044	5.842990220650787	5.986740174202682	-22.70734707722946	17.55349356397971	9.425095441813633	-64.98286983133063	9.516220645370499	6.03425327625198	0.05364729845043826	-33.01847198633415	-0.1765093003232233	3.04634303793922	-113.1911438037008	-1.588587919800551	63.43100500107344
12.21986280999999	-4.58350940337299	-10.46910457375104	0.6034031138646905	0.2085306153397103	3.989419612682109	15.7888775348834	-18.08371825780653	-3.431205380940971	14.94502571381073	26.68202505483714	-23.82430963270016	1.174152983646195	13.74912596620817	0.06324568037172931	6.157601632277373	-0.1586064491165756	2.697713099779232	-80.74186766931246	-1.27970280855356	43.75737354417139
12.23492945999999	-4.719779836888837	-8.796473510444761	-0.5975311269811281	4.57477196004689	7.458888231394656	14.29687299343623	-49.55189683956351	11.94167082562062	12.44797499703194	52.39876643047758	0.9529245873068199	-2.130052867658918	24.84021974352085	0.06994108614589838	19.00672253568666	-0.127999172484675	2.457184717282934	-48.33654814114468	-1.007092859309139	25.35652149936636
12.24999610999999	-0.8467088592880129	-2.02853178656408	-1.983911213336095	7.591943033104356	10.62147791057778	4.180924286117681	-85.36973976084856	22.01163924211312	10.52933328961056	85.21175141004413	9.844691510528953	-2.161367110821316	39.47781619309628	0.07039409594697009	10.66699244631385	-0.09724528195376407	2.183807319949544	-21.1195291874332	-0.7703042461729087	10.846548151473
12.26506275999999	3.785048395393125	4.254306552775338	-1.827757506036844	5.268603896160734	12.60002540587865	-6.365598775348942	-120.9492108818996	26.99290823329422	8.897025886991369	119.0972743962685	10.0367009932071	-1.396047322627561	56.43414398813852	0.06318723370466314	-8.194033763790872	-0.07486056356312598	1.481785481457172	-2.818528754409457	-0.4532469958485758	1.751060109279689
12.28012940999999	5.758365929261237	6.254280309484598	0.3037142343534057	-1.306050588740823	8.175593562705121	-10.70936722909818	-151.1048806436663	27.49009300148598	7.094172830745365	146.2191165157502	8.543868227060457	-1.330919088621487	73.48501954333541	0.05036700926859161	-26.84094325005594	-0.06301514518043785	-0.08114071833630565	5.962236531601568	0.05528851518817041	-2.173654084951309
12.29519605999999	4.297407403048581	4.041566774149485	2.800443069939695	-5.941895400351125	-6.627244935292349	-7.56917570728563	-171.1527587766775	24.17757310376345	5.074121498216168	160.999981924854	7.976711677355842	-2.035700085104594	88.32293908939781	0.03641985232514109	-38.84695334130463	-0.05904842434829952	-2.450966031862616	7.726508282383596	0.6646258811217759	-2.66736288298248
12.31026270999999	1.092078884242	0.5224538731808827	3.57135477709317	-3.751413795998976	-25.96668255329232	-0.8614425231464445	-178.1163263959317	18.76356343392641	3.191282160319529	162.3889371209078	7.305055701598727	-2.782751694037545	99.17081932405426	0.02524783551493311	-43.07119479730702	-0.05870629657530466	-4.565245181295981	6.240154323320966	0.9641373587310683	-1.851637103275106
12.32532935999999	-1.691608781520145	-1.044321294592926	2.069723097788562	3.161030436984538	-33.28497629985601	3.307590228541842	-171.7904973535821	14.13525210794944	1.808137228787185	153.5070520660382	5.219162512223406	-2.923969127650723	104.3538569056137	0.01744529163571015	-41.84350544525305	-0.05889992656630934	-4.481013279427461	4.443782219408289	0.3779311663222503	-1.167847597227123
12.34039600999999	-2.646031531491933	0.336710960065539	-0.4947933860629981	7.67361681871222	-15.31392467026868	1.513561059240412	-155.1204628226704	11.8462331736577	1.071938628588048	139.6887004038962	2.509974924995267	-2.440501387650883	101.0638527359357	0.01015658458062078	-38.50721777941875	-0.05888415735206947	-0.7470958387793075	3.593390935537832	-1.283458738821377	-1.062345535561759
12.35546265999999	-1.169307756600845	2.170135557576194	-2.592088576078017	5.490968189539716	19.34879332145123	-3.223112229430511	-133.5413300422908	9.222032807097353	1.00584835645866	126.0459308231758	2.044550809076713	-2.028988253278293	84.93784212715271	-0.0001860570984299767	-35.70998009769038	-0.05985772442688394	5.237460629177228	3.653870876971556	-3.027860531730661	-1.324171220636901
12.37052930999999	2.327504163096524	0.4380064290055783	-3.435723306842406	-0.1600274903147658	41.27686329163834	-3.366546879724163	-113.2745170313015	0.6922570636168874	1.619788068427319	115.4430193980348	6.946535882938007	-2.795499475889371	52.07536282223029	-0.01433437784162245	-34.65569885332219	-0.06353162591498548	7.680459585723245	4.10391370874207	-2.293928130658731	-1.576692946388248
12.38559595999999	6.11565639135099	-5.857691414654014	-2.771528720007553	-2.394525703814743	28.10303065295201	5.186663924589067	-98.63491659643606	-16.47296328503116	2.82297763556947	107.7102035998241	18.09928222211362	-5.64664719623108	2.519261400939616	-0.02883195259347809	-35.09118645770892	-0.07037579531680346	-1.702909790073367	4.498524396354641	4.147908692528858	-1.581647097183446
12.40066260999999	8.051064741920117	-11.8669303103199	-0.5540272884037668	1.6954542233659	-10.01238150233118	16.40020846067686	-89.6334021152928	-38.4043006492044	4.340146099474882	100.4650843146334	32.20481216771275	-10.51062817961178	-58.01206804884147	-0.03823379582848502	-35.77897630994881	-0.07842768268817751	-27.98487862668855	4.646673837333452	17.99759016966799	-1.313359756662826
12.41572925999999	6.877080654992801	-9.929721865988073	2.521356956438341	7.845466429437848	-39.66835160689178	17.25345899088645	-82.76119427519745	-58.2891370236484	5.996004046284886	91.06407396011132	42.01150473793695	-15.80629419273509	-119.4828537848228	-0.0396430554361555	-35.225777429462	-0.08351152958431086	-67.84908484851067	4.556608025561673	37.56039861507217	-0.9067086567263585
12.43079590999999	2.441853308059907	2.682493360066028	4.669702823027399	8.59676898002016	-37.90558975974061	0.5360715517129986	-74.92045917768871	-74.03434028919997	8.185411955730686	78.53786528024627	39.83003607580971	-18.861217144785	-170.3943844199406	-0.03620524974305574	-32.43317434348896	-0.08102442552209711	-110.417552970964	4.327496890332965	58.14303647672516	-0.5642723233768073
12.44586255999999	-3.945312631346403	18.4292878872903	4.242519900266126	1.093049791751905	-11.26359549835089	-24.42023858846251	-65.62411624092658	-90.83678574619152	11.7205335847853	64.28947181169082	22.92700238700137	-17.49562072366316	-200.8999533190542	-0.03650226318575241	-27.40014551143482	-0.06836592308125689	-143.9006775139219	4.072154921385399	74.61025462719837	-0.4535340231604879
12.46092920999999	-8.621145230011038	23.67879658757188	1.571076841886359	-8.44619671769199	16.39433157963199	-36.26858072274371	-55.01681940244966	-114.6792338883065	16.74430823723578	51.02273159473996	-3.482203487988547	-11.67055385163454	-205.8605234904336	-0.04945868077431306	-21.09793740653932	-0.04642198661063226	-161.9701977231724	3.874678075711219	83.90925786129446	-0.6250382975343376
12.47599585999999	-7.257585176436182	11.02314450369493	-1.07680926000986	-9.799401222086793	28.02908633699488	-20.87299567794064	-41.88082641366825	-143.0009700078677	21.72384650100751	40.61753379365754	-29.13649973051896	-3.489626950555625	-186.4923216101081	-0.07778238991839689	-14.84893390997829	-0.01899435980046623	-164.8759945337761	3.765945631205693	85.67115102180927	-1.002656645251224
12.49106250999998	0.3538419285084425	-11.74861455283068	-1.834100931518654	-0.1115657296749581	23.97084673259989	12.78795432657788	-25.35374883674297	-162.7944598395323	23.90874391131347	32.60493298414357	-45.74564327532909	4.672484214738472	-149.3094327086359	-0.1146657361227216	-9.481943531175489	0.00933580162620876	-156.1247771350586	3.717159509753821	81.03659089452178	-1.457067834108369
12.50612915999998	8.101723964849974	-26.85296028972986	-1.123899233412269	11.1080834495837	13.13907575736954	38.39583437402827	-7.754138072794911	-159.709632153238	21.27861914031581	24.53030567617954	-51.87506622509564	11.93715078736415	-103.2813198835319	-0.1466347878015029	-4.893453610949061	0.03508978697795155	-138.9048399599369	3.662668201394474	71.27189143622941	-1.891975698998797
12.52119580999998	8.501453149413368	-22.67419539139237	-0.7005646487726463	10.96214137521002	-0.9147642187289691	36.36998693748583	6.140763726579623	-130.6473068838022	14.30657111817477	13.96642855133877	-51.44720006195026	18.6199619548602	-57.3603146529794	-0.1609598828087903	-0.340401368241233	0.05613318503133791	-115.0503741285647	3.547630346382058	57.42323555894633	-2.259590066662818
12.53626245999998	0.5617082539050071	-4.722668112108337	-1.145869648580761	-2.651401352312914	-22.19345754405239	11.91723486227939	13.25465988667753	-87.7894045205154	5.81329967466205	0.6490130188235428	-48.24561982771549	24.43439018529883	-19.18431291050456	-0.1526308487058227	4.810386101782593	0.07069034497088887	-86.23637567796989	3.373086321051765	40.93249140499522	-2.511812539735487
12.55132910999998	-8.500719469038433	10.44195754617186	-1.248530384922425	-17.74219036049896	-49.67768478409965	-11.85874326853541	15.03487238816536	-49.44200090083639	-1.006638830031614	-12.75708105687194	-42.53623753011009	27.65183527669844	6.035832501115724	-0.1264849411284585	10.43432953787539	0.07671766232066596	-55.50170609594395	3.20985689683584	24.18458990673743	-2.574785765362722
12.56639575999998	-10.28560356431297	12.00801402057775	-0.1610073265167087	-19.66318182719114	-64.08137042605691	-17.84557721678763	15.68231112856889	-25.85063715916655	-4.593720169931536	-21.75619250189372	-32.76749160900787	26.44091469073357	17.04405107083862	-0.09377912196705698	15.4873175825241	0.07259404342277215	-27.50150056615042	3.172513575972277	10.11718586896919	-2.398101485613586
12.58146240999998	-3.220447384704815	4.877670470701563	0.6122364022025502	-4.248696247879842	-31.63455211596363	-10.47806252046709	18.16106381805256	-13.06044577406715	-5.489848908827054	-22.44451514165679	-19.37677676646616	20.86677408820848	17.07973272426051	-0.06601960364978827	18.43773764226565	0.05855173144036783	-6.996778650332123	3.363991397671438	0.9998070739350844	-2.022545980188729
12.59652905999998	7.147447192381675	3.592639605383999	-1.865934311280417	20.85138746299607	73.63302839884075	-8.656751674191627	22.61575067488773	0.6101371129877737	-5.31077562286301	-13.82851433409985	-5.792593541097802	13.17309963785538	11.84047427509974	-0.04989154183932393	18.13335328872448	0.03733318454287249	3.495449702645344	3.818027961775333	-2.631310376169588	-1.572892679659907
12.61159570999998	14.7657327448644	18.12230432505056	-9.193084536753373	45.62176102190845	249.5974136660717	-26.28081685972818	27.92539148303925	23.29475233663949	-5.376388397169418	1.813220074753466	4.526404348214705	5.903903088984906	5.972324036095726	-0.04561921298159516	14.57559187229903	0.01289060069389438	4.996138945555785	4.481531285127732	-1.981948612731015	-1.166060679585322
12.62666235999998	18.65267158592254	45.53111360093195	-20.02749841270698	66.68586897802291	467.026654324538	-60.28910438676216	33.37877404294686	53.87419916686849	-5.979895118264983	20.81778278107334	11.50536818811448	-0.1898623915217028	1.003152960906197	-0.04845310537491578	9.026708947570295	-0.01210887266943358	1.370820667946598	5.252413913945492	0.8717509057984496	-0.8250447403935278
