FiberActivePower
version=1
nRows=51
nColumns=5
inDegrees=no

This analysis gathers basic information about muscles during a simulation (e.g., forces, tendon lengths, moment arms, etc).
Units are S.I. units (second, meters, Newtons, ...)
If the header above contains a line with 'inDegrees', this indicates whether rotational values are in degrees (yes) or radians (no).

endheader
time	recfem_r	vaslat_r	vasint_r	vasmed_r
    143.34400000	      6.32608101	    167.88917001	     44.36526373	     65.35202267
    143.36024000	      8.22039217	    100.39433119	     30.19045095	     41.40730329
    143.37648000	      9.05161346	     45.34951718	     17.28375887	     21.10157129
    143.39272000	      5.83248605	     14.68006825	      8.40782830	      9.08239261
    143.40896000	     -1.34093757	      2.56840245	      2.25649187	      2.38933806
    143.42520000	     -5.63342476	     -6.36296583	     -6.15344018	     -6.81435679
    143.44144000	     -9.84978064	    -19.07210523	    -17.22595718	    -19.61205746
    143.45768000	    -40.38694831	    -27.66790878	    -22.97907350	    -26.33865394
    143.47392000	   -108.07021794	    -24.84728083	    -18.91012914	    -21.40982399
    143.49016000	   -158.66510704	    -16.79837607	    -11.41558074	    -12.60511601
    143.50640000	   -115.08101790	    -12.13687288	     -7.23521280	     -8.18041960
    143.52264000	     39.11919368	     -8.74587525	     -4.90630525	     -5.98510873
    143.53888000	    249.79290368	     -1.21838134	     -0.67824441	     -0.87142273
    143.55512000	    382.52701934	      5.99135429	      3.35768072	      4.42933149
    143.57136000	    326.54694773	      3.91661152	      2.21466177	      2.95801668
    143.58760000	    163.31497116	     -4.37782392	     -2.48818258	     -3.33966714
    143.60384000	     77.30745250	     -7.41183279	     -4.20317584	     -5.63141083
    143.62008000	     30.62522846	     -4.11023526	     -2.32982614	     -3.03696338
    143.63632000	   -331.36914012	     -1.33547079	     -0.82123825	     -0.92607049
    143.65256000	   -749.91792181	     -0.72488138	     -0.46706013	     -0.51073549
    143.66880000	   -565.51237562	      2.18343567	      1.28775314	      1.54628590
    143.68504000	    -34.27793817	     13.54399184	      7.50132010	      9.41809756
    143.70128000	    239.77752180	     33.31482788	     18.05801006	     22.91688284
    143.71752000	    215.44275898	     49.03309710	     27.52298550	     34.22173186
    143.73376000	    115.98680090	     47.03469513	     29.57925327	     34.82638078
    143.75000000	     55.63594729	     31.64264091	     24.19113742	     26.42142003
    143.76624000	     35.72056957	     19.02216377	     16.73675663	     17.70504622
    143.78248000	     27.52963487	     14.51025828	     10.57415585	     12.04328811
    143.79872000	     16.74250834	      9.19574497	      4.76817823	      6.04634119
    143.81496000	      3.19483891	     -5.54271539	     -2.34209565	     -3.14579972
    143.83120000	     -5.15218764	    -16.84396747	     -8.29338180	    -10.59382673
    143.84744000	      0.15054028	     15.49320868	     -7.61683716	     -4.77541579
    143.86368000	    -11.68122935	     65.51702064	     -7.68703316	      2.61794931
    143.87992000	    -98.92484987	    -18.61164858	    -26.25246448	    -27.58235156
    143.89616000	   -235.95416861	   -191.28271325	    -48.31244239	    -73.36874393
    143.91240000	   -324.87896901	   -162.82041201	    -32.72777095	    -54.86240239
    143.92864000	   -315.89429715	    154.25667681	     29.19374857	     50.89706565
    143.94488000	   -226.60942600	    516.96554960	     98.16662913	    173.72057015
    143.96112000	    -93.50851454	    666.69527142	    132.34608334	    234.48793139
    143.97736000	     37.78865059	    559.67477494	    120.17652380	    211.12591761
    143.99360000	     84.23221353	    313.35041754	     75.95281863	    130.48001659
    144.00984000	     44.14277526	     98.72656092	     30.45174260	     49.11070351
    144.02608000	      2.76570895	      3.36458946	      6.52514445	      7.27698076
    144.04232000	      3.10689691	     -4.34348147	      2.23506390	      0.83849952
    144.05856000	      8.25495859	     -1.32030081	     -1.51439451	     -1.43114047
    144.07480000	    -18.48066514	    -27.64356685	    -17.79880136	    -19.93541654
    144.09104000	    -58.29391664	    -63.79385838	    -36.76695277	    -43.26296178
    144.10728000	    -68.50513371	    -72.23806630	    -40.86538211	    -48.46319631
    144.12352000	    -47.31070040	    -53.94145334	    -31.09260629	    -36.27964811
    144.13976000	    -26.96820193	    -38.96834857	    -21.52743243	    -25.23479698
    144.15600000	    -15.46567326	    -30.73692404	    -14.82982016	    -18.12206509
