PassiveFiberForce
version=1
nRows=51
nColumns=5
inDegrees=no

This analysis gathers basic information about muscles during a simulation (e.g., forces, tendon lengths, moment arms, etc).
Units are S.I. units (second, meters, Newtons, ...)
If the header above contains a line with 'inDegrees', this indicates whether rotational values are in degrees (yes) or radians (no).

endheader
time	recfem_r	vaslat_r	vasint_r	vasmed_r
     21.65500000	     19.20893549	     63.92578316	     19.62714532	     35.35781627
     21.68660000	     18.58798527	     75.79685944	     23.26599277	     41.27732644
     21.71820000	     17.95017989	     89.77493327	     27.57903953	     48.17098089
     21.74980000	     17.35656492	    106.13711677	     32.69258520	     56.19717444
     21.78140000	     16.79658648	    124.87835220	     38.64363492	     65.34860007
     21.81300000	     16.45070674	    146.36823721	     45.60542173	     75.83876753
     21.84460000	     16.49817236	    171.56933212	     53.96060952	     88.22057342
     21.87620000	     16.72994443	    200.08529623	     63.67697161	    102.35574097
     21.90780000	     16.92509484	    230.23662942	     74.30345615	    117.46840241
     21.93940000	     16.99633630	    260.50050923	     85.40216835	    132.88706970
     21.97100000	     16.93121847	    289.63045694	     96.57021039	    148.05206982
     22.00260000	     16.75398458	    316.70453767	    107.46048884	    162.51118557
     22.03420000	     16.43854451	    341.09644773	    117.61089352	    175.65695648
     22.06580000	     15.97609071	    364.74026281	    126.71087655	    187.50396036
     22.09740000	     15.62095385	    388.31778753	    135.62804504	    199.35778795
     22.12900000	     15.41967520	    412.24063598	    144.73251018	    211.48839272
     22.16060000	     15.30446294	    436.59584898	    154.05538933	    223.94039841
     22.19220000	     15.21077534	    460.81707912	    163.38283754	    236.40610418
     22.22380000	     15.07967171	    483.70423837	    172.25078314	    248.24007531
     22.25540000	     14.88499606	    503.82150528	    180.09122903	    258.67335125
     22.28700000	     14.63838242	    519.99438245	    186.42685403	    267.07672845
     22.31860000	     14.36585373	    531.62594967	    191.00239983	    273.12699333
     22.35020000	     14.08154470	    538.66829450	    193.78170406	    276.79167839
     22.38180000	     13.78175305	    541.34750380	    194.84340865	    278.18464608
     22.41340000	     13.45681090	    539.92050591	    194.28508497	    277.43834324
     22.44500000	     13.10322374	    534.60454265	    192.19419667	    274.66645402
     22.47660000	     12.72720989	    525.60880113	    188.65954965	    269.98019326
     22.50820000	     12.34460245	    513.16624323	    183.78286614	    263.50504524
     22.53980000	     11.98397177	    497.57268570	    177.69280043	    255.40169889
     22.57140000	     11.68931721	    479.28059033	    170.57956046	    245.91573182
     22.60300000	     11.51357773	    458.97967290	    162.72326773	    235.41995578
     22.63460000	     11.50559858	    437.53543014	    154.46679047	    224.38139112
     22.66620000	     11.70189675	    415.76680996	    146.12829315	    213.24237673
     22.69780000	     12.12512056	    394.19847887	    137.90848886	    202.28644387
     22.72940000	     12.78891645	    372.95825932	    129.85706101	    191.58071017
     22.76100000	     13.61432102	    351.98163958	    121.93995660	    181.08343024
     22.79260000	     14.47662201	    331.08395432	    113.52935205	    170.30902861
     22.82420000	     15.48932822	    309.47911653	    104.52813035	    158.54638545
     22.85580000	     16.77581979	    286.26200968	     95.26439860	    146.19900318
     22.88740000	     18.43814875	    262.06787201	     85.98342693	    133.60101781
     22.91900000	     20.54466593	    237.31784425	     76.82996808	    120.94673628
     22.95060000	     23.15625332	    212.51160685	     67.95723129	    108.45052474
     22.98220000	     26.33964395	    188.25816870	     59.53618673	     96.36852483
     23.01380000	     30.23227312	    165.32807338	     51.77833849	     85.04658234
     23.04540000	     35.06598057	    144.59067075	     44.91711528	     74.89078058
     23.07700000	     40.93228671	    126.19623832	     38.94863325	     65.93571574
     23.10860000	     47.55648471	    109.60240274	     33.65646118	     57.86371170
     23.14020000	     54.46147728	     94.56861873	     28.93325654	     50.53158041
     23.17180000	     61.16870196	     81.19826938	     24.78677335	     43.98978550
     23.20340000	     67.17904097	     69.45359731	     21.17965552	     38.21239242
     23.23500000	     72.03542425	     59.16728623	     18.02051201	     33.08066488
