FiberForce
version=1
nRows=51
nColumns=5
inDegrees=no

This analysis gathers basic information about muscles during a simulation (e.g., forces, tendon lengths, moment arms, etc).
Units are S.I. units (second, meters, Newtons, ...)
If the header above contains a line with 'inDegrees', this indicates whether rotational values are in degrees (yes) or radians (no).

endheader
time	recfem_r	vaslat_r	vasint_r	vasmed_r
     21.65500000	    320.19819276	    164.82256866	     52.76746258	     89.30525645
     21.68660000	    334.99632663	    283.49632254	     62.30165135	    119.56634451
     21.71820000	    433.18429471	    341.54597933	     69.86541134	    142.48219347
     21.74980000	    627.64355868	    320.86605335	     73.85984757	    147.20360151
     21.78140000	    856.40592677	    277.19110867	     75.49435823	    128.80655969
     21.81300000	   1059.95853335	    291.93516818	     79.51637193	    106.52309920
     21.84460000	   1241.38402441	    382.70230721	     91.83046032	    137.89238438
     21.87620000	   1439.87630682	    489.08573961	    113.39607979	    294.83253034
     21.90780000	   1683.27132005	    597.07773191	    134.53649308	    579.60113907
     21.93940000	   1963.39001010	    856.68058048	    139.74948403	    856.55095777
     21.97100000	   2263.81030589	   1446.57255636	    130.57496230	    941.44714855
     22.00260000	   2571.30743624	   2231.70560772	    145.64905141	    827.30509090
     22.03420000	   2864.05722297	   2701.81726355	    232.82218335	    744.75063801
     22.06580000	   3138.41226142	   2460.95361253	    378.69223297	    876.94144100
     22.09740000	   3460.33591285	   1712.31356368	    489.03838046	   1080.85924193
     22.12900000	   3866.54517465	   1046.02057757	    474.64039148	   1060.46386551
     22.16060000	   4347.85835061	    781.80808184	    355.56161574	    762.31832120
     22.19220000	   4831.04148523	    769.09950199	    235.16308571	    422.25220850
     22.22380000	   5242.05995160	    754.57184651	    185.39452973	    255.63299672
     22.25540000	   5566.12906953	    680.44889243	    195.50490536	    260.80164115
     22.28700000	   5841.11944164	    618.64477834	    219.10009066	    317.08333403
     22.31860000	   6109.80112464	    607.95691555	    229.76102508	    344.83788449
     22.35020000	   6380.00210287	    624.23293545	    228.72207850	    341.28729368
     22.38180000	   6614.62480435	    636.75509821	    225.31369325	    330.35375210
     22.41340000	   6754.70067434	    641.06469873	    223.47453233	    322.86688076
     22.44500000	   6763.90744663	    643.81283547	    221.93631598	    317.23988641
     22.47660000	   6657.16961062	    635.80394980	    219.29147554	    315.85310965
     22.50820000	   6478.89348451	    595.66360597	    215.98378725	    326.11600133
     22.53980000	   6251.88244526	    538.03195862	    212.52102228	    341.16058369
     22.57140000	   5955.88592776	    561.19542602	    208.61615231	    331.82286586
     22.60300000	   5558.84728123	    805.25033833	    207.33332179	    289.06990015
     22.63460000	   5065.61637796	   1307.49997148	    219.48924690	    287.22281150
     22.66620000	   4532.00310542	   1909.08111072	    255.64969410	    452.49014422
     22.69780000	   4025.90260749	   2361.71707134	    305.85930970	    801.43781620
     22.72940000	   3578.66181124	   2527.77749853	    334.53449326	   1144.14155383
     22.76100000	   3170.44339782	   2438.26125596	    310.83096951	   1243.51501971
     22.79260000	   2793.78632801	   2186.64216262	    242.81983018	   1060.08310128
     22.82420000	   2469.35760042	   1831.61557257	    171.57597424	    768.63959687
     22.85580000	   2197.28268473	   1420.87814508	    128.58936411	    539.83382962
     22.88740000	   1953.14675736	   1020.25358225	    114.75553558	    408.84357828
     22.91900000	   1712.02137018	    706.34355499	    113.24825910	    330.41850547
     22.95060000	   1474.35059010	    512.62423288	    110.23588637	    267.77886555
     22.98220000	   1259.09463808	    407.73212147	    101.88467122	    213.24708598
     23.01380000	   1074.82426637	    344.67374547	     90.32893195	    173.85839246
     23.04540000	    905.80453521	    310.26174469	     79.24276074	    158.95997465
     23.07700000	    742.24879842	    303.81016277	     72.66884783	    164.73705144
     23.10860000	    612.29835614	    297.70984072	     73.61934167	    167.86457011
     23.14020000	    546.33625311	    263.97716565	     79.98543651	    149.79864537
     23.17180000	    518.29529721	    224.27891812	     83.06208632	    123.21407760
     23.20340000	    465.50440748	    228.49000951	     74.40662269	    117.07094794
     23.23500000	    367.46608748	    283.53592139	     55.38026163	    136.99023986
