ModelForces
version=1
nRows=51
nColumns=77
inDegrees=no

This file contains the forces exerted on a model during a simulation.

A force is a generalized force, meaning that it can be either a force (N) or a torque (Nm).

Units are S.I. units (second, meters, Newtons, ...)
If the header above contains a line with 'inDegrees', this indicates whether rotational values are in degrees (yes) or radians (no).

endheader
time	addbrev_r	addlong_r	addmagDist_r	addmagIsch_r	addmagMid_r	addmagProx_r	bflh_r	bfsh_r	edl_r	ehl_r	fdl_r	fhl_r	gaslat_r	gasmed_r	glmax1_r	glmax2_r	glmax3_r	glmed1_r	glmed2_r	glmed3_r	glmin1_r	glmin2_r	glmin3_r	grac_r	iliacus_r	perbrev_r	perlong_r	piri_r	psoas_r	recfem_r	sart_r	semimem_r	semiten_r	soleus_r	tfl_r	tibant_r	tibpost_r	vasint_r	vaslat_r	vasmed_r	pelvis_tx_residual	pelvis_ty_residual	pelvis_tz_residual	pelvis_tilt_residual	pelvis_list_residual	pelvis_rotation_residual	hip_flexion_r_reserve	hip_adduction_r_reserve	hip_rotation_r_reserve	knee_angle_r_reserve	ankle_angle_r_reserve	subtalar_angle_r_reserve	hip_flexion_l_torque	hip_adduction_l_torque	hip_rotation_l_torque	knee_angle_l_torque	ankle_angle_l_torque	subtalar_angle_l_torque	calcn_r_RightGRF_Fx	calcn_r_RightGRF_Fy	calcn_r_RightGRF_Fz	calcn_r_RightGRF_px	calcn_r_RightGRF_py	calcn_r_RightGRF_pz	calcn_r_RightGRF_Tx	calcn_r_RightGRF_Ty	calcn_r_RightGRF_Tz	calcn_l_LeftGRF_Fx	calcn_l_LeftGRF_Fy	calcn_l_LeftGRF_Fz	calcn_l_LeftGRF_px	calcn_l_LeftGRF_py	calcn_l_LeftGRF_pz	calcn_l_LeftGRF_Tx	calcn_l_LeftGRF_Ty	calcn_l_LeftGRF_Tz
     15.35332690	      8.71876560	     13.23244540	      6.53839980	      6.43813790	      6.45009714	      7.13100900	     13.91260076	      7.72790368	      8.49674529	      4.50918082	     91.25996902	    339.66928567	    238.09562086	    565.11191943	     75.82710062	     55.38604129	     11.27226031	    540.19149765	    218.75802899	    173.44901398	     72.59086274	     68.85860067	     52.73575049	      3.63714461	     47.91353926	      5.90850395	     12.27442536	     85.43445844	     21.21020914	    554.82712226	      5.66823303	     21.94506390	      7.21212161	   1699.22776502	     83.99134617	     75.94583011	   1343.86264877	     94.37581377	    886.08616276	    240.11249421	    -44.79430242	   -261.32224129	    -26.75652832	     37.50298204	     26.10706158	    -11.43745725	     -0.00444197	     -0.01704244	      0.00288704	     -0.00525777	     -0.02006936	      0.03121344	     32.03103009	    -45.31870992	     40.64292802	    -37.52390025	      5.19911666	     -4.14854442	    195.68421968	    731.62450156	     34.77623749	      0.14630909	     -0.00321518	      0.03226916	      0.00000000	      0.97720024	      0.00000000	     -0.00000000	      0.00000000	      0.00000000	      0.40010114	     -1.87703418	     -0.76974978	      0.00000000	      0.00000000	      0.00000000
     15.36759355	      8.84855494	     13.42364266	      6.57550440	      6.48629095	      6.55740931	      7.24487090	     14.33984000	      8.23215113	      9.48067531	      4.88122358	     56.59205374	    199.46818585	    148.04053744	    379.01813868	     72.14903963	     92.68993416	     11.15125638	    526.52228344	    181.76919043	    116.45717618	     71.89319726	     55.84520131	     32.82778124	      3.67437367	     23.84399314	      6.19554194	     12.61906027	     14.24051941	     21.08310523	    124.05902442	      4.26182988	     23.40386239	      7.43684211	   1104.27924808	     61.73208551	    139.63870670	    790.49217062	     44.52365881	    373.95862178	    104.44544989	    -11.83804712	    -43.30112938	     -5.44463760	      8.64215802	      8.72852450	     -3.56254924	     -0.01124355	     -0.01454720	      0.00388711	     -0.00242411	     -0.00585244	      0.01909918	     28.86550866	    -42.31838272	     36.81737550	    -38.41646513	      5.16593759	     -3.87595080	    157.72154799	    451.63299205	     25.40389590	      0.17102903	      0.00447885	      0.02894040	      0.00000000	     -1.23027154	      0.00000000	     -0.00000000	      0.00000000	      0.00000000	      0.06660920	     -1.90349631	     -0.87853229	      0.00000000	      0.00000000	      0.00000000
     15.38186020	      8.82780812	     13.35620559	      6.57104903	      6.82111042	      6.58930919	      7.27982401	     17.32250782	     10.04076310	     10.13655681	      5.06523025	     25.69238898	     90.15248911	     83.14259036	    290.73544788	     30.25558722	     57.51216180	     10.98774557	    565.32431544	    148.79949216	     45.26917672	     78.86206645	     45.07669445	     13.96753914	      3.66613556	     19.99647511	      6.32071732	     12.80106904	     11.17302138	     20.90967550	     25.78173619	      3.61343913	    259.83691788	     11.76380360	    587.85158366	     46.05531569	    102.72670219	    351.25827262	     18.86806480	     56.20766417	     30.60987930	     17.31244529	     82.73723478	     18.02911252	    -13.04350324	    -14.38265972	      4.68355015	     -0.01834219	     -0.01335878	      0.00617571	      0.00283318	     -0.00156241	      0.00917510	     15.89469392	    -36.07589645	     33.45102091	    -35.74428090	      4.74746753	     -3.43179831	    107.05345492	    218.67688555	      8.83809396	      0.21330810	      0.03003584	      0.03261591	      0.00000000	     -3.84412010	      0.00000000	     -0.00000000	      0.00000000	      0.00000000	     -0.27677723	     -1.87067995	     -0.98541476	      0.00000000	      0.00000000	      0.00000000
     15.39612686	      8.64722618	     13.02458287	      6.48622526	      6.35878154	      6.51143149	      7.21321194	     15.03093636	     57.03670572	     43.27683437	      7.61121221	      4.20696060	      8.40061044	     39.78995861	    411.35202525	     12.19292031	     16.63207958	     10.76512298	    406.81819195	     81.52318704	     11.13840783	     70.15156446	     43.06123619	     15.90799251	      3.68530207	    185.90840078	      9.13970560	     25.84122202	     11.26889892	     49.44152337	     25.77968323	     17.98676576	    409.01630374	     33.31951848	     27.48990438	     48.64227279	    113.63185557	     14.86447943	     18.46885658	     55.55134836	     30.21354811	     13.42467229	    103.94082692	     23.06828418	    -27.34265205	    -26.25155294	      9.14335159	      0.00883893	     -0.01166149	      0.00366990	      0.03488058	      0.00313623	     -0.00088659	    -10.95616157	    -24.93759103	     30.37350588	    -25.20778828	      3.66013102	     -2.72710847	     63.64216934	     59.16155302	     -7.86229992	      0.25851935	      0.07747608	      0.04315225	      0.00000000	     -6.45472415	      0.00000000	      0.00000000	     -0.00000000	     -0.00000000	     -0.63002135	     -1.76418483	     -1.09665271	      0.00000000	     -0.00000000	      0.00000000
     15.41039351	     81.72714224	    343.66746619	      6.36531450	      6.23336873	      6.39457450	     53.53523365	     13.74148661	     72.71624554	     83.35253440	     10.54311449	      4.32574018	      8.70621269	     36.03310501	     21.21423772	     12.41852406	     16.83421787	     10.57860773	     15.64765516	     12.22916806	     35.97360787	     30.60585169	     52.55045324	     57.54115515	     31.74014872	    449.84722651	     19.30642396	     72.72096710	    200.12511461	    612.83763712	     33.11563019	     37.65769688	     22.80370810	      7.34216603	     32.46404793	     73.33763715	    159.42259031	     15.70129153	     19.09505117	     57.36304463	     31.16905123	     26.00057245	     58.03899394	    -13.52230335	      6.02156624	      1.28964051	      6.27102834	      0.06443405	     -0.00638155	     -0.00494106	      0.04856206	      0.00623375	     -0.00244804	    -45.69235376	    -11.36344747	     27.78681397	     -4.04161039	      2.07297851	     -1.96590464	     -0.00007746	     -0.00004209	      0.00001630	     -0.47513078	     -1.09999823	     -1.32592579	      0.00000000	      0.00000996	      0.00000000	      0.00000000	     -0.00000000	     -0.00000000	     -0.97971553	     -1.56213073	     -1.22123114	      0.00000000	     -0.00000000	      0.00000000
     15.42466016	    182.98313523	    619.13191125	      6.26823998	      6.15869631	     38.28551438	    127.64269730	     12.95518948	     72.60175651	     93.83362206	     12.32127384	      4.74569146	      9.60881413	     12.87748656	     80.62715391	     12.83170365	     17.28876686	     10.52193655	     16.42782258	     11.19577816	     12.64384411	      7.48565129	     39.29280277	     64.30762079	     52.33350668	    563.81922563	     18.26098719	     67.74083396	    321.36455927	    869.67272713	    191.44118228	     39.77547639	     20.79018172	      7.07253005	     40.81654783	     62.07652792	    203.31581207	     17.83760934	     20.51471537	     61.56858376	     33.29323096	     -9.14097187	     -4.88764823	    -30.46318862	      5.21988868	     18.08144946	     -0.62459045	      0.09033474	      0.00065147	     -0.00775775	      0.05355371	      0.01021987	     -0.00286307	    -81.40641055	      6.99233524	     23.22772997	     26.24057413	      0.30526930	     -1.22188504	     -0.00000000	     -0.00000000	      0.00000000	     -0.20024088	     -1.14065642	     -1.34565352	      0.00000000	      0.00000000	      0.00000000	      0.00000000	     -0.00000000	     -0.00000000	     -1.29957626	     -1.25328269	     -1.34966804	      0.00000000	     -0.00000000	      0.00000000
     15.43892681	    244.53289578	    802.73590239	      6.21190252	      6.15866853	     57.93789102	    167.04308459	     12.07928808	     87.55752037	     83.79095560	     11.15893261	      5.25358056	     10.75408882	     38.08274451	     25.78660564	     13.33997494	     17.94707012	     10.67379680	     17.15115760	     11.78375731	     12.70225308	     15.82358106	     55.55910253	     83.56386950	     67.26177618	    798.52656280	     16.56262196	     63.15147777	    405.22921301	   1196.82070707	    340.74360470	     49.68023108	     18.32756246	      6.74968588	     52.43343524	     87.89640338	    188.39782070	     20.39888309	     22.46607675	     67.43248235	     36.20085014	    -19.78421967	    -32.85822103	    -15.17191573	      8.86236439	     15.80737195	     -7.92672251	      0.12758388	      0.00064761	     -0.00908858	      0.07107036	      0.01222975	     -0.00306082	   -110.93497879	     28.96050744	     15.41735581	     58.58144906	     -1.27193147	     -0.52200607	     -0.00000000	     -0.00000000	      0.00000000	      0.01139276	     -1.12973529	     -1.35778763	      0.00000000	      0.00000000	      0.00000000	      0.00000000	     -0.00000000	     -0.00000000	     -1.55943142	     -0.85790799	     -1.44972458	      0.00000000	     -0.00000000	      0.00000000
     15.45319347	    263.11972443	    863.95864143	      6.21594839	      6.23895326	     52.81160409	    174.56230629	     11.21460089	    101.53706245	     87.24692727	     11.99162315	      5.65119920	     11.66729803	     48.34058155	     26.72358047	     13.87380639	     18.74983756	     11.05189044	     17.59417234	     12.19899668	     13.20485709	     56.87890710	     86.44399865	    105.98647330	     73.69274500	    995.68682529	     17.74858698	     70.17483809	    437.99768624	   1443.17612288	    463.19011699	     59.77549134	     15.80604127	      6.40580071	     62.56122417	    124.76218920	    207.26192740	     22.29438977	     24.41005999	     73.45078166	     39.09689765	    -10.71879470	    -47.88005141	     16.79132752	      9.66426399	     -1.47402819	    -10.32497879	      0.16002243	     -0.00387125	     -0.00951131	      0.08945307	      0.01586154	     -0.00372039	   -131.89187802	     46.70546673	      7.27892571	     83.71475056	     -2.47844733	     -0.00313727	      0.00000000	      0.00000000	     -0.00000000	      0.17796123	     -1.08256273	     -1.37688110	      0.00000000	     -0.00000000	      0.00000000	     -0.00000000	      0.00000000	      0.00000000	     -1.73755099	     -0.43542933	     -1.49314016	      0.00000000	      0.00000000	      0.00000000
     15.46746012	    259.08152385	    844.74994235	      6.26457247	      6.37225312	     43.42014458	    168.60610230	     10.39668542	    106.45383095	    105.00522603	     15.17809471	      5.84561691	     12.17946218	     14.68365470	    117.84939858	     14.38244925	     19.61021717	     11.58616538	     17.79741249	     12.44785581	     13.54016712	     83.54899592	    103.15092760	    113.82287857	     73.92277201	   1052.76929622	     20.94199999	     82.01371090	    440.67741297	   1527.32983294	    551.11049572	     65.54833319	     13.36753671	      6.06290937	     67.98276526	    140.31071669	    266.13971924	     23.17774270	     25.86934423	     78.15394814	     41.24869012	      6.38694848	    -63.45733028	     29.77406387	      2.20137542	    -14.45081282	     -4.81195113	      0.17646744	     -0.00738866	     -0.00974385	      0.10002133	      0.02148641	     -0.00469316	   -145.43292054	     50.38068391	      2.77699367	     95.99864586	     -3.24401280	      0.07406473	      0.00000000	      0.00000000	     -0.00000000	      0.32472235	     -1.00925205	     -1.40440275	      0.00000000	     -0.00000000	      0.00000000	     -0.00000000	      0.00000000	      0.00000000	     -1.82857324	     -0.06516575	     -1.48957531	      0.00000000	      0.00000000	      0.00000000
     15.48172677	    259.82196800	    813.71329058	      6.32807013	      6.52622822	     49.69633419	    171.57768676	      9.64733540	    103.10964349	     99.82092509	     14.39557265	      5.87952435	     12.35306117	     22.97457812	     84.88268270	     14.84770965	     20.44601352	     12.16679663	     17.89764311	     12.62230657	     13.81187092	     70.52510729	     90.91289541	    102.06966911	     73.06039417	    973.48685833	     20.43757528	     82.66902168	    466.52165187	   1480.48197087	    609.74015453	     66.83047333	     10.65781191	      5.72656234	     69.66979438	    123.19119399	    251.73792987	     23.24377543	     26.45353049	     80.22850906	     42.08411505	     17.84318497	    -63.30765591	     10.89051760	     -7.08890190	     -9.91761364	      3.76285810	      0.17710824	     -0.00510135	     -0.01073894	      0.10146698	      0.01996433	     -0.00460342	   -148.96263367	     40.07292077	      1.88135815	     94.86896456	     -3.39893659	     -0.25614542	      0.00000000	      0.00000000	     -0.00000000	      0.47247547	     -0.91455910	     -1.43494080	      0.00000000	     -0.00000000	      0.00000000	     -0.00000000	      0.00000000	      0.00000000	     -1.84258387	      0.18872812	     -1.48611052	      0.00000000	      0.00000000	      0.00000000
     15.49599342	    258.62068762	    759.04309792	      6.38630493	      6.67870893	     68.07453079	    177.66401355	      8.97559062	     87.84651212	     99.21696136	     14.02277902	      5.79651839	     12.30065009	     13.29965491	     78.33829672	     15.26115221	     21.18780350	     12.70502038	     18.05572639	     12.81375170	     14.08120389	     26.73941293	     55.13294990	     74.11323892	     68.59039517	    803.59336002	     19.86427559	     82.50754409	    492.38752520	   1332.08551150	    732.16065177	     62.18029022	      7.43809074	      5.44465340	     69.01980523	     87.36733984	    244.37433944	     22.79680458	     25.90181664	     78.92442288	     41.24947653	     12.67866087	      6.16568802	    -18.45881911	     -8.90489451	      5.95371390	      8.62387774	      0.16210938	      0.00233845	     -0.01199475	      0.08883743	      0.01834107	     -0.00446686	   -135.38986416	     25.52868847	      2.28511132	     82.29690015	     -2.80557896	     -0.55321425	      0.00000000	      0.00000000	     -0.00000000	      0.63014347	     -0.79936686	     -1.46133528	      0.00000000	     -0.00000000	      0.00000000	     -0.00000000	      0.00000000	      0.00000000	     -1.79570529	      0.29896777	     -1.52819256	      0.00000000	      0.00000000	      0.00000000
     15.51026008	    231.89550601	    650.48446612	      6.43179620	      6.81774261	     70.16698164	    164.13462678	      8.34355674	     60.83669869	     86.18872588	     11.55263487	      5.67415327	     12.15847982	     10.34777155	     23.24018884	     15.58721302	     21.75958383	     13.15430629	     18.27716654	     13.02728862	     14.38820464	      6.18316813	     23.98934210	     45.60397427	     55.61337450	    653.68111806	     18.21335773	     78.48295309	    448.83288458	   1165.72568555	    804.81508184	     53.21012537	      4.22613194	      5.27695209	     67.57169907	     64.54176025	    196.17474011	     22.12226906	     24.72515917	     75.82754918	     39.60146496	    -17.93442171	    198.82076662	    -32.59977682	     -5.35850891	     19.45648233	     10.40821733	      0.14163121	      0.00727506	     -0.01212560	      0.06194456	      0.01405322	     -0.00393085	   -105.36922886	     13.30510369	      3.63715489	     62.95215347	     -1.72854254	     -0.58674868	     -0.00000000	     -0.00000000	      0.00000000	      0.79344992	     -0.66527959	     -1.47735707	      0.00000000	      0.00000000	      0.00000000	      0.02997042	     -0.05095595	     -0.00352306	     -1.70362551	      0.27536369	     -1.62198897	      0.00000000	     -0.00468054	      0.00000000
     15.52452673	    177.01419453	    490.44028989	      6.47265312	      6.94269696	     48.75046760	    126.45548646	      7.72468241	      9.10060215	     87.52415348	     11.04842478	      5.53476620	     12.00893494	      8.98784380	     11.29483215	     15.76556720	     22.08764218	     13.50616732	     18.36558624	     13.12908815	     14.59081510	      5.73719650	     10.39848397	     23.86624561	     28.06849427	    534.43002352	     18.25895784	     82.90265456	    303.96091372	    973.04366562	    973.15282682	     33.64497848	      2.31742667	      5.26528301	     66.71679147	     58.85282459	    186.99929326	     21.38335050	     22.86334086	     70.51955994	     36.89206085	      7.68060497	     79.02712900	    -16.44914670	     14.11595353	     10.09963121	     -3.70910377	      0.11678207	      0.00671842	     -0.01014500	      0.00864062	      0.01311485	     -0.00398374	    -92.48842834	     -6.63705489	     18.20040089	    -17.79763210	     -5.60025908	      2.40634549	     -0.00000000	     -0.00000000	      0.00000000	      0.94899560	     -0.52133162	     -1.47982986	      0.00000000	      0.00000000	      0.00000000	    -83.70193979	    436.36195541	     -7.84040269	      0.06452213	     -0.01522899	      0.00863693	      0.00000000	      4.32611422	      0.00000000
     15.53879338	    121.54420258	    373.01838181	      6.52403096	      7.06369122	      5.70286667	     82.65221590	      7.19861244	      4.78860524	     89.83523084	     11.09347973	      5.39745210	     11.89077532	      8.38256704	      6.80160848	     15.75774911	     22.14952381	     13.78914348	     18.14843955	     12.99124257	     14.54149694	     36.73882776	     44.87905275	     40.54690988	     12.60115871	    599.95365073	     18.18584423	     83.95013801	    243.84630007	    999.47062100	    879.88108989	     35.56105099	      1.68425416	      5.39703042	     67.05682069	     86.05059248	    186.13461085	     20.65014059	     60.77090243	    512.83590020	    145.14193420	     -7.72182294	    -94.18470806	     22.10920578	     -3.50603767	    -16.25676467	     -5.25523398	      0.12269343	     -0.00409773	     -0.00899699	     -0.00483112	      0.01320936	     -0.00391354	   -126.57651163	    -36.32316179	     31.80779435	    -83.77772565	    -38.35292232	      9.14468961	     -0.00000000	     -0.00000000	      0.00000000	      1.08119393	     -0.38790244	     -1.47127098	      0.00000000	      0.00000000	      0.00000000	   -138.47999332	    988.40537698	    -24.51897866	      0.09566606	      0.00078673	      0.00270723	      0.00000000	     -1.96048288	      0.00000000
     15.55306003	     82.29121779	    306.19762759	      6.62241016	      7.21103630	      5.39860125	     54.08679278	      6.96264094	      4.68184399	     89.48617603	     11.04680777	      5.26247512	     11.79089287	      7.61431483	      3.35500915	     15.59049235	     22.00595712	     14.06852223	     87.40150665	     13.21244537	     15.38657155	     70.76556809	     78.48849613	     63.42569545	      3.56386853	    680.27371402	     16.72850266	     76.73169652	    356.76496630	   1111.51944892	    837.08666249	     44.46430898	      1.55287714	      5.63454978	     68.32855617	    110.71494544	    187.21706215	     19.92759690	    100.54390624	    910.55593137	    247.67263207	    -11.44103527	   -123.25678235	     38.75694075	     -2.61750608	    -24.27343407	     -6.02755693	      0.13996366	     -0.01489534	     -0.01104295	     -0.01110932	      0.01379171	     -0.00347429	   -134.36642404	    -68.40395749	     43.23795877	   -129.07025316	    -93.87279944	     26.29594726	      0.00000000	      0.00000000	     -0.00000000	      1.17827233	     -0.29390938	     -1.46074857	      0.00000000	     -0.00000000	      0.00000000	   -185.33739491	   1375.49847468	    -22.71629754	      0.12742639	      0.01813662	     -0.00361148	      0.00000000	     -4.83358404	      0.00000000
     15.56732669	     57.69775355	    271.32207747	      6.78266121	      7.41531547	      5.50114852	     38.99361910	      7.26300651	      4.94528573	     86.08806191	     11.08854865	      5.13652306	     11.67842886	      6.77867362	      1.96883171	     15.31385236	     21.73282533	     14.38919024	    176.59867351	     72.83803155	    133.97254769	     71.46141266	     86.39759411	     68.40305023	      2.82803257	    713.32477852	     15.78653995	     62.55814577	    442.01024410	   1221.70116028	    799.37556038	     55.32977755	      1.54417275	      5.96081879	     69.96487624	    119.47775290	    186.43153070	     19.22276941	    100.94600651	   1115.98221394	    259.56873940	      3.66954307	    -57.95368882	     21.18519385	      5.26752284	    -11.47337556	     -3.52426504	      0.15630371	     -0.02213180	     -0.01479363	     -0.01512885	      0.01440267	     -0.00276212	   -117.98523183	   -104.37768329	     52.62369171	   -154.71042936	   -152.10941109	     47.94136634	      0.00000000	      0.00000000	     -0.00000000	      1.23365646	     -0.26897154	     -1.45969563	      0.00000000	     -0.00000000	      0.00000000	   -204.75992003	   1586.22814773	     -3.44910110	      0.15457045	      0.03459210	     -0.01237902	      0.00000000	     -3.71180675	      0.00000000
     15.58159334	     13.04522957	    185.12692785	      7.00441151	      7.68858625	      5.70088977	     10.52968045	      8.32615388	      5.18851820	     81.60438534	     10.51099277	      5.00177936	     11.55144053	      6.17605729	      1.62990175	     14.94885187	     21.33249908	     14.70822582	    216.36739025	    138.43857441	    250.52295591	     59.90868163	     81.26559566	     63.40232841	      2.86957718	    641.37818164	     13.79743625	     51.06977330	    437.96901113	   1163.34992007	    735.92913259	     62.98809974	      1.57363690	      6.36155937	     71.65117901	    113.21930193	    178.87803091	     18.58716803	     83.34355770	    937.65960906	    223.11545493	     22.37535224	     25.26069834	    -13.39754784	      6.36240471	     11.48756953	      2.02257538	      0.15419825	     -0.02913427	     -0.01727682	     -0.01401531	      0.01432755	     -0.00222948	    -88.83390355	   -140.41354742	     58.68786522	   -166.19568573	   -196.58893257	     67.22049333	      0.00000000	      0.00000000	     -0.00000000	      1.24232012	     -0.33541064	     -1.47329780	      0.00000000	     -0.00000000	      0.00000000	   -179.93841155	   1666.54750228	     20.57220296	      0.17446539	      0.04618544	     -0.02297972	      0.00000000	      0.03279813	      0.00000000
     15.59585999	      5.72616261	     33.46595737	      7.26584375	      8.01057292	      5.97552902	      5.01801647	     10.24754813	      5.53962991	     77.62108162	      9.97112830	      4.92500548	     11.43168205	      6.04717401	      1.62635041	     14.50739102	     20.74977755	     14.88903171	    286.93166394	    186.67036257	    300.39989797	     49.48184851	     70.50191365	     52.51639255	      3.03019161	    460.36527849	     14.82539613	     49.45170003	    341.51675149	    857.45670036	    605.32753572	     59.44262710	      1.69811467	      6.80683117	     73.49719760	     93.86223864	    165.99929691	     18.14928320	     51.65148223	    567.31700168	    138.06498911	     22.74248367	     65.08941341	    -32.41118117	     -0.90628031	     25.37894075	      5.00692619	      0.12216612	     -0.03428936	     -0.01547644	     -0.00906981	      0.01357874	     -0.00207823	    -56.29546788	   -161.53532433	     56.70566810	   -167.40584033	   -219.82551409	     77.77415936	      0.00000000	      0.00000000	     -0.00000000	      1.19540868	     -0.50138974	     -1.49345852	      0.00000000	     -0.00000000	      0.00000000	   -109.26609201	   1661.57929742	     34.20016803	      0.18645672	      0.04982074	     -0.03262396	      0.00000000	      4.15490560	      0.00000000
     15.61012664	      5.98416289	      8.06017428	      7.52798513	      8.33168624	      6.28189031	      5.12125097	     12.73685070	      5.94291828	     75.24562263	      9.37053196	      4.87348806	     11.39058642	      6.57859523	      1.75392890	     21.62262928	     19.95743046	     14.78673536	    374.38162915	    223.06226624	    307.52798215	     42.39125573	     59.24491040	     41.62583812	      3.22117160	    206.62368049	     16.40168505	     60.02264225	    228.31043653	    367.86999492	    379.36413251	     39.63619841	      2.11950575	      7.25886845	     75.80744684	     64.28414903	    154.28034874	     18.05765458	     28.72804941	    299.21002360	     74.40334883	     -1.57329059	     41.55350937	    -20.12459623	     -7.37098481	     16.92581740	      2.00758868	      0.06368780	     -0.03437291	     -0.00969229	     -0.00512395	      0.01279501	     -0.00223806	    -21.19297223	   -151.14009629	     42.81472039	   -159.38415603	   -220.70572427	     76.02025094	     -0.00000000	     -0.00000000	      0.00000000	      1.07766508	     -0.75338535	     -1.50065372	      0.00000000	      0.00000000	      0.00000000	     -8.70748586	   1585.40724933	     30.08426878	      0.19128183	      0.04475167	     -0.03825549	      0.00000000	      6.92053491	      0.00000000
     15.62439330	      6.35100383	      8.47111150	      7.75523541	      8.60000805	      6.57009207	      5.28311053	     15.10595731	      6.54677785	     72.27174620	      9.02271961	      4.93041740	     11.47010326	      7.99616812	      2.10264342	    120.99438372	     49.56154589	     14.36001147	    396.20684523	    179.89927189	    187.90565189	     40.05904274	     43.54199019	     25.86738826	      3.42832034	     25.29352340	     19.36096060	     73.35551333	     90.36043870	     17.58475494	    118.72756929	     10.64244687	      3.47829486	      7.70262934	     78.66326705	     30.20416559	    145.68017751	     18.41048708	     19.66935694	    146.87634566	     40.85701422	    -31.88311911	    -13.57511334	     11.72743045	     -5.52479209	    -10.18431116	     -2.39480933	      0.00911213	     -0.02107633	     -0.00132028	     -0.00272177	      0.01216423	     -0.00244274	     18.46685207	   -106.88365399	     20.36808007	   -140.16028785	   -201.73632843	     63.55081858	     -0.00000000	      0.00000000	     -0.00000000	      0.87161844	     -1.05155715	     -1.47601415	      0.00000000	      0.00000000	      0.00000000	     92.67010291	   1428.55578126	     11.85426905	      0.19095073	      0.03256630	     -0.03825263	      0.00000000	      7.74171930	      0.00000000
     15.63865995	      6.77124221	      9.03927137	     11.49901345	     50.47250351	      6.84432999	      5.47732709	    121.89095618	      6.82561729	     66.66027294	      8.65118936	      5.06674014	     11.67072068	     10.49894147	      3.06279685	     97.35627381	    200.28286498	     62.39441884	    322.66077906	    107.61671966	     75.36225655	     35.42994965	     27.38219246	     12.40158254	      3.66556470	     11.43129738	     21.02118325	     80.78597763	     15.14097503	     17.53136629	     11.47061465	      3.09773331	     30.12968932	     34.13964408	     81.71530110	      5.94922197	    137.94091195	     19.14014425	     20.31945496	    161.93646541	     44.07588086	    -38.64718241	    -41.65723708	     34.60853261	      2.23055424	    -33.16676022	     -1.86603313	     -0.01473083	     -0.00569995	      0.00302772	     -0.00327528	      0.01138474	     -0.00252757	     55.76413663	    -49.59584478	      0.52917790	   -106.20676336	   -168.04881176	     46.33558398	     -0.00000000	      0.00000000	     -0.00000000	      0.56883293	     -1.33724114	     -1.41374156	      0.00000000	      0.00000000	      0.00000000	    164.79529391	   1186.59122186	     -9.60662115	      0.18814901	      0.01599779	     -0.03334492	      0.00000000	      7.02292738	      0.00000000
     15.65292660	      8.10230563	     10.04851130	     45.78355490	     83.00607528	     20.26135844	      5.91569006	    196.10596421	      7.07317343	     60.26548775	      8.46622684	      5.23165059	     11.92221535	     13.86380290	      6.57420048	     58.49836293	    146.71726018	    136.11086426	    173.49007354	     46.53097070	     24.59929222	     21.68019096	     13.24986305	      6.54292710	      4.81793924	     11.77474633	     21.19784027	     81.35110205	      7.65466815	     17.86793819	     13.02715998	      3.15451911	    159.02280680	     51.50154377	     84.36165170	      3.86496046	    132.53912227	     19.98872795	     28.21373104	    267.47816108	     68.42556181	     -9.59814019	    -12.40475610	     23.19147100	      5.96170159	    -24.66760862	      2.09149507	     -0.01343038	      0.00123413	      0.00252033	     -0.00579992	      0.01047441	     -0.00249531	     72.60361986	    -12.31399041	     -6.92492728	    -58.47038355	   -126.32897501	     29.91897614	     -0.00000000	      0.00000000	     -0.00000000	      0.18062532	     -1.55385894	     -1.32019248	      0.00000000	      0.00000000	      0.00000000	    189.56361806	    879.16502831	    -24.09973588	      0.18562669	     -0.00296124	     -0.02547932	      0.00000000	      5.42903407	      0.00000000
     15.66719325	     30.33169616	     45.02962285	     58.23941119	     88.40391647	     40.25122932	     11.33884736	    185.91954769	      7.45012229	     58.35533395	      8.61193803	      5.36353852	     12.11509105	     17.17891434	     16.65157917	     35.91605439	    100.98492691	    136.23176934	     87.17452772	     17.02779531	     10.54207324	     13.64491499	      7.12738395	      4.81316493	      5.81815287	     12.21224455	     21.18169714	     82.82204743	      7.30917932	     18.28963845	     14.45942767	      3.21541098	    293.34292916	     46.04680851	     86.08449725	      4.03635448	    137.58231697	     20.60105964	     35.33583616	    384.82232604	     95.00520058	     28.99047243	     33.79421407	    -15.61705793	     -2.53335912	     13.91151451	      3.15781548	     -0.01086062	      0.00446915	      0.00199503	     -0.00835845	      0.01030962	     -0.00257324	     55.62156711	     -8.24750761	     -4.12725518	     -7.54855639	    -84.45689780	     16.83400800	      0.00000000	     -0.00000000	      0.00000000	     -0.26214609	     -1.66735409	     -1.20086767	      0.00000000	     -0.00000000	      0.00000000	    167.74876760	    554.56084107	    -26.97268847	      0.18686004	     -0.02435334	     -0.01531461	      0.00000000	      3.54725165	      0.00000000
     15.68145991	     45.37240347	     82.84861631	     55.03243488	     80.68428526	     43.10078101	     15.87439793	    148.80988746	      7.89256466	     61.15639615	      9.45644048	      5.39139419	     12.16138406	     19.62644095	     30.46722348	     23.38450416	     65.24035343	    104.46374502	     94.82869964	     13.53662995	      9.71683993	     17.97149635	      7.08358398	      4.66080026	      6.77014553	     12.64285240	     22.34205579	     87.37164368	      7.55836960	     18.71805049	     15.53868282	      3.27104996	    312.10852071	     38.12411139	     86.67803976	      4.20886908	    151.90933691	     20.71918672	     39.42682288	    390.21150454	    104.15662500	     29.78113748	     28.03224663	    -33.72469136	    -19.18918964	     37.53067228	      1.12776971	     -0.00815379	      0.00538551	      0.00203127	     -0.00822331	      0.01072725	     -0.00271146	     18.42349862	     -8.83464150	     -0.08800095	     31.91283955	    -48.70250502	      8.28898161	      0.00000000	     -0.00000000	      0.00000000	     -0.72031548	     -1.67113226	     -1.05254714	      0.00000000	     -0.00000000	      0.00000000	    119.30735131	    273.58294914	    -20.73662551	      0.19557681	     -0.04932318	     -0.00115838	      0.00000000	      1.84929479	      0.00000000
     15.69572656	     48.85559734	    102.77296397	     44.80699603	     67.09569074	     37.54651099	     14.60990647	    110.46017847	      8.36290050	     64.02362827	     10.20225076	      5.31156613	     12.01738432	     21.33762974	     39.53622918	     19.21835050	     40.54099709	     68.93994607	    131.66790485	     18.70011788	     10.23912898	     26.19087624	     11.17707255	      5.34902171	      8.38394586	     15.28313456	     23.23573691	     88.38196235	      8.22388712	     19.11409073	     16.24116748	      3.32360972	    307.45148177	     33.27628873	     86.28402485	      4.59405466	    162.55426761	     20.25240092	     34.81236792	    322.46482918	     90.13559629	     33.79269789	     24.21449458	     -8.89413297	     33.48010395	     -2.60143094	     -0.26314689	     -0.00545362	      0.00532687	      0.00226399	     -0.00624631	      0.01105194	     -0.00268776	     60.83283847	     28.45656648	     -4.61357895	     -6.57205792	     26.28595797	      4.16549804	      0.00000000	     -0.00000000	      0.00000000	     -1.15822054	     -1.57516984	     -0.87085576	      0.00000000	     -0.00000000	      0.00000000	     21.66425312	     29.00464662	     -3.67367312	     -1.00565301	     -0.12046406	     -0.70647454	      0.00000000	      0.22257401	      0.00000000
     15.70999321	     50.71140690	    115.30295413	     37.97315542	     56.47924563	     34.03621151	     13.96999814	    101.63625989	      8.67560898	     65.17286198	     10.45848048	      5.09946122	     11.69941356	     22.83299664	     44.13220555	     18.24084073	     29.03871337	     48.98129413	    135.47792371	     20.32913566	     10.55878408	     27.43892610	     12.63423590	      5.51747813	      9.98886343	     21.59274620	     22.91044280	     81.40808557	      9.36581973	     19.44410085	     16.31937949	      3.37178502	    373.34719316	     34.34988027	     85.30243603	      5.08166937	    163.78370516	     19.27321883	     26.80534276	    239.24454017	     66.53851107	    -21.48057062	    -66.99595950	     41.89385877	      7.97887207	    -27.29509056	     -2.67623038	     -0.00359908	      0.00531716	      0.00232921	     -0.00395582	      0.01110579	     -0.00238386	     29.29727180	     43.13452492	      6.56947267	     30.79175140	     -1.79835594	      2.05930448	      0.00000000	     -0.00000000	      0.00000000	     -1.54909351	     -1.39145768	     -0.66533535	      0.00000000	     -0.00000000	      0.00000000	     -0.00000000	     -0.00000000	      0.00000000	     -1.40219858	     -0.23423604	     -1.01233953	      0.00000000	     -0.00000000	      0.00000000
     15.72425986	     55.25937576	    125.81310190	     38.97961457	     53.16567174	     36.80972821	     17.70739636	    129.93900826	      8.90243383	     65.92535994	     10.40818578	      4.81362042	     11.25822801	     24.20919288	     47.78492307	     14.81165076	     23.66396710	     47.28353513	    106.95676978	     14.99819479	      9.71627374	     22.08376448	      9.75457600	      4.89583430	     12.62700260	     23.23500560	     21.62648810	     69.43628873	     10.21600299	     19.77413668	     15.86974527	      3.41802879	    513.52845140	     40.48468299	     84.23581423	      4.27117273	    157.56821679	     18.01565695	     21.13369473	    171.61510692	     48.67891068	    -41.17392532	    -36.48694355	     49.64175133	     -3.15363477	    -40.13980626	      3.61445172	     -0.00321291	      0.00585410	      0.00211701	     -0.00246381	      0.01116534	     -0.00203782	     32.26228243	     52.29969440	      8.01447695	     27.02425669	     -1.95954743	      2.22235993	     -0.00000000	      0.00000000	     -0.00000000	     -1.87518697	     -1.12830969	     -0.46788772	      0.00000000	      0.00000000	      0.00000000	      0.00000000	      0.00000000	     -0.00000000	     -1.32629056	     -0.40435684	     -0.99690820	      0.00000000	      0.00000000	      0.00000000
     15.73852651	     57.73795297	    126.53186344	     45.76192172	     56.17362338	     42.69621349	     22.93482005	    189.49042211	      9.42632334	     65.35683772	     10.08758936	      4.58743505	     10.81097481	     25.12436173	     50.76577287	     19.00765418	     33.31389197	     59.17823363	     71.62255637	     12.88232336	     10.27666846	     15.28235668	      7.73096442	      5.28080587	     15.53674364	     17.29339303	     20.13192815	     56.63177603	     11.13748369	     19.80487993	     15.61448643	      3.45287912	    702.17114877	     51.08932099	     83.35789513	      4.10278431	    143.82835571	     16.93346113	     21.29645470	    120.89461094	     41.49891421	    -16.44132527	     47.35693221	      6.12808411	    -13.22465699	     -6.18203124	      0.53183629	     -0.00476560	      0.00646821	      0.00176432	     -0.00155317	      0.01101558	     -0.00176508	     41.74851992	     21.74987901	      5.87864664	     12.63552376	     -0.24141619	      0.82195976	     -0.00000000	      0.00000000	     -0.00000000	     -2.12489443	     -0.79828552	     -0.32590902	      0.00000000	      0.00000000	      0.00000000	      0.00000000	      0.00000000	     -0.00000000	     -1.21649352	     -0.64073450	     -0.94989212	      0.00000000	      0.00000000	      0.00000000
     15.75279317	     44.68526202	     92.66647177	     55.39222419	     65.77311169	     44.74703305	     19.63815953	    282.46851716	      9.14821673	     59.37720880	      8.91716730	      4.42454415	     10.53659920	     25.14479397	     51.51729487	     45.45158259	     89.27615796	     86.33497265	     63.98190762	     17.46142968	     13.61917405	     11.74958382	      7.26895956	      5.54494758	     16.43829517	     13.13429019	     17.69267343	     47.77106810	     11.71817221	     19.87440523	     15.95243782	      3.47401382	    930.32921946	     67.42102161	     82.28650260	      4.09629018	    119.99871256	     16.53755941	     20.02974418	     97.27654360	     37.33762202	     14.72143992	     66.12319150	    -39.36014180	     -5.09848948	     29.29815170	     -9.27411953	     -0.01010157	      0.00589599	      0.00150336	     -0.00110196	      0.00994016	     -0.00153059	     73.05610627	    -14.98646361	      4.70637594	     -8.42952938	      2.15568945	     -1.01117680	     -0.00000000	      0.00000000	     -0.00000000	     -2.28998503	     -0.43298400	     -0.27899727	      0.00000000	      0.00000000	      0.00000000	      0.00000000	      0.00000000	     -0.00000000	     -1.03221078	     -0.91557529	     -0.88858360	      0.00000000	      0.00000000	      0.00000000
     15.76705982	     14.37990051	     20.48072564	     63.20714818	     76.62196339	     39.72921359	      7.82384550	    389.92867570	      8.66549408	     45.61787550	      6.77754800	      4.50282380	     10.53994105	     24.05277290	     49.14405404	     99.36715201	    191.04116810	    122.30695976	     82.20249101	     41.03339166	     46.84935680	      9.71275419	      8.54564377	      7.19444153	     15.83694134	     13.28748982	     14.84876729	     44.50426380	     23.67790852	     20.07400561	     16.84114352	      3.47638325	   1144.99977492	     88.78776331	     80.08291850	      4.35146418	     86.78197141	     17.05591868	     16.28068376	     49.13811803	     26.87602656	     25.88233973	      0.81195966	    -42.31000306	      9.99369897	     30.36449681	    -11.86170935	     -0.01858893	      0.00354301	      0.00127340	      0.00100412	      0.00739528	     -0.00130928	    116.36569346	    -24.04153467	      3.55330785	    -29.16421222	      4.32029305	     -2.14071825	      0.00000000	     -0.00000000	      0.00000000	     -2.36984339	     -0.08714517	     -0.33063459	      0.00000000	     -0.00000000	      0.00000000	     -0.00000000	     -0.00000000	      0.00000000	     -0.75264921	     -1.17760291	     -0.82539578	      0.00000000	     -0.00000000	      0.00000000
     15.78132647	      7.20171043	     10.11965915	     35.47261370	     49.70803197	      7.18773103	      5.97948012	    487.95024693	     35.37725510	     30.09402146	      5.27792148	      4.85766278	     10.85794932	     24.86991144	     47.27248512	    163.98656727	    305.30419994	    119.94947445	     88.29578345	     79.68274449	    110.79418411	      5.92944495	     14.46672074	     20.28795347	     11.10668314	     13.48319920	     13.39176240	     42.20678631	    130.38958640	     20.27031794	     19.04342751	      3.47497344	   1347.32792235	    112.90882072	     76.16980958	      4.64202095	     53.75359813	     18.41252595	     17.16096878	     51.92032233	     28.22658544	     15.78396918	    -75.23562008	    -11.96164491	      8.87419768	      8.47740891	     -2.41465401	     -0.02471059	     -0.00536566	     -0.00010240	      0.01752037	      0.00446251	     -0.00113012	    141.59152991	     -7.71545404	     -0.81395718	    -40.93774733	      5.77688276	     -2.28351769	      0.00000000	     -0.00000000	      0.00000000	     -2.38193709	      0.17896123	     -0.44028730	      0.00000000	     -0.00000000	      0.00000000	     -0.00000000	     -0.00000000	      0.00000000	     -0.39336902	     -1.37141678	     -0.76778509	      0.00000000	     -0.00000000	      0.00000000
     15.79559312	      7.09814608	      9.98732857	     20.82589842	     35.93592962	      6.43235074	      5.92640102	    545.71094337	     62.29310801	     51.18800223	      8.73789934	      5.23965316	     11.26716537	     63.55667420	    126.71506460	    199.88460895	    367.41668617	    118.67269694	    103.88626833	    103.08004714	    147.17049449	      6.00088418	     18.92417512	     28.25806458	     13.47959758	     13.53588838	     15.92645243	     53.97892417	    191.13630221	     20.34819737	     22.22895842	      3.77412067	   1386.26444945	    135.80437896	     70.91250439	      4.84101186	    110.90629071	     20.12450407	     19.23751756	     58.02005485	     31.33317858	     -6.06378703	    -82.92539910	     10.10551445	     -9.49858760	     -5.47405475	     10.24361755	     -0.02707195	     -0.00981098	     -0.00070454	      0.03683252	      0.00760257	     -0.00189404	    139.49255494	      9.28072981	     -6.57454769	    -42.14646269	      6.39862480	     -1.91665904	      0.00000000	     -0.00000000	      0.00000000	     -2.36134603	      0.32489865	     -0.54920547	      0.00000000	     -0.00000000	      0.00000000	     -0.00000000	     -0.00000000	      0.00000000	      0.00265219	     -1.46511879	     -0.71893912	      0.00000000	     -0.00000000	      0.00000000
     15.80985978	      7.01501931	      9.83122445	     21.24976092	     39.24000612	      6.43734609	      5.93138750	    552.42755803	     72.08237162	     91.90615976	     16.43935150	      5.60512484	     11.82268081	     17.36367173	    348.13782237	    211.24266432	    387.55025384	    125.29579866	    133.58606737	    112.05475869	    155.74470977	      7.21162786	     21.54948543	     29.53910207	     18.00760772	     13.39049362	     20.41271765	     77.45950192	    199.13979690	     20.27099421	     25.50740891	      4.61834794	   1255.91558356	    147.31986323	     66.39191387	      4.91808275	    237.06305789	     21.95320867	     21.60803941	     65.14415394	     34.85018475	    -39.27894313	     23.34183079	     11.27310897	    -31.04948531	     -6.27013603	     14.06962569	     -0.02716792	     -0.00966014	     -0.00030780	      0.04936815	      0.01350596	     -0.00354668	    125.04115428	     13.83567313	     -9.49626119	    -38.33407852	      6.48348923	     -1.61632945	      0.00000330	     -0.00000136	      0.00000027	     -2.33938571	      0.34310853	     -0.61685692	      0.00000000	     -0.00000022	      0.00000000	     -0.00000000	     -0.00000000	      0.00000000	      0.38742413	     -1.46043427	     -0.67656132	      0.00000000	     -0.00000000	      0.00000000
     15.82412643	      6.94120884	      9.66839444	      7.14618023	      7.11238577	      6.38806035	      5.96861593	    198.97857765	     30.01868882	    162.48432411	     22.58864218	      5.98694294	     12.45010032	     15.24170794	     29.04542369	    148.11012632	    271.00315527	     47.82824513	     13.50744051	     22.48468003	    115.79091312	      4.64123371	      5.21299377	     12.95910959	      3.23418504	     13.11830056	     55.41307247	    250.16540016	    237.98427647	     20.11738156	     28.40184616	     11.30824021	    344.86898280	     40.62251184	     65.68745580	      4.91154012	    227.70340619	     23.68494989	     23.59804897	     71.19694167	     37.79414426	     21.79754703	    181.91062272	     19.92335346	     42.21901766	    -14.07689759	      1.18605692	     -0.01273026	     -0.01358914	     -0.00487178	      0.02278383	      0.01850031	     -0.01134180	    112.14203723	     10.52462088	     -8.41073244	    -34.77492730	      6.41778658	     -1.59820902	   -105.16861825	     75.86010788	     -8.24809026	      0.00406801	     -0.00907341	     -0.00155393	      0.00000000	      6.78103654	      0.00000000	      0.00000000	      0.00000000	     -0.00000000	      0.72396280	     -1.38448290	     -0.63544906	      0.00000000	      0.00000000	      0.00000000
     15.83839308	      6.89167548	      9.56186363	      7.83954592	     30.90740488	      6.42356148	      5.98933499	    248.76902530	      6.84766318	    163.58948567	     31.35992451	      6.29126905	     13.08333494	     15.45896252	     29.05126789	    441.44403783	    780.67595023	    174.27595213	    347.49906489	    260.07744497	    348.40989691	     18.28272331	     52.17225029	     66.65256928	      3.09052499	     12.85049127	     42.94169007	    197.55978117	    426.66872271	     19.91214338	     30.80479759	      3.22534635	    367.02837303	     42.08906100	     70.60588498	      5.92721610	    431.53461400	     25.00088246	     88.11818969	    820.33298110	    216.12762455	    -19.40287345	    -26.88260802	     19.83935475	    -17.26760398	    -13.26668551	     -6.96685473	     -0.04557929	     -0.02537510	     -0.00023194	     -0.00318553	      0.02509113	     -0.01096614	    103.53941089	      8.17977548	     -5.38003956	    -32.61320350	      6.31454296	     -1.74484994	   -104.07384783	    614.82180820	     -1.72878147	      0.02221786	     -0.00187717	      0.00262698	      0.00000000	      4.75223044	      0.00000000	      0.00000000	      0.00000000	     -0.00000000	      0.99214675	     -1.27614307	     -0.59260838	      0.00000000	      0.00000000	      0.00000000
     15.85265973	      6.89294189	      9.56844236	      7.34175677	     31.05811003	      6.43093472	      6.01359493	    243.98967392	      6.18075404	      6.68110166	      6.43686960	     18.89477572	     57.16061118	     17.54130333	     33.34828412	    539.16125236	    935.83450915	    181.89237690	    518.75171318	    347.38701456	    432.22284389	     32.78142746	     72.63920934	     86.07005394	      3.06173795	     12.78900271	      3.99296759	      9.46576907	    466.06832432	     19.89173672	     32.69020537	      3.18886905	    352.74108050	     37.17329550	     77.72166904	     13.44415551	    147.95636338	    290.30372392	    202.12120990	   1883.62182538	    494.13301919	    -22.38473197	   -100.22806151	     15.00857371	    -25.56820497	    -10.03705907	     -7.33722496	     -0.05360953	     -0.03203389	      0.00075955	     -0.00760659	      0.00468139	      0.00322994	     96.35086644	     10.39421874	     -2.79210896	    -30.72470179	      6.08700012	     -1.86009612	   -123.39147962	   1034.52460643	     -3.18685476	      0.05569025	      0.00277924	      0.00717418	      0.00000000	      3.89058509	      0.00000000	      0.00000000	      0.00000000	     -0.00000000	      1.18821388	     -1.17346127	     -0.54860930	      0.00000000	      0.00000000	      0.00000000
     15.86692639	      6.93608520	      9.69239732	      7.21325432	     28.78447051	      6.37375322	      6.01736534	    178.55179603	      5.96847214	      4.84308805	      4.77364414	     49.27051838	    186.94919706	     20.42924013	     39.02986754	    484.88866213	    833.67084407	    158.30885034	    530.48362674	    333.09068926	    390.21741332	     34.29110388	     71.25183721	     81.91966303	      3.08128021	     13.01837951	      3.99568546	      9.78281262	    369.47681635	     20.11600775	     33.93764455	      3.20076694	    235.81700959	     20.19524129	   1206.94360844	     15.37971434	    166.85590824	    812.22931384	    324.69745743	   3001.73704651	    788.36447218	      3.12375206	    -72.55398010	     -1.14066826	     -3.35967555	      0.99567172	     -0.37447386	     -0.04894743	     -0.02929983	      0.00095990	     -0.01380554	      0.00562922	      0.00912624	     87.31833348	     15.23860162	     -2.10759343	    -28.04131206	      5.68009427	     -1.80960058	   -157.58611120	   1289.68966064	    -13.93314014	      0.09132556	      0.00456680	      0.01065610	      0.00000000	      3.93770295	      0.00000000	      0.00000000	      0.00000000	     -0.00000000	      1.31926282	     -1.10483051	     -0.50466768	      0.00000000	      0.00000000	      0.00000000
     15.88119304	      7.01465562	      9.92330896	      7.12515954	     21.85867846	      6.23925164	      6.00253892	     95.16810893	      6.18021330	      4.35041745	      5.90619668	     77.51038865	    307.57531490	     61.30001412	     42.05586396	    403.43552146	    687.12711877	    126.09375215	    517.81143082	    302.20737106	    331.94598034	     34.08170187	     67.99175859	     76.20404104	      3.14340101	     13.52778089	      4.15285578	     10.46969816	    280.87435349	     20.58958548	     34.71146097	      3.26026705	     72.77920213	      6.97708869	   2699.94367357	     18.07590322	    242.68004074	   1266.34543398	    418.39711735	   3845.85584385	   1016.72197165	     24.46934563	     -9.59463154	    -16.78771866	     15.75458141	     11.14473528	      5.27400676	     -0.04179071	     -0.02547887	      0.00075253	     -0.02042463	      0.01225538	      0.01743169	     74.97262363	     17.63892913	     -3.61932412	    -24.26531900	      5.15770725	     -1.56825346	   -181.24976211	   1415.31196867	    -29.46031268	      0.12175073	      0.00093129	      0.01306163	      0.00000000	      4.50329963	      0.00000000	     -0.00000000	     -0.00000000	      0.00000000	      1.39485856	     -1.08642740	     -0.46052443	      0.00000000	     -0.00000000	      0.00000000
     15.89545969	      7.13841111	     10.26323856	      6.80347485	     15.13807106	      6.04727209	      5.98868316	     34.12656992	      6.55017651	      4.34134810	      7.87770349	     98.66655278	    408.60043045	    304.07110032	     89.37801438	    374.62590045	    629.23948821	    103.25007020	    595.03262725	    316.58805931	    324.25663257	     41.57690521	     77.36402960	     83.18873776	      3.23149835	     14.22634602	      4.44939204	     11.35434377	    250.99310494	     21.23116224	    125.75631049	      3.34983650	     17.91180967	      6.22137356	   4062.34892079	     28.34795910	    354.43600908	   1582.06718928	    476.35555426	   4375.76555598	   1166.43342023	     21.06649192	     37.98923310	    -22.94557061	     14.18996585	     14.06410985	      4.86318521	     -0.03931993	     -0.02559625	      0.00057951	     -0.02642999	      0.01959663	      0.02813887	     59.91124698	     12.43311799	     -5.99373379	    -19.27715009	      4.61734943	     -1.22946972	   -167.31732613	   1474.98542477	    -40.37035422	      0.14241519	     -0.00841101	      0.01444233	      0.00000000	      5.21849863	      0.00000000	     -0.00000000	     -0.00000000	      0.00000000	      1.41975882	     -1.12504541	     -0.41567222	      0.00000000	     -0.00000000	      0.00000000
     15.90972634	      7.33504091	     10.73027116	      6.51893202	     18.88820986	      5.85054079	      6.01064136	     19.72372022	      6.94871433	      4.85820871	     11.05484465	    108.99099414	    461.82852478	    544.50959468	    979.36693234	    389.09406987	    652.34296650	    110.05221666	    782.35359643	    372.61390249	    353.77048610	     60.50229400	     98.48269514	     98.77639416	      3.32973076	     14.99971361	      4.84616538	     12.16455475	    246.43048164	     21.91415090	    288.28399121	      3.43798550	     17.87341420	      6.31930328	   4494.13996015	     39.00900448	    540.04240141	   1710.56885993	    543.46854104	   5010.01144447	   1343.81995941	     -1.22905992	     50.95488553	    -18.70804657	     -1.97617447	     10.22737709	      0.54077424	     -0.04395123	     -0.02761301	      0.00098774	     -0.03402545	      0.02326453	      0.03884237	     44.47866401	     -1.34126571	     -6.88851339	    -13.11717771	      4.12166118	     -0.96565904	   -105.12799360	   1502.30595941	    -38.33070524	      0.15283179	     -0.02061823	      0.01517500	      0.00000000	      5.76777133	      0.00000000	     -0.00000000	     -0.00000000	      0.00000000	      1.39033719	     -1.22144951	     -0.37208886	      0.00000000	     -0.00000000	      0.00000000
     15.92399300	      7.62491871	     11.32821829	      6.30869743	     20.95108169	      5.70737466	      6.10059251	     14.36823314	      7.27538237	      5.65425898	     11.75263811	    105.59735079	    452.07108407	    737.19778457	   1935.26380249	    390.95067283	    654.26707514	    106.29849602	   1006.63418093	    427.32734584	    376.99752221	     88.41539186	    122.75329612	    111.69567133	      3.42828946	     15.74500997	      5.21152799	     12.66861310	    234.93989613	     22.50827632	    421.29793678	      3.50613739	     17.60179883	      6.39802493	   4447.55236544	     59.09516015	    704.48607420	   1633.90323995	    577.52465557	   5352.51315762	   1441.03969054	    -19.40320020	     31.11779932	     -3.86853561	    -14.46095470	      0.70889214	     -2.92389154	     -0.04730713	     -0.02966697	      0.00165751	     -0.03967317	      0.01440914	      0.04479074	     31.48178043	    -18.57657247	     -4.97407744	     -6.52790442	      3.71944238	     -0.92962689	     -6.50780284	   1486.82322689	    -21.58044666	      0.15597784	     -0.03223029	      0.01511414	      0.00000000	      5.79633774	      0.00000000	      0.00000000	     -0.00000000	      0.00000000	      1.29528244	     -1.36975935	     -0.33570920	      0.00000000	      0.00000000	      0.00000000
     15.93825965	      7.99337904	     12.01961636	      6.01049912	     16.07977170	      5.66090488	      6.26644419	     11.51880518	      7.49937452	      6.65947535	      6.61944392	     97.25411098	    416.10182443	    810.77003055	   2436.06959029	    338.36732315	    560.47569429	     71.35163985	   1179.57362693	    438.47447208	    354.65012815	    121.50485501	    138.96323621	    110.12470946	      3.52633339	     16.36499329	      5.45688532	     12.86461843	    190.72310599	     22.89885981	    547.66105623	      3.54175171	     17.22228615	      6.44954582	   4039.84832314	     88.98227676	    755.28200833	   1493.72351030	    548.19529479	   5105.56566640	   1377.13146550	    -15.49154403	     -6.41135393	     15.66559769	    -10.65746609	    -10.48782729	     -3.06362183	     -0.04415815	     -0.02943364	      0.00281238	     -0.03985519	     -0.00101358	      0.04595012	     22.39023257	    -32.68614076	     -0.25225968	     -0.71963593	      3.45732188	     -1.18475764	     98.95502912	   1396.97636899	      3.30201998	      0.15604348	     -0.04129822	      0.01343347	      0.00000000	      5.00855336	      0.00000000	     -0.00000000	      0.00000000	     -0.00000000	      1.12076689	     -1.55326329	     -0.31535602	      0.00000000	     -0.00000000	      0.00000000
     15.95252630	      8.38592958	     12.72727363	      5.92382556	      7.85034892	      5.71811441	      6.47975174	     11.23029917	      7.64466633	      6.44177863	      3.56617421	     90.65027509	    380.80633532	    738.40469451	   2287.71581792	    237.23836073	    388.97206708	     10.94124282	   1193.26571303	    386.10521796	    281.07487627	    144.38133510	    135.93620665	     91.32971386	      3.62417674	     16.77655169	      5.68147643	     12.97901387	    122.87469371	     23.01358786	    646.05385068	      3.54541483	     17.17892449	      6.54168666	   3334.21975443	    114.71040485	    689.00674264	   1363.84385971	    450.53468782	   4211.68226517	   1137.06136057	      2.02720505	    -37.77235098	     24.15760515	      3.65931143	    -13.76597331	     -1.55100006	     -0.03368828	     -0.02670359	      0.00399516	     -0.03375748	     -0.01022222	      0.04355823	     16.67768672	    -41.31746276	      7.36302661	      3.39786897	      3.34373386	     -1.71310889	    179.19303415	   1212.80624944	     25.95374846	      0.15637527	     -0.04725261	      0.00977785	      0.00000000	      3.39429100	      0.00000000	     -0.00000000	      0.00000000	     -0.00000000	      0.85925740	     -1.74208161	     -0.32022490	      0.00000000	     -0.00000000	      0.00000000
     15.96679295	      8.73040984	     13.35051605	      5.93457768	      6.26308879	      5.84437976	      6.68719375	     11.30310069	      7.76271422	      7.19958084	      4.01059194	     83.04281286	    335.98361238	    553.18847616	   1669.21274944	    135.16397581	    193.35620848	      8.83525152	   1023.20532318	    298.38967286	    198.44865293	    141.42779201	    116.08035345	     67.73037180	      3.71506803	     17.08529879	      6.08533322	     13.34982494	     71.86086556	     22.85011506	    715.98056340	      3.62787097	     17.76725437	      6.71172950	   2450.10854324	    123.52955367	    542.43060863	   1191.63409380	    299.68753899	   2810.82163201	    760.10688438	      9.74314694	    -41.53025355	     12.42528026	     12.14431430	     -3.81132571	     -1.67353595	     -0.01817689	     -0.02353066	      0.00378825	     -0.02270880	     -0.00960328	      0.03790557	     12.27181249	    -46.46767224	     18.28196607	      5.57655745	      3.32788706	     -2.43988521	    211.46204700	    945.33487040	     37.64370663	      0.15988827	     -0.04987823	      0.00509342	      0.00000000	      1.37583452	      0.00000000	     -0.00000000	      0.00000000	     -0.00000000	      0.51808159	     -1.89795115	     -0.35851632	      0.00000000	     -0.00000000	      0.00000000
     15.98105961	      8.96649007	     13.78705789	      5.99711987	      5.81745086	      5.98496803	      6.84071272	     11.71478787	      7.84885918	      8.32965916	      4.44160994	     64.32972708	    249.76188100	    331.07574113	    955.51584257	     70.22947124	     60.98938330	      8.98293216	    745.70902231	    212.51805531	    141.11297971	    112.21222183	     87.86966788	     48.36194804	      3.78541102	     25.61062170	      6.66951068	     14.10062298	     52.10058572	     22.59381452	    643.99649138	      3.96484688	     18.96782319	      6.94497767	   1604.98410187	    105.50063894	    375.15262669	    866.19381243	    150.05780084	   1411.35149637	    383.23188964	     -0.16786605	    -15.75640526	     -8.54172368	      6.20157527	     11.01972247	     -3.23186646	     -0.00425737	     -0.01975633	      0.00198626	     -0.01135751	     -0.00406921	      0.02838949	      6.25762313	    -49.85578205	     30.76057191	      6.40310811	      3.31372873	     -3.16180084	    191.11956276	    638.90194723	     35.33350971	      0.16978036	     -0.04832190	      0.00123836	      0.00000000	     -0.33339988	      0.00000000	      0.00000000	     -0.00000000	      0.00000000	      0.12168703	     -1.98506392	     -0.43758844	      0.00000000	      0.00000000	      0.00000000
     15.99532626	      9.07027889	     13.97850121	      6.07875647	      5.91444392	      6.09814691	      6.92182168	     12.29942718	      8.56168074	      9.42096241	      4.86765104	     34.55752125	    132.35434572	    158.33077780	    438.79873828	     29.97520682	     14.93850142	      9.15955657	    533.52197534	    152.97912417	    104.50082541	     85.28251784	     65.94336492	     35.44678556	      3.82270296	     86.03352605	      7.18021018	     14.87712167	     41.30994248	     22.41216510	    485.75609875	      7.36470429	     20.39101140	      7.18933855	    883.28597764	     81.29846190	    210.37588264	    441.81521679	     46.16353405	    411.38620897	    113.11865466	    -10.27663973	     20.95395006	    -17.80855890	     -6.20083444	     14.38692943	     -1.65523559	      0.00438753	     -0.01624115	      0.00055810	     -0.00325916	     -0.00075172	      0.01591244	     -3.16655546	    -49.84996419	     39.71190776	      7.18648691	      3.22073629	     -3.55620352	    133.23058061	    351.98072769	     22.49843981	      0.18867062	     -0.03987392	     -0.00041572	      0.00000000	     -1.21943508	      0.00000000	      0.00000000	     -0.00000000	      0.00000000	     -0.29572711	     -1.97918752	     -0.56297772	      0.00000000	      0.00000000	      0.00000000
     16.00959291	      9.06871475	     13.96185183	      6.14229131	      5.99692533	      6.17372194	      6.95031198	     12.77947469	     41.66154484	     10.24706957	      5.79396590	      8.43407427	     29.15462940	     77.41209562	    227.87850705	     10.54767977	     14.43361648	      9.29326684	    487.23302411	    122.45709308	     71.62522573	     92.12070445	     67.20109649	     33.27579478	      3.90342198	    274.36783993	      7.44400939	     15.26158790	     30.74376123	    173.61312374	    220.90151173	     22.00819419	     21.48268826	      7.37204668	    209.19701517	     86.19129927	     61.44437954	     94.80546812	     17.71518177	     53.87085166	     29.05041807	     -2.26920952	     47.88725580	     -4.54391592	    -10.96810584	     -2.68839168	      6.12218624	      0.02335884	     -0.01779852	     -0.00014782	      0.01956883	      0.00006053	      0.00367675	    -14.03940299	    -43.24583966	     39.96558501	      9.24805475	      3.05892409	     -3.39526561	     63.59108027	    130.92329058	      6.05792423	      0.21641565	     -0.01978614	     -0.00129985	      0.00000000	     -1.29839348	      0.00000000	      0.00000000	     -0.00000000	      0.00000000	     -0.70296670	     -1.86770105	     -0.73403573	      0.00000000	      0.00000000	      0.00000000
     16.02385956	      9.06486162	     14.45831189	      6.19942319	      6.06421261	      6.24435173	      7.01704674	     12.95736756	     88.22490883	    105.65550293	     14.87359836	      3.80327146	      7.55329063	     24.32872442	    147.40283866	     10.61050512	     14.65228042	      9.40180664	    411.09083236	     93.66785244	     50.62581807	     98.34020769	     73.77046616	     36.85459375	      9.29996171	    527.99499826	     30.52632696	    107.74231857	     34.89466465	    521.36759518	     95.68323573	     39.85772005	     21.77468721	      7.42879316	     26.60845904	     98.39495626	    220.21498137	     12.24810261	     17.93773374	     54.33803078	     29.39613424	     23.20529229	     51.60846859	     12.69381089	      2.16659734	    -20.89740103	     12.45457903	      0.05368230	     -0.02127806	     -0.00219645	      0.04531276	      0.00666961	     -0.00246901	    -21.62415810	    -29.64042261	     31.42131360	     12.77728813	      2.93789754	     -2.75298089	      0.08253881	      0.09870325	     -0.01688842	     -0.65720976	     -1.05979084	     -1.32414532	      0.00000000	     -0.00435218	      0.00000000	      0.00000000	     -0.00000000	      0.00000000	     -1.08028742	     -1.64234026	     -0.93678023	      0.00000000	      0.00000000	      0.00000000
     16.03812622	      9.02933790	     14.31640985	      6.27349716	      6.13132101	      6.34422525	      7.05605816	     12.81987897	     96.91231014	    114.12408685	     14.43331281	      3.58212443	      7.44839813	     24.72707952	    156.46392181	     10.67751883	     14.81837431	      9.52824649	    280.82620195	     50.49482271	     15.59670835	     75.47404363	     53.44249404	     24.58878437	     18.39592104	    467.60850086	     26.70231654	     95.83398093	     15.87016494	    476.95268005	     23.90025491	     35.73695160	     82.68073718	      9.08302471	     29.21381949	     66.79846638	    231.80366146	     12.69025886	     18.73889487	     56.57264109	     30.59519872	     -0.62833673	     -7.72683733	     19.23050091	      1.24350955	    -21.38682882	     11.30671755	      0.04833238	     -0.01807570	     -0.00144758	      0.05508795	      0.00905432	     -0.00278510	    -22.51213150	    -12.70206929	     19.08700674	     16.78830285	      2.98500990	     -1.90191662	     -0.00000000	     -0.00000000	      0.00000000	     -0.41092675	     -1.26674517	     -1.23460372	      0.00000000	      0.00000000	      0.00000000	     -0.00000000	      0.00000000	     -0.00000000	     -1.41672063	     -1.29593608	     -1.13818807	      0.00000000	     -0.00000000	      0.00000000
     16.05239287	     34.33606299	    147.85556704	      6.39680914	      6.21167186	      6.62333340	     31.16846261	     47.38472952	     70.40658899	     72.60473640	      9.17856900	      3.84453137	      7.83458490	     22.81007534	     71.17135405	     10.75008244	     14.92700428	      9.71476377	     13.64057669	     19.57667090	     41.83738886	      8.08589977	     17.64705167	     15.23519011	     30.67526574	    198.79378714	     14.85719407	     52.65067956	     33.69060379	    331.00013607	     25.40418835	     22.10897543	    298.45468257	     50.25836662	     32.87425363	      9.80518511	    146.40254372	     13.96626078	     20.08821352	     60.53438091	     32.60124285	    -14.01532090	    -30.51322081	     -2.28991927	     -3.30569906	      5.71692331	     -4.92694217	      0.03071448	     -0.00447427	     -0.00394930	      0.04462300	      0.00781896	     -0.00206118	    -18.06157654	      1.57716119	      9.99226335	     18.83349449	      3.26837091	     -1.15615318	     -0.00000000	     -0.00000000	      0.00000000	     -0.20647077	     -1.41848153	     -1.10116547	      0.00000000	      0.00000000	      0.00000000	     -0.00000000	      0.00000000	     -0.00000000	     -1.69801414	     -0.83229848	     -1.29163677	      0.00000000	     -0.00000000	      0.00000000
     16.06665952	    186.29441699	    454.61921787	     62.21853656	     16.12148360	    106.91116082	    143.38044992	    215.89461676	     49.42029518	     27.31117521	      6.76789781	      4.93654140	      9.04063222	     33.77084220	     36.55221529	     71.43527165	     16.10097902	    188.91269494	     12.55586933	      7.84736385	     62.80427773	      4.97432018	      4.72128043	      6.71742552	     51.34586421	     14.68336842	      6.65415124	     13.16267028	     50.64878443	    203.40313843	     27.15117316	     10.00966211	    436.73137253	     96.01682861	     37.96125786	      4.62616469	    116.80796275	     17.01740717	     21.71328259	     65.36289130	     35.01985394	     -5.29373550	    -40.62374831	    -45.18787821	      1.49643733	     54.63636808	    -38.21816245	      0.01413937	      0.01509218	     -0.00676167	      0.03515818	      0.00597675	      0.00012902	     -7.95388250	     13.72146665	      4.41435656	     17.61470989	      3.73750498	     -0.48284782	     -0.00000000	     -0.00000000	      0.00000000	     -0.02896277	     -1.53240501	     -0.94294693	      0.00000000	      0.00000000	      0.00000000	     -0.00000000	      0.00000000	     -0.00000000	     -1.89584733	     -0.28221937	     -1.36287445	      0.00000000	     -0.00000000	      0.00000000
