DataType=double
version=3
OpenSimVersion=4.6-2026-03-27-4e5ffda9c
endheader
time	pelvis_tilt	pelvis_list	pelvis_rotation	pelvis_tx	pelvis_ty	pelvis_tz	hip_flexion_r	hip_adduction_r	hip_rotation_r	hip_flexion_l	hip_adduction_l	hip_rotation_l	knee_angle_r	knee_angle_r_beta	knee_angle_l	knee_angle_l_beta	ankle_angle_r	ankle_angle_l	subtalar_angle_r	subtalar_angle_l
142.88	-0.1158533597516055	0.1125127910210414	-0.01524694261663399	1.107690609687423	0.9386194338255571	-0.3193498024417551	0.04257388212320912	-0.07912643084060716	-0.1270144830721401	0.7366591577005669	0.06774416820824859	0.009847689046841988	0.100435580790732	0.100435580790732	1.178823894148515	1.178823894148514	0.05165204022136703	0.08191884901523279	-0.2967651139443324	-0.3194940457155251
142.89576	-0.1013466687659738	0.1347854920387041	-0.002408838509531433	1.11017171265966	0.9478948012680933	-0.3210383880542498	-0.05176723171545653	-0.1257573369063457	-0.1692883593232452	0.760892060848642	0.06879065171110277	-0.06120372257202071	0.1398303389659077	0.1398303389659078	1.162901608079183	1.162901608079183	-0.05124550929702747	0.03462031249766807	-0.2672728182149383	-0.3558657336870295
142.91152	-0.0910522475828078	0.1483919289634352	0.01283830723574852	1.112653283445792	0.955914707139194	-0.3230910103581562	-0.1355081805009549	-0.1617555429988826	-0.2056278005048401	0.7811102044643616	0.06860303439498271	-0.1177058507492017	0.1846722339366316	0.1846722339366316	1.130200271084826	1.130200271084826	-0.1452035124358932	-0.008675244152372693	-0.2334566076214069	-0.3781918464815922
142.92728	-0.08689265981056046	0.1466415682129424	0.0305240069398413	1.115089909939747	0.9617924342515893	-0.3256127516246715	-0.2010443521687751	-0.1786252074024333	-0.2284171357274086	0.7944185015760172	0.06420400791885118	-0.1521825028609774	0.2398683067858955	0.2398683067858954	1.072205663061416	1.072205663061417	-0.224365336365388	-0.0455405378777338	-0.1979098428347233	-0.3772256825252336
142.94304	-0.08770416999302214	0.1264924609100069	0.04756751079137627	1.117386290537077	0.9651555349428695	-0.3283602472146334	-0.2451226570536269	-0.1718864917677138	-0.2288996460314648	0.7993459347251005	0.05097971636836014	-0.1671786084905051	0.3097998328486543	0.3097998328486541	0.9918386210117267	0.9918386210117267	-0.2860769374524875	-0.07649121406255066	-0.1700364797558397	-0.3524758564848841
142.9588	-0.09030898955848986	0.08921717803918097	0.05899505665621628	1.119430974338551	0.9660303550066296	-0.3308630067442891	-0.2682749716448811	-0.1421168732391796	-0.2007608364392409	0.7955306997889842	0.02461858240890945	-0.1723548599399707	0.3985122120992095	0.3985122120992093	0.9009546947864612	0.9009546947864608	-0.3296160877218766	-0.1053963215295523	-0.1598259811143104	-0.3138036887026809
142.97456	-0.09156462309122099	0.03961077015356392	0.0598230532965804	1.121133514366497	0.9645961244023934	-0.3326436779594547	-0.2732111886926145	-0.0948204694694554	-0.1448989692686385	0.7834336583890732	-0.0167034123525374	-0.1774936653715949	0.5091213624759545	0.5091213624759545	0.8152455016915879	0.8152455016915876	-0.3561047607008834	-0.1383529203483087	-0.1717720691247247	-0.2788612120250568
142.99032	-0.09001348701608843	-0.01570742735292517	0.04631140997900442	1.122444042150391	0.9609747078789731	-0.3333952533540477	-0.263227403474272	-0.03935011823503929	-0.07127759034249684	0.7641835253240064	-0.07105257698720206	-0.1856214365787721	0.6420800988000488	0.6420800988000492	0.7493259419385438	0.7493259419385435	-0.3689120522665464	-0.1814257402311016	-0.2034452523876079	-0.2660113492113912
143.00608	-0.08624535093259747	-0.06983510541769554	0.01679858203116901	1.123359029548726	0.9551685448771731	-0.3330736941518589	-0.2412680428178882	0.01297865900174145	0.00472702747230138	0.7392493119229127	-0.1322587814256329	-0.1904706777811373	0.7931948753263686	0.7931948753263693	0.7128288051352828	0.7128288051352826	-0.3726569045622103	-0.2380142628722144	-0.2485715094606847	-0.2856507938011946
143.02184	-0.08208562161047422	-0.116504773915556	-0.02705849581157404	1.123922476319844	0.9471711188174714	-0.3319326254259121	-0.2097146443116668	0.0517408328420179	0.069150654108543	0.709979969903895	-0.190149019323315	-0.1802114561485708	0.9529633249269315	0.9529633249269319	0.7076831418590236	0.7076831418590235	-0.3710681599636259	-0.3062807647498371	-0.3012632774558711	-0.3353318714263149
143.0376	-0.07943838365646816	-0.1508027768329716	-0.07913644705769686	1.124221386457781	0.9371787864937668	-0.3304871643704531	-0.1705803570874193	0.07088910952470936	0.114374695133048	0.6773843838954995	-0.2324683649334507	-0.1455156087494015	1.108193440463542	1.108193440463541	0.7274040053140283	0.7274040053140283	-0.3654586241845564	-0.3777490079227647	-0.3580191917448006	-0.4021557567051404
143.05336	-0.07949159825257422	-0.17026113931286	-0.1294939005558917	1.124364823077853	0.9257706996411765	-0.3293637242519806	-0.125806796377525	0.07156292676682639	0.1396529833444866	0.6421475860136652	-0.2491255960338599	-0.08650304428554595	1.245426826683765	1.245426826683764	0.7593983073292416	0.7593983073292417	-0.3548112381339127	-0.4389672906179509	-0.4167291275251713	-0.4704888446100718
143.06912	-0.08243250300808222	-0.175918045372577	-0.1677054953005509	1.12443928799499	0.91393295759579	-0.3290575965515506	-0.07739068191225928	0.06225509470555417	0.1488828032903421	0.604481045406526	-0.236921544700052	-0.0134404866781715	1.354647893424782	1.354647893424782	0.7899513087834724	0.7899513087834727	-0.3371681475629652	-0.4760653201775495	-0.4745646528666974	-0.5295138614822343
143.08488	-0.08762443650471599	-0.1718878010400659	-0.1875058668379942	1.124455384714697	0.9028884905010583	-0.3297129933093275	-0.02687941693937599	0.05492214352766503	0.1482357047242054	0.563884317665461	-0.201067076024341	0.05892772968712198	1.431738525314201	1.431738525314201	0.8094100049849404	0.8094100049849406	-0.3113787010744472	-0.4791945844388216	-0.5269992276636009	-0.5762148155283952
143.10064	-0.09422621398679255	-0.1629357722139238	-0.1897652533504308	1.124327912744466	0.8938132778065172	-0.3310606488055876	0.02574967878243029	0.05842179861239913	0.14426389058857	0.5194076707455997	-0.1519300355312572	0.1185161736606829	1.478678735358528	1.478678735358529	0.8143403352166406	0.8143403352166408	-0.2781615982300317	-0.4450492861187227	-0.5686073814442676	-0.6131899712791578
143.1164	-0.1019445287095707	-0.1519953056225219	-0.1817127136814408	1.12392631971667	0.8875854954038056	-0.3325570135599689	0.08265546751128947	0.07383939441878122	0.1419708572887042	0.4703318762011788	-0.09992955389804085	0.1594703977958321	1.501329069225384	1.501329069225385	0.805505432635397	0.8055054326353971	-0.2397950485500114	-0.3784494101743852	-0.5947031859518012	-0.6441338123712568
143.13216	-0.1113779870423105	-0.1398580433151594	-0.1731165754826733	1.123179437643929	0.8846653120531109	-0.3336327630411072	0.1470228590016817	0.09532607883444306	0.1432799869698529	0.4163892506237854	-0.05257075984251204	0.1812764134922537	1.505915506533321	1.505915506533322	0.783733773961295	0.783733773961295	-0.1986920783230546	-0.2926480440737552	-0.6026184945385599	-0.6704279113750155
143.14792	-0.1237230412776414	-0.1266842108428466	-0.1718423508726581	1.122163596879216	0.8850950713068403	-0.3339161098373283	0.2208428877603387	0.1150701495591719	0.1468037530299109	0.3573494633152473	-0.01420410187707137	0.1861658210094733	1.496259900353723	1.496259900353723	0.7472382564896867	0.7472382564896866	-0.156123848900406	-0.2057216054667353	-0.5922916608213405	-0.6901498928762039
143.16368	-0.1400943558641116	-0.1131832474503777	-0.1806813149384198	1.121105442952624	0.8885574444575822	-0.3333601875845987	0.3033033844753689	0.1277607090963659	0.1488028203916489	0.2929899064842533	0.01348786407147437	0.1771988853051991	1.473165168685026	1.473165168685025	0.6926808124732856	0.6926808124732855	-0.1123580274212756	-0.1332782461900628	-0.5666022523531078	-0.6989270260476468
143.17944	-0.1609253544400857	-0.1003654492074479	-0.1965901808683465	1.120290355247935	0.8944588134702964	-0.3322387356602575	0.3908500370147794	0.1317466610694946	0.1447595944644282	0.2241320477325855	0.03122715914598029	0.1568777483866221	1.43561238990127	1.435612389901269	0.6192583400414637	0.6192583400414635	-0.06816211434264313	-0.08223007840323615	-0.5315798939881192	-0.691798482954331
143.1952	-0.1857439257593166	-0.08863887395411037	-0.2130444618052843	1.119933139977378	0.9020456505456642	-0.3309790856517021	0.4784843806764225	0.1278842810461225	0.1314986892024826	0.1538152701914937	0.04147513595840397	0.1258994569938831	1.38224836482215	1.382248364822148	0.5324730300721727	0.5324730300721724	-0.02617959619978116	-0.04988868462661149	-0.4957008862521091	-0.6651707913194699
143.21096	-0.2132201592335893	-0.07730318655109304	-0.224391817466151	1.120091063215668	0.9105470705049652	-0.3299003542295592	0.5610877512518213	0.1181646786580289	0.1093335842937399	0.08705920928608669	0.04729801218566104	0.08323277458458123	1.3120316192654	1.3120316192654	0.4443019637986619	0.4443019637986617	0.00933121890996708	-0.02855438817463829	-0.4673335317263944	-0.6177690158613436
143.22672	-0.2412496250793145	-0.06450252157363301	-0.2290158137400211	1.120665738603557	0.9192860342025052	-0.3290440968580288	0.6341114787538101	0.1046032647723995	0.08259506378583169	0.02900185238619592	0.05178368533272651	0.02831904018324674	1.224270553996338	1.224270553996338	0.3693594679087708	0.3693594679087707	0.03442096838741417	-0.01219069536962204	-0.4506390764680496	-0.5507338138334097
143.24248	-0.2670760813276362	-0.04736737640824384	-0.2290723845141869	1.121475734669424	0.927703149120456	-0.328222410351857	0.6939201094549989	0.08807914747034884	0.05752102785594781	-0.01722113154426444	0.05839642481824264	-0.03586745594211281	1.119081909497569	1.119081909497569	0.3197621621216419	0.3197621621216419	0.04753745577756555	-0.0003441599899400541	-0.442022835539545	-0.4684840794673875
143.25824	-0.2876689033236819	-0.02265029626404703	-0.2278604004572172	1.12233881564914	0.9353094911017525	-0.3272095515473764	0.7382628440028973	0.0677703180997518	0.03864758954455932	-0.05136131485320472	0.07122017777282412	-0.1010555338127398	0.9986683207415324	0.9986683207415324	0.3020099088860673	0.3020099088860673	0.05011218367336934	0.003247774247891981	-0.4299223935802998	-0.3802418846590406
143.274	-0.3005385719468244	0.01183205499357193	-0.2274933919663677	1.123116664185932	0.9416376481560542	-0.3259072825092301	0.7669059151943273	0.04209387388136511	0.02594126330353202	-0.07521781244888998	0.09401456793961041	-0.1547266259678431	0.86856637683767	0.8685663768376699	0.3170469835565587	0.3170469835565587	0.04521093656885078	-0.004756832781564368	-0.3993726603010548	-0.2990864519037997
143.28976	-0.3048287325053851	0.05550584519079024	-0.2282900061734075	1.123722190224621	0.946242223878395	-0.3243882094587931	0.7819976920381084	0.01076720682044415	0.01426260039462198	-0.09077337712166218	0.1283645436914583	-0.1842079966581981	0.7376114062591405	0.7376114062591407	0.3620903926526333	0.3620903926526333	0.03527222821146432	-0.02383165607968386	-0.3400534502813962	-0.2369244861161793
143.30552	-0.3020224309683873	0.104189418217737	-0.2295762840384636	1.124115367123454	0.948750098908696	-0.3228280417041531	0.7876182970394487	-0.02345361229560968	-0.004328615814239722	-0.09870071013624387	0.1721823911550749	-0.1822068665317277	0.6163000536720306	0.6163000536720312	0.4322451236984701	0.4322451236984701	0.02042421753823562	-0.04966123106459697	-0.2540296297245977	-0.1989069802302052
143.32128	-0.2955806677733929	0.150774402087632	-0.2309094897494376	1.124302223146069	0.9489181247419379	-0.3213897326785535	0.7884600263545664	-0.05460247452522441	-0.03599291507717644	-0.09826951220314922	0.2195294545821245	-0.1507372490103793	0.514573274258998	0.5145732742589987	0.5212902032844507	0.5212902032844507	-0.001846675176142211	-0.07709445391686781	-0.1585748759917569	-0.1822353656130711
143.33704	-0.2895453959051312	0.187276705373236	-0.2326283830627525	1.124333893918203	0.9466509501840755	-0.3201422510609382	0.7883456131781921	-0.07530323983907518	-0.08027318315568241	-0.08850303766028787	0.2617940134199779	-0.1009362289086497	0.4404189330654613	0.4404189330654618	0.6222549022221141	0.6222549022221141	-0.03594467606758217	-0.1034807761073362	-0.08110331098174699	-0.1800995929111339
143.3528	-0.2868941221673494	0.2073654179603427	-0.2349733868611091	1.124297520685577	0.9419785506715184	-0.3190825430812858	0.7894491769312013	-0.07990765575773839	-0.1280975108055019	-0.0695142020615096	0.2896465750613774	-0.04852782705558151	0.3997715034455268	0.3997715034455271	0.7283106143389656	0.7283106143389656	-0.086896379330087	-0.1301072384894588	-0.04713708849028606	-0.1873597393673682
143.36856	-0.2885449975558519	0.2081709126542463	-0.2362728124605286	1.124287960265202	0.9350461346610762	-0.3182467812595663	0.7924883547367205	-0.06721728585159234	-0.1648051638405984	-0.04294670925064453	0.2951754829650848	-0.007005878628154944	0.3969006344486622	0.3969006344486623	0.8337080995842401	0.8337080995842401	-0.1584244592132433	-0.1610674888121873	-0.06691320732473303	-0.2041886546095678
143.38432	-0.2934482159394955	0.1905537189692902	-0.2320815456435893	1.124351228558451	0.9261612825904748	-0.3177965307310611	0.7974356614466133	-0.04077225534846361	-0.1770885029624683	-0.01110780539028426	0.2738374288212912	0.01805807890254894	0.4338710848082208	0.4338710848082208	0.9341403699471349	0.9341403699471349	-0.2495172060494512	-0.2005257580932192	-0.1288249573007896	-0.2356801954531698
143.40008	-0.2995464757662217	0.1580156882163433	-0.2168619537510233	1.124418407175026	0.915878800858869	-0.3179679553279396	0.8038775453086657	-0.006291358181834109	-0.1593572315462699	0.0246961026005103	0.2259428426158056	0.03047579269745898	0.5082147385101407	0.5082147385101407	1.026398885865877	1.026398885865877	-0.3495797634144272	-0.2499985978010581	-0.2051160206722832	-0.2877047094403485
143.41584	-0.3048422383251393	0.1152414449918727	-0.1875731325346811	1.124286471621859	0.9050574134202192	-0.3189018599470216	0.8102908564683331	0.03169595276583415	-0.1153649742646392	0.06525568461483081	0.1571746285285175	0.03979189851648931	0.6098072681701027	0.6098072681701027	1.107847121095523	1.107847121095523	-0.435363219716508	-0.3069507208537307	-0.2669077591474326	-0.3615356069942756
143.4316	-0.3077538844168725	0.06704220201444913	-0.1465598373102238	1.123689465787386	0.8948388472818538	-0.3204974977111784	0.8125989875330986	0.07127351363074044	-0.05562150695376233	0.1126193230971892	0.0773627232472222	0.05461886277412303	0.7201437035253089	0.7201437035253089	1.176220224825112	1.176220224825112	-0.4755361882405543	-0.365173993700029	-0.2982439451498012	-0.4506633558021781
143.44736	-0.3066456747909398	0.01771154367610681	-0.1013906765564134	1.122426941276448	0.8865352324819732	-0.322421760221785	0.803766360789285	0.1118624764541237	0.005716644176609833	0.1674826210342645	-0.002704337197609766	0.07689142104203625	0.8170053130925459	0.8170053130925459	1.229726730420867	1.229726730420867	-0.4458331550062343	-0.4165929037882731	-0.3004789983221803	-0.5418330716806418
143.46312	-0.2993630461550089	-0.02937210685592651	-0.06144746617932637	1.120459668474411	0.8814187062685915	-0.3242745138524498	0.7758989349229417	0.1521142076076592	0.0537348321579014	0.226994596201879	-0.07494649380583125	0.1006192561568121	0.8832436733421468	0.8832436733421468	1.267174660211272	1.267174660211272	-0.3474230855729822	-0.453663910324347	-0.287281162341693	-0.6197237036990983
143.47888	-0.2837233523538684	-0.07174477152596773	-0.03341292006523599	1.117914637295404	0.8804322260804447	-0.3257858879597361	0.7239373479618604	0.1892374163041005	0.07758756719917988	0.28527349187772	-0.1356484152557275	0.1159147090246664	0.9137090393152014	0.9137090393152014	1.288023265280953	1.288023265280953	-0.2124166467122563	-0.4714745756375129	-0.2764640795961983	-0.672676041218326
143.49464	-0.2589181493871554	-0.1073889913875176	-0.01867902703151095	1.115017903298068	0.8839197224061544	-0.3269082725468324	0.648300988415319	0.2198295320738536	0.07548071405050277	0.3365146130209486	-0.1841715979692237	0.1150496794783625	0.9150540213787797	0.9150540213787797	1.292389486445152	1.292389486445152	-0.08765904236283278	-0.4689200952475042	-0.2833002327837796	-0.6966083097045646
143.5104	-0.2267207431154639	-0.1342553722617967	-0.01408368416773824	1.112011660784976	0.8915184745697089	-0.3277731019961935	0.5548800193657795	0.2405668644754387	0.05433997779815689	0.37823206513172	-0.2204400512047196	0.0958619605871705	0.8991496277664872	0.8991496277664872	1.280966266616965	1.280966266616965	-0.008729436900908581	-0.4487810668601711	-0.3158138111728034	-0.6955893403228922
143.52616	-0.1914136378452623	-0.1504951666838015	-0.01452871644143038	1.10909722072225	0.9022774093548411	-0.3286000583995025	0.4529730595450859	0.2482872342302735	0.02368797470669384	0.4123542708760868	-0.2436290296574509	0.06115446762463287	0.8757903629626584	0.8757903629626584	1.254769371919022	1.254769371919022	0.01431538476352326	-0.4168297619720394	-0.371063669277072	-0.6793168848125229
143.54192	-0.1583725959661194	-0.1555683819896249	-0.01520765628319054	1.106414310035188	0.9149290842394345	-0.3296366535053616	0.352594460134467	0.2406354097869713	-0.01039243037117306	0.4438205591467098	-0.2528364389829279	0.01658662093434716	0.8496105643821608	0.8496105643821608	1.214713769129988	1.214713769129988	-0.007867992146546866	-0.380166427209988	-0.4336072652688913	-0.658935318810242
143.55768	-0.132179565001118	-0.1513352534681121	-0.0129767121207317	1.10404313781426	0.9281765624734721	-0.331100327163887	0.2620330578187095	0.2174796860511918	-0.04695490031733471	0.4778398082009077	-0.2486745451422255	-0.03086066104772898	0.821575670243874	0.821575670243874	1.161275917825062	1.161275917825062	-0.05714898780678929	-0.3451164224827951	-0.4796982264940156	-0.6429369057918145
143.57344	-0.1152002396581628	-0.1419526949140845	-0.007470892472121612	1.102007745919534	0.9408833233313055	-0.3330767573404559	0.1860987098750054	0.1816694270732969	-0.08817734932864597	0.5173987602448888	-0.2343177638422752	-0.07425275221812609	0.7921235639284648	0.7921235639284648	1.094848146456386	1.094848146456386	-0.1176162389612134	-0.315294999890964	-0.4878885127908959	-0.6344977303791848
143.5892	-0.1070142142729984	-0.1324194748458507	-0.001512986780440327	1.100271355231412	0.952128458144215	-0.3354299501951707	0.1254763256708837	0.1382603060653884	-0.1356025126304727	0.5622712247476584	-0.2153069690408951	-0.108545963975687	0.7632275420622807	0.7632275420622807	1.017220753213697	1.017220753213697	-0.1787763150338807	-0.2906018388609533	-0.4499433487706093	-0.6309422444422025
143.60496	-0.1046727380626139	-0.126745803231439	7.594992261633713e-05	1.098734969811351	0.9611783706511582	-0.3378217255315161	0.07738690270031856	0.09282609288474289	-0.1865375696682527	0.6098040841790703	-0.1982941341278982	-0.1322427492792817	0.7385337014777678	0.7385337014777678	0.9334850031186236	0.9334850031186236	-0.2349370744944285	-0.2676803842541501	-0.374280130416241	-0.6254433281979493
143.62072	-0.1037215465223549	-0.1268106528919156	-0.007227084026723188	1.097257756767586	0.9674925819954276	-0.339848296333205	0.03723039948627113	0.04979199994238896	-0.2332684145989484	0.6566534033009868	-0.1892904029265547	-0.1477934596781051	0.7221104765148127	0.7221104765148127	0.8523789527687039	0.8523789527687039	-0.2836371289702896	-0.241759178733962	-0.2803057485328822	-0.6103834451567118
143.63648	-0.09990687666234774	-0.132323424766379	-0.02565542671942293	1.095705205524251	0.9708615138535167	-0.3412167127788207	0.0005015285190015963	0.01135633061034582	-0.2667294485311224	0.7003629309275436	-0.1918936319264562	-0.1601211001347916	0.716679009526176	0.716679009526176	0.7833202177981174	0.7833202177981174	-0.3244977550083576	-0.209096225870783	-0.1881742415763293	-0.5809988687860662
143.65224	-0.09112903296204819	-0.1416492950987106	-0.05421456900704837	1.094008902073586	0.9716399953928212	-0.3418837614872925	-0.03575692399697543	-0.02265359407987555	-0.2828010546481299	0.7402594068142875	-0.2059088573067608	-0.1735645453203605	0.721979027758701	0.721979027758701	0.7308307966354154	0.7308307966354154	-0.3587645260375369	-0.1688988320652232	-0.1093413223912018	-0.5376495000622604
143.668	-0.07859739081621557	-0.1528131308574016	-0.08880980294047063	1.092201868972834	0.9708747038558526	-0.3420995105634477	-0.07247595596575249	-0.05408114512899674	-0.2865256954507898	0.7776046386140485	-0.227016420825126	-0.1891546829997607	0.7340081875804658	0.7340081875804658	0.6903393790550658	0.6903393790550658	-0.3891982370202632	-0.1238059854972513	-0.0420854164919231	-0.4857896411251743
