Joint Reaction Loads
version=1
nRows=51
nColumns=10
inDegrees=no

This file contains the reaction forces and moments
applied to the specified body of a joint pair and expressed  in the specified reference frame.

Units are S.I. units (seconds, meters, Newtons, ...)
endheader
time	patellofemoral_r_on_patella_r_in_patella_r_fx	patellofemoral_r_on_patella_r_in_patella_r_fy	patellofemoral_r_on_patella_r_in_patella_r_fz	patellofemoral_r_on_patella_r_in_patella_r_mx	patellofemoral_r_on_patella_r_in_patella_r_my	patellofemoral_r_on_patella_r_in_patella_r_mz	patellofemoral_r_on_patella_r_in_patella_r_px	patellofemoral_r_on_patella_r_in_patella_r_py	patellofemoral_r_on_patella_r_in_patella_r_pz
    144.14400000	    277.77577719	    -63.64462895	     -9.58367312	     -1.91458368	      0.69312681	     -5.49687111	      0.00000000	      0.00000000	      0.00000000
    144.15976000	    268.35056670	    -62.56009915	    -10.75769830	     -1.88520178	      0.69788728	     -5.22950872	      0.00000000	      0.00000000	      0.00000000
    144.17552000	    270.40387924	    -63.37736595	    -13.69261086	     -1.97560773	      0.72669778	     -5.26470215	      0.00000000	      0.00000000	      0.00000000
    144.19128000	    291.88047537	    -67.84099195	    -11.30097735	     -2.03053963	      0.76087173	     -5.80035775	      0.00000000	      0.00000000	      0.00000000
    144.20704000	    340.67714014	    -76.25747866	     -6.09187421	     -2.16748188	      0.81825209	     -7.13225217	      0.00000000	      0.00000000	      0.00000000
    144.22280000	    422.21875475	    -83.85869596	      4.11145797	     -2.35778100	      0.89409704	     -9.62861705	      0.00000000	      0.00000000	      0.00000000
    144.23856000	    537.31432849	    -83.12903275	     20.12429733	     -2.59732890	      0.98907327	    -13.54836727	      0.00000000	      0.00000000	      0.00000000
    144.25432000	    683.63831065	    -68.48938954	     41.42583506	     -2.89625915	      1.10228206	    -18.84402384	      0.00000000	      0.00000000	      0.00000000
    144.27008000	    856.65591362	    -34.64613032	     67.03518094	     -3.26252542	      1.22977390	    -25.33387528	      0.00000000	      0.00000000	      0.00000000
    144.28584000	   1059.07663893	     23.48890741	     96.89432082	     -3.71454195	      1.37246129	    -33.05110047	      0.00000000	      0.00000000	      0.00000000
    144.30160000	   1299.63821565	    109.86252007	    131.61569200	     -4.26389620	      1.52952656	    -42.13666624	      0.00000000	      0.00000000	      0.00000000
    144.31736000	   1551.48008496	    227.50759775	    168.06397118	     -4.87030302	      1.67940562	    -51.66306446	      0.00000000	      0.00000000	      0.00000000
    144.33312000	   1769.29058733	    365.83096373	    200.24378582	     -5.48053837	      1.80656630	    -59.96003316	      0.00000000	      0.00000000	      0.00000000
    144.34888000	   1914.91378965	    498.22661407	    222.88399872	     -6.00068163	      1.89909976	    -65.50546890	      0.00000000	      0.00000000	      0.00000000
    144.36464000	   1970.36456692	    595.25789503	    232.07144238	     -6.36594430	      1.95694568	    -67.60986905	      0.00000000	      0.00000000	      0.00000000
    144.38040000	   1940.66915505	    628.41417395	    229.64901660	     -6.34535561	      1.92323634	    -66.56538668	      0.00000000	      0.00000000	      0.00000000
    144.39616000	   1850.16221307	    605.69498235	    216.35296923	     -6.19915672	      1.89725649	    -63.24796655	      0.00000000	      0.00000000	      0.00000000
    144.41192000	   1716.15304678	    543.20926130	    192.94447371	     -6.13209727	      1.93970882	    -58.27615040	      0.00000000	      0.00000000	      0.00000000
    144.42768000	   1540.37430210	    438.10035985	    164.07604617	     -5.78591181	      1.92153656	    -51.83844433	      0.00000000	      0.00000000	      0.00000000
    144.44344000	   1331.49586512	    312.81682919	    131.86272594	     -5.25400829	      1.85847409	    -44.20598927	      0.00000000	      0.00000000	      0.00000000
    144.45920000	   1099.27847746	    188.92858918	     98.27250874	     -4.61503643	      1.75014774	    -35.72232395	      0.00000000	      0.00000000	      0.00000000
    144.47496000	    856.76626563	     84.51032607	     65.65788534	     -3.90471426	      1.56859479	    -26.93255163	      0.00000000	      0.00000000	      0.00000000
    144.49072000	    636.31091948	     12.24342209	     37.10168487	     -3.23189479	      1.33498678	    -18.99932635	      0.00000000	      0.00000000	      0.00000000
    144.50648000	    455.43422142	    -28.75375758	     14.45617432	     -2.64629963	      1.08083403	    -12.54207822	      0.00000000	      0.00000000	      0.00000000
    144.52224000	    318.02072968	    -44.85627469	     -1.33395929	     -2.16903981	      0.85701031	     -7.80407946	      0.00000000	      0.00000000	      0.00000000
    144.53800000	    231.68494263	    -47.04806421	    -10.83231636	     -1.84476845	      0.72438290	     -4.92689902	      0.00000000	      0.00000000	      0.00000000
    144.55376000	    186.74403658	    -42.98045024	    -16.54911113	     -1.67903058	      0.68092909	     -3.55582417	      0.00000000	      0.00000000	      0.00000000
    144.56952000	    168.91766364	    -38.98370824	    -20.38491296	     -1.66101006	      0.66707594	     -3.07076318	      0.00000000	      0.00000000	      0.00000000
    144.58528000	    161.67149135	    -36.79099406	    -22.33273143	     -1.73370515	      0.59027653	     -2.87970790	      0.00000000	      0.00000000	      0.00000000
    144.60104000	    161.53638208	    -37.52270310	    -22.66005003	     -1.86803041	      0.46055486	     -2.80648267	      0.00000000	      0.00000000	      0.00000000
    144.61680000	    195.95455945	    -46.15494487	    -24.32688380	     -2.14191230	      0.57221414	     -3.47390934	      0.00000000	      0.00000000	      0.00000000
    144.63256000	    343.19409433	    -76.03026416	    -29.83874117	     -2.75818968	      1.62128440	     -6.77531638	      0.00000000	      0.00000000	      0.00000000
    144.64832000	    736.03206206	   -140.46745105	    -30.97052902	     -4.02449995	      4.61729089	    -16.41717050	      0.00000000	      0.00000000	      0.00000000
    144.66408000	   1507.55061661	   -219.14858744	    -11.33048456	     -6.58594594	     10.30328539	    -37.26873424	      0.00000000	      0.00000000	      0.00000000
    144.67984000	   2638.11913329	   -253.68575702	     40.01036344	    -10.93422005	     18.01759858	    -70.25378944	      0.00000000	      0.00000000	      0.00000000
    144.69560000	   3844.47026728	   -205.12102176	    119.94360760	    -15.98328276	     25.27919278	   -107.36437943	      0.00000000	      0.00000000	      0.00000000
    144.71136000	   4683.09019187	   -108.11526391	    197.99215616	    -19.59950564	     29.44505457	   -134.37565514	      0.00000000	      0.00000000	      0.00000000
    144.72712000	   4856.28828114	    -49.04964160	    223.28132555	    -20.63987027	     29.43384981	   -140.77538543	      0.00000000	      0.00000000	      0.00000000
    144.74288000	   4374.52696418	    -69.00255331	    192.00095842	    -18.89219721	     25.75861020	   -126.21594339	      0.00000000	      0.00000000	      0.00000000
    144.75864000	   3495.00241327	   -133.68962214	    132.39716127	    -15.31246259	     19.94464188	    -98.93627241	      0.00000000	      0.00000000	      0.00000000
    144.77440000	   2519.25114384	   -184.81438327	     76.46688375	    -11.15379751	     13.67875006	    -68.93722013	      0.00000000	      0.00000000	      0.00000000
    144.79016000	   1666.96456348	   -193.30276629	     34.76364363	     -7.52798481	      8.32286905	    -43.36765754	      0.00000000	      0.00000000	      0.00000000
    144.80592000	   1026.86758751	   -166.07229869	     12.70945674	     -4.70952002	      4.46791348	    -24.93263588	      0.00000000	      0.00000000	      0.00000000
    144.82168000	    604.07023600	   -122.29818385	      5.68497448	     -2.76420546	      2.11342647	    -13.52565695	      0.00000000	      0.00000000	      0.00000000
    144.83744000	    367.06784160	    -84.02109856	      1.06759436	     -1.79132221	      0.95603628	     -7.61234227	      0.00000000	      0.00000000	      0.00000000
    144.85320000	    264.54855968	    -63.20272288	     -3.43581754	     -1.52154521	      0.56898686	     -5.20121205	      0.00000000	      0.00000000	      0.00000000
    144.86896000	    248.67660218	    -58.92999774	    -10.79423262	     -1.74796982	      0.59796274	     -4.81462213	      0.00000000	      0.00000000	      0.00000000
    144.88472000	    283.47828125	    -65.89619634	    -12.52171642	     -2.03127475	      0.75042089	     -5.59814481	      0.00000000	      0.00000000	      0.00000000
    144.90048000	    348.19523673	    -77.17732190	     -7.98965813	     -2.26791441	      0.88320016	     -7.28326913	      0.00000000	      0.00000000	      0.00000000
    144.91624000	    433.85542656	    -84.73927964	      4.08380453	     -2.40883177	      0.94910022	     -9.93984926	      0.00000000	      0.00000000	      0.00000000
    144.93200000	    543.74489402	    -83.44189006	     22.36833870	     -2.51779012	      0.96899745	    -13.77235071	      0.00000000	      0.00000000	      0.00000000
