Static Optimization
version=1
nRows=51
nColumns=59
inDegrees=no
This file contains static optimization results.

endheader
time	addbrev_r	addlong_r	addmagDist_r	addmagIsch_r	addmagMid_r	addmagProx_r	bflh_r	bfsh_r	edl_r	ehl_r	fdl_r	fhl_r	gaslat_r	gasmed_r	glmax1_r	glmax2_r	glmax3_r	glmed1_r	glmed2_r	glmed3_r	glmin1_r	glmin2_r	glmin3_r	grac_r	iliacus_r	perbrev_r	perlong_r	piri_r	psoas_r	recfem_r	sart_r	semimem_r	semiten_r	soleus_r	tfl_r	tibant_r	tibpost_r	vasint_r	vaslat_r	vasmed_r	pelvis_tx_residual	pelvis_ty_residual	pelvis_tz_residual	pelvis_tilt_residual	pelvis_list_residual	pelvis_rotation_residual	hip_flexion_r_reserve	hip_adduction_r_reserve	hip_rotation_r_reserve	knee_angle_r_reserve	ankle_angle_r_reserve	subtalar_angle_r_reserve	hip_flexion_l_torque	hip_adduction_l_torque	hip_rotation_l_torque	knee_angle_l_torque	ankle_angle_l_torque	subtalar_angle_l_torque
    144.14400000	      0.12329928	      0.33199079	      0.01002037	      0.01001687	      0.01004610	      0.04602039	      0.01000930	      0.10409253	      0.01005263	      0.01007395	      0.01039031	      0.01675794	      0.38728809	      0.01000218	      0.01000930	      0.01000422	      0.01000395	      0.29616248	      0.10228021	      0.02156058	      0.18842573	      0.14990186	      0.10235293	      0.07117531	      0.49208641	      0.02612257	      0.06598489	      0.04438848	      0.42123670	      0.08091669	      0.12256185	      0.01000906	      0.01002332	      0.33309197	      0.21680543	      0.01001694	      0.01035418	      0.01000790	      0.01000258	      0.01000490	     19.10977351	    -32.95271056	      4.61776745	     29.47939680	     -3.70496717	      2.59672615	      0.02719340	     -0.01175681	      0.00028104	      0.01884661	     -0.00518893	     -0.00106251	     -0.03112870	      0.00506282	      0.05544543	      0.04539702	      0.00994599	     -0.01188576
    144.15976000	      0.06682232	      0.05172909	      0.01003166	      0.01008134	      0.01004146	      0.01003169	      0.01001584	      0.07214442	      0.01010667	      0.01016578	      0.01121661	      0.01394468	      0.17773769	      0.13191377	      0.01000275	      0.01000193	      0.01000350	      0.05028985	      0.01000658	      0.01000346	      0.19846713	      0.01002469	      0.01001056	      0.01006296	      0.57066673	      0.01223910	      0.01926632	      0.01000287	      0.28314513	      0.01001019	      0.03460802	      0.06197896	      0.01044318	      0.15275548	      0.09842561	      0.01004437	      0.01274801	      0.01001056	      0.01000348	      0.01000658	      0.89215936	     -2.46957143	      0.63088142	      1.19061453	     -1.88929022	      2.76207826	      0.00597854	     -0.01043162	      0.03470992	      0.01345567	     -0.00197622	     -0.00019905	     -0.10890171	      0.02576510	      0.02885682	      0.07651087	      0.00720393	     -0.01032595
    144.17552000	      0.15487667	      0.25863142	      0.06298674	      0.01237039	      0.13004005	      0.16082656	      0.01017754	      0.01236117	      0.27751805	      0.10448436	      0.01010745	      0.01004412	      0.01001227	      0.73414591	      0.01045478	      0.01022579	      0.06285339	      0.01002440	      0.01006260	      0.01052388	      0.01007285	      0.01018003	      0.01233576	      0.07075703	      0.02816146	      0.05203247	      0.06446005	      0.11083356	      0.08782435	      0.12345556	      0.01420657	      0.01004801	      0.01027085	      0.01000561	      0.01011950	      0.44501551	      0.01002887	      0.01490333	      0.02568632	      0.01726519	     -6.97460150	     11.81714552	     -4.42754897	    -10.98939408	      6.96695665	     -7.26030726	      0.00745569	      0.00653204	     -0.00383911	     -0.00025644	      0.01200663	     -0.00385213	     -0.15985542	      0.02496837	      0.02048689	      0.10109314	      0.00355446	     -0.00852322
    144.19128000	      0.16276447	      0.24080716	      0.03972440	      0.01149015	      0.10600735	      0.11273785	      0.01003531	      0.01040394	      0.26158448	      0.08926560	      0.01006473	      0.01002816	      0.01000915	      0.37879267	      0.01000733	      0.01000541	      0.01001572	      0.01001393	      0.01001073	      0.01000779	      0.01009308	      0.01003185	      0.01002186	      0.03537147	      0.16987541	      0.05134443	      0.06976163	      0.01000732	      0.14436809	      0.08827728	      0.01044297	      0.01003406	      0.01009525	      0.01000363	      0.01009963	      0.37298149	      0.01001803	      0.01087046	      0.01798955	      0.01171646	     -6.58511886	     12.74219819	     -3.05780928	     -9.08334757	      5.09198252	     -2.71526704	      0.00690281	      0.00433941	      0.00815547	     -0.00016450	      0.01185435	     -0.00418380	     -0.18969980	      0.01153870	      0.02144086	      0.12005675	     -0.00204537	     -0.00524876
    144.20704000	      0.14681748	      0.30312733	      0.01004063	      0.01002630	      0.01732261	      0.09949231	      0.01001495	      0.07115619	      0.11485161	      0.03373266	      0.01010564	      0.01004905	      0.01013009	      0.06515339	      0.01000899	      0.01000447	      0.01000527	      0.08565824	      0.01021097	      0.01005116	      0.10426079	      0.07686184	      0.05002294	      0.07979490	      0.34500057	      0.03179755	      0.05189965	      0.01012621	      0.32417577	      0.03564028	      0.08092073	      0.01001592	      0.01003968	      0.01000703	      0.12651287	      0.12768386	      0.01003059	      0.01000909	      0.01000294	      0.01000574	     -0.88485752	      4.59539760	      0.68952822	     -2.64814110	     -2.04829042	      0.29183457	      0.02186926	     -0.00487205	      0.00046841	      0.01373300	      0.00526708	     -0.00257547	     -0.21932673	      0.01701200	      0.01927706	      0.13593331	     -0.00874155	     -0.00016613
    144.22280000	      0.18802405	      0.39123807	      0.01002903	      0.01001960	      0.01357705	      0.12121166	      0.01001142	      0.09664696	      0.11320679	      0.03106601	      0.01010032	      0.01004253	      0.01660155	      0.01722202	      0.01000675	      0.01000325	      0.01000376	      0.17643890	      0.01062460	      0.01005476	      0.15836294	      0.11576334	      0.07317363	      0.10288935	      0.46333658	      0.03580781	      0.06158140	      0.01013101	      0.42987456	      0.07550937	      0.11153163	      0.01001359	      0.01003098	      0.01000586	      0.18372429	      0.10953964	      0.01002541	      0.01000679	      0.01000216	      0.01000432	      3.32280618	     -8.17523873	      3.35901008	      4.85999218	     -5.66685680	      1.62635951	      0.02908215	     -0.00711126	      0.00101311	      0.01826065	      0.00569030	     -0.00304995	     -0.25421591	      0.03765703	      0.01420390	      0.14946537	     -0.01413027	      0.00441017
    144.23856000	      0.22722042	      0.46710011	      0.01002762	      0.01001778	      0.02350777	      0.15544427	      0.01001096	      0.10770223	      0.13680954	      0.03748336	      0.01007190	      0.01003025	      0.01098235	      0.01592007	      0.01000675	      0.01000318	      0.01000353	      0.19229781	      0.01995471	      0.01006841	      0.16184487	      0.13264546	      0.09979791	      0.12549767	      0.48697674	      0.04419248	      0.07633666	      0.02876205	      0.46395051	      0.13010485	      0.12682352	      0.01001396	      0.01003061	      0.01000403	      0.19466935	      0.13016413	      0.01001737	      0.01000634	      0.01000202	      0.01000408	      4.88646336	    -14.52673694	      3.07027914	      6.15487258	     -4.98561817	      1.37432283	      0.03231535	     -0.00629454	     -0.00081667	      0.01956055	      0.00774324	     -0.00407596	     -0.29886543	      0.05019653	      0.00412016	      0.16092765	     -0.01627156	      0.00623260
    144.25432000	      0.24687400	      0.49237452	      0.01003249	      0.01001912	      0.04643619	      0.17941906	      0.01001261	      0.10053403	      0.13778214	      0.03895619	      0.01006988	      0.01002755	      0.01052757	      0.01084518	      0.01000872	      0.01000389	      0.01000408	      0.11817031	      0.02039660	      0.01077555	      0.12117046	      0.10907080	      0.08987098	      0.13146710	      0.42665917	      0.04712323	      0.08260876	      0.09780353	      0.42158812	      0.16872102	      0.12099595	      0.01001699	      0.01003589	      0.01000402	      0.16112944	      0.13118199	      0.01001465	      0.01000731	      0.01000237	      0.01000477	      1.54609877	    -10.91612726	     -0.36450655	      0.73832545	      0.39573035	      0.35816289	      0.03010509	     -0.00334283	     -0.00258453	      0.01732946	      0.00836367	     -0.00457432	     -0.32881306	      0.04157884	     -0.01464957	      0.16336797	     -0.01422629	      0.00437685
    144.27008000	      0.24346909	      0.47562050	      0.01004200	      0.01002181	      0.06329448	      0.18742589	      0.01001557	      0.08556845	      0.13149894	      0.03666250	      0.01004603	      0.01002240	      0.01005680	      0.01005919	      0.01001352	      0.01000558	      0.01000533	      0.03167972	      0.01591310	      0.02855368	      0.07102937	      0.08012421	      0.07684332	      0.12679814	      0.33472603	      0.04687550	      0.08587925	      0.15533679	      0.34994504	      0.19895148	      0.10762504	      0.01002184	      0.01004158	      0.01000338	      0.11950982	      0.12528299	      0.01001182	      0.01000988	      0.01000327	      0.01000654	     -2.97411116	      9.22326185	     -2.73327416	     -2.95835498	      4.86132405	     -0.04350980	      0.02589005	     -0.00048386	     -0.00457180	      0.01393296	      0.00811936	     -0.00482217	     -0.29549200	      0.03689290	     -0.04089158	      0.14175812	     -0.00748967	     -0.00019487
    144.28584000	      0.22059148	      0.42758121	      0.01004854	      0.01002395	      0.06074368	      0.17405640	      0.01001804	      0.07086315	      0.12633621	      0.03569216	      0.01004296	      0.01002132	      0.01004710	      0.01005092	      0.01001973	      0.01000760	      0.01000666	      0.01115715	      0.01489531	      0.04389758	      0.04071395	      0.05940219	      0.06254684	      0.11216810	      0.26619007	      0.04697846	      0.08937216	      0.15299049	      0.29127607	      0.19892179	      0.09555094	      0.01002778	      0.01004383	      0.01000340	      0.09400085	      0.11886583	      0.01001071	      0.01001338	      0.01000453	      0.01000894	      1.09085730	     29.00515509	     -2.60475140	      7.60778497	      5.37098434	     -1.03442904	      0.02200218	      0.00068699	     -0.00522446	      0.01095659	      0.00760469	     -0.00507458	     -0.14657636	      0.03364717	     -0.01695543	      0.04179902	      0.01750928	      0.00523988
    144.30160000	      0.17420521	      0.34106801	      0.01004870	      0.01002590	      0.03647905	      0.13520544	      0.01002026	      0.06070665	      0.12219566	      0.03475251	      0.01004162	      0.01002084	      0.01004177	      0.01005186	      0.01002344	      0.01000910	      0.01000762	      0.01064629	      0.01281470	      0.03322005	      0.03224171	      0.04799495	      0.04918245	      0.08848885	      0.21718347	      0.04644942	      0.09091843	      0.11672163	      0.23903381	      0.16505156	      0.08519817	      0.01003785	      0.01004600	      0.01000323	      0.08154806	      0.11733471	      0.01001017	      0.01001739	      0.01000603	      0.01001166	    -13.20327316	     15.47131236	     -6.05815515	    -21.70248852	     12.59780971	      5.33734811	      0.01808735	      0.00012832	     -0.00437695	      0.00896677	      0.00718658	     -0.00516387	     -0.33026233	     -0.20300457	     -0.00353935	      0.04090385	      0.01668033	     -0.00703065
    144.31736000	      0.12689662	      0.24744699	      0.01005977	      0.01003176	      0.02513506	      0.10085019	      0.01002623	      0.04721404	      0.11412334	      0.03407036	      0.01004480	      0.01002205	      0.01003714	      0.01005911	      0.01003386	      0.01001302	      0.01001059	      0.01022852	      0.01109725	      0.02080173	      0.01559770	      0.02849618	      0.03323680	      0.06557193	      0.14715970	      0.04312901	      0.08496420	      0.09277853	      0.17091596	      0.11930122	      0.06785455	      0.01005724	      0.01005607	      0.01000297	      0.05464923	      0.11982103	      0.01001083	      0.01002707	      0.01000969	      0.01001834	     -0.13635329	    -41.16254309	      5.60509842	     -4.91371140	    -11.23993925	     -5.58781099	      0.01305579	      0.00042099	     -0.00370547	      0.00672286	      0.00671578	     -0.00478089	     -0.22544375	     -0.06150738	      0.09915998	     -0.22321747	     -0.07726042	      0.24735029
    144.33312000	      0.08527937	      0.16675814	      0.01007711	      0.01004167	      0.02202033	      0.07606542	      0.01003972	      0.03262533	      0.10225269	      0.03280868	      0.01005471	      0.01002578	      0.01003165	      0.01005985	      0.01009770	      0.01002954	      0.01001926	      0.01006567	      0.01056474	      0.03264942	      0.01042311	      0.01489976	      0.02449697	      0.04788394	      0.07479940	      0.03681537	      0.07097591	      0.10255782	      0.10639521	      0.07985363	      0.04942650	      0.01009015	      0.01007946	      0.01000282	      0.02554334	      0.12185363	      0.01001337	      0.01004564	      0.01001785	      0.01003258	     -1.77991423	     10.97949087	      9.65056784	     -4.44010043	    -17.97546832	     -4.11649973	      0.00850018	      0.00100274	     -0.00402551	      0.00447265	      0.00624785	     -0.00391088	     -0.09301342	     -0.05959723	      0.04345322	     -0.32125961	     -0.19716050	      0.50035679
    144.34888000	      0.02793162	      0.07840706	      0.01005797	      0.01004019	      0.01012791	      0.02067462	      0.01003069	      0.01958343	      0.09186876	      0.03146034	      0.01006986	      0.01003141	      0.01002735	      0.01005484	      0.01022699	      0.01003258	      0.01001727	      0.02174539	      0.03606056	      0.05858528	      0.01561470	      0.02885785	      0.03308608	      0.01716175	      0.06852964	      0.03164004	      0.05801728	      0.09294439	      0.07992623	      0.09109800	      0.04126673	      0.01006666	      0.01005418	      0.01000280	      0.04377329	      0.12049211	      0.01001778	      0.01013293	      0.01004949	      0.01008947	      9.94554904	     11.80354786	    -10.07720238	     15.63888618	     15.95512991	     12.63239610	      0.00659381	     -0.00169266	     -0.00253076	      0.00250669	      0.00582470	     -0.00304771	      0.12292170	     -0.64281598	      0.10116660	     -0.48932742	     -0.29124917	      0.81005293
    144.36464000	      0.01044284	      0.02848639	      0.01003605	      0.01003163	      0.01004846	      0.01012583	      0.01001639	      0.01075040	      0.08885839	      0.03114559	      0.01008351	      0.01003652	      0.01002052	      0.01003841	      0.01004948	      0.01001788	      0.01001146	      0.16609841	      0.09494693	      0.06932800	      0.06392608	      0.06147853	      0.04781469	      0.01012933	      0.10390032	      0.03201701	      0.05771476	      0.06334829	      0.08488206	      0.14973485	      0.03720405	      0.01003393	      0.01002930	      0.01000284	      0.08776457	      0.11753552	      0.01002208	      0.01356952	      0.02124280	      0.01514137	     -1.11168625	     -3.07578616	     14.54304386	     -5.03596164	    -26.87742558	    -11.03143170	      0.00695898	     -0.00471478	     -0.00004980	     -0.00052287	      0.00546112	     -0.00274059	     -0.07751682	     -0.24239204	      0.30437978	     -0.38655190	     -0.51063589	      1.28200190
    144.38040000	      0.01041814	      0.03275411	      0.01002295	      0.01002178	      0.01002990	      0.01007843	      0.01000975	      0.01183402	      0.09368466	      0.03305169	      0.01012968	      0.01003700	      0.01001722	      0.01002611	      0.01002577	      0.01001004	      0.01000738	      0.33488242	      0.15289803	      0.06402809	      0.13154657	      0.10725109	      0.07071986	      0.01008918	      0.17957698	      0.03876362	      0.07069969	      0.02873542	      0.13379728	      0.23261659	      0.05537790	      0.01001678	      0.01001891	      0.01000283	      0.15750307	      0.11678911	      0.01002410	      0.01937063	      0.04048504	      0.02391902	     -3.16617449	      0.30356662	     -0.82793877	     -0.23530865	      6.28709268	     -7.59782235	      0.01009164	     -0.00737580	      0.00264615	     -0.00108125	      0.00521506	     -0.00297087	     -0.04243450	     -0.72167080	      0.57977151	     -0.32020732	     -0.51227788	      1.34389297
    144.39616000	      0.01069623	      0.06322041	      0.01001907	      0.01001781	      0.01002587	      0.01005621	      0.01000741	      0.01060230	      0.10103195	      0.03398908	      0.01009304	      0.01003920	      0.01001489	      0.01001658	      0.01001732	      0.01000791	      0.01000635	      0.41956471	      0.16867320	      0.03778863	      0.17130756	      0.13502403	      0.08512735	      0.01005799	      0.23594745	      0.04655303	      0.08682940	      0.01151006	      0.18434979	      0.31097225	      0.07308824	      0.01000953	      0.01001467	      0.01000297	      0.21123546	      0.11884874	      0.01002433	      0.01893867	      0.04718015	      0.02556003	     -7.97515807	     -3.64279346	      3.59443044	     -9.50744164	     -6.85507039	     10.09644341	      0.01284642	     -0.00800719	      0.00410997	     -0.00131375	      0.00506488	     -0.00332554	     -0.18313652	     -0.68093812	      0.01034585	     -0.18884295	     -0.51267288	      1.43156284
    144.41192000	      0.02281795	      0.09028034	      0.01002233	      0.01002131	      0.01003203	      0.01009492	      0.01000788	      0.01122520	      0.10384156	      0.03515222	      0.01014482	      0.01004067	      0.01001395	      0.01001143	      0.01001623	      0.01000819	      0.01000744	      0.39111175	      0.12484833	      0.01049018	      0.16806936	      0.12112894	      0.06432137	      0.01007108	      0.23477658	      0.05139869	      0.09510601	      0.01006294	      0.18362249	      0.29509118	      0.06497002	      0.01000823	      0.01001631	      0.01000323	      0.20308223	      0.11896531	      0.01002519	      0.01812499	      0.04034123	      0.02301968	     -0.46906474	      1.90155061	     -7.57597710	     -2.61794301	     12.14268309	      5.02485437	      0.01166741	     -0.00567753	      0.00513764	     -0.00115092	      0.00482487	     -0.00346627	     -0.12121592	     -0.75596898	      0.11959156	     -0.06031326	     -0.59518887	      1.33061054
    144.42768000	      0.06518522	      0.11324361	      0.01005243	      0.01006504	      0.01010493	      0.01159904	      0.01001400	      0.01050654	      0.09981928	      0.03404053	      0.01010423	      0.01004476	      0.01001387	      0.01000908	      0.01001776	      0.01001074	      0.01001381	      0.29156783	      0.03877273	      0.01003533	      0.13752359	      0.06916642	      0.01233108	      0.01018598	      0.17152113	      0.05052354	      0.09229001	      0.01001756	      0.11666426	      0.14294122	      0.02010711	      0.01001464	      0.01003438	      0.01000371	      0.12383695	      0.11467136	      0.01002765	      0.01701373	      0.03761607	      0.02176838	      6.17270267	     -0.19787830	     -1.86294164	     10.11104135	      2.37748397	    -12.47380494	      0.00587090	     -0.00037333	      0.00678807	     -0.00102411	      0.00443612	     -0.00331456	      0.02257537	     -0.42407615	      0.42367163	      0.01726872	     -0.67546556	      1.22649108
    144.44344000	      0.10072468	      0.12605610	      0.03550622	      0.07089977	      0.05381071	      0.04576881	      0.01009395	      0.01038902	      0.09159493	      0.03185955	      0.01011531	      0.01005035	      0.01001400	      0.01000815	      0.01002279	      0.01001740	      0.01007250	      0.15478214	      0.01009672	      0.01002441	      0.08868555	      0.01585217	      0.01007215	      0.01793268	      0.09162860	      0.04575765	      0.08222893	      0.01001280	      0.04235094	      0.01018945	      0.01012331	      0.04020047	      0.02222507	      0.01000434	      0.03307942	      0.10789012	      0.01003129	      0.01821408	      0.04797746	      0.02588815	     -2.39218812	     -0.34993054	      6.30157359	     -4.05312433	    -13.01568227	     -0.94597973	      0.00026397	      0.00440932	      0.00699378	     -0.00119975	      0.00400170	     -0.00296952	      0.00808350	     -0.06971546	      0.06952574	      0.09008788	     -0.65315867	      0.97191859
    144.45920000	      0.10726667	      0.12604791	      0.06442023	      0.08977641	      0.07991358	      0.06848201	      0.03718423	      0.01097515	      0.08414343	      0.03109117	      0.01071905	      0.01009573	      0.01001253	      0.01000677	      0.01003156	      0.01002669	      0.03372935	      0.03170521	      0.01013160	      0.01002721	      0.04020157	      0.01129149	      0.01012826	      0.02857565	      0.05081415	      0.04113377	      0.07179875	      0.01001346	      0.02497973	      0.01020611	      0.01023225	      0.11767042	      0.04939217	      0.01000478	      0.01232614	      0.10270068	      0.01004755	      0.02615952	      0.06942130	      0.03715004	      0.07022964	     -0.81826163	     -3.78780178	      2.66334689	      9.63617642	      3.79799775	     -0.00099775	      0.00577875	      0.00503599	     -0.00155666	      0.00368335	     -0.00261552	      0.15671740	     -0.17679444	     -0.12338801	      0.04610871	     -0.54728355	      0.63077622
    144.47496000	      0.10353317	      0.12000157	      0.07733965	      0.05787264	      0.10025807	      0.10521064	      0.11052188	      0.01041025	      0.08052824	      0.02942666	      0.01016859	      0.01006080	      0.01001403	      0.01000772	      0.01007316	      0.01068533	      0.11665153	      0.01001660	      0.01002401	      0.01002716	      0.01005096	      0.01004425	      0.01004535	      0.04083667	      0.01012506	      0.03771134	      0.06471458	      0.01003074	      0.01876227	      0.01008451	      0.01020374	      0.11633336	      0.04909986	      0.01000534	      0.01004987	      0.10184504	      0.01003926	      0.01891695	      0.05100892	      0.02702145	      1.51316595	     -1.23752262	      4.59836622	      2.34567476	     -6.59385813	      3.72071503	     -0.00079257	      0.00652166	     -0.00113120	     -0.00102389	      0.00357624	     -0.00235799	      0.22386307	      0.09059023	     -0.07246060	      0.04463393	     -0.46715947	      0.50763453
    144.49072000	      0.10171508	      0.11701219	      0.07946667	      0.03990032	      0.10658600	      0.12218989	      0.14658401	      0.01100066	      0.07891026	      0.02963554	      0.01027283	      0.01006418	      0.01001434	      0.01000781	      0.01046930	      0.05130184	      0.15017188	      0.01001132	      0.01002005	      0.01002929	      0.01003182	      0.01003400	      0.01004267	      0.04592455	      0.01006915	      0.03571229	      0.05901640	      0.01006107	      0.01600171	      0.01009810	      0.01066489	      0.12538483	      0.04997597	      0.01000551	      0.01003743	      0.10311892	      0.01004236	      0.01563349	      0.02923038	      0.01849232	      4.00515925	      0.23841718	     -2.42440392	      5.35242442	      6.87097978	     -7.18466307	     -0.00062633	      0.00672583	     -0.00401252	     -0.00055187	      0.00359322	     -0.00212857	      0.26727423	     -0.04957537	      0.11793250	      0.03804621	     -0.36241617	      0.33203259
    144.50648000	      0.08911140	      0.09888952	      0.07319176	      0.04023898	      0.09532435	      0.10894413	      0.15304122	      0.01103196	      0.07615050	      0.02875568	      0.01020625	      0.01006893	      0.01001505	      0.01000804	      0.01052039	      0.06399334	      0.14620817	      0.01001324	      0.01002369	      0.01003514	      0.01003652	      0.01003934	      0.01005078	      0.04095472	      0.01006563	      0.03279051	      0.05172210	      0.01007098	      0.01134627	      0.01007351	      0.01030712	      0.15806071	      0.05533516	      0.01000578	      0.01004180	      0.10241667	      0.01004880	      0.01333558	      0.01690890	      0.01429703	     -0.93723743	     -0.41709963	     -2.18372706	     -2.24264736	      2.04977339	     -0.70280205	     -0.00100444	      0.00595012	     -0.00356317	     -0.00028268	      0.00358298	     -0.00185389	      0.23374490	      0.03951768	      0.01374204	      0.03671824	     -0.25736552	      0.24313254
    144.52224000	      0.05329308	      0.04909628	      0.05896391	      0.05199456	      0.06474336	      0.06107861	      0.14348342	      0.01057593	      0.06965508	      0.02614789	      0.01018947	      0.01007677	      0.01001811	      0.01000974	      0.01046190	      0.04193212	      0.11329823	      0.01003150	      0.01004763	      0.01005667	      0.01008800	      0.01007710	      0.01008571	      0.02766808	      0.01008529	      0.02828525	      0.04278917	      0.01007621	      0.01013361	      0.01005460	      0.01012923	      0.20796198	      0.06425133	      0.01000631	      0.01006803	      0.09495523	      0.01005503	      0.01154527	      0.01150889	      0.01163674	     -5.16259306	     -2.39199067	     -2.05286068	     -4.37595234	      0.07279730	      5.48607574	     -0.00199476	      0.00382516	     -0.00076897	      0.00001947	      0.00335894	     -0.00154550	      0.22818599	      0.07069591	     -0.11467379	      0.00229265	     -0.13139544	      0.14287975
    144.53800000	      0.01040496	      0.01012497	      0.02629914	      0.03920631	      0.01620768	      0.01074683	      0.14132937	      0.02018452	      0.05827409	      0.02234506	      0.01014974	      0.01006940	      0.01003286	      0.01002225	      0.01806617	      0.03243578	      0.05388478	      0.02710418	      0.01560981	      0.01220984	      0.01334382	      0.01161644	      0.01096971	      0.01825952	      0.01010555	      0.02357302	      0.03383943	      0.01019472	      0.01008104	      0.01003043	      0.01019749	      0.26767603	      0.07623861	      0.01000694	      0.01017906	      0.07911236	      0.01006630	      0.01010705	      0.01003990	      0.01007192	      0.21320651	      8.18945073	      0.50879212	     -0.88690200	     -0.41821276	      0.00103559	     -0.00221608	      0.00030183	      0.00106240	      0.00287537	      0.00283885	     -0.00123415	      0.26004320	      0.03814603	     -0.00141786	     -0.03810335	     -0.00317416	      0.00484615
    144.55376000	      0.01009103	      0.01006345	      0.01436023	      0.02529939	      0.01038874	      0.01009580	      0.16091436	      0.03437497	      0.09464364	      0.03563984	      0.01016661	      0.01006070	      0.01003091	      0.04266286	      0.03857423	      0.04550199	      0.03101727	      0.06922270	      0.04763585	      0.04114454	      0.02079563	      0.01979616	      0.01747929	      0.01850467	      0.01013588	      0.03264689	      0.04685695	      0.01701379	      0.01008573	      0.01001956	      0.01169313	      0.30257056	      0.08887058	      0.01000504	      0.01042008	      0.13447299	      0.01004231	      0.01002907	      0.01000985	      0.01001804	     -1.84762328	      0.13195612	      1.93702144	     -2.44380236	     -2.31244938	     -0.19769549	     -0.00204284	     -0.00133241	      0.00101463	      0.00587046	      0.00459837	     -0.00185918	      0.24471590	      0.03242985	      0.00233489	     -0.03695953	      0.00359501	     -0.00477649
    144.56952000	      0.01007371	      0.01005728	      0.01220982	      0.01795055	      0.01030720	      0.01008041	      0.18940446	      0.05114736	      0.08170582	      0.02991816	      0.01025909	      0.01006582	      0.08629761	      0.01002003	      0.04220547	      0.04202691	      0.01755648	      0.08024204	      0.05792597	      0.05228727	      0.02377262	      0.02426638	      0.02206537	      0.02431116	      0.01030059	      0.03219814	      0.04991140	      0.02402998	      0.01007353	      0.01001260	      0.01662205	      0.34765688	      0.10746695	      0.01000675	      0.01059648	      0.10772597	      0.01004280	      0.01001626	      0.01000554	      0.01001004	      0.48624408	     -3.85685141	      0.20439192	     -0.35928785	      0.72560376	     -1.21078477	     -0.00156965	     -0.00186784	      0.00086974	      0.00964734	      0.00361396	     -0.00185361	      0.25782153	     -0.00877434	      0.01223314	     -0.05256914	      0.01306953	     -0.01778841
    144.58528000	      0.01009224	      0.01006523	      0.01161680	      0.01883572	      0.01020301	      0.01009652	      0.21974496	      0.05978622	      0.06572356	      0.02251183	      0.01019374	      0.01007686	      0.09189253	      0.01000719	      0.03469545	      0.03529574	      0.01834781	      0.07336701	      0.05142669	      0.04406599	      0.02070249	      0.01990305	      0.01779404	      0.03043799	      0.01017080	      0.02678737	      0.04491946	      0.01732648	      0.01009624	      0.01000897	      0.01562757	      0.38441539	      0.12643671	      0.01001021	      0.01014303	      0.07845885	      0.01004534	      0.01001182	      0.01000409	      0.01000736	      2.38399698	     -7.95564732	     -1.62254110	      2.38739004	      3.02218771	     -0.75610786	     -0.00169394	     -0.00146556	      0.00099665	      0.01201449	      0.00260296	     -0.00168949	      0.27504205	     -0.02666128	      0.01655591	     -0.07241580	      0.01909659	     -0.02527825
    144.60104000	      0.01010596	      0.01008988	      0.01021473	      0.01035017	      0.01013405	      0.01011056	      0.23235693	      0.08138789	      0.04310395	      0.01556117	      0.01018533	      0.01009790	      0.06286823	      0.01001509	      0.03144702	      0.02529948	      0.01023677	      0.05509703	      0.04414685	      0.04377429	      0.01660323	      0.01919965	      0.01958111	      0.04204478	      0.01061402	      0.01951219	      0.03299937	      0.02676264	      0.01021489	      0.01000648	      0.03179484	      0.40250996	      0.13998781	      0.01001972	      0.01011186	      0.04078031	      0.01005925	      0.01000782	      0.01000269	      0.01000489	      1.92986359	     -8.29752409	     -1.84295830	      3.06595427	      2.55972146	      0.60450203	     -0.00025358	     -0.00160344	      0.00015139	      0.01689319	      0.00145682	     -0.00130151	      0.26668651	     -0.01849868	      0.00178679	     -0.08234641	      0.02000187	     -0.02487862
    144.61680000	      0.01009377	      0.01012772	      0.01007693	      0.01006713	      0.01007877	      0.01009734	      0.19708066	      0.09981222	      0.07388904	      0.02030767	      0.01011005	      0.01006268	      0.10338336	      0.01002606	      0.04464985	      0.02505217	      0.01005804	      0.04569341	      0.05101172	      0.06490563	      0.01433623	      0.02582418	      0.03293534	      0.04689084	      0.02028532	      0.02941106	      0.05480937	      0.06262204	      0.01997051	      0.01000565	      0.06209365	      0.35411381	      0.12784483	      0.01001343	      0.01020615	      0.05846851	      0.01003172	      0.01000600	      0.01000202	      0.01000376	      0.54544446	      5.28486918	     -0.91925739	      2.44777136	      0.52469626	      0.52490723	      0.00229654	     -0.00262857	     -0.00140141	      0.02083201	      0.00227461	     -0.00241678	      0.23279846	     -0.02003531	     -0.01945917	     -0.07768002	      0.01825788	     -0.02022596
    144.63256000	      0.01006327	      0.01011453	      0.01004159	      0.01003402	      0.01004612	      0.01006823	      0.10631910	      0.09550389	      0.15297469	      0.03133756	      0.01005599	      0.01002940	      0.09988598	      0.01000865	      0.09583529	      0.06696512	      0.01003359	      0.04911150	      0.07966651	      0.11771088	      0.01486250	      0.04025685	      0.05886211	      0.03380726	      0.03112237	      0.06401342	      0.12834210	      0.11884609	      0.03587389	      0.01000714	      0.08541963	      0.21581705	      0.07629782	      0.01000729	      0.02038873	      0.07077248	      0.01001326	      0.01000614	      0.01000200	      0.01000386	      2.04509341	     19.43570487	      1.69336069	      5.11658613	     -2.89022714	     -1.80689713	      0.00462816	     -0.00465957	     -0.00350827	      0.01957553	      0.00378560	     -0.00603913	      0.19341212	     -0.02906802	     -0.03523636	     -0.06489054	      0.01668433	     -0.01489766
    144.64832000	      0.01001830	      0.01001198	      0.03561079	      0.12115278	      0.01005551	      0.01002073	      0.22416375	      0.01236998	      0.34178257	      0.03024065	      0.01001994	      0.01001152	      0.01001443	      0.16655240	      0.22406791	      0.23689177	      0.13324345	      0.46670960	      0.33055547	      0.28094763	      0.11529797	      0.10964265	      0.10013105	      0.01008572	      0.01003033	      0.16211917	      0.37414777	      0.07857868	      0.01001814	      0.01000816	      0.01006370	      0.34294059	      0.11726737	      0.01000367	      0.01192304	      0.01004591	      0.01000458	      0.01360534	      0.01231482	      0.01322232	    -13.60313319	     15.78663572	      8.55182709	    -25.28700544	    -16.23886867	     -5.38278843	     -0.01152426	     -0.00900584	      0.00565722	     -0.00006777	      0.00282909	     -0.01938875	      0.16546158	     -0.01776739	     -0.05149729	     -0.05404754	      0.01630264	     -0.01062156
    144.66408000	      0.01007805	      0.01002659	      0.09658963	      0.19246546	      0.02635935	      0.01005509	      0.19946833	      0.01168930	      0.24624942	      0.01005957	      0.01001624	      0.01001107	      0.01014226	      0.02589489	      0.01005643	      0.01003943	      0.08478447	      0.43885828	      0.19397298	      0.04972068	      0.14077691	      0.07608012	      0.02500966	      0.01150547	      0.01016942	      0.12309831	      0.39131198	      0.01004210	      0.01003343	      0.01000720	      0.01004809	      0.34825937	      0.12758855	      0.07541502	      0.01047839	      0.01000811	      0.01000362	      0.05454214	      0.17210924	      0.08518387	     -2.82602052	    -30.97142639	      0.30140425	     -3.19352555	      3.16065546	      8.91568067	     -0.01055051	     -0.00119640	      0.01128279	     -0.00149259	     -0.01515725	     -0.02946221	      0.14898677	      0.01163570	     -0.06471038	     -0.04800347	      0.01623106	     -0.00820236
    144.67984000	      0.01002645	      0.01001885	      0.01555916	      0.05594108	      0.01006973	      0.01003183	      0.11343695	      0.01022228	      0.08011676	      0.01013268	      0.01004119	      0.01002823	      0.01014224	      0.04573358	      0.18474209	      0.21422414	      0.10291214	      0.21661855	      0.18096524	      0.18087391	      0.04425862	      0.05558923	      0.06061649	      0.01010756	      0.01003917	      0.01936984	      0.08828294	      0.07113708	      0.01002712	      0.01002108	      0.01009949	      0.14719667	      0.04648310	      0.10770480	      0.01033981	      0.01002395	      0.01000959	      0.06227273	      0.19436667	      0.09621833	     -5.35699832	      9.00632445	     -2.44965972	    -10.02632806	      4.59776341	     -2.75069665	     -0.00648134	     -0.00599156	      0.00127422	     -0.00177204	     -0.00660089	     -0.01132237	      0.13109340	      0.02434965	     -0.05374375	     -0.04213164	      0.01514077	     -0.00757177
    144.69560000	      0.01002055	      0.01001881	      0.01004261	      0.01004277	      0.01002984	      0.01002457	      0.01003868	      0.01029474	      0.01008460	      0.01323259	      0.05172000	      0.08780524	      0.01143923	      0.01006648	      0.25127233	      0.24666794	      0.01007266	      0.20069155	      0.21819915	      0.26204355	      0.03291487	      0.08298975	      0.10698179	      0.01006311	      0.01007122	      0.01027465	      0.01006578	      0.16263075	      0.01004879	      0.31852187	      0.02126571	      0.01002277	      0.01004834	      0.14002807	      0.08034103	      0.05699566	      0.23517989	      0.07616705	      0.23508239	      0.11681034	     15.23769780	      9.14098333	      0.64319181	     22.40456353	     -2.08597907	    -10.34580702	      0.00033154	     -0.01013045	     -0.00356325	     -0.00235397	      0.00236406	      0.00557898	      0.10475788	      0.00655644	     -0.01981766	     -0.03417962	      0.01284518	     -0.00751082
    144.71136000	      0.26438207	      0.22982729	      0.16264420	      0.24346718	      0.18002605	      0.16359972	      0.07595426	      0.01009138	      0.01004865	      0.02001955	      0.11912305	      0.20807445	      0.01006705	      0.01001573	      0.01001016	      0.01000869	      0.02125668	      0.25825337	      0.01004903	      0.01001447	      0.14848930	      0.01154794	      0.01003979	      0.03279148	      0.12934453	      0.01004463	      0.01001470	      0.01001458	      0.06729072	      0.01001146	      0.01003717	      0.21356533	      0.09024026	      0.17249972	      0.01010395	      0.14331077	      0.53379958	      0.16692797	      0.51157688	      0.25534868	      3.00322084	      0.29084915	    -22.50168786	      4.52146952	     37.77866506	     13.69323939	     -0.00622934	      0.01189337	      0.01633271	     -0.00571579	      0.00640437	      0.01345485	      0.07801734	     -0.01853801	      0.00729483	     -0.02708486	      0.01032428	     -0.00719360
    144.72712000	      0.01001603	      0.01000958	      0.04602911	      0.19163176	      0.01004479	      0.01001565	      0.14118302	      0.01007860	      0.01005565	      0.01931358	      0.11158009	      0.20511867	      0.01005173	      0.01001261	      0.06843233	      0.01363301	      0.04993884	      0.95153020	      0.46247160	      0.24338354	      0.31743696	      0.22223446	      0.12652596	      0.01004644	      0.01005955	      0.01002337	      0.01000908	      0.01019854	      0.01001665	      0.01000924	      0.01003259	      0.31739555	      0.09755718	      0.21777760	      0.10161499	      0.14295633	      0.48995452	      0.17065307	      0.52199867	      0.26195965	    -10.29178252	     -2.16197481	      6.09926135	    -16.26271130	    -16.14291799	      5.22691833	     -0.01466573	     -0.00982286	      0.01554237	     -0.00637767	      0.00568837	      0.01307431	      0.06277667	     -0.03513472	      0.01987591	     -0.02228605	      0.00872300	     -0.00756305
    144.74288000	      0.01001585	      0.01001109	      0.01020693	      0.03620405	      0.01003566	      0.01001867	      0.01412035	      0.01008106	      0.01003697	      0.03534046	      0.19328708	      0.36062822	      0.01017708	      0.01000986	      0.17365207	      0.17382600	      0.03119416	      0.47776395	      0.29539913	      0.23609892	      0.14028458	      0.13482951	      0.10912159	      0.01004689	      0.01004399	      0.01000914	      0.01000405	      0.08346773	      0.01002333	      0.02316636	      0.01007016	      0.01400011	      0.01049385	      0.24160210	      0.08720422	      0.30453512	      0.83394020	      0.14992128	      0.46014656	      0.23198203	     -4.30403290	     -0.47395756	     -0.69007717	     -2.98657120	      3.07879640	     -2.97957506	     -0.00691563	     -0.00987746	      0.00339743	     -0.00599846	      0.01013639	      0.02403533	      0.05987889	     -0.05146557	      0.04131487	     -0.01715429	      0.00855725	     -0.01003903
    144.75864000	      0.01001349	      0.01001046	      0.01004570	      0.01006606	      0.01002498	      0.01001737	      0.01005075	      0.01011911	      0.01003663	      0.03739291	      0.19031193	      0.35535952	      0.07288682	      0.01001672	      0.24285740	      0.25336441	      0.01013277	      0.36929489	      0.29652872	      0.30046164	      0.09078660	      0.13795741	      0.13817224	      0.01004384	      0.01004651	      0.01000795	      0.01000382	      0.17639552	      0.01003234	      0.25496883	      0.01201637	      0.01002680	      0.01004888	      0.31658009	      0.12203757	      0.36490089	      0.80914112	      0.09947044	      0.30721398	      0.15555785	      2.26431272	      3.13546726	      1.32659103	      3.77061087	      2.90367992	     -8.97548991	     -0.00212974	     -0.01240350	     -0.00289950	     -0.00413221	      0.00926650	      0.02492092	      0.05896309	     -0.06865760	      0.07990400	     -0.00961167	      0.00948619	     -0.01425638
    144.77440000	      0.01001226	      0.01000764	      0.01004294	      0.05458402	      0.01001875	      0.01001108	      0.01005228	      0.01019435	      0.01003694	      0.02654450	      0.15542907	      0.29057432	      0.14369385	      0.01139841	      0.01003628	      0.01001844	      0.01001971	      0.99985522	      0.35772225	      0.09717037	      0.41976988	      0.24181765	      0.08643518	      0.01002870	      0.12603840	      0.01000966	      0.01000486	      0.01003498	      0.01002774	      0.01005608	      0.01006096	      0.07546308	      0.01189662	      0.47850039	      0.29271452	      0.34263450	      0.65449329	      0.09288864	      0.28894449	      0.14697087	      3.57015056	     -3.01728224	      9.86698130	      2.56549243	    -16.57294267	      4.63730197	     -0.00801302	     -0.01565286	      0.01809809	     -0.00388424	      0.00570905	      0.02100907	      0.04716031	     -0.07349004	      0.11614025	      0.00051335	      0.01056998	     -0.01807398
    144.79016000	      0.09154860	      0.01244354	      0.01076640	      0.14644251	      0.01013884	      0.01002995	      0.01003000	      0.01020574	      0.01003522	      0.01929131	      0.13605910	      0.25224092	      0.17732628	      0.13115499	      0.01000592	      0.01000447	      0.01001123	      0.62655641	      0.01003100	      0.01000826	      0.40301545	      0.03870479	      0.01002607	      0.01004829	      0.41619620	      0.01001162	      0.01000597	      0.01000733	      0.03866873	      0.01002496	      0.01004589	      0.15245355	      0.04344744	      0.50467538	      0.21899332	      0.34252066	      0.56993137	      0.07636613	      0.23915047	      0.12207168	      0.77045173	     -1.50943928	     -2.98886301	     -0.66817846	      5.37927330	      5.23284266	     -0.00507995	     -0.00209174	      0.03479986	     -0.00316751	      0.00364878	      0.01871526	      0.01655569	     -0.05325589	      0.12300048	      0.01426503	      0.01089059	     -0.01929387
    144.80592000	      0.01018002	      0.02149114	      0.01004775	      0.01004456	      0.01005569	      0.01015419	      0.01002173	      0.01099251	      0.01004766	      0.01056361	      0.06358231	      0.12319229	      0.16380870	      0.16727071	      0.01028995	      0.01004026	      0.01002037	      0.11226429	      0.07864408	      0.07805305	      0.05134816	      0.06068244	      0.04867444	      0.01022449	      0.10141003	      0.01002620	      0.01001409	      0.06496440	      0.08766002	      0.30103707	      0.03576788	      0.01001440	      0.01003409	      0.40507176	      0.09860431	      0.11009996	      0.26687758	      0.01518839	      0.03334728	      0.01900590	      1.32994832	      0.31941555	     -5.17203390	      4.60476208	      8.20864310	     -3.02315184	      0.00629355	     -0.00473509	     -0.00205813	     -0.00042753	     -0.00039164	      0.00861555	     -0.02806123	     -0.00229018	      0.08514449	      0.03239145	      0.01025481	     -0.01721486
    144.82168000	      0.01021835	      0.02492537	      0.01003078	      0.01003184	      0.01003623	      0.01008521	      0.01001741	      0.03415100	      0.01009476	      0.01025555	      0.01465359	      0.02484161	      0.16408683	      0.27885324	      0.01003372	      0.01001419	      0.01001044	      0.21419482	      0.09261523	      0.04951259	      0.11346615	      0.08896916	      0.05176039	      0.01072619	      0.20706015	      0.01101488	      0.01113620	      0.02669896	      0.14428794	      0.18567503	      0.06060159	      0.01001520	      0.01003464	      0.26065721	      0.14646804	      0.01004438	      0.03153568	      0.01003083	      0.01000998	      0.01001909	     -0.36976400	      0.84317597	      2.33785417	     -0.57180657	     -6.86273624	     -0.17906236	      0.00940100	     -0.00813721	      0.00059019	      0.00535481	     -0.00266523	      0.00063150	     -0.07099551	      0.06502602	      0.02037256	      0.05265712	      0.00923925	     -0.01336555
    144.83744000	      0.12833058	      0.25878709	      0.01013241	      0.01005089	      0.05240285	      0.12613147	      0.01003538	      0.03020541	      0.01007915	      0.01064442	      0.02506841	      0.04740291	      0.10281177	      0.28853292	      0.01006063	      0.01002419	      0.01002425	      0.01003757	      0.01027459	      0.03503155	      0.01011770	      0.01477318	      0.03298423	      0.06520361	      0.10051634	      0.01006243	      0.01003591	      0.09621514	      0.15296435	      0.08156872	      0.04507630	      0.01002157	      0.01006123	      0.16363034	      0.01391964	      0.02911636	      0.10063540	      0.01003042	      0.01001017	      0.01001909	      0.69613162	      0.59876082	     -2.85023383	      0.98525469	      5.89093165	     -3.36571231	      0.01043905	      0.00125529	     -0.00493185	      0.00510987	     -0.00049842	      0.00326380	     -0.10304256	      0.11121148	     -0.02707618	      0.07203436	      0.00830792	     -0.01029369
    144.85320000	      0.19436597	      0.20376666	      0.01412762	      0.12877762	      0.03444718	      0.01003579	      0.01002057	      0.01241429	      0.01007580	      0.01147999	      0.02129147	      0.03648180	      0.01104445	      0.22224366	      0.01000272	      0.01000220	      0.01000531	      0.01003631	      0.01000462	      0.01000269	      0.18096879	      0.01001231	      0.01000702	      0.01004485	      0.60106739	      0.01002690	      0.01002589	      0.01000259	      0.14993974	      0.01002213	      0.01006661	      0.15068236	      0.03936799	      0.13721848	      0.03480177	      0.01528293	      0.07452930	      0.01432924	      0.01412706	      0.01452206	     -0.98055674	     -1.63352710	      0.16203328	     -0.53630793	      0.48611475	      1.94567733	     -0.00186587	     -0.00004826	      0.04902586	     -0.00013689	     -0.00064349	      0.00240356	     -0.13068915	      0.11015721	     -0.03348721	      0.08979112	      0.00703198	     -0.00900257
    144.86896000	      0.18899839	      0.31951603	      0.07018186	      0.01028927	      0.15366748	      0.19574615	      0.01011159	      0.01231874	      0.10381400	      0.04549599	      0.01017894	      0.01008428	      0.01001742	      0.47472057	      0.01003847	      0.01002424	      0.01407211	      0.01001425	      0.01002954	      0.01005553	      0.01004134	      0.01006619	      0.01017024	      0.08868932	      0.05110626	      0.01783387	      0.01675880	      0.07417580	      0.12617062	      0.04553870	      0.01326306	      0.01003955	      0.01015973	      0.01001075	      0.01005452	      0.19231803	      0.01006293	      0.01006528	      0.01002361	      0.01004278	     -3.95591265	     -2.94126456	     -2.74554589	     -2.57909148	      7.14155144	     -4.79742292	      0.00926831	      0.00702834	     -0.00367130	      0.00186340	      0.00465342	     -0.00116381	     -0.15928173	      0.07923832	     -0.01687379	      0.10627124	      0.00450652	     -0.00827944
    144.88472000	      0.10552044	      0.23686832	      0.01005494	      0.01003186	      0.01293779	      0.07192220	      0.01012888	      0.11467899	      0.09949208	      0.03224746	      0.01045628	      0.01008260	      0.13844432	      0.09860455	      0.01002116	      0.01000858	      0.01000836	      0.04806100	      0.01116273	      0.01047373	      0.07734365	      0.06391752	      0.04760891	      0.09548685	      0.29737556	      0.03727057	      0.06034312	      0.01454512	      0.27975977	      0.01000867	      0.08935048	      0.02077483	      0.02186327	      0.01001222	      0.07147048	      0.11449397	      0.01004098	      0.01000542	      0.01000177	      0.01000339	      1.50568187	      7.21999017	      1.55766088	     -1.43230737	     -3.73789262	      0.90335359	      0.01769053	     -0.00516182	     -0.00023077	      0.02230706	      0.00337936	     -0.00216407	     -0.17779007	      0.05326068	     -0.00169504	      0.11794914	      0.00053973	     -0.00671903
    144.90048000	      0.09060374	      0.20457490	      0.01005271	      0.01003528	      0.01184237	      0.06058916	      0.01008214	      0.10365676	      0.09814605	      0.03005141	      0.01019515	      0.01007034	      0.06025298	      0.08870153	      0.01001563	      0.01000707	      0.01000781	      0.07518380	      0.01136950	      0.01031109	      0.08529356	      0.06914128	      0.05154905	      0.08779806	      0.28383283	      0.03116323	      0.05035028	      0.01258122	      0.26729199	      0.01000921	      0.08047145	      0.02529660	      0.02214666	      0.01001301	      0.07519247	      0.11155751	      0.01004710	      0.01000624	      0.01000201	      0.01000393	     -2.23255534	     -1.23004148	      2.52711721	     -1.58787169	     -3.93210076	      0.64024262	      0.01667513	     -0.00538065	     -0.00008424	      0.02008713	      0.00368121	     -0.00207341	     -0.17260106	      0.03434635	      0.00805737	      0.12028412	     -0.00374628	     -0.00514249
    144.91624000	      0.09559776	      0.20463101	      0.01006725	      0.01004232	      0.01822067	      0.07149315	      0.01007235	      0.08807212	      0.09471907	      0.02708506	      0.01012621	      0.01006454	      0.03337610	      0.05322265	      0.01001474	      0.01000719	      0.01000859	      0.05961453	      0.01065544	      0.01014350	      0.07444582	      0.06327332	      0.05238852	      0.08684958	      0.25955123	      0.02788867	      0.04617321	      0.03029730	      0.25403851	      0.01001355	      0.06824139	      0.01835760	      0.01781263	      0.01001131	      0.06570948	      0.09964601	      0.01004069	      0.01000737	      0.01000234	      0.01000469	     -0.36859883	     -2.80456304	     -0.10112246	      0.66654782	      0.39436487	     -0.02892075	      0.01590068	     -0.00429598	     -0.00058138	      0.01659115	      0.00408204	     -0.00219518	     -0.15185335	      0.00154043	      0.01608016	      0.11478392	     -0.00681055	     -0.00494954
    144.93200000	      0.13517517	      0.25319570	      0.01074928	      0.01006778	      0.07799626	      0.12415461	      0.01014397	      0.06278359	      0.07899352	      0.02288818	      0.01013031	      0.01006321	      0.01173384	      0.01008527	      0.01002259	      0.01001043	      0.01001402	      0.01008872	      0.01017496	      0.01084160	      0.02147261	      0.03116422	      0.04209535	      0.09705631	      0.19149511	      0.02123820	      0.03345069	      0.09660315	      0.21586215	      0.01000690	      0.04639943	      0.01193608	      0.01918815	      0.01001048	      0.02190747	      0.08006590	      0.01004035	      0.01000938	      0.01000299	      0.01000603	      3.11017474	     -0.98044407	     -7.33217114	      2.90749221	     11.31240481	     -2.95948915	      0.01445603	      0.00004692	     -0.00211799	      0.01134084	      0.00419104	     -0.00201851	     -0.12916926	     -0.05798345	      0.02558717	      0.10737166	     -0.00770907	     -0.00726951
