Coordinates

Units are S.I. units (second, meters, Newtons, ...)
If the header above contains a line with 'inDegrees', this indicates whether rotational values are in degrees (yes) or radians (no).

inDegrees=no
nColumns=21
nRows=1065
DataType=double
version=3
OpenSimVersion=4.5.2-2025-05-03-6a4c6ec41
endheader
time	/jointset/ground_pelvis/pelvis_tilt/value	/jointset/ground_pelvis/pelvis_list/value	/jointset/ground_pelvis/pelvis_rotation/value	/jointset/ground_pelvis/pelvis_tx/value	/jointset/ground_pelvis/pelvis_ty/value	/jointset/ground_pelvis/pelvis_tz/value	/jointset/hip_r/hip_flexion_r/value	/jointset/hip_r/hip_adduction_r/value	/jointset/hip_r/hip_rotation_r/value	/jointset/walker_knee_r/knee_angle_r/value	/jointset/patellofemoral_r/knee_angle_r_beta/value	/jointset/ankle_r/ankle_angle_r/value	/jointset/subtalar_r/subtalar_angle_r/value	/jointset/hip_l/hip_flexion_l/value	/jointset/hip_l/hip_adduction_l/value	/jointset/hip_l/hip_rotation_l/value	/jointset/walker_knee_l/knee_angle_l/value	/jointset/patellofemoral_l/knee_angle_l_beta/value	/jointset/ankle_l/ankle_angle_l/value	/jointset/subtalar_l/subtalar_angle_l/value	/jointset/ground_pelvis/pelvis_tilt/speed	/jointset/ground_pelvis/pelvis_list/speed	/jointset/ground_pelvis/pelvis_rotation/speed	/jointset/ground_pelvis/pelvis_tx/speed	/jointset/ground_pelvis/pelvis_ty/speed	/jointset/ground_pelvis/pelvis_tz/speed	/jointset/hip_r/hip_flexion_r/speed	/jointset/hip_r/hip_adduction_r/speed	/jointset/hip_r/hip_rotation_r/speed	/jointset/walker_knee_r/knee_angle_r/speed	/jointset/patellofemoral_r/knee_angle_r_beta/speed	/jointset/ankle_r/ankle_angle_r/speed	/jointset/subtalar_r/subtalar_angle_r/speed	/jointset/hip_l/hip_flexion_l/speed	/jointset/hip_l/hip_adduction_l/speed	/jointset/hip_l/hip_rotation_l/speed	/jointset/walker_knee_l/knee_angle_l/speed	/jointset/patellofemoral_l/knee_angle_l_beta/speed	/jointset/ankle_l/ankle_angle_l/speed	/jointset/subtalar_l/subtalar_angle_l/speed
15.23999273999667	-0.06571146211387527	0.0408387700879231	-0.05810602080712483	2.386829083199838	0.9841696490334504	0.9735213313835789	-0.1576519620003188	0.04196145591606235	0.07455103788219729	0.5137270754842943	0.5137270763193477	0.2323586073573019	-0.1445677058707453	0.7805977304049877	0.03045241711260934	0.02659325559579683	1.596932852974144	1.5969328521759	-0.01496211400082132	-0.4447208912701389	-1.06718382879623	2.397192970963649	1.314421203322998	0.3446191148672605	0.5318947628495706	0.06463529058890995	-6.455240749382085	-3.165894888449709	-2.720217740168765	-7.311815121699503	-7.311815123888328	-10.30559462713807	2.41589892845263	3.499700854051406	3.137613266695641	-0.6758236774226378	-9.688111217299095	-9.688111161172676	-0.1961704558735513	-4.205897862123242
15.24665939999666	-0.07353568026094766	0.05631395619931514	-0.04933688806788044	2.389209644864298	0.9877061217360353	0.9739713489097316	-0.1988654299204834	0.02183442311909438	0.05450304203506443	0.4657827544072103	0.4657827551762587	0.1599805473438222	-0.1278990548062769	0.8029392175469622	0.05004740149015098	0.02126118931941511	1.530198494412655	1.530198494054315	-0.01685269843681318	-0.4721544321107036	-1.269902491247279	2.240453863157655	1.308736770512389	0.3680459418452641	0.5287105103058443	0.06980630796495815	-5.907828669062356	-2.87069449346324	-3.287091510047469	-7.044545896145364	-7.044545914016566	-11.35775162914186	2.586151222161128	3.193887914351188	2.735520920105538	-0.9257549480765613	-10.32611189166483	-10.32611181681695	-0.3573496233303716	-3.974092213873158
15.25332605999666	-0.08249540284514094	0.07065571242291221	-0.04075914365986035	2.391715968498008	0.9912148573109655	0.9744434588454793	-0.2364246451017411	0.003680029143374574	0.03084286144270459	0.420169835957538	0.420169836554	0.0816601066716782	-0.1101207358221221	0.823056566992595	0.06688591485053764	0.01423573739183916	1.459344920241872	1.459344920425598	-0.0195367160354182	-0.4970377906244559	-1.406145938212892	2.058653771554288	1.256824791976051	0.3823087974546858	0.5235941979093675	0.07109845217815902	-5.361049491374514	-2.577974810059272	-3.800194993210483	-6.610828561032546	-6.61082859470786	-12.0783764523838	2.740447180438628	2.83146397206295	2.315415417926793	-1.181827557982211	-10.92188537936441	-10.92188529297364	-0.4333052384766337	-3.441020381969147
15.25999271999666	-0.09211892389090108	0.08372748286364536	-0.03268149622417616	2.394286558093416	0.9946828888624207	0.9749086075071547	-0.2703711378832974	-0.01259488497658832	0.003999619258317003	0.3780277547179231	0.3780277550444491	-0.0002156148587822222	-0.09151069398683459	0.8405598760791114	0.08094274535603679	0.005523089519933251	1.384699647348587	1.384699648121648	-0.02243825216305042	-0.5173882675823933	-1.468132884551062	1.86104434800765	1.158989566401077	0.387343545636458	0.5164488228403823	0.06757422164733765	-4.825458455456284	-2.310551684125496	-4.238787442292353	-6.002023086376225	-6.002023132952582	-12.41788853996574	2.826855105334523	2.409785861690317	1.905679924707501	-1.428923875943577	-11.46072121584147	-11.4607211271017	-0.42322884186097	-2.617737371906548
15.26665937999666	-0.1018979287450407	0.0954559597051502	-0.02540146490712818	2.396860627823896	0.9980953169749573	0.9753321365486349	-0.3008048392212343	-0.0272304954513774	-0.02546862351130562	0.3405452845244675	0.3405452845123064	-0.08300540739901895	-0.07269512994853368	0.8550633653712061	0.09237761324303517	-0.004752549784162086	1.306705725071963	1.306705726415334	-0.02500585348211054	-0.5313632531399286	-1.45260819077919	1.657293376170594	1.018262963309081	0.3834268655802835	0.5068126874244965	0.05852483774981068	-4.308138877396107	-2.089451387653765	-4.584930608744467	-5.212335243836455	-5.212335297772568	-12.35058070130883	2.793887552683267	1.932662033042216	1.533001436251868	-1.64715214756457	-11.92280076976273	-11.92280068923273	-0.3351506919507442	-1.535129373650965
15.27332603999665	-0.1113166156565829	0.1058326912721301	-0.01918785083346821	2.399380329995291	1.001433312083247	0.9756760193624341	-0.3278631231197083	-0.04059643024604109	-0.05689265878100475	0.3089339377236804	0.3089339373470217	-0.1639896375914909	-0.05462526835303069	0.8662265747593921	0.1015156379647594	-0.0163264021623458	1.225952489209056	1.225952491031834	-0.02676800587013565	-0.5373892721257804	-1.360539425382954	1.457122390014277	0.8401765754085062	0.3711578126531587	0.4939903027996259	0.04368308197106767	-3.81332107870652	-1.932166350558491	-4.823090298381156	-4.24113455856068	-4.241134612711278	-11.87919093929878	2.596428304158358	1.409762347049692	1.219910929384115	-1.81481492978217	-12.28428864236127	-12.28428858078642	-0.1847525029767835	-0.2427528389171157
15.27999269999665	-0.1198792104832178	0.1149129510137992	-0.01426523146272198	2.401792756593439	1.004672978595482	0.9759024413129347	-0.3517030057111534	-0.05316164217503217	-0.08950508622690638	0.2843857604234218	0.2843857597062626	-0.240567694735123	-0.03851820654789246	0.8737909483783698	0.1088119796085501	-0.02879349228708157	1.143197077713108	1.14319707985701	-0.02737811774917643	-0.5342792041182434	-1.19694940407486	1.269839201728742	0.6323955937062224	0.3514088553110758	0.4771770068841527	0.02340497728025405	-3.342694091882365	-1.850660355960776	-4.939156573235114	-3.095250727477244	-3.095250774224738	-11.03672232922218	2.200525247985513	0.8558451127318456	0.9825564585293058	-1.912227773616379	-12.51900316303888	-12.51900312957036	0.006523430287534793	1.1935323897754
15.28665935999665	-0.1271365347951138	0.1228111162636669	-0.01080132315647573	2.404051537136634	1.007785014370644	0.9759783713848601	-0.3724846600815246	-0.06545091331976884	-0.1224462191345877	0.2680170375858985	0.2680170366015213	-0.3104565162462343	-0.02576985599381983	0.8776104652945483	0.1148033388575928	-0.04163573297780628	1.059373042045196	1.059373044301151	-0.02664554065927343	-0.5213298574764528	-0.9707499115536424	1.103765991013115	0.4042145401190691	0.3252564448389297	0.45557458461576	-0.001219102374189798	-2.895541793916509	-1.84941965585031	-4.91941040356819	-1.790833106689174	-1.790833139069288	-9.884876134108003	1.587003635476738	0.2896961533315733	0.8290349926136695	-1.925814129468932	-12.60060561667847	-12.60060561716243	0.2137335189181831	2.695096737359118
15.29332601999664	-0.1327106819902132	0.1296920254331774	-0.008898267044013405	2.406117955027867	1.010735134130655	0.9758805708342393	-0.3903561038432601	-0.07798967895094039	-0.1547647451670134	0.2608022672181999	0.2608022660803591	-0.3718667877891488	-0.01784700784556828	0.8776735416584451	0.1200509253894979	-0.05427537692215265	0.9755829210900675	0.9755829232241674	-0.02455076905866008	-0.4983919276545097	-0.6943086119124563	0.9656111509826955	0.1658900995856138	0.2939089292422343	0.4285049253686831	-0.02834824639984108	-2.46899387575704	-1.923964108213571	-4.750099825195075	-0.3543381436679815	-0.3543381567530058	-8.508942013788213	0.7541574730459288	-0.2674469172313355	0.758539547851934	-1.851787685040837	-12.50519413973891	-12.50519417567361	0.4109015373575563	4.175299447294767
15.29999267999664	-0.1363155985598955	0.1357580321156861	-0.008588664860523353	2.407961615750587	1.013485228553107	0.9756003342327981	-0.4054403268512455	-0.09124145067313751	-0.1854194457650262	0.263505557176548	0.263505556021264	-0.4236342731250639	-0.01616404763063508	0.8741127359373076	0.1250810143055291	-0.06614927143660781	0.893072784072525	0.8930727858563312	-0.0212438251454888	-0.4659042297206094	-0.3826464618243636	0.8598100979205431	-0.07209342713357229	0.2586458792968397	0.3955152453810546	-0.05548998640070017	-2.058520235371567	-2.06016562886329	-4.418274839326119	1.177734852507391	1.177734860306235	-7.009565325398476	-0.2803293030083051	-0.79395603183675	0.7615109711885013	-1.698565800603785	-12.21407107847811	-12.21407114673381	0.5735671662671177	5.545418460268703
15.30665933999664	-0.1377708762043241	0.1412316967394085	-0.00983640288568307	2.409560769331011	1.01599517670183	0.9751471763992298	-0.4178268943008799	-0.1055441721211945	-0.2132917964192159	0.2766184736756813	0.2766184726370328	-0.465288422629521	-0.02194951474289352	0.8671994031285751	0.1303300271880033	-0.07679285082224581	0.8131886116498794	0.813188612890488	-0.01702593501875512	-0.4248853427132469	-0.05218629044905432	0.7878915466194446	-0.2997125349525426	0.2207756966626949	0.3564685304424469	-0.07971513421689259	-1.658811322800411	-2.234651425586583	-3.914236161350348	2.760515025638987	2.760515052191673	-5.492366701111351	-1.478285065285133	-1.270252027630865	0.8208330897571465	-1.48718402561408	-11.71636864336516	-11.71636873650503	0.6812089675708334	6.721410911375747
15.31332599999663	-0.1370056911980654	0.1463346389189588	-0.0125416763772743	2.4109024161899	1.018225193911565	0.974550763467553	-0.4275709839292616	-0.1210534051499066	-0.2372199503644199	0.3003133965650136	0.3003133957523067	-0.4970484035127151	-0.03610900179917379	0.8573213490863302	0.1361006972498949	-0.0859190395888227	0.7373165845724465	0.7373165851388442	-0.01231623723007981	-0.3768792751593447	0.2809145919438377	0.7479783870653949	-0.5079570991769066	0.1816127708672872	0.3116105891520271	-0.09796467086853453	-1.265106172951679	-2.416460970709353	-3.235422398355067	4.343694419372367	4.343694459565278	-4.056803161923242	-2.781151845869418	-1.681395388851101	0.9139276805083408	-1.24931485636159	-11.01119425023898	-11.01119435730118	0.7192604337992258	7.630798994792908
15.31999265999663	-0.1340513923292652	0.1512638106719024	-0.01654883402289039	2.411982314037796	1.020138466671429	0.97386057657405	-0.4347018202921208	-0.137700637056306	-0.2560614590248854	0.3344196444066685	0.3344196438885797	-0.5197466738370815	-0.05909492481111769	0.844944410529999	0.1425345457021393	-0.09347567342047831	0.666811596343211	0.6668115961857588	-0.00760723180315702	-0.3238575111208838	0.6023986766600671	0.7345316196333742	-0.6890961040172744	0.1424691933577181	0.2615825638927729	-0.107417627558076	-0.8745868643036783	-2.569895742307868	-2.390969711889195	5.875344959926695	5.875345006894165	-2.785829002741412	-4.112107805067728	-2.019182532435909	1.015508411789317	-1.022830732452477	-10.1089664145309	-10.108966522337	0.6804309731363698	8.218696769363648
15.32665931999663	-0.1290248405728308	0.1561672753727296	-0.02165476281440592	2.412804945798329	1.02170360655395	0.97314303067946	-0.4392391651496891	-0.1551739484553654	-0.2687852292281437	0.3784264657204564	0.3784264655173937	-0.5346903939923844	-0.09079967930375767	0.8305636860874817	0.1496040908762769	-0.09966640655181522	0.6029203114179797	0.6029203105769469	-0.003414181552711678	-0.268086436408675	0.9009922695219892	0.7384915176161344	-0.8365805513399726	0.104648733744278	0.2073529290168003	-0.1058777764738876	-0.48734505459762	-2.658333412405316	-1.40568460235793	7.306055434794775	7.306055481108249	-1.73780412455219	-5.381068074749583	-2.283081193492592	1.100689285508446	-0.8454410522338202	-9.031681635583871	-9.031681730725175	0.5651965688131106	8.452036184410026
15.33332597999662	-0.1221067635790233	0.1611228428225142	-0.02761579120808677	2.413383406244205	1.022896411867214	0.9724761218638489	-0.4412143491177857	-0.1729264846819117	-0.2745839777062783	0.4315128795281429	0.431512879612154	-0.5434795378505917	-0.1304926566280076	0.8146529648233773	0.1571259333917367	-0.1049261070735435	0.5467064126093059	0.5467064112083606	-0.00022383032989798	-0.2119743332272119	1.168830995559429	0.748025664706417	-0.9447368895452259	0.06942530590483921	0.1500832362270818	-0.09211718958345987	-0.1067790348310479	-2.64869127376219	-0.3219909877001421	8.592746485684046	8.592746524443465	-0.9417356415782653	-6.492811150394299	-2.479851003512855	1.148073838902189	-0.7476526252990123	-7.811980740246391	-7.811980811520559	0.3815402014995994	8.321411026594035
15.33999263999662	-0.1135191989816914	0.1661240547322572	-0.03415253785515505	2.413739043647649	1.023700612612767	0.9719421010039602	-0.4406919723786283	-0.1902155361820215	-0.2729896356338907	0.4926004036569668	0.492600403958818	-0.5478060901935816	-0.176820342152238	0.7976206854227625	0.164793337554232	-0.1098513132874353	0.4989860819837734	0.4989860802077787	0.001553128121621394	-0.1579145551718871	1.401316130781014	0.7499838319594482	-1.008492887651234	0.03798859825263984	0.09096307810630179	-0.06611635030500421	0.2606269395900205	-2.516042924868971	0.8012645343465413	9.701660444451507	9.701660470343223	-0.3964050423840579	-7.357597287808735	-2.621986415143777	1.142459813313203	-0.746569894251331	-6.491026261436947	-6.491026301966007	0.1441163248653979	7.840387681545685
15.34665929999662	-0.1035057690240894	0.1710779002512112	-0.04095351889836258	2.413900602086002	1.024107497079702	0.9716190060874523	-0.4377874806337594	-0.206170998304952	-0.2639690601146452	0.5604222695698883	0.5604222699928474	-0.5492604378715429	-0.2278815643165009	0.7797798580167546	0.1722247279242315	-0.1150958217703332	0.4602812149124055	0.4602812129745124	0.001622610759757453	-0.1081410992644046	1.59640582271548	0.7319173382783228	-1.02329827145828	0.01134833552928585	0.03104386160295995	-0.02916168304835858	0.6063614697360454	-2.247688471870311	1.893510344098661	10.61030332891777	10.61030333913903	-0.07334535085658134	-7.90277958121888	-2.725108727901029	1.076864589749376	-0.8418157708091725	-5.115340642455638	-5.115340650678299	-0.1269708507767687	7.042561206939045
15.35332595999662	-0.09231845636659583	0.1758168950217379	-0.04767913113914681	2.413902599897466	1.024114496744589	0.9715720830703447	-0.4326744431579624	-0.2198870402549201	-0.247978014618855	0.6336020667604955	0.6336020671993066	-0.5491689573455221	-0.2813775628630619	0.7613382317228886	0.1790226898230502	-0.1212487116865856	0.4307964695587854	0.4307964676655308	-0.0001611189304778695	-0.06460933180884736	1.753400177873971	0.6842923476746926	-0.9853281495632695	-0.009796805663976981	-0.02890299965543553	0.01622094863268757	0.9219094831997575	-1.845929051234269	2.880110180710832	11.3083443481369	11.30834434299214	0.07691583748310894	-8.08324559218347	-2.804567681073083	0.9536073997130554	-1.014449165047403	-3.732870563128387	-3.732870542430903	-0.4075557015073649	5.977113290654106
15.35999261999661	-0.08021347163236715	0.1801251930249168	-0.05396807369521434	2.413782772564621	1.023722985629342	0.9718462152036047	-0.4255757323786561	-0.2305262305514163	-0.2259576689206819	0.7107351713212731	0.7107351716832171	-0.5484813377730967	-0.3348212858645132	0.7424122716865879	0.1848363841453727	-0.1287162489954027	0.4104240850524414	0.4104240833747289	-0.003773015926943004	-0.02890859894659435	1.87148967912783	0.6024011094943448	-0.8920129356963175	-0.02520391800411846	-0.08847510741834175	0.06650096939023412	1.20147860956635	-1.328953889328624	3.691678944786838	11.79756825021711	11.79756823308365	0.1163805712386568	-7.888386294480927	-2.871815354274909	0.7842232834247154	-1.229208717749857	-2.388671908469142	-2.388671865904018	-0.6707978648314051	4.703837060786743
15.36665927999661	-0.06745648059155747	0.1837751024171282	-0.05944827405764794	2.413578601010668	1.022935735106359	0.9724604195526163	-0.4167358910105448	-0.2374224321579603	-0.1992683597825875	0.7904669243884255	0.7904669246110023	-0.5477182453328864	-0.3857764969469502	0.7230639021770965	0.1894192682835135	-0.1376289203214994	0.3987771792396138	0.3987771778933029	-0.009004044468251194	-0.002207823745285927	1.948467551754749	0.48750423898033	-0.7428375645660139	-0.03520867223546283	-0.1476501746580473	0.1175216711063703	1.444787602073462	-0.7295702026866669	4.273273247929041	12.09095595393095	12.09095593024012	0.1101843315837715	-7.343867332645456	-2.931341583010134	0.5881498656693106	-1.439680960280078	-1.120790341721715	-1.120790286510232	-0.8885813974004553	3.288292152866099
15.37332593999661	-0.05433480365502977	0.1865677136679617	-0.06375350365873138	2.413323213460487	1.021754587594167	0.9734052027333678	-0.4063769522784152	-0.240168186439384	-0.1695675988572152	0.8715618686116586	0.8715618686704238	-0.5469808826036141	-0.4320894745858617	0.7033535922080977	0.1926742890490482	-0.1477900894455406	0.3952480183522277	0.395248017388274	-0.01545768786648213	0.0147682716826934	1.979980067519841	0.346885014101329	-0.5402052330126098	-0.0407833050339667	-0.2067092461283303	0.1649686937310152	1.659106551202047	-0.09186161775730693	4.591653494668321	12.21092563741969	12.21092561282754	0.1176423891111976	-6.507663418296619	-2.978952351507312	0.3903124130487542	-1.595438489962774	0.04300639345386784	0.04300645128276041	-1.033050134023033	1.79755013104274
15.3799925999966	-0.04117203323190421	0.1883699240251843	-0.06654522168921728	2.413041222316684	1.020178917715851	0.9746431551248897	-0.3946452456548497	-0.2386739754919575	-0.1386499175427164	0.952958588401466	0.9529585883055465	-0.5460153949267922	-0.4720771734639683	0.6833987833773953	0.1946798884751872	-0.1586757760809466	0.3990836645628725	0.3990836639666761	-0.02255736121941467	0.02173823140636767	1.959587624622698	0.1927229753033729	-0.2901003819749925	-0.04349358712587261	-0.2660795307538578	0.2048620270538015	1.859815992064738	0.5338086202751644	4.639315235428339	12.18678824180828	12.18678822052225	0.1849205126599323	-5.461213818949511	-3.00196123281196	0.2178296517422418	-1.650052852045217	1.087094903342849	1.08709495443256	-1.078349795434836	0.2971321013633116
15.3866592599966	-0.02833904657572464	0.1891405852931337	-0.06753755820725892	2.412745228923763	1.018205363993176	0.976112725337688	-0.3815608321460546	-0.233190707562851	-0.1082723601280025	1.033805354392742	1.033805354172314	-0.5443183206515715	-0.5046454218203803	0.6634237583429244	0.1956922281716554	-0.1694873942631578	0.4094681477246491	0.4094681474266734	-0.02956631246670927	0.01884716963316117	1.879801308199442	0.04002787279314111	-0.002339100524177198	-0.04534195039085251	-0.3261137777292009	0.2340080552484212	2.069009597027195	1.096677655534825	4.434731136571397	12.05156898483214	12.05156896894012	0.340152577603664	-4.297668625433465	-2.981588970746718	0.09627205652621082	-1.568737401018501	2.008019848707587	2.008019886271911	-1.002651309537629	-1.150720834829638
15.3933259199966	-0.01625485703290357	0.1889411758609223	-0.06652220621414376	2.412433709545373	1.015829171619396	0.9777347160055773	-0.3669830208765012	-0.2242928005419583	-0.07999076986026629	1.113473210804687	1.113473210497235	-0.541265220508948	-0.5293258877218309	0.6437862988396867	0.1961228429358442	-0.1792501548696432	0.4255977959073235	0.4255977958064493	-0.03562222096709371	0.006640923624059267	1.734062588010891	-0.09584022548490101	0.3097235296147945	-0.04851575437645961	-0.3868337470963494	0.2503552041798495	2.312114096844666	1.551361746696183	4.018952885805223	11.8384771617802	11.83847715146428	0.5914007655647845	-3.109686652543178	-2.89745809720408	0.04614898147332268	-1.334163628494929	2.81240398543092	2.81240400699422	-0.790537225686071	-2.488240160433461
15.39999257999659	-0.005372187118355084	0.1879299932664448	-0.0633894106645012	2.412090772541378	1.013047230277965	0.979420698042447	-0.3506033663106544	-0.2128253919910649	-0.05502873551278378	1.191545477669543	1.191545477308962	-0.5362433037981713	-0.5462366460248405	0.624969475634448	0.196495202748196	-0.186940782408792	0.4467361149073178	0.4467361149019454	-0.03978845087732592	-0.0139683357236337	1.519235558873884	-0.2015723407272922	0.6300702833842209	-0.055087044951781	-0.4476890638573092	0.2532074331217242	2.613202343932961	1.862743138478899	3.44940131455412	11.57743953683039	11.57743953094431	0.9274701726583484	-1.979045533768469	-2.733350343941647	0.08014480976485079	-0.94930885748775	3.513007455733652	3.513007463538708	-0.4355374877161275	-3.663564200925454
15.40665923999659	0.003853067647626866	0.1863413869656841	-0.05814129464559192	2.411687912215519	1.009862474429809	0.9810822887686274	-0.3319707395533872	-0.1998231039621531	-0.03419373133862801	1.267785713743501	1.267785713353796	-0.5287698876612316	-0.5559840137571597	0.60753495941568	0.1973857857855441	-0.1916229997152077	0.4722386297619353	0.4722386297776573	-0.04112109338948164	-0.04174708461719173	1.237800633278399	-0.2679655226716237	0.9414259405711589	-0.06672411229333652	-0.507401031669359	0.2432669571434483	2.990295680175044	2.009577767516321	2.792152509466104	11.2921852736319	11.29218527051311	1.321267799819726	-0.9695855921685812	-2.482715760241014	0.2012394060174983	-0.4369293751522793	4.123844288634883	4.12384428822914	0.05778762316395418	-4.632441507592551
15.41332589999659	0.01100391924394911	0.1844530277647075	-0.05089450098268185	2.411187484474081	1.006288891212734	0.9826401281451392	-0.3105442216507464	-0.186409627089593	-0.01784597214682318	1.342089254838731	1.34208925443391	-0.5185815624873932	-0.5595301871629766	0.5920446320019319	0.1993557509047271	-0.1925686543086836	0.501545179861792	0.501545179865075	-0.03874651332336668	-0.07519709905518103	0.8990478383287349	-0.2914118074507016	1.227019194152475	-0.08447162234612918	-0.5639409546921238	0.2225029951748483	3.451865150836284	1.986601147731874	2.11403302231501	10.99828419842512	10.99828419690833	1.735111325704489	-0.1240081552492953	-2.152483891308692	0.4017980665161536	0.1641486066607499	4.655479824352275	4.655479821973987	0.6728732271746547	-5.360015305043838
15.41999255999658	0.01574838574358721	0.1825459770859786	-0.0418707004974499	2.410547309237613	1.002356206698608	0.9840314698099806	-0.2857637207715522	-0.1736890159941762	-0.005917743863017202	1.414425425016546	1.414425424607024	-0.5056836949173171	-0.5580514488176577	0.578964672650174	0.202880450344345	-0.189345298478363	0.5341441481050393	0.5341441480987235	-0.0319404300353406	-0.1126241821652417	0.5191039114011999	-0.2745186434730216	1.472402078481573	-0.1086364095379688	-0.6146451526013732	0.1938744804602544	3.995037534108714	1.804865398972539	1.475517899371319	10.70232188377031	10.70232188404755	2.12716866284794	0.5358810463562353	-1.764454049283474	0.6638786907727723	0.8052221738611458	5.111447467603359	5.111447467557423	1.381710300337376	-5.82265617702785
15.42665921999658	0.01788229111135292	0.1808641230006709	-0.03137574634335689	2.409725647931856	0.9981134183245427	0.9852155690177237	-0.2571268013765126	-0.1626410989187636	0.002024537754159581	1.484778057649283	1.484778057252182	-0.4903558436206256	-0.5528068719318064	0.5685689216244294	0.2082855471932928	-0.1818574114272545	0.5695184884951751	0.5695184885000164	-0.02019773321974787	-0.1522189154391057	0.1199399976482395	-0.2256706099208564	1.666984799066888	-0.1387884324091829	-0.6564415819786333	0.1609550143047551	4.605515354648409	1.490171990825516	0.9251044604234566	10.4022065317585	10.40220653561567	2.458082576412059	1.006449153955924	-1.354120608833599	0.9609048612883914	1.43519645928961	5.486462618118733	5.486462621400527	2.147055430581387	-6.009687530289528
15.43332587999658	0.01736232498777719	0.1795798272627928	-0.01977026713251519	2.408685829395255	0.9936305146357014	0.9861763829968255	-0.224260500587812	-0.1540331925947731	0.006686924886142928	1.553091555683404	1.553091555331322	-0.4731150459865333	-0.5450303429034591	0.560858453217591	0.2156984255522867	-0.1703373599555611	0.6070869737137483	0.6070869737470214	-0.003282632238361654	-0.1921475231237871	-0.2725487906622281	-0.1576486519025764	1.805038654896265	-0.1738608318062451	-0.6861629403521939	0.1275094379592898	5.259146621082524	1.079811711322182	0.4955876964209722	10.0884980943674	10.08849810445466	2.696835188391246	1.298146580524171	-0.9670185387647259	1.260523577431668	2.007941914738298	5.766802996595204	5.766803001392216	2.926051588327849	-5.924619314366373
15.43999253999658	0.01432353454364021	0.1787710062647822	-0.00743577175373046	2.407399970454088	0.9889979028672853	0.9869224166443771	-0.1869777168695134	-0.148357894305361	0.008936676539731727	1.619228655395251	1.619228655137091	-0.4546448177609227	-0.5358514785014721	0.555512689485728	0.2250214345966632	-0.1552915057570486	0.6461551118469623	0.6461551119093303	0.01874855442405987	-0.2306480721357907	-0.6312504218574889	-0.08564456451174962	1.886020505826651	-0.2123146981326364	-0.7009143598238994	0.09706875615125905	5.924917320952741	0.61809363147345	0.2024438548789085	9.746543544544286	9.746543562805734	2.825056242327247	1.431086965321304	-0.6530344637177141	1.528214327838668	2.488189628944177	5.932771894137014	5.932771897619556	3.674701592104423	-5.585444933144274
15.44665919999657	0.00907714264935588	0.1784124033710019	0.005258916723433822	2.405851500047806	0.9843233375563825	0.9874838618311523	-0.1453103688217094	-0.1458031101519619	0.009687282884965124	1.682944214334247	1.682944214224938	-0.4357021994631085	-0.5262448042483608	0.5518826979069177	0.2359302641690076	-0.1374148354302571	0.6858879443255387	0.685887944400827	0.04555521333587304	-0.2661245208928767	-0.9309509709215396	-0.02505039968173441	1.914146006255337	-0.2523262372394742	-0.6984459744946037	0.07255118881849021	6.568815132548993	0.1512474947664518	0.04431243663548252	9.359086757051033	9.359086783147459	2.83923547370794	1.431090712924208	-0.4596308369592431	1.731132481896319	2.854951164369365	5.962668325529512	5.962668325753419	4.352442356453928	-5.023657641076547
15.45332585999657	0.002087624628568826	0.1783813573993449	0.01798599526629923	2.404036465511279	0.9797265074444275	0.9879074876723998	-0.09951580986807346	-0.1462563647682281	0.009793120429557782	1.743876932060234	1.743876932142975	-0.4170177604085422	-0.5170025607338747	0.5490299820146221	0.2478973011331055	-0.1174924231191156	0.7253118659629172	0.7253118660287882	0.07654887336213165	-0.2972295684922425	-1.15135973912786	0.01062320169375026	1.89727049385511	-0.2919601413458381	-0.6774737327540297	0.05597285700096176	7.157878080592932	-0.277648078117422	0.005347984975605834	8.908977302009703	8.90897733280528	2.750615150634894	1.32658256192206	-0.4251725268741179	1.841678487016086	3.102038337664625	5.837358536331864	5.837358533545646	4.926032513927814	-4.281882685263513
15.45999251999657	-0.006068770741403959	0.1784761263338245	0.03047779335442035	2.401963788824536	0.9753317988193413	0.9882499946597127	-0.05005735688284019	-0.1493408889372924	0.009964901054012277	1.801558502771024	1.801558503061357	-0.3992037428044049	-0.5087251858282986	0.5458062618979711	0.2602365767550107	-0.09630649223366879	0.7633461823653058	0.7633461824098913	0.1109514064105669	-0.3229275959149288	-1.279578445637987	0.01138452650880791	1.845285305629635	-0.3293094509245221	-0.6378981293265075	0.04828055865441869	7.663821097976423	-0.6330122008090376	0.0590238308458845	8.381640447121345	8.381640477759875	2.582912496293183	1.146378317537519	-0.5734738990997167	1.840336829496856	3.235963697797855	5.544469555846632	5.544469552925841	5.372106329874898	-3.410333010024753
15.46665917999656	-0.01475899464721362	0.1784429720538258	0.04253435844683089	2.399654715814989	0.9712600505768412	0.9885707157567168	0.002436598848479631	-0.1544765026135897	0.01071380636846025	1.855437672813076	1.855437673294522	-0.3826833402434543	-0.5018239230838148	0.5409630061744534	0.2721641927534753	-0.07456403993450847	0.7988590132122468	0.7988590132498484	0.1478646870398235	-0.3425313710001093	-1.311624695398316	-0.02827724993131865	1.768311792984076	-0.3625982014434468	-0.5808830647274525	0.0493247781752321	8.065770155590798	-0.8897663620961795	0.1728332366047647	7.767040318706917	7.767040344848056	2.368357384034537	0.918230787515748	-0.910444661215023	1.71743410017535	3.272035868762229	5.08138657992008	5.081386581600459	5.678021475366377	-2.462587660596983
15.47332583999656	-0.02335445312666078	0.1780070713804932	0.05401910421314807	2.397141689877931	0.9676203062317127	0.9889246142533608	0.05722790730025195	-0.1609548863030259	0.01232822154136487	1.904915155171499	1.90491515580646	-0.3676502284856792	-0.4965312293334552	0.5332748564950412	0.2828662787032518	-0.05285358952818886	0.8307377156640818	0.83073771574157	0.1863399584564564	-0.3557103334777644	-1.252768393269567	-0.1092120218868389	1.67496951887303	-0.3902528343415601	-0.5087767816601395	0.05797442922892965	8.351827274176435	-1.034605764331133	0.3132603863822198	7.060950053971755	7.06095007387055	2.142691888402767	0.6678929310250072	-1.423319250648907	1.473624761849978	3.229709109435634	4.456561081942263	4.456561092869084	5.840938031531834	-1.491419906096793
15.47999249999656	-0.03129027864476808	0.1769021156242905	0.06484386903968785	2.394466832024781	0.9645026184952024	0.9893564735573437	0.1135301148289656	-0.1680172959980797	0.01488266400380547	1.949384386330069	1.949384387080026	-0.3540629315493101	-0.4929166252198969	0.5216592582970582	0.2915659789869428	-0.03163242990610596	0.8579619628109788	0.8579619629994946	0.2254357456939551	-0.3624733396018015	-1.116592573719415	-0.2281579350209813	1.570974206218712	-0.4109497039161102	-0.4248766829438005	0.07235461093118541	8.519323295918454	-1.065487021121414	0.4503516290992318	6.265421647913318	6.265421662957912	1.939846403819864	0.4183678655414214	-2.08255576336527	1.11914500319938	3.128256829228223	3.689007908405002	3.689007930882716	5.865368388762738	-0.5454107535118504
15.48665915999655	-0.03811401574888892	0.1748944289873005	0.07494649275805029	2.391680180942745	0.961972902022781	0.9898969686497505	0.170566740684134	-0.1749238343848976	0.01827384831332236	1.988272589056184	1.988272589898857	-0.3416735476962723	-0.4909075962491356	0.5052749322419691	0.297582200032972	-0.01123906598042172	0.879667917024072	0.8796679173982116	0.2642557235869578	-0.3631326411196695	-0.9227703575006416	-0.3787867473375336	1.458345141694011	-0.4236389029741369	-0.3330547513394581	0.09016412112081643	8.573590766512522	-0.9896996023427241	0.5611643673778149	5.388405586742921	5.388405600047511	1.787093723075614	0.1891295870940384	-2.846226018245571	0.6721599329344639	2.983655622705097	2.806195838058485	2.806195870722136	5.759721671860917	0.3332774442561242
15.49332581999655	-0.04351614832219777	0.1717992326604617	0.08426595049832952	2.388837864584611	0.9600706075120327	0.9905609487585403	0.2276168937519023	-0.1810068215016379	0.02227423554185561	2.021076615307815	2.021076616240493	-0.3300849973294823	-0.490315703538542	0.4835847302143286	0.3003755003990405	0.008079050189566072	0.8951943218068872	0.8951943224200882	0.3019621709278698	-0.3582565693455781	-0.6939751068411262	-0.5529818604957271	1.335505801645259	-0.4275406806058843	-0.2373006162817021	0.1090101009116331	8.525513740741179	-0.8211251555010813	0.6314915774315331	4.442594677792387	4.4425946916824	1.701451445691632	-0.004631784508011541	-3.666089867156592	0.1566158594336646	2.807148659688079	1.840842419916682	1.84084245794329	5.532563915395531	1.110127865579525
15.49999247999655	-0.04734016194042308	0.1674879396684658	0.0927215642220789	2.386000381292619	0.9588094085042764	0.9913478288264771	0.2840435218513146	-0.185704678488097	0.0265907245056021	2.047389220709197	2.04738922173601	-0.3188265731894561	-0.4908670967348486	0.45637706156512	0.2995786458059188	0.02613368225143346	0.9041056162541267	0.9041056171199331	0.3377656684253924	-0.3486160858538502	-0.4530421916679296	-0.7422451441841764	1.19840156414209	-0.4221173853809247	-0.1412953677546855	0.1266968586881682	8.388997782549836	-0.5772052883520929	0.6556978892140288	3.443767787469469	3.44376780146419	1.687842874822374	-0.1525479719197644	-4.493627202370392	-0.4001982404031924	2.605388709659275	0.8273572509344436	0.8273572874763301	5.189350967299424	1.75896325753839
15.50665913999654	-0.04957700074809064	0.1618858738808515	0.1002024756302561	2.383231126302888	0.9581803618658722	0.9922436383762183	0.3393072528187724	-0.1885758374559875	0.03091673770976075	2.066913520807707	2.066913521919277	-0.307435445786984	-0.492235703185252	0.4237514260126753	0.2950101850134534	0.04276875211000326	0.90619217024612	0.9061921713306956	0.3708964106849876	-0.3351273791516441	-0.2211450216193839	-0.9391281024649387	1.042379288777107	-0.4070295715641031	-0.04810187472583746	0.141431240313476	8.179200195669351	-0.2760587005194099	0.6349867128095193	2.408941666316368	2.408941677014938	1.739136081219283	-0.2493533849663628	-5.284673723356896	-0.9702803581272885	2.381613337777259	-0.2013686792881041	-0.2013686513158662	4.730270029362998	2.262477593647264
15.51332579999654	-0.0503497064944609	0.1549612162856302	0.1065704163269488	2.380595224043754	0.9581567367048316	0.9932241561042888	0.392969914573663	-0.1892952476088658	0.03496929344423477	2.079465076463713	2.079465077623047	-0.2955322461483296	-0.4940778716082662	0.3860777519269702	0.286670497363323	0.05784241570939885	0.9014515973943071	0.901451598619887	0.4005660919981635	-0.3187910346774094	-0.01653753905857704	-1.138364373117932	0.8641636821829988	-0.3820922569672255	0.04003041568877223	0.1519461726853867	7.911071138940286	0.06578176823631883	0.5747668461815202	1.35454447007865	1.354544473009194	1.837818046613052	-0.2950696814684243	-6.002730169213035	-1.527489918180971	2.137065260714508	-1.216369262414846	-1.216369248918631	4.14962565003296	2.612743630020129
15.51999245999654	-0.04989006610719178	0.146708455575134	0.1116737980564398	2.378158550973345	0.9586997704575987	0.9942586647184757	0.4446883045514077	-0.1876388730123439	0.03850816516074878	2.084962772351572	2.084962773495158	-0.2828812389361454	-0.4960680957070667	0.3439374458782088	0.2747217886438827	0.07121693487844674	0.8900576370399468	0.8900576382958932	0.4259315661678731	-0.3006277201479103	0.1465696865012467	-1.337336880911162	0.6631656122121105	-0.3472700182950523	0.1217408920580226	0.1575676219944649	7.597964656723129	0.4346719706190396	0.4820915256121292	0.294961074834882	0.2949610668721991	1.958864950581405	-0.2951198917947005	-6.621070249627358	-2.049733287241245	1.871767438095588	-2.193876069904688	-2.193876074725904	3.437009302977678	2.811759508678883
15.52665911999654	-0.04850949377760413	0.1371315590710325	0.1153669610210606	2.375986523437851	0.9597643506960779	0.9953140151941908	0.4942013634951615	-0.183463157917155	0.04134098457860841	2.083412644276765	2.08341264532928	-0.2694286516258013	-0.4979344912506515	0.2980564048278441	0.2594558168014647	0.08274973319846685	0.8723249573966101	0.8723249585551979	0.4460723062661247	-0.2816101951554012	0.2584861864663627	-1.535676001267541	0.4416968007455655	-0.3027582358502648	0.1964491752326536	0.1582407541409271	7.251238090060999	0.8200460260768341	0.3641249994773901	-0.7580574408019078	-0.7580574599491524	2.073352981142582	-0.2600716993615547	-7.122899239489891	-2.520389160462923	1.58406870775898	-3.115260486606064	-3.115260510955098	2.580231986004209	2.871962054659742
15.53332577999653	-0.0465704917329216	0.1262327897631227	0.1175275119207196	2.374142036426274	0.9613032942954787	0.9963586947201156	0.5413199978388321	-0.1766871308983773	0.04332258811447084	2.07489117750621	2.074891178400374	-0.2553156126971631	-0.4994902211676062	0.2492447182973288	0.2412558979516332	0.09227807102353014	0.8486783845317075	0.8486783854667044	0.4599918965603466	-0.2625934383615052	0.313374074234976	-1.733990683581427	0.2042591407123964	-0.249149741560053	0.2640522908115756	0.1544998030114521	6.881428929287487	1.213441250829911	0.2279130131254223	-1.79499865483187	-1.794998682557295	2.152399062188592	-0.2046280252316524	-7.499250245944956	-2.928530575615317	1.269346857871781	-3.965838086449311	-3.965838128672536	1.569446972028665	2.8161322966619
15.53999243999653	-0.04446567720368993	0.1140120023564923	0.1180674903096219	2.372682205800717	0.9632692602013009	0.9973664189668042	0.5859281297284362	-0.1672842531369909	0.044355635309488	2.059533203014835	2.059533203707654	-0.240864824771935	-0.5006552302616004	0.1983554422312827	0.2205620098085329	0.09959578301679255	0.8196322336035742	0.8196322342084443	0.4666479063763371	-0.2442500301301133	0.3077705381276773	-1.932091183096168	-0.04348411258097527	-0.1876092646740873	0.3245460316660397	0.147352020002692	6.500212160415506	1.60664710817994	0.08083688098980443	-2.807733210174151	-2.80773324204742	2.17103143382908	-0.1457428610438148	-7.745627256664505	-3.267811491060142	0.9191641745830043	-4.733158920841152	-4.733158976803495	0.4013438650494741	2.675781795562001
15.54665909999653	-0.04260657075971338	0.100477492556582	0.1169381313724233	2.371654223944021	0.9656143928432723	0.9983186708759797	0.627994784198515	-0.1552872169958096	0.04439383456909653	2.037524825945029	2.037524826424463	-0.2265428111133605	-0.5014632012079517	0.1462649555172699	0.1978460994770413	0.104429074354655	0.7857807118750217	0.7857807120766662	0.4650073979949156	-0.2270222974078685	0.2393481808152707	-2.127436902457637	-0.2955549380384305	-0.1199492362803091	0.3777520862791662	0.1380846023097305	6.121451414811173	1.9898574533112	-0.06919972199355592	-3.788976874506073	-3.788976905969397	2.111580909742105	-0.1001480320748491	-7.859207875973336	-3.534700465549939	0.521914500823882	-5.405501356144401	-5.405501420109518	-0.9174232631470216	2.487808956431227
15.55332575999652	-0.04141652478214401	0.0856644407969767	0.1141297934216964	2.371091220124432	0.9682888834089868	0.999205867249164	0.6675858518731873	-0.1408020206104079	0.04344390035667707	2.009097534351816	2.009097534632225	-0.2129021368685581	-0.5020513822878306	0.09386540928528547	0.1735981133521429	0.106421675253927	0.7477962973328548	0.7477962970993122	0.4541224548207624	-0.2111002857448017	0.1070487606271243	-2.314488197279823	-0.5462897999050573	-0.04855030386580995	0.4232763002623565	0.1280592162695081	5.759914457181321	2.350878271107136	-0.2143598594434315	-4.732492061812875	-4.732492089683373	1.966249253561855	-0.08175844729108199	-7.838183650583732	-3.727201472879486	0.06489085530301754	-5.971030333038758	-5.971030398525548	-2.367627681031248	2.290275734378633
15.55999241999652	-0.04131775556207	0.06965407821100973	0.109668081389824	2.371009105009105	0.9712399850627358	1.00002729735114	0.7048598208166117	-0.1240225247906669	0.04156141891754132	1.974518952793162	1.974518952904138	-0.200509987926026	-0.5026335899337853	0.04205397984940806	0.148317195568696	0.1051368277785855	0.706431233774892	0.7064312331178608	0.4332204754767707	-0.196428542616886	-0.08743367769946472	-2.485110266069129	-0.7908464905236611	0.02384270096918503	0.460666617482099	0.1185549397770558	5.428004043608298	2.675743614935796	-0.348031124446028	-5.633807611018764	-5.633807633847912	1.738591701137016	-0.0992474411673565	-7.683186352143707	-3.844573779749721	-0.4628145061460528	-6.41768236114017	-6.417682421663653	-3.915698888003721	2.118033745961421
15.56665907999652	-0.04270781215804989	0.05258755552356781	0.1036075071741288	2.371404956212801	0.974412307667827	1.000790205828984	0.7400409080645881	-0.1052376949975452	0.03883855694547853	1.934078749131401	1.934078749108584	-0.1898711891024961	-0.5034580437128471	-0.008289605852111057	0.1225025072953124	0.1000804963789952	0.6625179939326349	0.6625179929045406	0.401802063489323	-0.182742473121648	-0.3382420694334897	-2.629681375622076	-1.025379542644602	0.09436423874759285	0.4896096484060539	0.1106657048526903	5.132642208081154	2.950150388044309	-0.4660356909269134	-6.490849773901085	-6.490849791135228	1.443664097119988	-0.153953725676831	-7.399042012948849	-3.887612130750627	-1.066869113354566	-6.733540911312922	-6.733540961316173	-5.513329075118941	1.99821374625579
15.57332573999651	-0.04593010733210987	0.03467123015374387	0.0960257956642239	2.372256963157358	0.9777491860105301	1.001508327626025	0.773376687192326	-0.08482864490130804	0.03538451954285229	1.88807195101021	1.888071950892473	-0.1813551116492581	-0.5047531112079175	-0.05633426523540273	0.0966417878574119	0.09074844334240834	0.6169662740969031	0.6169662727812533	0.3597354490771081	-0.1696344842443876	-0.6350193496009165	-2.738510425910843	-1.246667020526027	0.1602465432368545	0.5100483381122066	0.1052376092090315	4.873809541192794	3.161009567081456	-0.5675649057225693	-7.304053155259879	-7.304053166426269	1.106709164150952	-0.2384105587213504	-6.995572838773516	-3.859014638352083	-1.744095026405279	-6.907480489699505	-6.907480525559849	-7.098942500313359	1.94594758463708
15.57999239999651	-0.05124487249976246	0.01617205242469982	0.08702202570591586	2.373525709126291	0.9811945707711502	1.002200154155801	0.8050908094205671	-0.06325548252517874	0.03130107771809827	1.836783416816312	1.836783416644903	-0.1751359087286648	-0.5066663958042822	-0.1013315999736634	0.07119706118345108	0.0766953217751363	0.5707549871099082	0.5707549856062674	0.3073349471043242	-0.1566446343185753	-0.9632344956988875	-2.803369220067507	-1.451400475277703	0.2190042452904859	0.5222291879385186	0.10285358489677	4.644379589263825	3.297968234234002	-0.6557054780577264	-8.075922050668115	-8.075922055673038	0.7605130062295533	-0.335876711967304	-6.48778392229723	-3.763910355205002	-2.479660115878259	-6.930019420135885	-6.930019440675197	-8.600967279166694	1.961520578162125
15.58665905999651	-0.05880257836216123	-0.002597262223344677	0.07671955447306754	2.375156605961231	0.9846951202639813	1.002887273603188	0.8353367148270681	-0.04103397913407782	0.026656256786019	1.780476710938003	1.780476710750645	-0.1711539819887062	-0.5092047388801375	-0.1426509363807431	0.04658591682408313	0.05761704714872064	0.5249180366374852	0.5249180350458509	0.245412535397782	-0.1433623348819015	-1.304545359797217	-2.818992008484281	-1.635504990690629	0.2685964419751446	0.5267189564337716	0.1038686787196066	4.430515917299025	3.354920672269268	-0.7374482183330239	-8.810165705676669	-8.810165705841973	0.4417385663783915	-0.4210956910499037	-5.8960114017201	-3.61064144166407	-3.246009821362951	-6.794310083351716	-6.794310089495845	-9.942568187310638	2.030015591249951
15.59332571999651	-0.0686197348085993	-0.02130228135990165	0.06527293985935799	2.377083322730095	0.9882023245273833	1.003593038509281	0.8641555003012662	-0.01870293163924769	0.02145988255766396	1.719389928952755	1.719389928771701	-0.1691042032766981	-0.5121833607874363	-0.1798150301451625	0.02315749242285161	0.03343357305870991	0.4805235268856899	0.4805235252952844	0.1752939937573852	-0.129521200738209	-1.637189460981669	-2.784292227854626	-1.79362476506666	0.3075598797049301	0.5243962720957188	0.108465988992057	4.212552204564771	3.331219063839963	-0.8231164949896442	-9.510488155161067	-9.510488153814801	0.1866404052750187	-0.4622560692572282	-5.245906692410629	-3.411490177903557	-4.003799610556207	-6.497080549774744	-6.497080543679957	-11.04748481956302	2.123696985542149
15.5999923799965	-0.08055834126328067	-0.0396171977373282	0.05287758275267613	2.379231943487318	0.9916744498198284	1.004341569476441	0.8914420707741132	0.003214443351776749	0.01564503850650843	1.653740567146312	1.653740566966255	-0.1684534875586623	-0.5151916126427123	-0.2125337086672376	0.001165293255674943	0.004359421945044119	0.4386474978961291	0.438647496379706	0.09879354716207582	-0.1150701736361414	-1.936763077546419	-2.70298044512797	-1.918846357285334	0.3350902258961518	0.5164026072569192	0.1166972846770876	3.966664103863258	3.232204324369043	-0.9251444792459493	-10.17909799388645	-10.17909799576073	0.02662062751505125	-0.4239841760624202	-4.567733301424868	-3.1828049113633	-4.704574552845913	-6.03929909947142	-6.039299083856187	-11.84656512330717	2.206595894718071
15.6066590399965	-0.0943131167105173	-0.05725646013710361	0.0397798255621087	2.381525432437211	0.9950779571492883	1.005156937315087	0.916926225067203	0.02424983884574184	0.009060226323333649	1.583740989869528	1.583740989653525	-0.1684873262310321	-0.5175816815556049	-0.2407289077207847	-0.0192573147475199	-0.02904831894851027	0.4003446383524163	0.4003446369633631	0.01814404241482004	-0.1002098235405948	-2.177842094784828	-2.583293445287818	-2.002882240539979	0.351050823267642	0.5040304078583264	0.1284956370057633	3.667730364613875	3.068880804648806	-1.056070622920158	-10.81504247265437	-10.81504248216063	-0.01594845688174572	-0.2712167930454034	-3.894413725662772	-2.943999931863607	-5.294770169043826	-5.426402507687193	-5.426402485627992	-12.28447537636367	2.240151685318189
15.6133256999965	-0.1094128201772133	-0.07400125002406426	0.026283781037917	2.383887905222731	0.9983879598718489	1.006062334526669	0.9401768547081224	0.04402409738577812	0.001477371292683602	1.509625067991435	1.509625067679879	-0.168382118121185	-0.5184856829719143	-0.2645421007227267	-0.03811048949087058	-0.06587160082433405	0.3666189138839527	0.3666189126544697	-0.06411642228628527	-0.08539095746575182	-2.33654735630179	-2.436726000797518	-2.036869614002224	0.3559074854469468	0.4885514929674068	0.1436591033639638	3.293321495743457	2.856719305967307	-1.225848845025124	-11.41256621652563	-11.41256623576726	0.06879180803008486	0.02618445274317038	-3.258263181389305	-2.715231702421466	-5.720492686729703	-4.668115989463571	-4.668115964171004	-12.32593268629288	2.188715273506166
15.61999235999649	-0.1252403455581605	-0.08971469262307562	0.01275115780416586	2.386248265520678	1.001587473916013	1.0070790254594	0.960634114559287	0.06227075271591607	-0.007381503383881103	1.431684822026304	1.431684821556374	-0.1672969909874269	-0.5168652971047655	-0.2843175622614142	-0.05552230920773027	-0.1048458815658469	0.3383962332123871	0.3383962321544323	-0.1452956635615306	-0.07127895892304696	-2.393469794187771	-2.275982577051846	-2.012620353037125	0.3506071917072887	0.4710380253046472	0.1617994891039672	2.827896210081315	2.613668765076164	-1.439067409773816	-11.95980968196576	-11.95980970978817	0.2759163134647903	0.4883492925351823	-2.687186804422673	-2.514137761360066	-5.932513185347133	-3.778058787468398	-3.778058761680828	-11.96067341146517	2.02427032503642
15.62665901999649	-0.1410712390949801	-0.1043420551740557	-0.0004078124577848072	2.388542912364795	1.004665625711833	1.008224838238021	0.9776669774783835	0.07884430238670008	-0.01780093471231548	1.350313659976647	1.350313659302362	-0.1644752142405785	-0.5115954269205917	-0.3005613842137493	-0.07172047137422823	-0.1444074176873753	0.316499962275528	0.316499961386231	-0.2227252318606777	-0.05868998272348145	-2.336169363736429	-2.112605624640486	-1.92398895746807	0.3364245339263279	0.4522358289610084	0.1822585961244929	2.266069932361603	2.357622851286243	-1.69284401500609	-12.43818289062629	-12.43818292338719	0.585186998187575	1.120396051215426	-2.201341595603001	-2.352431281363471	-5.891070321245774	-2.77329841220356	-2.773298387557941	-11.2063551269981	1.730110867845462
15.63332567999649	-0.1561264493123719	-0.1178954227478647	-0.01275230342498839	2.390717382550512	1.007615242407641	1.009512066973588	0.9906479110289143	0.09371098183676109	-0.03001838790615323	1.266050822332546	1.26605082143554	-0.1593422954543479	-0.501578566729457	-0.3138812140205962	-0.08698306022068927	-0.1827712251345686	0.3016295382940485	0.301629537563864	-0.2939488389741485	-0.04850714743388418	-2.160941901087125	-1.9547678266348	-1.768139145320265	0.3147999773947447	0.4325037810963784	0.2040224596071087	1.614464355308119	2.103792609843303	-1.97589557733762	-12.82266060085294	-12.82266063422425	0.9626111542052294	1.908390566660027	-1.810713897596544	-2.233146339711997	-5.570231815016191	-1.673855112280302	-1.67385508916291	-10.10875280918426	1.303083868926964
15.63999233999648	-0.1696344617985388	-0.1304254611590629	-0.02383660371133421	2.392726961123892	1.010430210301504	1.010944926819564	0.9990350960307325	0.1069232371382823	-0.04416895231879912	1.179620388989728	1.179620387878269	-0.1515865575129475	-0.4858800367966176	-0.3249131623835754	-0.1015749608709333	-0.2180360223373451	0.2943427563294566	0.2943427557497745	-0.3569020475817284	-0.04158758031436553	-1.873856744826432	-1.805680238148161	-1.546588882897162	0.2871966760994445	0.4118025786380142	0.2256803717935956	0.8921120298633904	1.862532958323357	-2.268989136922045	-13.08313236340285	-13.08313239390487	1.364111363405027	2.817291379112402	-1.513724701783453	-2.149186786242975	-4.961587565901298	-0.5020874227246486	-0.502087400526811	-8.738916250604971	0.7540810792379644
15.64665899999648	-0.1808972285957806	-0.1419858457159921	-0.03324153240277573	2.394536473316348	1.013102920408899	1.012516980329737	1.002451921111406	0.1185825650612719	-0.06023797674472015	1.091957653389541	1.091957652090335	-0.1412090994767455	-0.4638678961301898	-0.3342439136233857	-0.1156805211534025	-0.2483108807592388	0.2950425739215992	0.2950425734900384	-0.4100629048194907	-0.03867133923148536	-1.490774433578977	-1.663052969079109	-1.265834473947617	0.2550019761325948	0.3897349880108358	0.245460004453827	0.1291610029653365	1.638090657575852	-2.546887007964686	-13.18683793392011	-13.18683795952196	1.74095042888367	3.791709394023755	-1.297292100778464	-2.083733272193741	-4.077026041935489	0.7180401479154368	0.7180401703604044	-7.187339119529142	0.1070892626171052
15.65332565999648	-0.189351432447376	-0.1525985601015541	-0.04060792613764198	2.396119622597682	1.015622203690709	1.014209068307174	1.000751049854915	0.1287979397138479	-0.07803165857509377	1.004215884308247	1.004215882857187	-0.1285335788032349	-0.4353370452253093	-0.3423398208317852	-0.129346119509178	-0.2718565611726137	0.303968973352315	0.3039689730740155	-0.4525549957835751	-0.0402996691779606	-1.035872407640595	-1.51992579651879	-0.9373170832750432	0.2194917960017636	0.3656538528358689	0.2613425479605631	-0.6364874740245553	1.428563128153994	-2.781756737013243	-13.10178331923193	-13.10178333911983	2.046221222243586	4.759929739889731	-1.138930667780779	-2.012822464240535	-2.950307982775604	1.961724099103742	1.961724122707543	-5.555642198400382	-0.6025792790908793
15.65999231999647	-0.1946147864513987	-0.1622292654781552	-0.04566745866405329	2.39745831749364	1.017972183219344	1.015988248471851	0.9940496770622634	0.1376482093225624	-0.09717416142111494	0.9177478387158735	0.9177478371520162	-0.1141718017293951	-0.400595623121539	-0.3494969105281883	-0.14244661633834	-0.2872321647206824	0.3211957189570809	0.3211957188392003	-0.4841894793568038	-0.04674725674622532	-0.5386969828429584	-1.366802978063417	-0.5766655517253578	0.1818620846848124	0.3388225273925482	0.2712479518350374	-1.364335375460847	1.227112686253174	-2.947600570594717	-12.80082759841222	-12.80082761233001	2.241430704624694	5.641139634658645	-1.010835996517809	-1.90982393965425	-1.636993106043248	3.204001804094414	3.204001828366616	-3.946797507187221	-1.330759487441609
15.66665897999647	-0.1965095240789383	-0.1707797588466027	-0.04826635606915307	2.398542394374859	1.020132225564483	1.017808166520356	0.9827273000854254	0.1451560991782907	-0.1171351888305586	0.834059243945711	0.8340592423098087	-0.09894836865537854	-0.360494405377727	-0.3558223859292878	-0.15468542495025	-0.2934340394647064	0.3466310255251578	0.3466310255648061	-0.5054409400605646	-0.05797444674151161	-0.03041118953899937	-1.194516139473752	-0.2023556983435863	0.1433117498999998	0.3085740553401231	0.2732766227469268	-2.01715763475185	1.024163800918658	-3.02478338110344	-12.26589930941836	-12.26589931702421	2.301995504424552	6.355110753797368	-0.8850527199196395	-1.750845591340018	-0.2120787385214151	4.42023115777438	4.420231180181998	-2.455292103914831	-2.028026854404833
15.67332563999647	-0.1950604774775579	-0.1780997262307685	-0.04837880095226971	2.399369971821225	1.022077804257002	1.019611163566572	0.9673855200342847	0.1512788089774015	-0.1372851004855237	0.7547355796436898	0.7547355779803124	-0.08379548532698204	-0.31638742063597	-0.3612508723028836	-0.1656302490680478	-0.290009824858719	0.3800206790234085	0.3800206791955192	-0.5173612766619531	-0.07360791323406297	0.4599606215740785	-0.9970245615594193	0.1660085201405275	0.1051422446613992	0.2744200872835112	0.2659830764585892	-2.566338951533165	0.8100980228799799	-3.003603045739114	-11.4916793483106	-11.49167934874521	2.220539843483458	6.832849291407809	-0.7385426643949868	-1.519831517029896	1.23513742351188	5.586357925243473	5.586357941900895	-1.15857162442978	-2.644624612636164
15.67999229999647	-0.1904697850551086	-0.1840151348727177	-0.04610820400088823	2.399948402635619	1.023781866685132	1.021332201975217	0.9487767070571832	0.1559168631195028	-0.156968197170231	0.681347815746113	0.6813478141079893	-0.06963510820928201	-0.2700239041233169	-0.3655912667019924	-0.1747788572603869	-0.2771291390274683	0.4209526037279512	0.4209526039819572	-0.5214436289381111	-0.09295767481203181	0.9087049767537294	-0.7735222820231701	0.509575975794354	0.06882984194827863	0.2360924533319155	0.2486395907933063	-2.995749900811625	0.577960108101746	-2.886053049701431	-10.48814085179762	-10.48814084345975	2.007339194981456	7.026178447132414	-0.5571479400644613	-1.212333371753217	2.60884325765994	6.679118729617666	6.679118737106454	-0.1107366309746451	-3.136330561160932
15.68665895999646	-0.1830737732876331	-0.1883671565602821	-0.04167616523378138	2.400295499059491	1.025216258235457	1.022904373424729	0.9277136360591191	0.1589398427096275	-0.1755801015957487	0.6153463655954057	0.6153463640479604	-0.05726788853060701	-0.2233859281913638	-0.3685939702398206	-0.181643513551209	-0.2555956675318124	0.4688632366457666	0.4688632369152235	-0.5194535415814845	-0.1150742322461572	1.299513996780113	-0.5294343764060159	0.8120057730551988	0.03602918265800457	0.1935199587724631	0.2214386933576565	-3.303480744659104	0.3257474430745996	-2.685226440586284	-9.281479696971669	-9.281479677753	1.687888213371386	6.91412995079621	-0.3376191623206098	-0.8372382302165136	3.81631784188562	7.676421008261772	7.676421005481745	0.6609121082241807	-3.470479047472168
15.69332561999646	-0.173290604608807	-0.1910533176914656	-0.03540105582411535	2.400440468733069	1.026352810228746	1.024265419265836	0.9049759628054328	0.1602248551904787	-0.1926329006430239	0.5579551202531704	0.5579551188750235	-0.0472863420468761	-0.1784983424946323	-0.3700236111897258	-0.1858388580124063	-0.2267928032478665	0.5230476073342238	0.5230476075556112	-0.5132473309440868	-0.1388436777723387	1.624120988292454	-0.2760696759323481	1.060772664129597	0.008479991882806182	0.1467543677944849	0.1855874070188421	-3.501025437667649	0.05787570980444406	-2.422284716536367	-7.9131199253671	-7.913119893638404	1.298221781641976	6.504725944664987	-0.0871949378288326	-0.4160403296466672	4.778002034755607	8.558097573818893	8.55809756274142	1.156255563695997	-3.631148459945095
15.69999227999646	-0.1615687377382182	-0.192061900242768	-0.02767007249979303	2.400423888739823	1.027163845790031	1.02536442095824	0.8812304659669999	0.1597010004550531	-0.2077936558204127	0.5100789801286917	0.5100789790038852	-0.0400235172630886	-0.1372427394456005	-0.3697209418821348	-0.1871567720726436	-0.1925651402307755	0.582675898955151	0.5826758990863251	-0.5045977026193712	-0.1631114084452057	1.881452614421787	-0.02898059653408021	1.247799320664588	-0.01218607893415827	0.09587610797399573	0.1432602563348865	-3.610038661660727	-0.2145377641423229	-2.121682867770987	-6.43665521829519	-6.436655174267316	0.8791753928563457	5.832103678922276	0.1791467651252026	0.02027395903207694	5.436389833993847	9.307091341517427	9.307091326304159	1.399866763015373	-3.622358589469945
15.70665893999645	-0.148345134428315	-0.1914920901916834	-0.01890944104470018	2.400296132401816	1.02762209542747	1.026167677604964	0.856979297092517	0.1573912431757855	-0.2208888939019558	0.4722383392609563	0.4722383384636376	-0.03553954574571081	-0.1012030753580005	-0.367640536933154	-0.1856142036751337	-0.1550491347619632	0.6468190557086824	0.6468190557366942	-0.4950440982431236	-0.1868175515621424	2.075625376880337	0.194582763795996	1.369388921904244	-0.02470885217325715	0.04091723998195045	0.09740415459157975	-3.657317285523921	-0.4747336600514006	-1.805982417906649	-4.912880979884477	-4.912880926327873	0.4709807134359307	4.950144689959692	0.4430461838665681	0.4360679813981345	5.762145122120859	9.910949606013169	9.910949590846295	1.436190230487149	-3.468252251648728
15.71332559999645	-0.1340193639915476	-0.1895558566709523	-0.009557161695224591	2.400113958770979	1.027700235416761	1.026662862958185	0.8325449844977745	0.1534433128600547	-0.231876895510541	0.4445415135298374	0.4445415131086515	-0.03364005065837598	-0.07156127270395571	-0.3638568505865632	-0.1814659459981269	-0.1164756973905667	0.7144846273242088	0.7144846272576155	-0.4857810059871908	-0.2091221002252318	2.213265164862396	0.3784904462503827	1.425549102352156	-0.02847652490742469	-0.01817162819717967	0.05142556605466073	-3.668969652834815	-0.7024611751822301	-1.491557812047776	-3.403519830494675	-3.403519772058918	0.1092274710032579	3.924079464502247	0.6877183572530732	0.7965230010251865	5.756260704533133	10.363342097025	10.36334208387907	1.323099615868861	-3.209820294576164
15.71999225999645	-0.118946330127247	-0.1865620636325396	-4.190890413966555e-05	2.399935396891178	1.027370386790172	1.026860868172072	0.8080939320236011	0.1481443164415766	-0.2407967471949472	0.4267006227611933	0.426700622732162	-0.03391582784820796	-0.04905191300570123	-0.3585382069262145	-0.175182260324333	-0.07897304067490896	0.7846617601463564	0.784661759996514	-0.4775924335662231	-0.2294975685539852	2.300698216327414	0.5101406693787015	1.418853082456671	-0.0237493995944366	-0.08149927313938822	0.008820371997841137	-3.664889449793946	-0.8765987412796304	-1.186017363800475	-1.964646717042652	-1.964646658564276	-0.1774802404159773	2.82137516484556	0.9024441300320124	1.072527094518577	5.447830671619642	10.66522118225922	10.66522117000961	1.124629014593057	-2.89857145377504
15.72665891999644	-0.103446502447958	-0.1828873271279834	0.00922961927668183	2.399813484784719	1.026603946610971	1.026795169301305	0.7836926453660362	0.1419179995199807	-0.2477072839803878	0.4180892445083136	0.4180892448587042	-0.03579290675734459	-0.03397589359373652	-0.3518950480409256	-0.1673985952390312	-0.04439769659221306	0.8563716989055528	0.8563716986682182	-0.4708353078863233	-0.2477723914842853	2.341605889951224	0.5819747673080531	1.353096878707181	-0.01177119065714479	-0.1491572566366024	-0.02718852466299846	-3.654632394635842	-0.9776661363824581	-0.8878072744184197	-0.6409018380684871	-0.640901783206106	-0.3683433161508271	1.703456054482264	1.085670564743773	1.244036813990076	4.888003108399438	10.82526209854942	10.82526208393282	0.9036955535389217	-2.588333941886272
15.73332557999644	-0.08782877536714354	-0.1789402395945323	0.01787657732478253	2.399789758036132	1.025372081017302	1.026518960515028	0.7593843234274875	0.1353065507593335	-0.2526311030621747	0.4178334545216114	0.4178334552188388	-0.03858396735160652	-0.02626152735977811	-0.3441139061758172	-0.1588493678238524	-0.01421494373531082	0.9287180988706055	0.9287180985183036	-0.4654693680594303	-0.264117869026923	2.33565047734741	0.5919564527844443	1.232051685472255	0.005271525530947853	-0.2211009678501862	-0.05395077092561584	-3.635539120150368	-0.9899116812535793	-0.5880922519469114	0.5386072754006663	0.538607324259922	-0.4500282486122382	0.6200133589532254	1.246128781068503	1.301471750636799	4.141466884078239	10.85933809091439	10.85933807058424	0.7155380700408907	-2.326792045644374
15.73999223999644	-0.07241837845652443	-0.175125506013906	0.02554038386571121	2.39988854985621	1.023647096093014	1.026100621740493	0.7352691310409856	0.1289404968174337	-0.255517155257082	0.4249225853648032	0.424922586362467	-0.04153508430334699	-0.02555186429362333	-0.3352911428896924	-0.1502988279751769	0.01056031970945104	1.000930373994584	1.00093037348241	-0.461126690722629	-0.278982157717647	2.278359497721326	0.5431609995711406	1.05849953651971	0.02445047365770923	-0.2970089845694316	-0.06958389326583937	-3.593542325780931	-0.9027721470452679	-0.2742823690727774	1.562027486910625	1.562027527863291	-0.4157103319163633	-0.393126591580025	1.401794688421794	1.245255444678594	3.277118528703891	10.78896398985861	10.78896396213955	0.6024868133690517	-2.148297270202132
15.74665889999643	-0.05758128201368416	-0.1718128854221004	0.031876454616789	2.40011308773982	1.021404755363138	1.025618247083117	0.7115702070976307	0.1235009100261092	-0.2562294173148936	0.4383223889933109	0.4383223902320882	-0.04386580521233144	-0.03129522628123156	-0.3253800253993464	-0.1424797058557857	0.02936300987434498	1.072393714944277	1.072393714223908	-0.4572100129381169	-0.2929841491065089	2.162264955225425	0.4428147970216573	0.8338822085697539	0.04242422545365164	-0.3761436829829577	-0.0730652886437517	-3.506572591469564	-0.7117758215261178	0.06582940928480507	2.433740734921377	2.433740765951615	-0.2641256484121786	-1.313011599198149	1.577033914644909	1.084061743733844	2.359846026685029	10.63891577551973	10.63891574109308	0.5906491234366159	-2.069205872518089
15.75332555999643	-0.04373765627030875	-0.1693130886234931	0.03654738835150877	2.400444015816714	1.018627449697908	1.025153753209588	0.6886701478530144	0.1196759362634192	-0.254563095960151	0.4570727023844571	0.4570727037911844	-0.0448041264261901	-0.04282234432616668	-0.3141605410365703	-0.1360456015937676	0.04203223449979539	1.142661823475243	1.142661822510743	-0.4530054258769108	-0.3067872549632541	1.978972436045346	0.301245573590509	0.5591844496904318	0.05582435318647407	-0.4572396685264921	-0.06427776553455927	-3.349845083903683	-0.4194552519962458	0.44002953296262	3.170824283419893	3.170824302436046	0.000981465915873489	-2.126771111758947	1.798804792960078	0.8325892655004073	1.445530366482809	10.43452031031374	10.43452027218409	0.6889579683024549	-2.08660931737555
15.75999221999643	-0.03135967727703166	-0.1678600110240458	0.03922657714294513	2.400840490387636	1.015307949006802	1.024786711555667	0.667108817675072	0.1181101979960979	-0.2502857624899869	0.480355023379498	0.4803550248676783	-0.04361916646501628	-0.05940212117067392	-0.301235313349371	-0.1315376841140379	0.04874569428805808	1.211451815052895	1.211451813835406	-0.4477934650995911	-0.3209765253097708	1.721729621721379	0.1310498009405224	0.2370709797763269	0.06163301803947625	-0.5384431414665146	-0.04404615179965064	-3.10201911486182	-0.03652283209898662	0.8483840485819041	3.797700499506985	3.797700504657487	0.3710280091729687	-2.828107511565693	2.092695493454772	0.5095787243914205	0.5799467853283785	10.19906220026149	10.19906216347815	0.8905431889828287	-2.180521827973227
15.76665887999643	-0.02095112424140308	-0.1675980260442008	0.03961711448117953	2.401243671964743	1.011453387277103	1.024588075013431	0.6475392620799802	0.119347622679496	-0.2431952278837021	0.5075206873091923	0.5075206887819355	-0.03965320467523273	-0.08027254012792215	-0.2860523453652823	-0.1293630714844339	0.04995525158962857	1.278622532858908	1.278622531418157	-0.4409449122129049	-0.3359593521235772	1.388312171618039	-0.05364514866755446	-0.1259235217783642	0.05752179709559661	-0.6172996128341289	-0.01412000203272259	-2.751519420131265	0.4175403194653274	1.281693824747483	4.339809260635906	4.339809250752399	0.8326757888387504	-3.413353541472255	2.478780898399926	0.1362790592847645	-0.2002288994178345	9.951389328126686	9.951389299026186	1.175815587528926	-2.318537575120274
15.77332553999642	-0.01300706734156847	-0.1685747153787157	0.03748179366691948	2.401582296453662	1.007089215852419	1.024614366150282	0.6306427194637269	0.1237751746093285	-0.2331797747417348	0.5380762391000383	0.5380762404570758	-0.03235242474571101	-0.1046445582162343	-0.2679564847827872	-0.1297823485950809	0.04632956256855127	1.344137542496281	1.344137540904608	-0.4319924694634493	-0.3519015556017641	0.9840357626649154	-0.2381005382521938	-0.5183735124195699	0.04213142154403367	-0.6907749961234613	0.02295109786444037	-2.302316923585528	0.9154152872065896	1.722361133446957	4.817281843513115	4.817281818915113	1.368184168531579	-3.877455006723763	2.967212418470458	-0.2647805903985406	-0.8665571600377097	9.703742963798277	9.703742948545889	1.516507405262186	-2.461580829298508
15.77999219999642	-0.007955363344660146	-0.1707402117540015	0.03267544361942291	2.401779793333899	1.002262854345096	1.024903029801576	0.6170108762165077	0.1315775388269986	-0.2202649657905216	0.5716300030323495	0.5716300041831437	-0.021294049113394	-0.131682967519024	-0.246268401408353	-0.1329041559642805	0.03870023572201632	1.408015460758836	1.408015459124614	-0.420674007796319	-0.3687026620099724	0.5239829348863172	-0.4079780299772053	-0.9242167727261129	0.0152468078078236	-0.7553333936339557	0.06403472498093812	-1.777653740991024	1.424168270031218	2.147463058845192	5.239835814040283	5.239835777448705	1.956122863104605	-4.211420876336379	3.554669683966559	-0.6706425267049174	-1.398560862148077	9.460227716031339	9.460227719046983	1.88007139220565	-2.56980248536306
15.78665885999642	-0.006089415539381814	-0.1739526798410836	0.02517265807328344	2.401762089803049	0.997046495933201	1.025469410428055	0.6070150603877167	0.1427085302618552	-0.2046345752889459	0.6078118363981837	0.6078118372793759	-0.006207940879085442	-0.1604800478177941	-0.2203796154496024	-0.1386836118090203	0.02800959081891766	1.470273767977763	1.470273766430104	-0.4069467241042685	-0.3860093455176898	0.03325672320462317	-0.5501342037503515	-1.323804871449388	-0.02217602509174663	-0.8071183666903002	0.1056788356580943	-1.220047714563629	1.907921028426477	2.533264485828752	5.603979988163462	5.603979944972242	2.57230357279524	-4.402838987652474	4.223281869694731	-1.058220892867147	-1.783436995915289	9.216447549430148	9.216447572414644	2.233928128630403	-2.608035519588164
15.79332551999641	-0.007506442447583749	-0.1779883818178044	0.01508694326281554	2.401465108316011	0.9915383550900712	1.026305539093744	0.60068868310012	0.1568803905758277	-0.1866206772772637	0.646183741985957	0.6461837425772847	0.01300903503455365	-0.1900417146408495	-0.1898456565005024	-0.1469218295474777	0.01526082673405881	1.530874436168683	1.530874434837846	-0.3909746381915118	-0.4032619077775334	-0.4548286789835717	-0.6532500062875845	-1.695387580020811	-0.06812252178864314	-0.8422327653549504	0.1443877261764461	-0.6874427331848137	2.330523118152378	2.859643561252829	5.89311714777902	5.893117105321817	3.191078334372734	-4.438778756573837	4.94213409701953	-1.404456312313918	-2.015676328753049	8.960381875263723	8.960381916836203	2.549169676648863	-2.55012071547259
15.79999217999641	-0.01206312820038526	-0.1825561817789418	0.002678735086528893	2.400841176432307	0.9858618041429454	1.027380785246309	0.5976457714875871	0.1735709439324088	-0.1666690128144128	0.6861610042670406	0.6861610045993976	0.03628912534383261	-0.2192952324735249	-0.1544628456658118	-0.1572680558887087	0.001469796150682783	1.589678818727613	1.58967881772452	-0.3730937646861459	-0.4197637835926452	-0.9021249888382045	-0.7085531975217487	-2.016996426679375	-0.1197257681444042	-0.8570922178634834	0.1769086255482132	-0.2463321060322159	2.658262971019127	3.112948189990949	6.080548175457884	6.080548141431552	3.787151324177571	-4.30911413869801	5.670610314349726	-1.687028757141701	-2.097035809965578	8.674247747602561	8.674247803413076	2.803535853709378	-2.381395997557326
15.80665883999641	-0.01935975218569862	-0.1873168396845752	-0.01165120405737741	2.399863841285196	0.9801618419766474	1.028644529977832	0.5970548066606699	0.1920492809794789	-0.1452904653066867	0.7269614420818481	0.7269614422329975	0.06340190306137745	-0.2471192562101224	-0.1143161623664137	-0.1692286505695528	-0.01238485251708673	1.646417797611036	1.646417797009935	-0.3537601599419363	-0.4347606941621606	-1.270905160002722	-0.7104615626939815	-2.268979302537123	-0.1735364065317455	-0.8488770589064388	0.2005547665706694	0.03794531194552223	2.862707912187693	3.287467222175576	6.134742600436177	6.134742580854957	4.337222800528903	-4.010029032963574	6.363829128370831	-1.885618138925749	-2.037022041000445	8.337198398163576	8.33719846178851	2.983552017912987	-2.099123226288667
15.8133254999964	-0.02876492876356587	-0.1919052322971629	-0.02738678499429754	2.398530715251734	0.9745983039200586	1.030031050252593	0.5976839533036826	0.2114200354564569	-0.1230055454606816	0.7675941141461398	0.7675941142230311	0.09397059269304749	-0.2723990145958535	-0.06978432499304027	-0.1821848046916857	-0.02541489085387594	1.700682041603344	1.700682041433261	-0.3334870377289704	-0.4475168385174932	-1.530491506807572	-0.6567857370694702	-2.436819179278474	-0.2258392186950059	-0.8160343441585414	0.2135295294820363	0.1124618035670061	2.923338319443214	3.386007954909709	6.025671678396748	6.025671675757795	4.820742985210284	-3.547924204722927	6.979746789553825	-1.983197658373742	-1.853244982167241	7.928569419038977	7.92856948363645	3.085627324936628	-1.711286162207259
15.8199921599964	-0.03948165772445226	-0.195952572874411	-0.043937654007885	2.396864158855738	0.9693361161957743	1.031466211276818	0.5980162310988145	0.2306825514349053	-0.1002907585610219	0.806889868501525	0.8068898686132051	0.1274912492143432	-0.2941038497995083	-0.02149963728875887	-0.1954185975254227	-0.03687471281503507	1.751933756435932	1.751933756683312	-0.3127788062045284	-0.4573796511896959	-1.662466800735939	-0.5485803268115139	-2.512891017160283	-0.2729767180069376	-0.7586227047214172	0.2151210813369238	-0.05429708935405071	2.829267420490453	3.418496422014867	5.730805282271193	5.730805294658117	5.220149014150028	-2.941751751087474	7.485039533335974	-1.96727496954498	-1.570616302978631	7.430937601990108	7.430937661810072	3.115836363280638	-1.23447842769488
15.8266588199964	-0.05063656548936164	-0.1991073115308112	-0.06068579149441534	2.394909918769987	0.9645342550729747	1.032874761745868	0.5964080203469956	0.2487973346469919	-0.07754324746722664	0.8435674618646997	0.8435674620933176	0.1633535448521493	-0.3113691909789783	0.02972008435114504	-0.2081476214318991	-0.04620315326240826	1.799536241005188	1.799536241623616	-0.2920714064033276	-0.4638291313251016	-1.662313934724109	-0.3899224479086946	-2.496368665605224	-0.3116329737671834	-0.6783495611561285	0.2056877832395975	-0.4686245037429226	2.579716917672494	3.398000982735276	5.239634965115307	5.239634986539619	5.521131218190231	-2.221930204442995	7.857486228447984	-1.831215881062906	-1.219082147038171	6.832341251200129	6.832341302141772	3.088252659687356	-0.691465490616503
15.83332547999639	-0.06136961311278365	-0.2010543052731941	-0.07702687251718243	2.39273407008377	0.9603353632003744	1.034186959952639	0.5912563426989322	0.264752328257245	-0.05507614615061161	0.8763229675151945	0.8763229678936693	0.2008627771347119	-0.3235618874010595	0.08294543477766586	-0.2195679942055598	-0.05304696125291555	1.842795039679613	1.842795040600156	-0.2716880300985469	-0.4665110151324172	-1.538211195282804	-0.1875818209102897	-2.391928468296433	-0.3390577185066734	-0.5783586769639979	0.1864878997883566	-1.112466274823837	2.183570415194974	3.33591949249811	4.55606982461827	4.556069846686354	5.712633193949025	-1.42678663230163	8.085665373175452	-1.575347600265347	-0.8305326277046071	6.127558200016624	6.127558239328476	3.022072901974804	-0.108840512300451
15.83999213999639	-0.07091105998125052	-0.2015309003064758	-0.09240172726026399	2.390418662324853	0.9568572591522202	1.035343788743317	0.5811498878842803	0.2776243076137591	-0.0331422716833495	0.9039274245044179	0.9039274250091471	0.2392596104078488	-0.3303194846260756	0.1372036040578249	-0.2289024795380429	-0.05726311909843974	1.881004868652056	1.881004869789956	-0.2518166374289737	-0.4652556900730008	-1.308620500251533	0.04959365964071891	-2.208184718946915	-0.3532317080008073	-0.462890548654846	0.1594365943580269	-1.947172251418943	1.658396848900743	3.238568326026592	3.698516215334988	3.698516229980433	5.786141146862763	-0.5985832442617162	8.167760430487942	-1.207314771285772	-0.4356407613341425	5.318578466794786	5.318578492341057	2.938046693150704	0.4848509562567438
15.84665879999639	-0.07864063381691075	-0.2003379442642038	-0.1063176347688472	2.388056453371736	0.9541869428983005	1.03630042766783	0.5649886490547014	0.2866324093608966	-0.01197294286399912	0.9253177878826322	0.9253177884449477	0.277732878983654	-0.3315650144581463	0.1915380164973101	-0.2354477367568243	-0.05890107846956589	1.913497210510717	1.913497211766819	-0.2325120487984488	-0.4600869108052127	-0.9994211879951193	0.3115631760369908	-1.956230546490819	-0.352974876356137	-0.3368800788031992	0.126830632622856	-2.919032348382453	1.029076106129287	3.106094443494109	2.69785645653335	2.697856458653862	5.734374666405476	0.2197730787075747	8.110236750634815	-0.741462355122211	-0.06105213167535554	4.414338625196985	4.414338634695468	2.854766406247473	1.060282082308716
15.85332545999639	-0.0841270355561671	-0.1973444615391237	-0.1183606878751347	2.385745115608735	0.9523773694468975	1.037027874057698	0.5420630425507004	0.291181350399686	0.008183457914490145	0.9396689451158652	0.9396689456469043	0.3154229345456717	-0.3275024764838687	0.2450592589537626	-0.2386146584306815	-0.05816838402727992	1.93968386298663	1.939683864245408	-0.2137215724184263	-0.4512246700955398	-0.6409535651712289	0.5880774343692575	-1.648457609609916	-0.3379964987131095	-0.2055382936635873	0.09107621010550071	-3.965716144862672	0.326097481177381	2.933568419037	1.593916244705271	1.593916233401208	5.549845435355692	0.9872875388445985	7.926589939297298	-0.1974392060628948	0.2727210605793041	3.429795581798965	3.429795572687814	2.785431400589578	1.58800756784192
15.85999211999638	-0.08714900351516444	-0.1924858890548648	-0.1282019837610369	2.38358129762017	0.9514468711773469	1.03751290651929	0.5120904971807921	0.2908925186400432	0.02703586048032446	0.9464394843718064	0.9464394847899218	0.3514163535008351	-0.3185962885365813	0.2969887644889265	-0.2379579872500994	-0.05538574481592819	1.959092603056739	1.959092604187087	-0.1953286265950142	-0.4390835423284654	-0.2655427641909593	0.8696045017491199	-1.297926039043807	-0.3088887022430609	-0.07398829452152744	0.05447233900958644	-5.022377095209482	-0.4163610371262716	2.713640349624091	0.4312729605702442	0.4312729387274275	5.223785134746092	1.667236845163185	7.636477924474965	0.4015433372822083	0.5523023557666804	2.384524631886992	2.384524602300235	2.735797038121403	2.039281690689641
15.86665877999638	-0.0877024381665875	-0.1857567332381176	-0.1356016625563838	2.381654918801688	0.9513806823782365	1.037756878664339	0.4752152012260152	0.2856217055261699	0.04424520817319712	0.9453896057374673	0.9453896059891544	0.3847359234546024	-0.3055344033645265	0.3466982010535646	-0.2331943560397529	-0.05093959310939813	1.971392489185639	1.971392490050768	-0.1772048144247191	-0.4242637066833109	0.09423577605883797	1.148046142038059	-0.9183072693161061	-0.2670622490178723	0.05300049124780563	0.01907600637922826	-6.026546890320224	-1.162516423874361	2.439796978546563	-0.7448041073333656	-0.7448041344141934	4.745860688107725	2.229718872271937	7.265227710202296	1.030388713630039	0.7712229385060341	1.301037702486852	1.301037652841366	2.703699928423675	2.387430855699293
15.87332543999638	-0.08599685924981465	-0.1771997870456015	-0.1404132191610748	2.380044105742074	0.9521339968250099	1.037773817434039	0.4319786830934905	0.2754624683462171	0.05943973434292323	0.9365736764971994	0.9365736765683652	0.4143321538648748	-0.2891744306362751	0.3937445324458283	-0.2242100502502913	-0.045239398702708	1.976407286091104	1.976407286567949	-0.1592604806112237	-0.407532074394036	0.4071851559263798	1.417011155166802	-0.5239173073583809	-0.2146167954903813	0.1712187952259871	-0.0133791888009693	-6.922125976313921	-1.877197532888043	2.109101012827511	-1.891864955872219	-1.891864981864795	4.104942506135479	2.654111266742789	6.842828005430569	1.663496790195172	0.9288088463985728	0.2029084544792535	0.2029083885667343	2.679904431530086	2.609321843937031
15.87999209999637	-0.08243908937957073	-0.1668955005115804	-0.1425869081170385	2.378811219481389	0.9536363876336222	1.037588057939968	0.383264798614874	0.2607346290994876	0.07224444807610737	0.9203116069562722	0.9203116068756242	0.4390834925516547	-0.2704751020715727	0.4378938488133501	-0.2110608561253957	-0.03868399754522839	1.974115926593173	1.974115926595194	-0.1414865726906622	-0.3897950671599194	0.6457416897888297	1.671493434068294	-0.1293760448290095	-0.1541450356574046	0.2772249482208319	-0.04154238726682308	-7.663117779075521	-2.528047424505724	1.723643238955705	-2.97310447375521	-2.973104492286645	3.290916335914385	2.930944477911424	6.401499376384071	2.275743794603788	1.028650163396456	-0.8872180444748413	-0.8872181196274204	2.649804474450141	2.686358474155992
15.88665875999637	-0.07760033986296888	-0.1549551319704516	-0.1421697131209527	2.378000350579089	0.9557975945603794	1.037231582050238	0.3302212659917586	0.2419589425722032	0.0823156423137273	0.8971440357516451	0.8971440355878821	0.4578111829606807	-0.2504181266149989	0.4791247650608752	-0.1939668454988901	-0.03163881981856314	1.964639922188394	1.964639921683008	-0.1239829858478225	-0.3720660515136474	0.788568639489579	1.907113148424244	0.2510329024008904	-0.08849409037915523	0.3685385169616703	-0.06447023679340116	-8.216796070474766	-3.087420339040711	1.290634250114788	-3.959365145797466	-3.959365151449646	2.297184562176115	3.062867662307874	5.972148663912293	2.843027961811815	1.076883339109485	-1.949499244330899	-1.949499319885736	2.595760968569748	2.605177348215161
15.89332541999637	-0.07216696480690686	-0.1415193289536336	-0.139300761937543	2.377636442556402	0.9585144002429054	1.036741360949077	0.2741640218278626	0.2198206387519859	0.08937217644555338	0.8677773629383259	0.8677773627889701	0.469311916702238	-0.2299271829866993	0.5176071192276812	-0.1733044624578905	-0.02442476329756514	1.948219499597295	1.948219498611031	-0.1069693591586403	-0.3554273296821852	0.8227890637835017	2.119321606363147	0.6040755738966963	-0.02052161339668101	0.4437670503905632	-0.08160187468075614	-8.565633256301654	-3.533832902058455	0.82137381407504	-4.830159604451739	-4.830159594284673	1.123460045122977	3.064536251466159	5.580621823712245	3.342604854124806	1.080455334743995	-2.968363327684556	-2.968363395102603	2.500023788673826	2.358702830793817
15.89999207999636	-0.06687776518154821	-0.1267609233919125	-0.134201529648859	2.377725975814679	0.9616780935700826	1.036156959055494	0.2164726592853715	0.1951241205487165	0.09321633307653129	0.8330254326012655	0.8330254325707325	0.4724097855392562	-0.209790760878731	0.5536559899235872	-0.1495955223210015	-0.01731788920377695	1.925181757063776	1.925181755673917	-0.09077459226117063	-0.340982200823725	0.7458312714201009	2.302992573185852	0.9184507784174201	0.04712470353426466	0.5026579930530122	-0.09271315066761837	-8.708130097710349	-3.853227163264012	0.3291607124366174	-5.573654113231321	-5.573654088304774	-0.2212343598580364	2.961633159398182	5.244047973616145	3.753780450785779	1.045664687934432	-3.933424534703067	-3.933424587510036	2.348164798227324	1.948123176699063
15.90665873999636	-0.06245032844270852	-0.1108884944914981	-0.1271595040015936	2.378258972785434	0.9651820359462254	1.035518413759063	0.158483343215723	0.1687394442954255	0.0937381787515833	0.7937546671660526	0.7937546673370613	0.466028516636259	-0.1905939814446812	0.5876625294916886	-0.1234893892366218	-0.01055731782332689	1.895904713413983	1.895904711731968	-0.07580293837120464	-0.3297911734302156	0.566758641190208	2.452604100456232	1.185812925718318	0.1121773507687644	0.5460720359177427	-0.09788101799600553	-8.658670481828553	-4.040120017181524	-0.1734073909836381	-6.185665176415687	-6.185665142072604	-1.715567473072607	2.789089669833713	4.967715973767143	4.059239570573482	0.9771669448843502	-4.839786987765508	-4.839787022193857	2.132531502007319	1.385519649631506
15.91332539999636	-0.05950343902454398	-0.09414713337677107	-0.1185061429537181	2.37921186094211	0.9689286188433014	1.034864355444395	0.1013885270324289	0.1415433372651416	0.09090354824124391	0.7508388346522522	0.7508388350613544	0.4492814447531269	-0.1726671875494277	0.6200101090229718	-0.09573560221819277	-0.004358362701985329	1.860781676412334	1.860781674566523	-0.06247994837102904	-0.3227920481378092	0.3058619253722367	2.562841392993831	1.401335684389188	0.1728295530604585	0.5758135402474303	-0.09744143657865464	-8.445403331181133	-4.09793181121472	-0.6763823444154113	-6.667803095183864	-6.667803059560913	-3.323758858165049	2.587639040741958	4.744118375235052	4.246436151425831	0.8773763474953598	-5.687624225784241	-5.687624240420666	1.854638679988735	0.6958121473172512
15.91999205999636	-0.05849098151305021	-0.07681473648084736	-0.1085941090445251	2.380550511485763	0.9728344754761264	1.034230488069002	0.04615975017042027	0.1143627676726846	0.08473487765175146	0.7051283730719563	0.7051283736989641	0.4215702924401775	-0.1560651910924859	0.6509952038749047	-0.06714907327826186	0.001071514960498492	1.820190967123118	1.820190965245205	-0.05118860219944445	-0.3207128104213037	-0.008383286503773572	2.629287243194387	1.56335392458279	0.2277092736451515	0.5942798063480825	-0.09192499017385472	-8.105475567325374	-4.037871513607543	-1.172604761586142	-7.025016737725824	-7.025016709283647	-4.995166515220498	2.398096049965969	4.555353265949808	4.3083780527815	0.7462331574866012	-6.481010971195017	-6.481010966360654	1.525657586366482	-0.08312107864089049
15.92665871999635	-0.05966268435019922	-0.05919393570131549	-0.09777923045540196	2.382232845884493	0.9768329601508945	1.033648485219124	-0.006491927524011197	0.08792972923764042	0.0752963219561492	0.6574370029499178	0.6574370037236682	0.3826803748392488	-0.1405895979068336	0.6807731737396325	-0.03857197358139983	0.00551684465367651	1.774475282801486	1.774475281016535	-0.04220846700694908	-0.3239899724116518	-0.3440298654421803	2.649032630867282	1.67240907452905	0.2757859312559808	0.6040156210894156	-0.08200541626730012	-7.678850364537206	-3.876849871269224	-1.656457568084182	-7.262936170516933	-7.262936155766378	-6.6657375354064	2.254472174338581	4.377855097902405	4.243912410819586	0.5814943299068001	-7.226263392410115	-7.226263369712548	1.165102285997782	-0.9021130375345647
15.93332537999635	-0.06305673656270441	-0.04160022432446169	-0.0864091221709227	2.384210772297953	0.9808737439811718	1.033145065038056	-0.05611532720678425	0.06285030163960885	0.06268858522114894	0.608545535383321	0.6085455362001527	0.332860633212662	-0.1258552395711647	0.7093374272511226	-0.0108340749354274	0.008742246878954869	1.723932659928131	1.723932658347181	-0.03566800716579743	-0.3327024936220959	-0.6702429716997653	2.62121253522852	1.730280445263958	0.3162718199722768	0.6073144349721987	-0.06850058587879068	-7.20272803020295	-3.635435057970478	-2.122373247028805	-7.38543525201049	-7.385435254016883	-8.261072596319805	2.177947301360491	4.187363846559481	4.057960048862777	0.379624281587121	-7.930179314377361	-7.930179276359162	0.7982934544032566	-1.703638679395199
15.93999203999635	-0.06851925727773692	-0.0243467317628659	-0.07481748113301022	2.3864315647056	0.9849201653049677	1.032740885910562	-0.102486839898432	0.03958535921703513	0.04705225681621603	0.5592202529253885	0.5592202536743792	0.2728782738670039	-0.1113896261028986	0.7365285244778773	0.01528876888527524	0.01048818277637954	1.668818697125323	1.668818695840128	-0.03151647890344413	-0.346528554510146	-0.9606756602756737	2.547469573762941	1.739268852454046	0.348557330821011	0.6059511159062935	-0.05242072817376929	-6.707704571972108	-3.336447420898964	-2.563849972299022	-7.392744964127109	-7.392744982020573	-9.700966901995798	2.173150346497476	3.962812107149388	3.761825622207779	0.1371716254582517	-8.598448788879292	-8.598448738759409	0.4530878645025217	-2.425709471434285
15.94665869999634	-0.07574124990783347	-0.007726337019628611	-0.06332221636813608	2.388838961142215	0.988945309173575	1.032449069064084	-0.1455591720107194	0.01843833907482777	0.02857530259130961	0.5102412457447912	0.510241246332121	0.204038516941438	-0.09674781266444549	0.7620642201073331	0.03911791797404224	0.01047700869609916	1.60935849218012	1.609358491258814	-0.02951892795442011	-0.3647309627338412	-1.195314527361726	2.432270416321404	1.701756178947969	0.3721919015953259	0.6010689894814016	-0.03502379733041004	-6.2159442860991	-3.00421619350697	-2.9731886798531	-7.280400600194388	-7.280400629954863	-10.90530233687272	2.227282357181814	3.68867970841646	3.373365459234048	-0.1475500205488565	-9.234336894726097	-9.234336836386028	0.1562934123437913	-3.006522874419473
15.95332535999634	-0.08430255279975042	0.008007493247229106	-0.05222581643026129	2.391374279293823	0.9929278472706378	1.032273477890225	-0.1854046380943644	-0.0004534568465195943	0.007500286635832315	0.4624342745058595	0.4624342748700188	0.1281613875720246	-0.08162372127418006	0.7855796338105274	0.06011482095654338	0.008430570993338504	1.545766379687558	1.545766379170045	-0.02927475783837821	-0.3861750609837602	-1.360746620362184	2.282949713902233	1.619955790972146	0.3869064303344033	0.5932185841688169	-0.01782411352390089	-5.741341633510304	-2.664195987770187	-3.341787072495147	-7.039266197576275	-7.039266233879344	-11.80096821169837	2.312005640189698	3.35567893223988	2.916624693257141	-0.4727288177932051	-9.837661390193569	-9.837661328207258	-0.0697280983689465	-3.389483068669137
15.95999201999634	-0.093713242387349	0.02265889459775769	-0.04181692237417183	2.39397777222147	0.9968485442757657	1.032207213945189	-0.2221648335661666	-0.01712493679271837	-0.01587130235729492	0.4166986957645383	0.4166986958785348	0.04751045351946353	-0.06594110058222885	0.806667294681899	0.07791876574880675	0.004098828575644091	1.478271546398402	1.478271546292457	-0.03025696517162578	-0.4093799657021645	-1.449256076748241	2.109356127161517	1.495809015246759	0.3926586346961364	0.5825070596102362	-0.002515587308610571	-5.291110405633201	-2.342477119247306	-3.660658314993745	-6.656672572856642	-6.656672610914587	-12.32924158767186	2.387520108198038	2.960169823265701	2.420635248006672	-0.8315069396111187	-10.40404404836699	-10.40404398771938	-0.2098022337050327	-3.528103035858966
15.96665867999633	-0.1034478439902364	0.03610388164636142	-0.03237170115196381	2.396590283040311	1.000687882870579	1.032231903311403	-0.2560122946305935	-0.03178425380280202	-0.04117809114438332	0.3740246450032391	0.3740246448673363	-0.03532699471375427	-0.04991294029764163	0.8249120936002443	0.09237378872494764	-0.002702110572408118	1.407147876298998	1.407147876579356	-0.03186675582781281	-0.432601065235549	-1.457756306254611	1.923029592937647	1.331186959081787	0.3896723291424649	0.568767593334226	0.009183684632001513	-4.867568033567005	-2.064690278249975	-3.920878984707215	-6.118454756739751	-6.118454793238113	-12.45282130403788	2.407745429822223	2.503427503460928	1.917398245542401	-1.21071733108392	-10.9243833270123	-10.92438327252857	-0.2577966370699311	-3.390439057963334
15.97332533999633	-0.1129742627607437	0.04829774733315829	-0.02415243583285979	2.399155068627669	1.004424662873252	1.032318186010321	-0.2871218846281489	-0.04480374989284954	-0.0679998722761597	0.3354943791468815	0.3354943787778953	-0.1176027541877043	-0.03406577253866461	0.8399234790538268	0.1035401092625904	-0.01204506573324016	1.332746550058312	1.332746550669583	-0.03349728886065455	-0.4539398267816069	-1.38732339827682	1.735992212650323	1.128515585540579	0.3784460319961986	0.5516765453781325	0.01573166942939223	-4.469211813379453	-1.854077330518774	-4.113697065473999	-5.411630130801743	-5.411630164087569	-12.16151335411704	2.325534942675231	1.991590649031096	1.439303752337488	-1.590160046269761	-11.38457237109007	-11.38457232691601	-0.2174808906348687	-2.962796493056329
15.97999199999633	-0.1217812403191832	0.05927383949646547	-0.01740116453871226	2.401619553707087	1.008035210684002	1.032427629177892	-0.3156473987094843	-0.05669587969129912	-0.09585751307275935	0.3022642040810464	0.3022642035016536	-0.1966009952722108	-0.01923060286119013	0.8513688413703658	0.1116871145692278	-0.02384563610464468	1.255529260165451	1.255529261027715	-0.03459928934609101	-0.4714747780426398	-1.243111823175587	1.559426261087108	0.8915618700737846	0.3597238824577603	0.5308267187707543	0.01598769481466044	-4.091328743895829	-1.728995111726234	-4.230052700992634	-4.527506174695671	-4.527506204601865	-11.47552409555309	2.097449665591601	1.435920782770528	1.016204494593707	-1.943093624470477	-11.76563343084306	-11.765633400158	-0.102187216552724	-2.252295418358367
15.98665865999632	-0.1294046030318593	0.0691340180328707	-0.01232880531643991	2.403936785561837	1.011493062758787	1.032516191614084	-0.3417027573415821	-0.06807210468779881	-0.1242076688853925	0.2755251430068304	0.2755251422375902	-0.2698431262268634	-0.006503515086092748	0.8590070770448649	0.1172662051919324	-0.03782532411918749	1.176098555394546	1.176098556410519	-0.03473994088775486	-0.4834045596732039	-1.033985491464782	1.40254071666021	0.6259395689844662	0.3344369468829359	0.5058023820662391	0.009448489372344833	-3.726854037886751	-1.700394060006809	-4.259542242939387	-3.464870145856704	-3.464870173021518	-10.44553322129463	1.68809578600614	0.8524746275189997	0.6723436293520668	-2.238591194851563	-12.04447178092069	-12.04447176570924	0.06686417935295044	-1.2878706412108
15.99332531999632	-0.1354493612800576	0.0780326532789664	-0.009102489332899429	2.406066435538559	1.014769199037925	1.032539189196091	-0.3653503771837148	-0.07958624425315886	-0.1524299706654136	0.2564436828014448	0.256443681859023	-0.3352811267635607	0.00282136402468097	0.8627169341696302	0.1208636457694231	-0.05349680053992324	1.095220791297587	1.095220792361492	-0.03364666752647192	-0.4881917162943734	-0.7716694605534478	1.271777704472101	0.3391394651607021	0.3036283278096559	0.4762666953647562	-0.003547513995761933	-3.367621362943817	-1.769740358564611	-4.18930993933798	-2.232661177865727	-2.232661202639076	-9.149133530593232	1.074083099533678	0.2608904841047398	0.4235097540820821	-2.445758003334358	-12.19534482216625	-12.19534482295794	0.2633527907957354	-0.119465499454481
15.99999197999632	-0.1396055171493118	0.08615652174038033	-0.007834002730197196	2.407975290012203	1.017832827538096	1.032457337637379	-0.3865979158100417	-0.09186638082640212	-0.1798086738513641	0.246088306660799	0.2460883055626354	-0.3914551805474601	0.007344059766203603	0.862515350758	0.1231367165061058	-0.07018158383117894	1.013836932100246	1.01383693310778	-0.03123008584231664	-0.4846946621784681	-0.4697912706428088	1.17037064288425	0.04020149500991701	0.2683777480704102	0.4420341849222698	-0.02171187144484091	-3.005528231541827	-1.927706870633552	-4.003627529124686	-0.8514637468476913	-0.8514637686206338	-7.683747208027851	0.2476136078305807	-0.3173071766255747	0.2749692005514924	-2.539066595197441	-12.1920269855561	-12.19202700140765	0.4592148789885867	1.184730796982877
16.00665863999632	-0.1416581642574886	0.09370280999342208	-0.008571018839600961	2.409637285899906	1.020652536133686	1.032243050735256	-0.4054012905299125	-0.1054413317820889	-0.20551588203593	0.2453512945106568	0.2453512932805632	-0.4375941372675765	0.005673506728820128	0.8585641785273395	0.1247401639433467	-0.08706379141095358	0.9330568790059122	0.933056879863331	-0.02758440328020319	-0.4722745953608304	-0.1431482147654221	1.098209065298035	-0.2607652297074947	0.2297432377969665	0.4031075888204428	-0.04284307431370363	-2.633233704951297	-2.153892150350191	-3.684890448010089	0.6466068898872623	0.6466068722609036	-6.156728460275339	-0.7803623548153393	-0.8604590320721135	0.2206938640652277	-2.503630019704485	-12.0105597725953	-12.01055980131883	0.627956482462792	2.543012278497903
16.01332529999631	-0.1414932264925219	0.1008570771998841	-0.01129169774727399	2.411033257535146	1.023197594249396	1.031885966108127	-0.4216711869767462	-0.1206692756560069	-0.2286073870166126	0.2548768498454938	0.2548768485137302	-0.4736440681898998	-0.003438818837270009	0.8511651273020668	0.1262526453551063	-0.1032753342590118	0.8541341199707019	0.854134120602698	-0.0229673043263255	-0.4508651839253778	0.1929233534105661	1.051951891242713	-0.5531042209496297	0.1887347685503273	0.3596897638926028	-0.06401995740375203	-2.244583596460743	-2.417775300795308	-3.216431085661561	2.219658194124293	2.219658181262289	-4.673944737858756	-1.977717108239881	-1.348585374530899	0.2441473029785681	-2.339164900940053	-11.63235416813264	-11.63235420637677	0.7474262672814498	3.866504380753886
16.01999195999631	-0.1390984201167085	0.1077726557042296	-0.01590278869652779	2.41215063525642	1.025439306183406	1.031396714478888	-0.4352828068314221	-0.1376771504673433	-0.2480430405422187	0.275005502043154	0.275005500640491	-0.5002201967667776	-0.02095321286742465	0.8407419596571708	0.128113524774031	-0.1180001837407479	0.7784195384481387	0.7784195388057377	-0.01776405542470058	-0.4209963437714991	0.5233863869209368	1.025338423166493	-0.8261316138352179	0.1463262538643585	0.3121887055699254	-0.08192968067896296	-1.83521806762767	-2.680991734181125	-2.586985355379523	3.819068968258774	3.819068959698098	-3.328497440999954	-3.290097568954073	-1.765396449224563	0.3205705537130166	-2.061603987113318	-11.04726617370617	-11.04726621693751	0.8017438928524112	5.066460905963552
16.02665861999631	-0.1345577688632114	0.1145526941080629	-0.02224096991235981	2.412983337794657	1.027352366108006	1.030808164054525	-0.4460907830494587	-0.1563193801263273	-0.2627404537061444	0.305741659198482	0.3057416577503524	-0.5184887982613564	-0.04739625234700132	0.8278091387231054	0.1305790930163254	-0.1305796335137699	0.7072961387200115	0.7072961387875198	-0.01244187809300953	-0.3837684119480362	0.8345727238409999	1.009668763021429	-1.069570087390676	0.1034993613021035	0.2612100848515261	-0.09328900441230768	-1.40349973737081	-2.900822002270229	-1.79605477051952	5.393288666767924	5.39328866154986	-2.191251161237814	-4.642198258695809	-2.100275839600384	0.4204534354621444	-1.701722822849945	-10.25616222031352	-10.25616226319335	0.7822941943966256	6.061712152344264
16.0333252799963	-0.1280387871686993	0.1212360330110168	-0.03007659090895508	2.41353200984494	1.028916072952087	1.030173704480162	-0.4539508528247478	-0.176163204270728	-0.2716641516049059	0.3467473669947622	0.3467473655218155	-0.5299958509930751	-0.08273408931818972	0.8129286080119622	0.133704494406748	-0.1405983290523531	0.6420997138349688	0.6420997136326683	-0.007500548067328785	-0.3407784429303164	1.115275936394199	0.9944854365577467	-1.27383477930318	0.06129908276333148	0.2075206880725593	-0.09529972252741523	-0.951568977846319	-3.034631825400225	-0.8589517939768319	6.891804865935679	6.891804863761848	-1.304513524460849	-5.942242898998921	-2.349785377248771	0.5136748697586534	-1.300818587417437	-9.272499425710725	-9.272499462947318	0.687896748859874	6.785444068840044
