Joint Reaction Loads
version=1
nRows=51
nColumns=10
inDegrees=no

This file contains the reaction forces and moments
applied to the specified body of a joint pair and expressed  in the specified reference frame.

Units are S.I. units (seconds, meters, Newtons, ...)
endheader
time	patellofemoral_r_on_patella_r_in_patella_r_fx	patellofemoral_r_on_patella_r_in_patella_r_fy	patellofemoral_r_on_patella_r_in_patella_r_fz	patellofemoral_r_on_patella_r_in_patella_r_mx	patellofemoral_r_on_patella_r_in_patella_r_my	patellofemoral_r_on_patella_r_in_patella_r_mz	patellofemoral_r_on_patella_r_in_patella_r_px	patellofemoral_r_on_patella_r_in_patella_r_py	patellofemoral_r_on_patella_r_in_patella_r_pz
     13.01999579	   1613.30693781	   -143.18120457	      5.56276862	     -8.68264461	      5.11568673	    -45.13521699	      0.00000000	      0.00000000	      0.00000000
     13.03519577	   1105.03166212	   -139.04033436	    -11.66578405	     -6.36139325	      3.46572505	    -29.13657960	      0.00000000	      0.00000000	      0.00000000
     13.05039576	    733.93453133	   -113.66091810	    -16.43091937	     -4.47714802	      2.21016406	    -18.29867145	      0.00000000	      0.00000000	      0.00000000
     13.06559574	    510.73790163	    -85.77795758	    -12.08531017	     -3.15568548	      1.38762517	    -12.36508164	      0.00000000	      0.00000000	      0.00000000
     13.08079573	    419.29433356	    -70.21244313	    -10.02049201	     -2.64021151	      0.99901771	    -10.26516421	      0.00000000	      0.00000000	      0.00000000
     13.09599571	    450.04879385	    -65.02247048	     -5.10935362	     -2.68977283	      0.98523475	    -11.62080563	      0.00000000	      0.00000000	      0.00000000
     13.11119570	    583.73983449	    -58.55770782	      4.84503091	     -3.12915174	      1.21810679	    -16.29496323	      0.00000000	      0.00000000	      0.00000000
     13.12639568	    802.99148201	    -34.22894830	     26.59708083	     -3.65032547	      1.50991842	    -24.25492123	      0.00000000	      0.00000000	      0.00000000
     13.14159567	   1108.80113496	     27.15463907	     64.36031914	     -4.11429938	      1.74398172	    -35.89145365	      0.00000000	      0.00000000	      0.00000000
     13.15679565	   1529.80946272	    148.82640784	    119.91492371	     -4.58578239	      1.92150485	    -52.18467759	      0.00000000	      0.00000000	      0.00000000
     13.17199564	   2045.36874099	    357.69840523	    189.32765059	     -5.11580307	      2.04922480	    -72.32132919	      0.00000000	      0.00000000	      0.00000000
     13.18719562	   2582.73879258	    662.11842608	    263.61225854	     -5.74107785	      2.13142767	    -93.36045638	      0.00000000	      0.00000000	      0.00000000
     13.20239561	   3055.41591678	   1027.48022122	    333.73638542	     -6.22084625	      2.07836685	   -111.66168743	      0.00000000	      0.00000000	      0.00000000
     13.21759559	   3379.82790643	   1363.50569350	    395.33386608	     -5.95891892	      1.87359811	   -124.09439536	      0.00000000	      0.00000000	      0.00000000
     13.23279558	   3543.84444412	   1503.06065907	    457.41564573	     -5.41798625	      1.77611770	   -130.96217214	      0.00000000	      0.00000000	      0.00000000
     13.24799556	   3685.22315167	   1597.90788525	    516.27858733	     -4.89303895	      1.67986692	   -136.96861974	      0.00000000	      0.00000000	      0.00000000
     13.26319555	   3823.12297838	   1693.33971340	    566.46734553	     -4.60095105	      1.62934300	   -142.51154576	      0.00000000	      0.00000000	      0.00000000
     13.27839553	   3880.12087882	   1748.04792136	    591.87780275	     -4.56428578	      1.64585050	   -144.69855175	      0.00000000	      0.00000000	      0.00000000
     13.29359552	   3745.58951180	   1696.45232077	    570.92392710	     -4.83439218	      1.76721253	   -139.36395900	      0.00000000	      0.00000000	      0.00000000
     13.30879550	   3388.93258795	   1517.04954214	    499.41361033	     -5.35117967	      1.98403873	   -125.40762018	      0.00000000	      0.00000000	      0.00000000
     13.32399549	   2914.00771464	   1268.01199795	    401.86086610	     -5.86863629	      2.20436553	   -106.91891531	      0.00000000	      0.00000000	      0.00000000
     13.33919547	   2472.86319627	   1036.28034543	    310.93163549	     -6.17856701	      2.33401184	    -89.81159617	      0.00000000	      0.00000000	      0.00000000
     13.35439546	   2148.29613537	    867.77315463	    241.88644139	     -6.30524756	      2.35942827	    -77.24509730	      0.00000000	      0.00000000	      0.00000000
     13.36959544	   1938.42187929	    759.69523070	    192.31318177	     -6.38765711	      2.32015769	    -69.06830673	      0.00000000	      0.00000000	      0.00000000
     13.38479543	   1790.45753561	    678.58837946	    153.27184813	     -6.47074325	      2.24352493	    -63.25516890	      0.00000000	      0.00000000	      0.00000000
     13.39999541	   1619.55020113	    557.31125367	    118.47404173	     -6.52764300	      2.21166443	    -56.69275252	      0.00000000	      0.00000000	      0.00000000
     13.41519539	   1394.66675364	    399.06479513	     86.27924876	     -6.43676969	      2.32586640	    -48.16320297	      0.00000000	      0.00000000	      0.00000000
     13.43039538	   1135.01195178	    234.71347558	     57.89666124	     -5.56488084	      2.11150576	    -38.44365445	      0.00000000	      0.00000000	      0.00000000
     13.44559536	    888.03450688	    111.92803232	     33.13130753	     -4.72257317	      1.87322303	    -29.15716740	      0.00000000	      0.00000000	      0.00000000
     13.46079535	    684.26565363	     31.92833474	     13.61830416	     -4.00030447	      1.65890298	    -21.47785785	      0.00000000	      0.00000000	      0.00000000
     13.47599533	    523.99712695	    -15.13310579	     -1.01167006	     -3.39255247	      1.43681149	    -15.42074941	      0.00000000	      0.00000000	      0.00000000
     13.49119532	    383.17989878	    -36.26403835	    -10.58092503	     -2.80429457	      1.10021252	    -10.39319023	      0.00000000	      0.00000000	      0.00000000
     13.50639530	    267.99800713	    -39.30896256	    -13.96936624	     -2.27414305	      0.64805071	     -6.62765395	      0.00000000	      0.00000000	      0.00000000
     13.52159529	    214.07070715	    -38.37386375	    -13.66070776	     -2.03937010	      0.31611560	     -4.91150907	      0.00000000	      0.00000000	      0.00000000
     13.53679527	    337.87842073	    -60.47316793	    -20.18854764	     -2.84417012	      0.94505416	     -7.79250195	      0.00000000	      0.00000000	      0.00000000
     13.55199526	    853.70860669	   -131.31831294	    -43.40373703	     -5.75744628	      4.08704391	    -20.92436728	      0.00000000	      0.00000000	      0.00000000
     13.56719524	   1963.00696628	   -234.20356883	    -69.56163023	    -11.31386307	     11.27452031	    -51.51346897	      0.00000000	      0.00000000	      0.00000000
     13.58239523	   3644.34717655	   -292.11830776	    -63.13658751	    -18.76821867	     22.42956894	   -101.67087045	      0.00000000	      0.00000000	      0.00000000
     13.59759521	   5478.91602809	   -243.37093741	    -11.93999084	    -26.21671338	     34.63110148	   -159.81152048	      0.00000000	      0.00000000	      0.00000000
     13.61279520	   6811.62972455	   -128.79834384	     53.10079699	    -31.31034867	     43.23120137	   -204.11704708	      0.00000000	      0.00000000	      0.00000000
     13.62799518	   7144.91540737	    -60.48485774	     89.14237495	    -32.27093114	     44.74766837	   -216.43016480	      0.00000000	      0.00000000	      0.00000000
     13.64319517	   6384.61097312	    -95.23559366	     78.25274451	    -28.79204553	     38.80742268	   -192.54781252	      0.00000000	      0.00000000	      0.00000000
     13.65839515	   4860.88986067	   -180.45075219	     36.15282485	    -22.26922112	     28.18180099	   -143.66967347	      0.00000000	      0.00000000	      0.00000000
     13.67359514	   3141.52916670	   -224.74341926	     -5.04277507	    -14.96317304	     17.01140669	    -89.39246847	      0.00000000	      0.00000000	      0.00000000
     13.68879512	   1716.23985876	   -194.07165047	    -23.01251242	     -8.71815154	      8.36042858	    -46.05837544	      0.00000000	      0.00000000	      0.00000000
     13.70399511	    791.98501101	   -122.18881070	    -18.20049458	     -4.38138572	      3.11563857	    -19.69252415	      0.00000000	      0.00000000	      0.00000000
     13.71919509	    338.63023900	    -63.26769331	     -6.64711770	     -2.06669947	      0.70437898	     -7.79663897	      0.00000000	      0.00000000	      0.00000000
     13.73439508	    219.20402663	    -44.61306928	     -3.55502321	     -1.45991952	      0.13448376	     -4.83385411	      0.00000000	      0.00000000	      0.00000000
     13.74959506	    280.95989768	    -56.07537686	     -6.76501068	     -1.81466840	      0.44295963	     -6.33220702	      0.00000000	      0.00000000	      0.00000000
     13.76479505	    403.21543542	    -73.26218010	     -6.36410776	     -2.35793802	      0.86987511	     -9.62453134	      0.00000000	      0.00000000	      0.00000000
     13.77999503	    532.94795635	    -81.42979390	      1.54145979	     -2.75909339	      1.12199415	    -13.69308592	      0.00000000	      0.00000000	      0.00000000
