MomentArm_knee_angle_r
version=1
nRows=51
nColumns=5
inDegrees=no

This analysis gathers basic information about muscles during a simulation (e.g., forces, tendon lengths, moment arms, etc).
Units are S.I. units (second, meters, Newtons, ...)
If the header above contains a line with 'inDegrees', this indicates whether rotational values are in degrees (yes) or radians (no).

endheader
time	recfem_r	vaslat_r	vasint_r	vasmed_r
     13.01999579	     -0.04913543	     -0.04490542	     -0.04384038	     -0.04243414
     13.03519577	     -0.05032230	     -0.04663947	     -0.04501086	     -0.04389365
     13.05039576	     -0.05112322	     -0.04786154	     -0.04596054	     -0.04509400
     13.06559574	     -0.05154421	     -0.04845407	     -0.04651482	     -0.04576725
     13.08079573	     -0.05138294	     -0.04822295	     -0.04629024	     -0.04549727
     13.09599571	     -0.05065665	     -0.04712917	     -0.04536514	     -0.04434628
     13.11119570	     -0.04931664	     -0.04511302	     -0.04398478	     -0.04260886
     13.12639568	     -0.04654226	     -0.04158935	     -0.04134303	     -0.03956115
     13.14159567	     -0.04351874	     -0.03792255	     -0.03860915	     -0.03648495
     13.15679565	     -0.04196733	     -0.03586818	     -0.03749655	     -0.03515613
     13.17199564	     -0.03723052	     -0.03086265	     -0.03341659	     -0.03090272
     13.18719562	     -0.03191788	     -0.02554033	     -0.02890676	     -0.02635937
     13.20239561	     -0.02717379	     -0.02205706	     -0.02501361	     -0.02249770
     13.21759559	     -0.02194080	     -0.02164091	     -0.02062375	     -0.01912320
     13.23279558	     -0.02159908	     -0.02222112	     -0.02135948	     -0.01999360
     13.24799556	     -0.02431265	     -0.02449327	     -0.02396378	     -0.02255574
     13.26319555	     -0.02785778	     -0.02747547	     -0.02735718	     -0.02577151
     13.27839553	     -0.03076918	     -0.02990957	     -0.03014167	     -0.02834825
     13.29359552	     -0.03231690	     -0.03119618	     -0.03162166	     -0.02969805
     13.30879550	     -0.03230389	     -0.03118310	     -0.03160658	     -0.02968436
     13.32399549	     -0.03082210	     -0.02994682	     -0.03018443	     -0.02838744
     13.33919547	     -0.02817633	     -0.02773097	     -0.02764866	     -0.02604362
     13.35439546	     -0.02496375	     -0.02502554	     -0.02456881	     -0.02313644
     13.36959544	     -0.02220368	     -0.02269925	     -0.02191605	     -0.02055454
     13.38479543	     -0.02188492	     -0.02163720	     -0.02062468	     -0.01922763
     13.39999541	     -0.02656837	     -0.02196405	     -0.02308497	     -0.02059637
     13.41519539	     -0.03118691	     -0.02322746	     -0.02693256	     -0.02439817
     13.43039538	     -0.03608725	     -0.02819414	     -0.03116421	     -0.02861760
     13.44559536	     -0.04140288	     -0.03395698	     -0.03599077	     -0.03356352
     13.46079535	     -0.04413587	     -0.03742319	     -0.03841702	     -0.03621716
     13.47599533	     -0.04634469	     -0.04057385	     -0.04053380	     -0.03866296
     13.49119532	     -0.04946369	     -0.04481238	     -0.04377513	     -0.04235562
     13.50639530	     -0.05081203	     -0.04712257	     -0.04536016	     -0.04433994
     13.52159529	     -0.05157057	     -0.04834015	     -0.04640276	     -0.04563301
     13.53679527	     -0.05175383	     -0.04859954	     -0.04666181	     -0.04594196
     13.55199526	     -0.05130752	     -0.04795612	     -0.04604436	     -0.04519730
     13.56719524	     -0.05052328	     -0.04664321	     -0.04501346	     -0.04389698
     13.58239523	     -0.04942200	     -0.04482578	     -0.04378455	     -0.04236694
     13.59759521	     -0.04789118	     -0.04269644	     -0.04221182	     -0.04053638
     13.61279520	     -0.04639712	     -0.04084222	     -0.04074617	     -0.03889885
     13.62799518	     -0.04576875	     -0.04011011	     -0.04017062	     -0.03825886
     13.64319517	     -0.04604619	     -0.04051396	     -0.04048661	     -0.03861051
     13.65839515	     -0.04728543	     -0.04209676	     -0.04174490	     -0.04000992
     13.67359514	     -0.04888441	     -0.04424704	     -0.04337186	     -0.04187579
     13.68879512	     -0.05022016	     -0.04628974	     -0.04477314	     -0.04358998
     13.70399511	     -0.05128141	     -0.04800670	     -0.04608989	     -0.04525319
     13.71919509	     -0.05227569	     -0.04935586	     -0.04749664	     -0.04690714
     13.73439508	     -0.05279004	     -0.04998294	     -0.04830820	     -0.04781260
     13.74959506	     -0.05263460	     -0.04985426	     -0.04812389	     -0.04760890
     13.76479505	     -0.05184087	     -0.04894759	     -0.04703135	     -0.04637458
     13.77999503	     -0.05083680	     -0.04761625	     -0.04575095	     -0.04483342
