PennationAngle
version=1
nRows=51
nColumns=5
inDegrees=no

This analysis gathers basic information about muscles during a simulation (e.g., forces, tendon lengths, moment arms, etc).
Units are S.I. units (second, meters, Newtons, ...)
If the header above contains a line with 'inDegrees', this indicates whether rotational values are in degrees (yes) or radians (no).

endheader
time	recfem_r	vaslat_r	vasint_r	vasmed_r
     13.01999579	      0.16765250	      0.24647985	      0.06027669	      0.40057487
     13.03519577	      0.17280745	      0.25410769	      0.06207069	      0.41204766
     13.05039576	      0.17728008	      0.26067376	      0.06360007	      0.42184759
     13.06559574	      0.17962063	      0.26407142	      0.06438886	      0.42690783
     13.08079573	      0.17866844	      0.26273676	      0.06407910	      0.42492029
     13.09599571	      0.17426000	      0.25664240	      0.06266226	      0.41583622
     13.11119570	      0.16729006	      0.24728139	      0.06046630	      0.40178626
     13.12639568	      0.15914571	      0.23672404	      0.05794625	      0.38571745
     13.14159567	      0.15108523	      0.22665611	      0.05549121	      0.37014558
     13.15679565	      0.14352243	      0.21739305	      0.05317996	      0.35550773
     13.17199564	      0.13706727	      0.20944344	      0.05114377	      0.34265019
     13.18719562	      0.13219466	      0.20318449	      0.04948472	      0.33225051
     13.20239561	      0.12885770	      0.19835325	      0.04815744	      0.32399164
     13.21759559	      0.12692682	      0.19421477	      0.04713183	      0.31764590
     13.23279558	      0.12602211	      0.19059418	      0.04631125	      0.31233987
     13.24799556	      0.12541416	      0.18739344	      0.04557342	      0.30752745
     13.26319555	      0.12503318	      0.18468165	      0.04493610	      0.30334945
     13.27839553	      0.12531582	      0.18270727	      0.04446495	      0.30025807
     13.29359552	      0.12702311	      0.18168853	      0.04421966	      0.29864977
     13.30879550	      0.13094457	      0.18169885	      0.04422215	      0.29866611
     13.32399549	      0.13759239	      0.18267764	      0.04445783	      0.30021141
     13.33919547	      0.14677706	      0.18446931	      0.04488571	      0.30301880
     13.35439546	      0.15727317	      0.18685965	      0.04544889	      0.30671207
     13.36959544	      0.16723175	      0.18965099	      0.04609527	      0.31093516
     13.38479543	      0.17544128	      0.19278810	      0.04680987	      0.31556943
     13.39999541	      0.18276729	      0.19639935	      0.04765103	      0.32086252
     13.41519539	      0.19080112	      0.20063246	      0.04878731	      0.32790301
     13.43039538	      0.20063046	      0.20618752	      0.05028866	      0.33728033
     13.44559536	      0.21299041	      0.21378033	      0.05226222	      0.34970206
     13.46079535	      0.22737996	      0.22349593	      0.05470866	      0.36519056
     13.47599533	      0.24154035	      0.23443459	      0.05739282	      0.38220011
     13.49119532	      0.25442491	      0.24612958	      0.06019374	      0.40004506
     13.50639530	      0.26371479	      0.25660725	      0.06265407	      0.41578374
     13.52159529	      0.26735254	      0.26341242	      0.06423592	      0.42592646
     13.53679527	      0.26442399	      0.26491562	      0.06458477	      0.42816507
     13.55199526	      0.25533263	      0.26121013	      0.06372466	      0.42264661
     13.56719524	      0.24177960	      0.25412647	      0.06207509	      0.41207577
     13.58239523	      0.22620139	      0.24617971	      0.06020561	      0.40012091
     13.59759521	      0.21112974	      0.23944531	      0.05860068	      0.38988295
     13.61279520	      0.19847439	      0.23505247	      0.05754245	      0.38315057
     13.62799518	      0.18918034	      0.23333184	      0.05712527	      0.38050150
     13.64319517	      0.18340082	      0.23429485	      0.05735895	      0.38198503
     13.65839515	      0.18073640	      0.23791733	      0.05823366	      0.38754607
     13.67359514	      0.18045333	      0.24411436	      0.05971552	      0.39699168
     13.68879512	      0.18159135	      0.25239452	      0.06166973	      0.40948132
     13.70399511	      0.18306554	      0.26149808	      0.06379152	      0.42307551
     13.71919509	      0.18374443	      0.26932600	      0.06560881	      0.43473807
     13.73439508	      0.18251242	      0.27346369	      0.06657204	      0.44091986
     13.74959506	      0.17872160	      0.27246054	      0.06633817	      0.43941927
     13.76479505	      0.17278833	      0.26694312	      0.06505535	      0.43118540
     13.77999503	      0.16608172	      0.25929724	      0.06328018	      0.41979639
