Static Optimization
version=1
nRows=51
nColumns=59
inDegrees=no
This file contains static optimization results.

endheader
time	addbrev_r	addlong_r	addmagDist_r	addmagIsch_r	addmagMid_r	addmagProx_r	bflh_r	bfsh_r	edl_r	ehl_r	fdl_r	fhl_r	gaslat_r	gasmed_r	glmax1_r	glmax2_r	glmax3_r	glmed1_r	glmed2_r	glmed3_r	glmin1_r	glmin2_r	glmin3_r	grac_r	iliacus_r	perbrev_r	perlong_r	piri_r	psoas_r	recfem_r	sart_r	semimem_r	semiten_r	soleus_r	tfl_r	tibant_r	tibpost_r	vasint_r	vaslat_r	vasmed_r	pelvis_tx_residual	pelvis_ty_residual	pelvis_tz_residual	pelvis_tilt_residual	pelvis_list_residual	pelvis_rotation_residual	hip_flexion_r_reserve	hip_adduction_r_reserve	hip_rotation_r_reserve	knee_angle_r_reserve	ankle_angle_r_reserve	subtalar_angle_r_reserve	hip_flexion_l_torque	hip_adduction_l_torque	hip_rotation_l_torque	knee_angle_l_torque	ankle_angle_l_torque	subtalar_angle_l_torque
    144.34000000	      0.11609464	      0.31483422	      0.01001972	      0.01001826	      0.01004534	      0.01877022	      0.01000842	      0.07836251	      0.10037421	      0.03425511	      0.01055796	      0.01006602	      1.21491993	      0.01000010	      0.01000646	      0.01000310	      0.01000320	      0.31694910	      0.02552378	      0.01008185	      0.22658443	      0.12962460	      0.04405466	      0.04836767	      0.61883394	      0.03392242	      0.05598579	      0.01008266	      0.51416832	      0.06943690	      0.08859535	      0.01000856	      0.01002216	      0.01000837	      0.24180962	      0.12755928	      0.01004550	      0.01000748	      0.01000287	      0.01000472	     16.95632529	    -24.06647649	     14.47766257	     32.18852998	    -19.23125337	      7.11322329	      0.02454513	     -0.01347374	      0.00394190	      0.01583799	      0.00340926	     -0.00189151	     -0.12771842	      0.18264820	     -0.08417303	      0.11328646	      0.00573036	     -0.00095969
    144.35704000	      0.13192481	      0.18049371	      0.01118922	      0.01117119	      0.05103285	      0.04223659	      0.01002692	      0.01122917	      0.60336375	      0.21456334	      0.01003170	      0.01001227	      0.01000493	      1.05489524	      0.01000542	      0.01000397	      0.01000891	      0.01002003	      0.01001060	      0.01000709	      0.01354703	      0.01003316	      0.01002359	      0.01134445	      0.25841319	      0.10107670	      0.13720723	      0.01000825	      0.17041892	      0.10762441	      0.01158723	      0.01003207	      0.01007572	      0.01000120	      0.01205310	      0.89284032	      0.01000839	      0.01687666	      0.03667666	      0.02257994	     -2.41944317	     -0.57800610	     -0.13859409	     -3.07738702	     -0.14664322	      0.45788029	      0.00465485	      0.00005067	      0.01151531	     -0.00033732	      0.02542718	     -0.00832788	     -0.19303437	      0.08212699	     -0.02564047	      0.12958732	      0.00173250	     -0.00269465
    144.37408000	      0.15257236	      0.24265666	      0.07186918	      0.01370388	      0.13551012	      0.15509903	      0.01007723	      0.01023220	      2.27724141	      0.77002742	      0.01000717	      0.01000280	      0.01000096	      2.54206277	      0.01004500	      0.01003550	      0.07830126	      0.01001697	      0.01003102	      0.01004747	      0.01005154	      0.01007266	      0.01013481	      0.05815422	      0.02914472	      0.39000903	      0.55684552	      0.01919723	      0.08180616	      0.19231046	      0.01037340	      0.01003323	      0.01011194	      0.01000028	      0.01007028	      3.15750439	      0.01000181	      0.08117042	      0.22437864	      0.12914959	     -7.14609110	      6.15373734	     -6.30710457	    -10.33365921	      7.98057229	     -5.24901724	      0.00555157	      0.00553622	     -0.00161459	     -0.00189037	      0.10265173	     -0.03589364	     -0.20829204	      0.03445715	     -0.00525388	      0.13718917	     -0.00322326	     -0.00271832
    144.39112000	      0.20485961	      0.37379901	      0.01187361	      0.01004302	      0.11844221	      0.18887412	      0.01002197	      0.04140829	      0.07555995	      0.02495224	      0.01016290	      0.01004281	      0.01000616	      0.01001987	      0.01001292	      0.01000652	      0.01000968	      0.01003017	      0.01005783	      0.01010422	      0.01162758	      0.01791710	      0.02663270	      0.10479658	      0.23649375	      0.02306851	      0.03569302	      0.07631418	      0.28216415	      0.04319033	      0.04682969	      0.01001878	      0.01005504	      0.01000802	      0.02782126	      0.08649719	      0.01003745	      0.01001262	      0.01000441	      0.01000798	      3.79935204	     10.12963234	     -4.07396984	      3.44314933	      5.76423900	     -2.33306207	      0.01689677	      0.00124485	     -0.00230479	      0.00792694	      0.00338284	     -0.00168573	     -0.18978973	      0.06126551	     -0.00877584	      0.13490393	     -0.00865816	     -0.00112650
    144.40816000	      0.15340650	      0.28672702	      0.01010963	      0.01004077	      0.06916477	      0.13009689	      0.01002158	      0.03930804	      0.20277700	      0.05985611	      0.01004166	      0.01001962	      0.17643651	      0.01000257	      0.01001253	      0.01000630	      0.01000849	      0.01004826	      0.01006034	      0.01006329	      0.02027024	      0.01770073	      0.01505557	      0.07722327	      0.22800930	      0.05769530	      0.10511249	      0.01114912	      0.24662313	      0.07078860	      0.04825432	      0.01002066	      0.01005561	      0.01000285	      0.04952425	      0.22264579	      0.01001085	      0.01001407	      0.01000470	      0.01000892	      3.26361404	     -3.16814334	      2.90290396	      3.99771627	     -4.14291006	      0.31196505	      0.01451088	     -0.00048365	     -0.00060353	      0.00708828	      0.00954869	     -0.00523916	     -0.17947430	      0.12891798	     -0.01928893	      0.12533407	     -0.01138745	      0.00041751
    144.42520000	      0.16075417	      0.28436015	      0.01016133	      0.01004641	      0.07587960	      0.12407219	      0.01002443	      0.03955678	      0.10895741	      0.03012814	      0.01006055	      0.01003050	      0.01417147	      0.01001231	      0.01001117	      0.01000595	      0.01000851	      0.01003602	      0.01003614	      0.01003030	      0.01389599	      0.01039026	      0.01022779	      0.07122682	      0.22905347	      0.03722152	      0.07263273	      0.01005836	      0.22900684	      0.03803098	      0.04443623	      0.01002666	      0.01006890	      0.01000513	      0.03102844	      0.10356853	      0.01001590	      0.01001491	      0.01000498	      0.01000968	      1.09799333	    -10.97635254	      4.16816370	      0.78081420	     -6.52453455	      1.46200681	      0.01282999	      0.00043951	      0.00201403	      0.00657655	      0.00495798	     -0.00345879	     -0.20099336	      0.17364577	     -0.03345410	      0.11485051	     -0.00916166	     -0.00038239
    144.44224000	      0.22963824	      0.38334198	      0.07962328	      0.01041856	      0.18647537	      0.22993428	      0.01014188	      0.02534844	      0.10671288	      0.03159444	      0.01005575	      0.01002811	      0.01002584	      0.01001608	      0.01002089	      0.01001543	      0.01040092	      0.01001067	      0.01001740	      0.01002540	      0.01003989	      0.01005506	      0.01023678	      0.11345822	      0.10081497	      0.03379007	      0.06588688	      0.04034527	      0.17317336	      0.04776642	      0.02483669	      0.01005164	      0.01115389	      0.01000438	      0.01005521	      0.11224021	      0.01001451	      0.01003082	      0.01001038	      0.01002030	     -2.58829911	    -12.34054918	     -1.58792915	     -3.48626744	      1.55336026	      0.84450743	      0.01162885	      0.00706829	     -0.00257843	      0.00356306	      0.00508060	     -0.00339678	     -0.24455849	      0.17737099	     -0.05396343	      0.10638461	     -0.00344080	     -0.00302199
    144.45928000	      0.28085788	      0.47043402	      0.10745444	      0.01096296	      0.23312766	      0.28568123	      0.01013695	      0.02681417	      0.10349246	      0.03357312	      0.01006680	      0.01002644	      0.01002626	      0.01001782	      0.01001948	      0.01001518	      0.03069635	      0.01000859	      0.01001508	      0.01002332	      0.01003086	      0.01004719	      0.01028337	      0.14039038	      0.09139379	      0.02898141	      0.05264426	      0.10236509	      0.18833514	      0.07184914	      0.02617202	      0.01005419	      0.01206860	      0.01000384	      0.01004461	      0.12728164	      0.01001273	      0.01003104	      0.01001041	      0.01002052	     -5.19238454	      3.78573496	     -2.53953406	     -5.06561906	      4.19166573	      0.89922134	      0.01318172	      0.00939808	     -0.00410917	      0.00344122	      0.00534553	     -0.00295308	     -0.25913522	      0.20001426	     -0.07825295	      0.09621661	      0.00204187	     -0.00409039
    144.47632000	      0.26136596	      0.46585478	      0.03917609	      0.01005192	      0.17502315	      0.25259453	      0.01004017	      0.05079355	      0.10535943	      0.03508768	      0.01006807	      0.01003084	      0.01002900	      0.01002044	      0.01001694	      0.01000988	      0.01001986	      0.01001209	      0.01002256	      0.01004013	      0.01005129	      0.01012227	      0.01587154	      0.14063829	      0.16328800	      0.02471494	      0.04491870	      0.15826226	      0.23868858	      0.11621859	      0.05603782	      0.01004110	      0.01012914	      0.01000331	      0.01016336	      0.14136792	      0.01001789	      0.01001924	      0.01000657	      0.01001291	      0.58985073	     25.91235899	      2.20042231	      6.41104174	      0.42449653	      2.09428848	      0.01609546	      0.00601085	     -0.00430418	      0.00666940	      0.00576336	     -0.00260320	     -0.16781329	      0.15191651	     -0.03262546	      0.02481183	      0.03138006	     -0.00289000
    144.49336000	      0.22159843	      0.43789173	      0.01005389	      0.01002321	      0.07652103	      0.19024318	      0.01002016	      0.09038109	      0.11102234	      0.03795891	      0.01007367	      0.01003146	      0.01004567	      0.01004107	      0.01001284	      0.01000615	      0.01000692	      0.01003554	      0.01006968	      0.01022135	      0.01978572	      0.05627489	      0.07032882	      0.13309712	      0.28227930	      0.02446956	      0.04139712	      0.18264350	      0.31655814	      0.18483369	      0.10701513	      0.01003179	      0.01005642	      0.01000285	      0.09766037	      0.15446914	      0.01001976	      0.01001223	      0.01000420	      0.01000820	      2.55222078	     15.68199830	      2.84103296	      1.18839146	     -3.26344331	     -3.48921270	      0.02041235	      0.00035974	     -0.00370732	      0.01120468	      0.00628838	     -0.00237255	     -0.24564360	     -0.00449537	      0.17964994	      0.00356612	     -0.01361101	      0.17994664
    144.51040000	      0.19573203	      0.41528498	      0.01002965	      0.01001694	      0.01818809	      0.15537703	      0.01001376	      0.09463445	      0.11559666	      0.04038309	      0.01008065	      0.01003269	      0.01004187	      0.01004142	      0.01001158	      0.01000520	      0.01000509	      0.01032819	      0.01301943	      0.03755411	      0.06100999	      0.09440210	      0.09448255	      0.11632322	      0.33085995	      0.02461864	      0.03802865	      0.19867617	      0.34958579	      0.29128387	      0.13042598	      0.01002589	      0.01003153	      0.01000258	      0.15858321	      0.16457707	      0.01002216	      0.01001346	      0.01000472	      0.01000906	      7.89824847	    -47.62900350	      2.22046251	      7.79540484	     -7.98672338	      0.52710159	      0.02257523	     -0.00256504	     -0.00372061	      0.01115914	      0.00666271	     -0.00216709	     -0.28529616	     -0.28568120	      0.14974816	     -0.17214591	     -0.08680175	      0.36728348
    144.52744000	      0.14242005	      0.32554770	      0.01002416	      0.01001575	      0.01018509	      0.10079531	      0.01001065	      0.05367542	      0.11410693	      0.04116255	      0.01009990	      0.01003153	      0.01002281	      0.01002022	      0.01001195	      0.01000531	      0.01000486	      0.06581846	      0.04212049	      0.04386542	      0.07572938	      0.09902473	      0.08867406	      0.06241875	      0.30660316	      0.02657420	      0.03543525	      0.16683506	      0.31092502	      0.37816455	      0.11485087	      0.01002245	      0.01002033	      0.01000244	      0.17583992	      0.16517404	      0.01002602	      0.01002828	      0.01001050	      0.01001955	     -1.05711353	    -11.34144618	     -3.07846583	     -2.91305541	      1.70909907	      5.42709078	      0.02018541	     -0.00419222	     -0.00275647	      0.00601437	      0.00656453	     -0.00199398	     -0.26294355	     -0.59319809	      0.08272635	     -0.27831173	     -0.20121158	      0.65270007
    144.54448000	      0.06126251	      0.17154780	      0.01002370	      0.01001839	      0.01004731	      0.01732319	      0.01000976	      0.01054277	      0.10786214	      0.03897389	      0.01009943	      0.01003921	      0.01001503	      0.01001191	      0.01001349	      0.01000615	      0.01000547	      0.17905458	      0.07086882	      0.01743123	      0.09980810	      0.09201182	      0.06381447	      0.01018232	      0.24856383	      0.02684391	      0.03894691	      0.06158101	      0.21898586	      0.36050888	      0.07385571	      0.01002189	      0.01001702	      0.01000264	      0.17110738	      0.15624519	      0.01002850	      0.01173741	      0.01229882	      0.01197093	     -6.07789072	     12.82506584	      2.49751227	     -9.52578904	     -5.77235588	      0.12168891	      0.01392289	     -0.00542958	      0.00023322	     -0.00015588	      0.00601472	     -0.00195356	     -0.16175239	     -0.66787193	      0.28725984	     -0.38513809	     -0.35906653	      1.02980903
    144.56152000	      0.03383000	      0.08379306	      0.01003059	      0.01003215	      0.01004726	      0.01008999	      0.01001199	      0.01034851	      0.10089364	      0.03691707	      0.01010816	      0.01004339	      0.01001470	      0.01001129	      0.01001044	      0.01000559	      0.01000631	      0.31176143	      0.02630208	      0.01002666	      0.14750931	      0.06169570	      0.01045348	      0.01008180	      0.23186465	      0.02964643	      0.04556596	      0.01001656	      0.14281458	      0.21259783	      0.03664104	      0.01002953	      0.01002326	      0.01000288	      0.14854183	      0.14586173	      0.01003130	      0.01683681	      0.04110651	      0.02289402	     -0.35317697	     15.45932912	     -5.41747458	      3.25528198	     16.91339501	     -8.21889146	      0.00760307	     -0.00460823	      0.00669510	     -0.00081154	      0.00539354	     -0.00198370	      0.06124673	     -0.98669772	      0.73648244	     -0.53480611	     -0.46406183	      1.21543156
    144.57856000	      0.07924419	      0.11786001	      0.01007985	      0.01045510	      0.01068398	      0.01114990	      0.01001636	      0.01077028	      0.09522660	      0.03621433	      0.01018947	      0.01004726	      0.01001360	      0.01000951	      0.01000833	      0.01000510	      0.01000831	      0.30577139	      0.01004768	      0.01001184	      0.15700244	      0.01902544	      0.01004220	      0.01018461	      0.21951826	      0.03262475	      0.05095928	      0.01000718	      0.11010940	      0.09681230	      0.01292202	      0.01004168	      0.01003929	      0.01000308	      0.10197182	      0.13873121	      0.01003430	      0.02398839	      0.05728940	      0.03249223	     -3.39729883	     -0.76075455	     17.41937404	     -6.16897312	    -33.31880399	     -0.44786078	      0.00426635	     -0.00084740	      0.01061920	     -0.00124948	      0.00491833	     -0.00201188	     -0.01826631	     -0.40134958	      0.34124579	     -0.50044076	     -0.59068689	      1.40397291
    144.59560000	      0.08989112	      0.13669049	      0.01015185	      0.01050726	      0.01466672	      0.02159248	      0.01001859	      0.01060263	      0.09070167	      0.03518720	      0.01016695	      0.01005118	      0.01001424	      0.01000898	      0.01001015	      0.01000638	      0.01001111	      0.20726125	      0.01004730	      0.01001369	      0.11771114	      0.01527353	      0.01004974	      0.01062383	      0.17918607	      0.03376704	      0.05490609	      0.01000828	      0.10714377	      0.09182961	      0.01263413	      0.01003493	      0.01004499	      0.01000351	      0.08061458	      0.13397753	      0.01003624	      0.01970414	      0.04505983	      0.02592541	     -2.00672463	    -10.68501991	     -3.28461444	     -2.15409424	      4.27659856	      4.02864795	      0.00439108	      0.00065957	      0.00776669	     -0.00102749	      0.00456524	     -0.00203730	      0.00785515	     -0.73016666	      0.20542939	     -0.44705191	     -0.62392381	      1.32492493
    144.61264000	      0.07230961	      0.11214694	      0.01011303	      0.01014294	      0.01288521	      0.02334822	      0.01002116	      0.01070739	      0.08653732	      0.03428796	      0.01015656	      0.01005461	      0.01001474	      0.01000884	      0.01001382	      0.01000872	      0.01001471	      0.15874915	      0.01006214	      0.01001919	      0.08990457	      0.01933959	      0.01007329	      0.01089727	      0.13758155	      0.03552538	      0.05977233	      0.01001123	      0.09467092	      0.08611853	      0.01432458	      0.01002830	      0.01004906	      0.01000396	      0.06912192	      0.12827008	      0.01003760	      0.01532640	      0.02659105	      0.01779200	      4.84916777	     -2.18113179	    -11.33607847	      7.40326744	     18.24889307	     -0.36036291	      0.00385294	      0.00073393	      0.00526133	     -0.00060540	      0.00421706	     -0.00210448	      0.09680051	     -0.77123754	      0.18373486	     -0.30461301	     -0.68035104	      1.28012999
    144.62968000	      0.05023244	      0.06495811	      0.01039171	      0.02359123	      0.01361029	      0.01277688	      0.01004366	      0.01026968	      0.08186802	      0.03241937	      0.01013260	      0.01005887	      0.01001508	      0.01000862	      0.01001941	      0.01001285	      0.01002688	      0.18358905	      0.01015757	      0.01002577	      0.08808505	      0.02023183	      0.01008615	      0.01032342	      0.09208758	      0.03749925	      0.06587619	      0.01001240	      0.04810764	      0.01640378	      0.01021219	      0.01007753	      0.01014270	      0.01000462	      0.04521266	      0.11891512	      0.01003951	      0.01255225	      0.02598562	      0.01523656	      4.90425661	      5.22333995	      0.68035530	      4.68463056	     -2.72203760	      0.76652015	      0.00103697	      0.00101894	      0.00517054	     -0.00056237	      0.00377668	     -0.00221630	      0.12870077	     -0.45234753	      0.06237698	     -0.12055489	     -0.73007255	      1.23867393
    144.64672000	      0.03186995	      0.02671874	      0.02293877	      0.06344114	      0.01868599	      0.01089809	      0.01078433	      0.01022314	      0.07623855	      0.03023285	      0.01014488	      0.01006427	      0.01001486	      0.01000827	      0.01002830	      0.01002008	      0.01007693	      0.20704244	      0.01867083	      0.01003811	      0.08816423	      0.02579458	      0.01010640	      0.01045058	      0.05467995	      0.03806676	      0.06885133	      0.01001514	      0.01134106	      0.01009073	      0.01011223	      0.06373153	      0.02287132	      0.01000553	      0.02728134	      0.10701310	      0.01004197	      0.01870851	      0.05031472	      0.02711705	     -1.60664216	      3.03759154	      6.53371789	     -3.13605318	     -9.83564144	     -1.09493061	     -0.00124927	      0.00112176	      0.00516539	     -0.00101812	      0.00327165	     -0.00227338	      0.12925686	     -0.29618615	      0.06703371	      0.03557211	     -0.72410097	      1.14510777
    144.66376000	      0.02422354	      0.01388017	      0.03334324	      0.07529866	      0.02201959	      0.01068324	      0.03601211	      0.01016871	      0.07002479	      0.02795544	      0.01016082	      0.01007290	      0.01001498	      0.01000809	      0.01003899	      0.01002989	      0.01122810	      0.18906664	      0.02898179	      0.01005369	      0.07840755	      0.02618279	      0.01013911	      0.01044212	      0.03257582	      0.03577545	      0.06497671	      0.01002114	      0.01018856	      0.01006830	      0.01009504	      0.10963171	      0.03668207	      0.01000673	      0.01760881	      0.09662382	      0.01004735	      0.02633335	      0.07662705	      0.04040465	     -3.60866502	     -3.24302371	      4.23608416	     -4.55291353	     -5.36374100	     -0.34732963	     -0.00208502	      0.00118850	      0.00460929	     -0.00140235	      0.00281901	     -0.00215615	      0.14793246	     -0.24764568	      0.00382006	      0.12938700	     -0.68498819	      1.02502402
    144.68080000	      0.01494071	      0.01142531	      0.03312561	      0.06785515	      0.01951662	      0.01092312	      0.06408836	      0.01025245	      0.06358709	      0.02629045	      0.01022691	      0.01008464	      0.01001655	      0.01000873	      0.01007536	      0.01007484	      0.03198607	      0.14567441	      0.03429094	      0.01013337	      0.05818956	      0.02358499	      0.01008759	      0.01101599	      0.01502434	      0.03153359	      0.05530340	      0.01003180	      0.01019211	      0.01006195	      0.01009370	      0.13779903	      0.04307025	      0.01000821	      0.01367164	      0.08953776	      0.01005736	      0.02517418	      0.07349920	      0.03841868	     -0.30318673	     -5.48645398	      0.58073281	      1.25671746	     -1.76790589	      2.41215966	     -0.00234394	      0.00079523	      0.00341889	     -0.00121995	      0.00248321	     -0.00184078	      0.21631161	     -0.18504391	     -0.09555575	      0.13450920	     -0.58765713	      0.86487184
    144.69784000	      0.01017194	      0.01008314	      0.02870853	      0.05440849	      0.01232127	      0.01013765	      0.09366349	      0.01025522	      0.05760395	      0.02396732	      0.01023496	      0.01010156	      0.01001996	      0.01001043	      0.01380895	      0.02307239	      0.05897818	      0.09904943	      0.04321915	      0.01600031	      0.03347260	      0.01880877	      0.01185705	      0.01035688	      0.01013130	      0.02649961	      0.04401850	      0.01017806	      0.01007357	      0.01005683	      0.01011434	      0.16816541	      0.04812670	      0.01001008	      0.01050247	      0.08420148	      0.01007243	      0.01872959	      0.05378552	      0.02805152	      1.31266413	     -0.13860554	     -5.65028019	      3.24931251	      9.30680738	     -0.29942422	     -0.00262806	     -0.00013717	      0.00191782	     -0.00089662	      0.00220608	     -0.00142688	      0.26119697	     -0.22306547	     -0.11231440	      0.10324020	     -0.43927845	      0.61591669
    144.71488000	      0.01012352	      0.01006870	      0.03080785	      0.05269113	      0.01147046	      0.01013463	      0.12002901	      0.01032129	      0.05152533	      0.02130353	      0.01023661	      0.01012272	      0.01002642	      0.01001395	      0.02683516	      0.04916616	      0.07361142	      0.06857467	      0.03524901	      0.01972837	      0.02094417	      0.01263824	      0.01063211	      0.01040199	      0.01009573	      0.02106967	      0.03306304	      0.01018992	      0.01006422	      0.01004729	      0.01012214	      0.21386385	      0.05919102	      0.01001228	      0.01019361	      0.07695696	      0.01009518	      0.01158201	      0.02667337	      0.01468690	     -0.59077098	      6.24185246	     -2.53542749	     -3.00835352	      3.71954632	     -0.86756254	     -0.00280353	     -0.00016794	      0.00143345	     -0.00038972	      0.00202152	     -0.00105782	      0.28744127	     -0.08223439	     -0.03254570	      0.06587058	     -0.30108074	      0.39496858
    144.73192000	      0.01009878	      0.01007333	      0.02876415	      0.04529042	      0.01428059	      0.01014420	      0.14868495	      0.01543715	      0.04459808	      0.01974125	      0.01074630	      0.01021993	      0.01005938	      0.01056595	      0.02929439	      0.05418721	      0.07257950	      0.04057597	      0.02389717	      0.01810669	      0.01467381	      0.01258278	      0.01185159	      0.01426177	      0.01009137	      0.01743380	      0.02246985	      0.01087498	      0.01006812	      0.01003208	      0.01026701	      0.27703190	      0.07680136	      0.01001677	      0.01023267	      0.06714157	      0.01012193	      0.01013261	      0.01003092	      0.01006610	     -0.32254007	      4.03951796	      2.28168047	     -1.73709802	     -4.26527430	     -0.22467144	     -0.00251796	     -0.00010217	      0.00099155	      0.00137612	      0.00178311	     -0.00073194	      0.35587700	      0.04824535	      0.03358301	      0.00354057	     -0.17508104	      0.21894233
    144.74896000	      0.01015494	      0.01007269	      0.03391802	      0.05267702	      0.01592520	      0.01017038	      0.17615889	      0.01844442	      0.08605249	      0.03296113	      0.01020597	      0.01008930	      0.08708165	      0.01000483	      0.01940171	      0.04520267	      0.08021194	      0.03669927	      0.01707229	      0.01174890	      0.01365621	      0.01101832	      0.01055840	      0.01643507	      0.01009309	      0.02507265	      0.03635951	      0.01019486	      0.01006798	      0.01002320	      0.01017400	      0.32607355	      0.09339802	      0.01000782	      0.01012526	      0.12413190	      0.01007226	      0.01005955	      0.01002122	      0.01003808	     -1.35045428	     -2.07156485	      2.62934290	      0.53647811	     -3.62610050	     -0.35540591	     -0.00274996	      0.00019807	      0.00127306	      0.00244048	      0.00341649	     -0.00128437	      0.38845842	      0.06969384	      0.04128109	     -0.04569783	     -0.06663990	      0.06201167
    144.76600000	      0.01004256	      0.01007036	      0.01738064	      0.02554764	      0.01216713	      0.01017068	      0.20679709	      0.04730692	      0.04452818	      0.01853817	      0.01058872	      0.01012776	      0.04616944	      0.01000380	      0.01557828	      0.02393931	      0.03695859	      0.02624351	      0.01623138	      0.01356313	      0.01326103	      0.01210985	      0.01164658	      0.03196837	      0.01014772	      0.01515259	      0.01734243	      0.01092026	      0.01010296	      0.01001281	      0.01292774	      0.40316282	      0.11990748	      0.01001480	      0.01013299	      0.06291413	      0.01006037	      0.01001859	      0.01000639	      0.01001146	      1.12326285	      0.09556654	      1.52997711	      1.78718859	     -2.05852758	      0.77998280	     -0.00136963	     -0.00010380	      0.00065650	      0.00765469	      0.00177360	     -0.00063328	      0.40542050	      0.09842786	      0.00597296	     -0.08429869	      0.00675361	     -0.00102702
    144.78304000	      0.02092921	      0.01009484	      0.08731583	      0.13341803	      0.05948697	      0.01230416	      0.20990415	      0.01059095	      0.65008300	      0.23813678	      0.01003375	      0.01001270	      0.01000303	      0.59650972	      0.01005609	      0.01005684	      0.13662553	      0.07629163	      0.01025590	      0.01005121	      0.03437393	      0.01040466	      0.01009715	      0.01564086	      0.01011035	      0.12859266	      0.17891062	      0.01003384	      0.01005176	      0.01001836	      0.01006809	      0.35641227	      0.11323600	      0.01000109	      0.01009032	      0.94195472	      0.01000892	      0.03850684	      0.11025228	      0.06264869	     -1.75004443	     -4.31718983	     -1.08451866	     -2.69738032	      1.34194824	      0.70566107	     -0.00546893	      0.00228454	      0.00470911	     -0.00112254	      0.02648983	     -0.00906700	      0.35291718	      0.10890367	      0.00277385	     -0.07406688	      0.01118587	     -0.00540084
    144.80008000	      0.05649819	      0.01109273	      0.09874265	      0.14893531	      0.07795078	      0.02639068	      0.20259300	      0.01059499	      0.61064404	      0.21439960	      0.01002861	      0.01001177	      0.01000323	      0.65994015	      0.01003178	      0.01002986	      0.11367052	      0.08411458	      0.01009580	      0.01003260	      0.04420776	      0.01017708	      0.01007264	      0.01996917	      0.01050129	      0.12581046	      0.19227318	      0.01002207	      0.01006959	      0.01001455	      0.01006379	      0.35058567	      0.11819948	      0.01000129	      0.01008084	      0.84927715	      0.01000753	      0.03474580	      0.09678875	      0.05584237	     -0.52704886	     -9.50682996	     -2.51558812	     -1.48519781	      4.68204792	      0.23958110	     -0.00543276	      0.00330717	      0.00610338	     -0.00092807	      0.02465761	     -0.00992077	      0.30882731	      0.08660668	     -0.00557713	     -0.07232534	      0.01744171	     -0.01215890
    144.81712000	      0.02849467	      0.03212353	      0.01189294	      0.01487653	      0.01383933	      0.01462023	      0.17986384	      0.06100731	      0.03417425	      0.01354641	      0.01021051	      0.01010939	      0.03035036	      0.01000190	      0.01006289	      0.01004413	      0.01010046	      0.03756667	      0.01026032	      0.01008401	      0.02142288	      0.01132812	      0.01022507	      0.04356623	      0.03184325	      0.01496034	      0.02262568	      0.01006649	      0.02116582	      0.01000702	      0.01813703	      0.35502853	      0.12220294	      0.01002624	      0.01010749	      0.03120577	      0.01007108	      0.01000963	      0.01000348	      0.01000605	      3.07136626	     -7.76662252	     -0.39254100	      3.85670449	      1.45713164	     -0.43514513	      0.00012847	      0.00061239	      0.00165544	      0.01166750	      0.00122041	     -0.00088432	      0.25717070	      0.06905992	     -0.01579580	     -0.06856474	      0.02046152	     -0.01564464
    144.83416000	      0.01356058	      0.01067026	      0.02074285	      0.02391356	      0.01814271	      0.01422378	      0.06695084	      0.01447206	      0.24157975	      0.06902061	      0.01003857	      0.01001878	      0.29841022	      0.01000082	      0.01147704	      0.01438578	      0.03937016	      0.01064625	      0.01064293	      0.01048899	      0.01121541	      0.01084416	      0.01075472	      0.01569406	      0.01043466	      0.07409354	      0.13721686	      0.01012607	      0.01025695	      0.01002802	      0.01100870	      0.10429673	      0.03771795	      0.01000339	      0.01030765	      0.23560155	      0.01001023	      0.01005915	      0.01002251	      0.01003758	      3.37876489	     19.03832939	      1.33014591	      6.81665346	     -3.75793835	     -1.90813365	     -0.00097897	      0.00067356	      0.00035872	      0.00148053	      0.00975966	     -0.00647198	      0.16974535	      0.04748613	     -0.02379281	     -0.04896610	      0.01814122	     -0.01448325
    144.85120000	      0.01003661	      0.01002581	      0.01011830	      0.01083593	      0.01005742	      0.01004113	      0.01239304	      0.01061587	      1.22378507	      0.34594807	      0.01000641	      0.01000301	      1.34691048	      0.01000098	      0.10974619	      0.11288076	      0.01044928	      0.21996066	      0.16796086	      0.16033462	      0.05766250	      0.06231586	      0.05912093	      0.01010537	      0.01011961	      0.42380805	      0.80780593	      0.09474305	      0.01006206	      0.01064123	      0.01046530	      0.02200778	      0.01087897	      0.01000048	      0.04283141	      1.16584964	      0.01000157	      0.03223340	      0.09421294	      0.05140858	     -5.23205456	     27.83732168	     10.89112017	     -8.69310186	    -25.87823499	     -9.35773739	     -0.00203640	     -0.00408244	      0.00081852	     -0.00075655	      0.05460329	     -0.03776697	      0.07317272	      0.03168561	     -0.03477064	     -0.02034143	      0.01312574	     -0.01031897
    144.86824000	      0.20520851	      0.20293736	      0.12764633	      0.17820680	      0.14842431	      0.12521064	      0.10089081	      0.01047425	      0.92806256	      0.30522338	      0.01000758	      0.01000337	      0.01000072	      0.56867666	      0.01000889	      0.01000693	      0.01009440	      0.04094339	      0.01001851	      0.01000937	      0.06956715	      0.01005443	      0.01002483	      0.03886787	      0.11938983	      0.29625495	      0.54643511	      0.01000708	      0.07321457	      0.01001239	      0.01005913	      0.23767784	      0.09322897	      0.01000039	      0.01006419	      1.15897714	      0.01000182	      0.06562463	      0.19907058	      0.10485468	     -4.29523759	    -20.12030605	    -11.50171757	     -4.53365016	     25.10572457	      8.83293669	     -0.00313356	      0.00790256	      0.01109019	     -0.00153690	      0.05068745	     -0.02781061	      0.03801652	      0.06155913	     -0.07128715	     -0.00954467	      0.01019985	     -0.00549610
    144.88528000	      0.01002366	      0.01001564	      0.01016338	      0.04738121	      0.01003929	      0.01002497	      0.08359213	      0.01076414	      0.36836625	      0.10364933	      0.01001524	      0.01000708	      0.44484628	      0.11421829	      0.15597498	      0.15133304	      0.01427537	      0.51833205	      0.34376663	      0.27753034	      0.14028828	      0.12493382	      0.10307282	      0.01006868	      0.01007283	      0.21559342	      0.43055750	      0.08885631	      0.01003135	      0.01002248	      0.01010955	      0.16706327	      0.03989686	      0.01000086	      0.06415161	      0.33479915	      0.01000365	      0.05053415	      0.15660392	      0.08010475	     -5.61967766	    -25.98643257	     19.18974330	    -17.82162626	    -36.69999960	     -5.16052382	     -0.00572489	     -0.00711912	      0.00389870	     -0.00120893	      0.01799234	     -0.01582533	      0.07394158	      0.09583933	     -0.11032102	     -0.02430398	      0.01060179	     -0.00266424
    144.90232000	      0.01007000	      0.01006704	      0.01009190	      0.01008429	      0.01007916	      0.01008333	      0.01005660	      0.01030818	      0.01018871	      0.01059083	      0.01666519	      0.02906723	      0.01255871	      0.01000382	      0.09430497	      0.09934535	      0.01010081	      0.07466529	      0.09377594	      0.12242277	      0.01420854	      0.03599028	      0.04975912	      0.01014571	      0.01026905	      0.01015907	      0.01009256	      0.11453184	      0.01024611	      0.16990809	      0.01365337	      0.01003495	      0.01008190	      0.13281907	      0.03679684	      0.01108455	      0.06490420	      0.04488901	      0.14000588	      0.07034537	     10.49879536	      7.67071487	     -0.73441953	     16.82477721	      5.93649387	     -3.50881475	      0.00076267	     -0.00271953	     -0.00150391	     -0.00111072	     -0.00017540	      0.00108891	      0.11291123	      0.04192132	     -0.07824019	     -0.04512831	      0.01171390	     -0.00367346
    144.91936000	      0.01003739	      0.01002520	      0.01021803	      0.04354562	      0.01006031	      0.01003642	      0.01524362	      0.01018446	      0.01007260	      0.01296164	      0.06983671	      0.12078992	      0.01144154	      0.01001469	      0.04644550	      0.01760288	      0.01013860	      0.41737335	      0.23329178	      0.15129601	      0.12816365	      0.10247971	      0.07024884	      0.01008810	      0.01058010	      0.01003899	      0.01001838	      0.01980900	      0.01004969	      0.01006845	      0.01010541	      0.05102915	      0.01259205	      0.17914582	      0.06669797	      0.09893297	      0.30186868	      0.08898093	      0.27634969	      0.13830501	      3.29400358	     13.99963507	     -3.86365919	      8.29526428	      5.28050290	      0.93590944	     -0.00363047	     -0.00468084	      0.00395721	     -0.00232979	      0.00171629	      0.00618393	      0.11953301	     -0.07742460	      0.02368199	     -0.05832254	      0.01209739	     -0.00741612
    144.93640000	      0.01002278	      0.01001325	      0.02473592	      0.17144455	      0.01004720	      0.01001979	      0.12721427	      0.01012428	      0.01004734	      0.01817559	      0.10587899	      0.18063133	      0.01192918	      0.01002725	      0.01007483	      0.01003272	      0.01039334	      0.92067904	      0.40253090	      0.15426716	      0.32241035	      0.20605446	      0.09386832	      0.01005967	      0.01105011	      0.01002357	      0.01001083	      0.01003989	      0.01002378	      0.01001100	      0.01004153	      0.29783363	      0.09071640	      0.25740889	      0.13151641	      0.18272133	      0.45782946	      0.12996698	      0.40061941	      0.20099962	     -8.39855167	      1.82007379	      0.07107403	    -12.75309930	     -7.21631618	      5.67271571	     -0.00973330	     -0.00692803	      0.01259970	     -0.00362987	      0.00375977	      0.01051409	      0.11968566	     -0.15168635	      0.09814337	     -0.06157199	      0.01229450	     -0.01053783
    144.95344000	      0.01002797	      0.01001717	      0.02294434	      0.10046623	      0.01007198	      0.01002847	      0.07178979	      0.01011266	      0.01003419	      0.03141109	      0.14824323	      0.24961086	      0.01444944	      0.01002114	      0.03637737	      0.04192761	      0.06152565	      0.45653209	      0.21245503	      0.10796699	      0.15774011	      0.10447789	      0.05198534	      0.01007350	      0.01007777	      0.01001459	      0.01000664	      0.01034420	      0.01002848	      0.01003181	      0.01005667	      0.12691702	      0.03748182	      0.30145303	      0.06387337	      0.30521881	      0.63825604	      0.15158407	      0.46549816	      0.23434264	     -4.00768024	      0.20857453	    -14.15137987	     -4.53227767	     28.23553872	      0.60167656	     -0.00661880	     -0.00440112	      0.00582281	     -0.00454707	      0.00715397	      0.01646667	      0.12900207	     -0.14267303	      0.09628336	     -0.05243007	      0.01270070	     -0.01184177
    144.97048000	      0.01001227	      0.01000884	      0.01005022	      0.02344587	      0.01002166	      0.01001329	      0.01008438	      0.01009409	      0.01003609	      0.02842928	      0.13004601	      0.22172861	      0.03137366	      0.01002946	      0.13503067	      0.10099496	      0.01004695	      0.80152027	      0.43088726	      0.29990467	      0.27574929	      0.22785316	      0.14648166	      0.01003768	      0.01011966	      0.01001409	      0.01000653	      0.08622463	      0.01002383	      0.06845927	      0.01007631	      0.01030259	      0.01011640	      0.37303422	      0.20986465	      0.28264591	      0.55556376	      0.14257029	      0.43799824	      0.22133625	      2.76129294	     -4.07238865	      6.35141108	      3.97125645	     -8.86954745	     -5.29981831	     -0.00539550	     -0.01283576	      0.00546398	     -0.00453090	      0.00698702	      0.01587689	      0.13156874	     -0.10428560	      0.07152237	     -0.03310154	      0.01329291	     -0.01340582
    144.98752000	      0.01001253	      0.01000842	      0.01004626	      0.05872881	      0.01001995	      0.01001200	      0.01007573	      0.01010184	      0.01003459	      0.02682448	      0.12384046	      0.21455666	      0.08088638	      0.04073333	      0.01039794	      0.01005101	      0.01002625	      0.94396974	      0.39727110	      0.17718955	      0.37518565	      0.24462400	      0.11133728	      0.01003333	      0.06370171	      0.01001303	      0.01000618	      0.01013878	      0.01002419	      0.01214355	      0.01005922	      0.05145031	      0.01075278	      0.48332056	      0.27433036	      0.28209050	      0.52451407	      0.13269774	      0.40916733	      0.20758071	      2.94870192	     -1.95057201	      7.85132999	      0.29543350	    -12.74986758	      1.43189080	     -0.00637814	     -0.01304310	      0.01116148	     -0.00437148	      0.00674446	      0.01630685	      0.10898285	     -0.08462154	      0.08002618	     -0.01225753	      0.01374797	     -0.01633932
    145.00456000	      0.01002582	      0.01001636	      0.01005154	      0.04377022	      0.01002871	      0.01001832	      0.01003556	      0.01012830	      0.01003522	      0.01561714	      0.09844189	      0.17555022	      0.14662535	      0.04199586	      0.01001811	      0.01001202	      0.01001717	      0.67923767	      0.17910626	      0.01007075	      0.31558256	      0.15421759	      0.02535214	      0.01004382	      0.17428287	      0.01001539	      0.01000754	      0.01002072	      0.01006334	      0.07814018	      0.01008041	      0.01025376	      0.01013228	      0.57570293	      0.23894520	      0.21030386	      0.41484028	      0.09358144	      0.29005048	      0.14773004	      2.61792796	      1.04398380	     -1.37444143	      3.76691947	      2.60027118	      1.46456659	     -0.00288175	     -0.00818665	      0.01265120	     -0.00313644	      0.00426757	      0.01361184	      0.05825533	     -0.06187833	      0.09515950	      0.00341068	      0.01335280	     -0.01782763
    145.02160000	      0.01006565	      0.01005048	      0.01005255	      0.01018593	      0.01004292	      0.01003526	      0.01002581	      0.01027887	      0.01003599	      0.01028481	      0.06418027	      0.12284386	      0.19789736	      0.05055439	      0.01001942	      0.01001259	      0.01001606	      0.35470273	      0.06272902	      0.01004951	      0.18155200	      0.08157408	      0.01179991	      0.01007074	      0.17120810	      0.01002312	      0.01001188	      0.01002674	      0.02904523	      0.17381751	      0.01048599	      0.01002952	      0.01005990	      0.62781224	      0.16102105	      0.06978696	      0.27064446	      0.04308850	      0.13401097	      0.06856286	      0.81392291	      3.02616963	     -4.79877310	      1.95286073	      7.38211382	     -0.55011365	      0.00124519	     -0.00521362	      0.00740604	     -0.00144675	      0.00056516	      0.00911027	     -0.01034546	      0.00443003	      0.05986247	      0.01577535	      0.01175237	     -0.01489571
    145.03864000	      0.03041342	      0.03415324	      0.01011951	      0.01742058	      0.01013696	      0.01008044	      0.01003615	      0.01030626	      0.01004633	      0.01074994	      0.04672109	      0.08581852	      0.10284945	      0.55814247	      0.01001449	      0.01001085	      0.01002027	      0.16797456	      0.01005417	      0.01001961	      0.12017731	      0.01414368	      0.01006622	      0.01011469	      0.16667942	      0.01003003	      0.01001572	      0.01001722	      0.03974516	      0.10922817	      0.01024104	      0.01005169	      0.01010461	      0.35472980	      0.09312440	      0.07333404	      0.19433828	      0.04903232	      0.15291436	      0.07883000	     -4.61490302	     -2.19333405	     -2.93233252	     -5.78756617	      3.89552047	     -0.27238965	      0.00074625	     -0.00156646	      0.00831853	     -0.00162609	      0.00092887	      0.00671359	     -0.08123743	      0.09247365	     -0.01687465	      0.03424448	      0.00973893	     -0.00957143
    145.05568000	      0.06393755	      0.17130730	      0.01005665	      0.01003748	      0.01015625	      0.06008344	      0.01002382	      0.02953357	      0.01004211	      0.01014393	      0.03144062	      0.06540819	      0.23409387	      0.28750838	      0.01007090	      0.01002282	      0.01001646	      0.01041800	      0.03791318	      0.07291436	      0.01221341	      0.04193653	      0.05196980	      0.03385097	      0.12229379	      0.01004381	      0.01002436	      0.11035365	      0.15547874	      0.16263582	      0.05766068	      0.01001671	      0.01004255	      0.40402144	      0.05676895	      0.01010041	      0.12918774	      0.01003241	      0.01001095	      0.01002053	     -1.05908743	     -1.57675567	     -0.70774205	      0.55249738	      1.23221991	     -2.23240046	      0.00847350	     -0.00199387	     -0.00379880	      0.00417215	     -0.00129120	      0.00438416	     -0.13640408	      0.15043325	     -0.07898745	      0.06440103	      0.00874140	     -0.00683523
    145.07272000	      0.08951161	      0.25518010	      0.01003271	      0.01002394	      0.01008068	      0.07087589	      0.01001637	      0.06786660	      0.01007067	      0.01014961	      0.01336223	      0.02408833	      0.86521379	      0.01000236	      0.01002574	      0.01001017	      0.01000843	      0.07072737	      0.07449049	      0.09525268	      0.05949263	      0.09172495	      0.08598325	      0.06163188	      0.26055845	      0.01017519	      0.01010378	      0.13363418	      0.27610183	      0.09315229	      0.09499440	      0.01001367	      0.01003431	      0.25488977	      0.11845637	      0.01004623	      0.03243106	      0.01001296	      0.01000429	      0.01000804	      2.82288852	      1.05631645	      4.78837119	      4.73479227	     -7.63393758	      0.42870751	      0.01476454	     -0.00510250	     -0.00427033	      0.01035977	     -0.00200473	      0.00087218	     -0.16914548	      0.16550002	     -0.09564168	      0.09961287	      0.00879935	     -0.00824132
    145.08976000	      0.08142565	      0.19031112	      0.01003754	      0.01003814	      0.01007585	      0.01046066	      0.01003212	      0.09494169	      0.01010902	      0.01032804	      0.01253767	      0.01750501	      0.86885942	      0.01003515	      0.01000891	      0.01000563	      0.01000710	      0.09319954	      0.01003409	      0.01001705	      0.12268302	      0.01935717	      0.01007986	      0.04925861	      0.36453256	      0.01012007	      0.01007322	      0.01002160	      0.24716986	      0.01001158	      0.07228582	      0.01480667	      0.01212884	      0.11929658	      0.10385363	      0.01011931	      0.02667027	      0.01000834	      0.01000278	      0.01000516	      0.68921607	      3.80135684	      5.43347311	     -2.61381342	     -8.37152224	      4.37893076	      0.01109226	     -0.00570700	      0.00620825	      0.01537883	     -0.00074280	      0.00077266	     -0.19486427	      0.14725648	     -0.07433358	      0.13069627	      0.00765110	     -0.01053954
    145.10680000	      0.20667713	      0.29452872	      0.05723572	      0.05642741	      0.12338694	      0.07266042	      0.01004661	      0.01053087	      0.68099668	      0.25550083	      0.01003676	      0.01001377	      0.01000270	      1.37918416	      0.01000549	      0.01000467	      0.01001450	      0.01001158	      0.01000732	      0.01000528	      0.01011338	      0.01001793	      0.01001383	      0.01701252	      0.28047565	      0.13001431	      0.18005850	      0.01000738	      0.12742090	      0.02365261	      0.01019170	      0.01010159	      0.01088206	      0.01000138	      0.01006888	      1.05995483	      0.01000990	      0.04656142	      0.13908757	      0.07528063	     -2.20552248	      3.28529464	     -3.30060568	     -5.94418015	      6.18538886	     -1.37527228	      0.00315786	      0.00455112	      0.01574225	     -0.00125752	      0.02580439	     -0.00873114	     -0.21873337	      0.10260128	     -0.04155572	      0.15174341	      0.00340560	     -0.01065387
    145.12384000	      0.19242849	      0.32285943	      0.03172106	      0.01022184	      0.12127779	      0.14354273	      0.01002924	      0.01580972	      0.23991204	      0.08637577	      0.01007622	      0.01003189	      0.01000408	      0.49782016	      0.01000965	      0.01000653	      0.01001469	      0.01001385	      0.01001428	      0.01001337	      0.01007963	      0.01004213	      0.01004465	      0.06191128	      0.22404627	      0.03709375	      0.04862452	      0.01003329	      0.21224386	      0.13522150	      0.01909880	      0.01002347	      0.01006724	      0.01000357	      0.01013104	      0.36324043	      0.01002214	      0.01006100	      0.01002224	      0.01003914	     -1.14805567	     -1.31834872	     -4.97639331	      1.07569764	      6.80225867	     -2.06745106	      0.01009187	      0.00286914	      0.00400528	      0.00155999	      0.00985287	     -0.00313572	     -0.21783623	      0.06517321	     -0.02153254	      0.15580144	     -0.00263781	     -0.00867426
    145.14088000	      0.13972702	      0.29048903	      0.01006226	      0.01003226	      0.04321027	      0.12102734	      0.01001913	      0.05749445	      0.01200327	      0.01200230	      0.01250668	      0.01297369	      0.17330374	      0.01000421	      0.01001080	      0.01000533	      0.01000680	      0.01031194	      0.01018757	      0.01022467	      0.05696326	      0.06398028	      0.06125166	      0.09025084	      0.32035500	      0.01204438	      0.01197036	      0.06242891	      0.34917821	      0.02416300	      0.06189258	      0.01001885	      0.01004861	      0.02682422	      0.08726750	      0.01181175	      0.01366200	      0.01001150	      0.01000386	      0.01000722	      2.31654036	     -6.13124527	     -0.36305593	      5.01878442	     -0.17708474	     -0.74167740	      0.01810515	     -0.00401312	     -0.00201879	      0.00989302	     -0.00018827	      0.00010405	     -0.18762971	      0.06750142	     -0.01445906	      0.14255521	     -0.00714616	     -0.00621107
    145.15792000	      0.08802154	      0.19486694	      0.01005208	      0.01003629	      0.01162825	      0.05168782	      0.01001833	      0.03956039	      0.26584321	      0.07929043	      0.01003929	      0.01001800	      0.28594490	      0.01000159	      0.01000923	      0.01000489	      0.01000630	      0.03600448	      0.01008532	      0.01004185	      0.08983631	      0.04710534	      0.01325350	      0.04857271	      0.32197214	      0.06874740	      0.12219184	      0.01009016	      0.30580582	      0.13067978	      0.04798864	      0.01001885	      0.01004413	      0.01000255	      0.11030968	      0.30450553	      0.01001028	      0.01001622	      0.01000541	      0.01001026	      4.05199095	     -0.20025363	      4.96212527	      6.85451577	     -7.73286748	      3.05711674	      0.01491948	     -0.00574487	      0.00136478	      0.00663312	      0.01170492	     -0.00600503	     -0.15536883	      0.07571671	     -0.00588104	      0.12162170	     -0.00789866	     -0.00504036
    145.17496000	      0.06688770	      0.13920139	      0.01011314	      0.01008727	      0.01464801	      0.03835634	      0.01005642	      0.03092985	      0.10394356	      0.03040340	      0.01014926	      0.01006889	      0.01024315	      0.01008066	      0.01005360	      0.01002229	      0.01001972	      0.01300823	      0.01039034	      0.01021852	      0.05592453	      0.01676281	      0.01152299	      0.03611136	      0.22152132	      0.03249246	      0.05954006	      0.01027982	      0.20698807	      0.04915885	      0.03249863	      0.01005905	      0.01013988	      0.01001042	      0.06481806	      0.10840533	      0.01003778	      0.01004597	      0.01001496	      0.01002931	     -0.93088426	      1.29257332	      1.46139994	     -1.68919082	     -1.75026856	      0.92052084	      0.00989874	     -0.00352874	      0.00164676	      0.00488073	      0.00480576	     -0.00280596	     -0.14673815	      0.04649030	      0.00733872	      0.10803691	     -0.00604464	     -0.00631021
    145.19200000	      0.12327852	      0.17214826	      0.07148923	      0.03839244	      0.11348909	      0.10109923	      0.01697860	      0.01038183	      0.29472962	      0.09580630	      0.01002674	      0.01001174	      0.01000433	      0.13020874	      0.01001340	      0.01001246	      0.03845041	      0.01001232	      0.01001287	      0.01001096	      0.01004512	      0.01002998	      0.01002645	      0.03577841	      0.04406595	      0.05964863	      0.10108418	      0.01001245	      0.04616617	      0.01009650	      0.01023728	      0.01451943	      0.01801263	      0.01000136	      0.01004830	      0.38377120	      0.01000664	      0.01472451	      0.04181747	      0.02147644	     -5.69928684	      6.17991011	     -9.66829078	    -11.24346205	     14.60771467	     -4.56079747	      0.00175784	      0.00529695	      0.00384066	     -0.00034472	      0.01691655	     -0.00686887	     -0.15876755	     -0.02958067	      0.02657732	      0.10342102	     -0.00297422	     -0.01055045
