inDegrees=no
DataType=double
version=3
OpenSimVersion=4.6-2026-03-27-4e5ffda9c
endheader
time	/jointset/ground_pelvis/pelvis_tilt/value	/jointset/ground_pelvis/pelvis_list/value	/jointset/ground_pelvis/pelvis_rotation/value	/jointset/ground_pelvis/pelvis_tx/value	/jointset/ground_pelvis/pelvis_ty/value	/jointset/ground_pelvis/pelvis_tz/value	/jointset/hip_r/hip_flexion_r/value	/jointset/hip_r/hip_adduction_r/value	/jointset/hip_r/hip_rotation_r/value	/jointset/hip_l/hip_flexion_l/value	/jointset/hip_l/hip_adduction_l/value	/jointset/hip_l/hip_rotation_l/value	/jointset/walker_knee_r/knee_angle_r/value	/jointset/patellofemoral_r/knee_angle_r_beta/value	/jointset/walker_knee_l/knee_angle_l/value	/jointset/patellofemoral_l/knee_angle_l_beta/value	/jointset/ankle_r/ankle_angle_r/value	/jointset/ankle_l/ankle_angle_l/value	/jointset/subtalar_r/subtalar_angle_r/value	/jointset/subtalar_l/subtalar_angle_l/value	/jointset/ground_pelvis/pelvis_tilt/speed	/jointset/ground_pelvis/pelvis_list/speed	/jointset/ground_pelvis/pelvis_rotation/speed	/jointset/ground_pelvis/pelvis_tx/speed	/jointset/ground_pelvis/pelvis_ty/speed	/jointset/ground_pelvis/pelvis_tz/speed	/jointset/hip_r/hip_flexion_r/speed	/jointset/hip_r/hip_adduction_r/speed	/jointset/hip_r/hip_rotation_r/speed	/jointset/hip_l/hip_flexion_l/speed	/jointset/hip_l/hip_adduction_l/speed	/jointset/hip_l/hip_rotation_l/speed	/jointset/walker_knee_r/knee_angle_r/speed	/jointset/patellofemoral_r/knee_angle_r_beta/speed	/jointset/walker_knee_l/knee_angle_l/speed	/jointset/patellofemoral_l/knee_angle_l_beta/speed	/jointset/ankle_r/ankle_angle_r/speed	/jointset/ankle_l/ankle_angle_l/speed	/jointset/subtalar_r/subtalar_angle_r/speed	/jointset/subtalar_l/subtalar_angle_l/speed	/forceset/addbrev_r/activation	/forceset/addlong_r/activation	/forceset/addmagDist_r/activation	/forceset/addmagIsch_r/activation	/forceset/addmagMid_r/activation	/forceset/addmagProx_r/activation	/forceset/bflh_r/activation	/forceset/bfsh_r/activation	/forceset/edl_r/activation	/forceset/ehl_r/activation	/forceset/fdl_r/activation	/forceset/fhl_r/activation	/forceset/gaslat_r/activation	/forceset/gasmed_r/activation	/forceset/glmax1_r/activation	/forceset/glmax2_r/activation	/forceset/glmax3_r/activation	/forceset/glmed1_r/activation	/forceset/glmed2_r/activation	/forceset/glmed3_r/activation	/forceset/glmin1_r/activation	/forceset/glmin2_r/activation	/forceset/glmin3_r/activation	/forceset/grac_r/activation	/forceset/iliacus_r/activation	/forceset/perbrev_r/activation	/forceset/perlong_r/activation	/forceset/piri_r/activation	/forceset/psoas_r/activation	/forceset/recfem_r/activation	/forceset/sart_r/activation	/forceset/semimem_r/activation	/forceset/semiten_r/activation	/forceset/soleus_r/activation	/forceset/tfl_r/activation	/forceset/tibant_r/activation	/forceset/tibpost_r/activation	/forceset/vasint_r/activation	/forceset/vaslat_r/activation	/forceset/vasmed_r/activation
144.34	-0.05910134388647226	0.01583381674546062	0.08935509528473942	1.111421285751727	1.081238875471516	-0.3364537345896224	-0.3083467655331723	0.03053377920065272	0.05092800759733298	0.480157808241523	-0.04934592780030327	-0.01366987232280966	0.02614953145931992	0.02614953145931992	0.6362262538881781	0.6362262538881781	-0.1970805409968807	0.07753558112110163	-0.2960928110238424	-0.4720450532523112	0.1339078482901483	2.494221131114132	1.044562304573614	0.1000930878054729	0.6260529662085431	-0.1995700228691437	-2.524530637947322	-2.91294380913101	-1.288395539084255	-2.409909853770378	3.58611805021344	0.4291239883962763	0.1655385291463923	0.1655385291463923	-9.176903582387864	-9.176903582387864	-4.586998941345117	-1.948338320940083	3.98307490767084	1.018224546145914	0.1342709550247561	0.1234128364948019	0.02631010167054743	0.027409263515329	0.06578273674395581	0.04538794164929984	0.01479351548300684	0.02592041946519357	0.2810787383338137	0.1233808894144364	0.0347038990244893	0.03403327244706089	0.2982354214641384	0.6281912854348828	0.01007582243477524	0.01006798099228042	0.01025045550451533	0.01038007841417121	0.01014185891110546	0.01007738651238901	0.05569976978038055	0.01045569251928911	0.01027348364487005	0.01797277899550552	0.3477275676784072	0.08778199223305781	0.09215017723467481	0.0100522251072237	0.1342124343509687	0.01078134901573714	0.0107200771266834	0.04885992876305724	0.03694278960803396	0.01577794490214685	0.02094520414219335	0.3964486832852133	0.04069753179496417	0.01060527415370647	0.01129987734398705	0.01058732723341995
144.35704	-0.05127537336361171	0.04383624660858553	0.09523633921519255	1.11308611447727	1.091067298742174	-0.339010896668305	-0.3408008181265199	-0.007055832697115053	0.02017286980689305	0.4318481068844184	-0.00917295153067129	-0.008498985272585387	0.05592532778152762	0.05592532778152762	0.4872197774221189	0.4872197774221189	-0.2749072819297638	0.04978618845174033	-0.2074185818566865	-0.4223444342441262	0.2511831550390868	1.484542270843611	0.2082866086747424	0.09195028395864262	0.5105945290054188	-0.1398304396886938	-1.36537294587976	-2.151171171216157	-1.47243716378465	-2.352371929432771	2.147401219843713	0.2056570580478989	2.230115309460899	2.230115309460899	-7.879412953028506	-7.879412953028506	-3.958399015203679	-1.547241467387084	4.48030775393066	2.988596619318492	0.1054900229313732	0.1510906552832535	0.01624673763503148	0.01946903327313407	0.03953459355134223	0.05228150789473852	0.01276240161426062	0.03140126141558989	0.2042474165539767	0.08822613703908813	0.02318418641817396	0.02258511881235675	0.2025253569980964	0.4455921715292349	0.01011129852355868	0.01006698754769618	0.01017181108185984	0.01247427974430169	0.01059470645573181	0.010515237967351	0.05279599141868007	0.02170564018172448	0.01544593234101832	0.0362100677340788	0.292738125066874	0.05917198160516029	0.1083612670558083	0.01560276971966459	0.1709501108792754	0.01389791967079313	0.0301945453776874	0.03138452761285977	0.02483831350042787	0.01351463236674266	0.04054246955758357	0.3518482597595496	0.02712084921527278	0.01037622642038341	0.01079570657749673	0.01035814532434798
144.37408	-0.04613781168471395	0.06438553286806113	0.09418067473619449	1.114581835454334	1.099062655014402	-0.3410491682066081	-0.3582641879138645	-0.03999417494035566	-0.005093821097272301	0.3920157384259491	0.02038146876562561	-0.006493606744980766	0.1047662189019382	0.1047662189019382	0.3609257113838698	0.3609257113838698	-0.3429702319741763	0.02344821314642942	-0.1321758655487413	-0.36488653642326	0.1982900751743491	0.6899891491207426	-0.5134332802430028	0.07864092998564108	0.3657535289879095	-0.0864325609400458	-0.1470120683159346	-1.585415209897324	-1.251783652548453	-1.934688545628662	1.005618337658717	-0.06128931892281102	4.073048307924026	4.073048307924026	-6.151523937419107	-6.151523937419107	-3.34466154331848	-1.413825854695882	3.8980570166433	4.055462004727642	0.09057260726149803	0.1758611304581506	0.009191085888860206	0.01427289740563168	0.02485861623959749	0.05661925345232431	0.01076999144435337	0.03871033510270201	0.1501549464612347	0.05650235692772079	0.0161756951621564	0.01574613348873728	0.11541739776523	0.2677304937621389	0.01011998790520859	0.01005784747535309	0.01009524958591682	0.01433513125225718	0.0112055517260567	0.01085733730983431	0.04667282417120187	0.02851319093916209	0.01855907400712119	0.04960971155432387	0.247829808512659	0.04337728956474731	0.114960299220248	0.01599959161363216	0.1955928101098943	0.01558524002898002	0.04286686246015983	0.02570517628097146	0.0199682567352529	0.01164922046641933	0.05138198924040505	0.2849074954460544	0.01871214071662563	0.01019565284325486	0.01037509781371122	0.0101766502613298
144.39112	-0.04506780041085646	0.07476514712540608	0.08286222233766739	1.115762021720303	1.104021176651274	-0.3422978420972454	-0.3533433479579361	-0.06647353604053061	-0.01919263975474261	0.3661154222898887	0.03532808594720104	-0.00959897490868674	0.1816307182388444	0.1816307182388444	0.2724487369245454	0.2724487369245454	-0.3977837613892735	-0.004226591080905279	-0.08579846226319568	-0.3036395933623021	0.01087444025989932	0.2185776048438793	-1.051719592611989	0.05820616104243156	0.1897596668239813	-0.04351692253669914	0.9922499843621826	-1.267759638895547	-0.5122826628166591	-1.178534210619993	0.3162395075595695	-0.3562734146945071	5.513907594373259	5.513907594373259	-3.972898973754024	-3.972898973754024	-2.842891010227538	-1.742177663972863	1.881336348851639	3.736676696055872	0.09723311496613965	0.1973426126449759	0.01009345795174234	0.01289757017359761	0.03123874031941578	0.06178327378449606	0.009431054678758084	0.04662076671486484	0.1303244722807211	0.03380000544530727	0.01490650839641787	0.01486704423581174	0.04943555511164095	0.1199697107915445	0.01009672042965821	0.01004092478136513	0.01003585425607802	0.01506508093627918	0.01167090780315347	0.01092242843152529	0.03620760547014825	0.02833454762296778	0.01851345530753447	0.056530792455316	0.2170060742679901	0.04398733685899786	0.1102383218993896	0.009446931134911768	0.2000417958380507	0.0151835367940617	0.04498143311355368	0.03562222015795552	0.02445665487251992	0.01048080675030922	0.04868626136393435	0.1980463220559853	0.01685856722522256	0.01009773902789142	0.01010591365307397	0.01007743501017376
144.40816	-0.04677772993227992	0.07757880751642394	0.06256575722301826	1.11653224005243	1.105615406618745	-0.3428166409109986	-0.3290619326869453	-0.08739894027451614	-0.01780424893167668	0.3538882240248704	0.03940206508772552	-0.01785159195023665	0.2832020367482405	0.2832020367482405	0.2253853992531372	0.2253853992531372	-0.4423011173821648	-0.03964785816204193	-0.08198212301986867	-0.2543506694452458	-0.08789125232150523	0.04790967691327363	-1.367599386026157	0.03325765248105192	0.006350503908827645	-0.01502473596316314	1.757944332714189	-1.094815648847657	0.5081010144238669	-0.48020206924826	0.07561306832175294	-0.6055887935682908	6.46451756500005	6.46451756500005	-1.753755999568476	-1.753755999568476	-2.499077314395637	-2.478129123441009	-1.029828427238064	2.171868791358663	0.1241733304181789	0.2218651199175191	0.02327624374088271	0.01404537237669654	0.06171536343634564	0.07822617755339541	0.01031075522962682	0.05165395269618219	0.1368778655434492	0.02450613941921339	0.01654577972373874	0.01707604765126295	0.01326489704443274	0.03288320186840599	0.01006449379080172	0.01002749551162518	0.0100231308047773	0.01316629324716928	0.01114138161526742	0.01048733728038247	0.02296114204854076	0.02171256309410664	0.01557181136024901	0.06161202370454686	0.1929392632057476	0.05358910377765571	0.102127014683845	0.001620777140762624	0.1862123940307376	0.01321358995392343	0.03845501622679375	0.05434512805604485	0.03467017977503256	0.01003389345178184	0.03411165957954686	0.1198917168067415	0.01830296184692794	0.01008394485232755	0.01000397928419147	0.01006329026161975
144.4252	-0.0472466353852497	0.07776299325439663	0.03800769277909646	1.116880332997587	1.104145718969425	-0.3429417872990453	-0.2956496352151486	-0.1041370564860838	-0.0007636708111172941	0.348964573163195	0.04035866134743795	-0.02976282331308668	0.3996325003523745	0.3996325003523745	0.2129926453794424	0.2129926453794424	-0.480405852132708	-0.08700196948692193	-0.1250571115588512	-0.2339068703392659	0.09102204237627615	0.08999326853535709	-1.397364430708842	0.009519215284009565	-0.1619361953947557	-0.008553214733359949	1.947765487519976	-0.9246963176371114	1.374201070477634	-0.2502455439629673	0.2126648356886442	-0.7554307616808406	6.971017019096138	6.971017019096138	-0.002365397084169829	-0.002365397084169829	-2.166809675424349	-3.18495864103456	-3.802504703184399	-0.01110853614549095	0.164677925948047	0.262485625087194	0.04666413813776821	0.01529400361503427	0.1092756117908939	0.1162224847227604	0.01550288250204063	0.05297096183503554	0.149354285787463	0.0267342615105431	0.01738122654403393	0.01820731920123598	0.003065430132434539	0.01138518201445386	0.01005566648537838	0.01003202367693049	0.01008604578432409	0.008018628223740507	0.008976888802625909	0.009559368841364812	0.01035079223299618	0.01188620168949561	0.011039973854222	0.07497974782442739	0.162524797916937	0.06274940256957198	0.1006186516490006	0.006278675725670504	0.1680811720522826	0.01096534767055377	0.03061594984081596	0.07066042447357813	0.04631717455563951	0.01003089686746836	0.01457658471867296	0.08114637702246429	0.01886394658889214	0.010121986092803	0.01001976168707504	0.01010229110316617
144.44224	-0.04201653523081417	0.07952838277296083	0.0158847711158165	1.11687942950155	1.100032720442107	-0.3432057720893129	-0.2638656782768019	-0.1170302596969077	0.02610822424067594	0.3422338330647161	0.04587946082426899	-0.04384652718967835	0.5220593145532435	0.5220593145532435	0.2230936932365556	0.2230936932365556	-0.5116845445945343	-0.1418344367937346	-0.205301939574974	-0.2498474941291121	0.5077344798921994	0.2604507246434888	-1.052437162666653	-0.008274419925493069	-0.3130701545220929	-0.03369329501601433	1.660183878803842	-0.6927205042224663	1.684431139348294	-0.5666462947893929	0.653246051370625	-0.8537277285739434	7.202223642515996	7.202223642515996	1.027049887036662	1.027049887036662	-1.599271668019774	-3.242944689963635	-5.495207192956499	-2.090670019421572	0.2112716993233705	0.3282051217369105	0.06962994473519622	0.01517930553407674	0.1574844610801559	0.1732235775991768	0.02564961781588811	0.05659180516285561	0.1539483332696547	0.0330503318070321	0.01672189939789808	0.01690860817176067	0.006196061187954519	0.02942759667560585	0.01008090072561538	0.01005798095164746	0.01022212110814204	0.002737795574721202	0.006385707739032213	0.0088269362747482	0.00314274238555861	0.004054447890368395	0.007368725212057048	0.1049184453920003	0.1246142224785327	0.0694333498469169	0.1080694231913537	0.03628248305140066	0.1645363473482463	0.009582187782860189	0.03084340958555747	0.07808448507122304	0.05887288240461503	0.01012476246630273	-0.0005072029178513904	0.08873854038186112	0.01791999915100979	0.01016757315802156	0.01007246210260124	0.01014787931221134
144.45928	-0.02949898742175882	0.08516203732387451	0.003376264198593849	1.11663109356649	1.093473465824268	-0.3442137249373506	-0.2389819261180159	-0.1258518717271195	0.05225721449101466	0.3273266784017725	0.06129797271192358	-0.06000165624346539	0.6465390183593812	0.6465390183593812	0.2441728371136847	0.2441728371136847	-0.5310161703926279	-0.1910885127687129	-0.301484497787932	-0.2983841149860099	0.9138757426900309	0.4898857929478169	-0.3285913236290973	-0.02097087168450244	-0.4565524939505286	-0.09136574363953007	1.26882984736264	-0.4369186609564858	1.287343062565858	-1.128524914714182	1.286250333876466	-0.9970800740785013	7.356825759136473	7.356825759136473	1.463913361134992	1.463913361134992	-0.661788890090052	-2.36394288199378	-5.67153967947415	-3.640926077217136	0.2528319753612798	0.4074256307905065	0.07914385339569802	0.01359581763314447	0.1856399140924971	0.226923831771257	0.03734871885906878	0.07314948747580224	0.1529887331972483	0.03734870657332906	0.01644065883379454	0.01496740811328	0.01176977517036151	0.05326016618661043	0.0101177960029602	0.01008999546532322	0.01037134108112146	0.005891983921855666	0.007531155271816515	0.009775117766714728	0.007371791085772888	0.005529382028829731	0.00903209218512729	0.1482940881901621	0.1006932070324735	0.07586752287914392	0.1186809391268206	0.08811836741789218	0.187259779393678	0.009623465318468537	0.046947973211108	0.07663054935043566	0.07213630090769908	0.01013687189965653	-3.601307659193559e-05	0.1241858115482057	0.01771572341767064	0.01018300466563218	0.01008999184208644	0.01015882679247665
144.47632	-0.01242116510824448	0.09524367546492118	0.005450673574579131	1.116161900327041	1.084542679025761	-0.3463867513094035	-0.2186404531665701	-0.1313293171403789	0.06713349048200704	0.3043783397437526	0.08860604091475552	-0.07838993887814591	0.7731785158644305	0.7731785158644305	0.2702205589231539	0.2702205589231539	-0.5320838098845004	-0.2210351013782273	-0.3892720669784253	-0.3697148591204389	1.056349023347533	0.7167094131373596	0.5636166894185409	-0.03586638187417968	-0.5887535062663372	-0.162641528907426	1.185684278815958	-0.2718840226059898	0.3945511435165607	-1.497885439244727	1.932272584618546	-1.113953044714526	7.529723273503656	7.529723273503656	1.705037082823064	1.705037082823064	0.5732143545743494	-0.8885902821080449	-4.508162701629941	-4.60765750334133	0.2702351728945193	0.4635726671527655	0.06968286895189583	0.01061984057166951	0.1780122317913055	0.2449966530634461	0.04357361521151922	0.1089883451744647	0.1558179426031975	0.04008819089393521	0.01722154270672748	0.01402792652998741	0.01563048547847806	0.06450893557547946	0.01013398613146412	0.01010431735992059	0.01044043356275419	0.02772980413660588	0.01754753648079805	0.01367173775765379	0.02747539894748992	0.02355836370068041	0.02115535862233746	0.1880792787476814	0.1196216092840862	0.08034662444340956	0.1256936498982737	0.1365704003120314	0.2322617296520931	0.01129459309802527	0.08194447750008525	0.06734883206252194	0.08009783459177652	0.01007624083823009	0.02648986390663854	0.1634281367733375	0.01888145732169446	0.01014484367985042	0.01003293725744444	0.01011190716362758
144.49336	0.003959418365259178	0.1093265065717893	0.02150654901713736	1.11535665745227	1.073613496140541	-0.3496525584281962	-0.1952765487106904	-0.1363641374992866	0.06586233951504857	0.279325050696924	0.1262935689782768	-0.09551597767540475	0.9024324534204466	0.9024324534204466	0.3021540551871748	0.3021540551871748	-0.5110780653898193	-0.2259865037394882	-0.4505816039639449	-0.4533700287594669	0.8690022562744119	0.9007950272928662	1.229048264421241	-0.0611381732416424	-0.6824608477317778	-0.2126590497681661	1.605172266721122	-0.3389602116459178	-0.5268163941948522	-1.417994463483466	2.405456616115174	-0.8518142587964979	7.63489241985089	7.63489241985089	2.129647498861211	2.129647498861211	1.895917762860571	0.5203041944012291	-2.623112769921178	-5.046277206379556	0.2457021910025858	0.4564580892679956	0.04732129048315226	0.006589966454226982	0.134725479538326	0.2093350600824685	0.03919540649464326	0.1574770832812251	0.1667453595200064	0.04556943980015422	0.01738439139088507	0.01367206650304742	0.01777325166292595	0.06345244374097411	0.01012170524846139	0.01009210754967146	0.01038492933395989	0.0714498558192484	0.03722013487311535	0.01972203235564736	0.06049885337324282	0.05804337984761843	0.04390288601298038	0.2032677056997587	0.1856954651708242	0.08060291059967153	0.1251977168453207	0.1519951843919409	0.2803174763769037	0.01452128848788869	0.1299630118520279	0.05015875368263641	0.07422357033872913	0.01001438274385528	0.07995900865774047	0.1930788566401485	0.01918283241275934	0.01006083674253141	0.009928121589229719	0.0100241357650089
144.5104	0.01532256712210571	0.1262790524542664	0.04434918473415513	1.114016667154841	1.06166240646864	-0.3533649834471738	-0.1610644226230916	-0.1454082725243253	0.0516216653999078	0.2590902331058868	0.1699438908638248	-0.1023410050941419	1.031578676217356	1.031578676217356	0.3442621404792398	0.3442621404792398	-0.4683354852428505	-0.210165025379261	-0.4790470366653954	-0.5390562123581536	0.4961937691956038	1.002885321220325	1.329418451263393	-0.09742836636339097	-0.7028429424757255	-0.2127263081304135	2.413528281622605	-0.6738515242751333	-1.049994995220461	-0.9992258447466821	2.568377863356597	0.08166476282221616	7.450242566113717	7.450242566113717	2.774504684872836	2.774504684872836	3.072513317020532	1.406695512108291	-0.7488498776285213	-4.883003495472998	0.182775027249972	0.3770541597193616	0.02465732918072951	0.004295515261514601	0.07581685488503676	0.1344402986270937	0.02693431660916541	0.1990783698519545	0.1829741985286793	0.05497702570959999	0.01554388304384388	0.01280721638324429	0.01843103737514522	0.05761751667919561	0.01010415424288404	0.01006951984449967	0.01026163727912308	0.1289967891708143	0.05924573509914649	0.02458449108591864	0.09556862985914184	0.09580636792319197	0.06813067674857567	0.1844936928243351	0.2652973977072168	0.08200317680216833	0.1154126071330423	0.1260481227790723	0.3064921441191163	0.01846600777973793	0.1742606457852395	0.02930290189517084	0.05539581431023985	0.009988606244150197	0.1429885309860537	0.2105245067136397	0.01686915901152953	0.009992511955682024	0.009898838616400386	0.009973969740921596
144.52744	0.02066987767715512	0.1436346151919188	0.06349987150614685	1.112026174237779	1.050153238411772	-0.3566115476505601	-0.112190667418343	-0.1611013759672447	0.03288459084069899	0.2457410092964723	0.2127476091856678	-0.09011433344465929	1.153538241998773	1.153538241998773	0.3968720086612789	0.3968720086612789	-0.4080656527781187	-0.1831650099396425	-0.4795866365015236	-0.6153263081328052	0.163284572015063	0.9200592114915342	0.8272944983305903	-0.1347916577657761	-0.6319481862136839	-0.1609961937434684	3.296773574220488	-1.053095290567701	-1.033365086700398	-0.6636488295028368	2.292570481906019	1.360075154176699	6.753743748795947	6.753743748795947	3.20990086379711	3.20990086379711	3.917713512363438	1.695992576754209	0.5809904443561877	-3.995683513044518	0.1127569871394386	0.262381254203521	0.01200462738000266	0.009678942223448624	0.03027644044102538	0.05867945488055296	0.0162483975790195	0.2131416143262993	0.1982528132595447	0.0642041986860634	0.01256588269762529	0.01139753982290347	0.01723845136798243	0.05116061473900455	0.01010343881637582	0.01005805558284479	0.01016689234400127	0.1882151544331059	0.07173724063627694	0.02485891628528731	0.1236728184693645	0.1166381631594985	0.08001092317009677	0.1415311744217481	0.3136915059765252	0.09097687785257912	0.09920769152562518	0.07773096500613901	0.2944960316273572	0.02129417026375296	0.1935561612230586	0.01782040292081931	0.03895209666700655	0.009992177736714071	0.1858627720644506	0.2178454404021284	0.01305131075233916	0.01003720665117315	0.01010323015198011	0.01006726805513515
144.54448	0.02215216402071392	0.1566718083541485	0.070615490718815	1.109491703137055	1.040607860654263	-0.3586834917426204	-0.05024267518237244	-0.1802894051553777	0.01817147504280099	0.2336641113549864	0.2458738730188268	-0.06031881749598458	1.258444608455002	1.258444608455002	0.4505780440274726	0.4505780440274726	-0.336934767756189	-0.1546309300201774	-0.4634601162671326	-0.6705612058761021	0.01714051869698407	0.5108396414991084	-0.0219024996381699	-0.1588419647300427	-0.4789081887190309	-0.07999002944611326	3.946689673043111	-1.062617037564116	-0.6152113128182484	-0.859633406908706	1.476193227568908	2.113456759626066	5.462252932843686	5.462252932843686	2.818204919226865	2.818204919226865	4.343831784017252	1.523187172358997	1.188396869733004	-2.458446549220644	0.07345103545976527	0.170818668960126	0.01160854192081415	0.02698640482996084	0.01561826124070652	0.01411989650983821	0.01500113914186613	0.1942096682724646	0.2058232545578508	0.06852970344954608	0.01032561427665613	0.01023988088940046	0.01450582256762086	0.0433027915343267	0.01011134475650946	0.01005905819575448	0.01012875238359809	0.2417629786497978	0.06732976558903322	0.02036881825421786	0.1457358270584111	0.1089565931872608	0.07225945583087225	0.09616349407435221	0.3146857989288515	0.1013858979980785	0.08731385676193756	0.034519690636158	0.2474447364090682	0.02122340193503831	0.1765350651336091	0.03100967124417825	0.04279569950057564	0.01000658011552748	0.1872814172632555	0.2200353729571329	0.01012430378418963	0.01023566131563666	0.01053144037214472	0.01032004132602688
144.56152	0.02285710536697513	0.1592861763307759	0.06252511546543865	1.106732636418188	1.034179474125426	-0.3593117360908174	0.01954678294411821	-0.1938160756942216	0.01255289055688257	0.2122098823061518	0.2605949301375369	-0.02626319708890363	1.336870216656374	1.336870216656374	0.4877397936497269	0.4877397936497269	-0.2619578529465136	-0.1316099129912142	-0.4422807428366632	-0.6968712728482443	0.03955823143789122	-0.246370496726373	-0.9140783049035164	-0.1605140717243627	-0.2735541351470058	0.005336714042383433	4.233043924688356	-0.4299547626209319	-0.02175175135453246	-1.722391682641712	0.2183261603494607	1.8309611152906	3.69270634396603	3.69270634396603	1.306962200918281	1.306962200918281	4.390605062527647	1.037161411529998	1.198957838436228	-0.6343714408627722	0.07765750824280361	0.1368017790042474	0.01774499134400321	0.05119279135536729	0.02607874758451071	0.005164756617842095	0.02236570148541157	0.1586128688570075	0.201827677939745	0.06758986443181471	0.009659137665364944	0.009835163169534011	0.01162235011985138	0.03294581317543985	0.01010532465558073	0.01005804130691868	0.01010094801554464	0.2843965046620291	0.04939607317141054	0.01434915492575374	0.1651282071728783	0.0800117836987788	0.05049899166039001	0.06716497201486643	0.2865968672632438	0.09982856294030294	0.091875641040886	0.01126766774919528	0.1865469937877145	0.01838624950617142	0.13332314158562	0.07142298943308831	0.06853368058519904	0.01002214068834002	0.1517184855205299	0.2250561035305823	0.009205902182371275	0.01045779592117995	0.01082763023239444	0.0105510183212031
144.57856	0.02420748080545551	0.147125447918331	0.04008238302887138	1.104137528757777	1.031415032508259	-0.3585434074114645	0.09170077928789433	-0.1915038330578267	0.01740282960020519	0.1722718316657642	0.2526649024789387	-0.001727167924460816	1.382863003652009	1.382863003652009	0.4910993685669368	0.4910993685669368	-0.1885403365753137	-0.1185994024077591	-0.424307960664285	-0.6939849649395844	0.07269898192435094	-1.152856763399387	-1.70011240611048	-0.1408569678034152	-0.05446010818415759	0.08399663648598542	4.24083387054135	0.7168033778622654	0.5762775045981101	-2.956135826853821	-1.091544780971047	0.9767231580486853	1.704588844859974	1.704588844859974	-1.00524371414682	-1.00524371414682	4.18611019314879	0.3207697969455002	0.8470626570884172	0.9448630544179978	0.104404177362188	0.1479745163314822	0.02206904971726261	0.06836268466103818	0.04093194480456357	0.01475932260570211	0.03031252221371802	0.1321606328468836	0.1895403355736935	0.06514824907333724	0.01003174897904372	0.00999708448098369	0.009891688300323958	0.02213222663704856	0.0100857473425947	0.01005009702729242	0.01006271359763462	0.3056981765584332	0.02926799420888615	0.01033340436731962	0.1757262402599086	0.04984743014123717	0.02824424763344412	0.05949685856985842	0.2533695708555274	0.08566758007999593	0.1144407298128341	0.005853999271990335	0.1374107958625634	0.01524928812056916	0.09029801795826203	0.1212673335716862	0.09705421934980206	0.01003352830109656	0.1058178998694805	0.2399547876359355	0.009670824056555428	0.01041823297646936	0.01050037612939391	0.01047960297118579
144.5956	0.02462563813807406	0.1204701863612405	0.005456261216216795	1.102005444841332	1.032220126563522	-0.3565107769543201	0.1631593230798554	-0.1683436758988623	0.03142716663648873	0.1119768467217404	0.2254546547565362	0.01102875774279938	1.395054883276577	1.395054883276577	0.4531020153043633	0.4531020153043633	-0.1199067026978605	-0.1188140620107323	-0.4142741641415287	-0.6703608164942452	-0.0687601023799885	-1.898946210828789	-2.351279461735578	-0.108224506693771	0.1424660744198095	0.1545482359252	4.154777143019485	1.943361470082596	1.039874335674092	-4.043245781681063	-1.991046824149852	0.4469968404646151	-0.2479805654659269	-0.2479805654659269	-3.371793430349564	-3.371793430349564	3.840574392052985	-0.5806414527540478	0.2883142224149213	1.794777047597148	0.1239324696167906	0.1674002677320899	0.02079975327557376	0.06890333527505442	0.04482237768096088	0.02600022774290765	0.03186650893108845	0.1267534241089809	0.1793662038005719	0.06512053579857092	0.01053273248848042	0.01025151786623171	0.009506505004095379	0.01450968187983699	0.01007651889632418	0.01004629956427717	0.01007366655403646	0.2960811676752484	0.01697593119381429	0.009396922776732809	0.1677193886171274	0.03427795393116354	0.01584025761335507	0.0646302050649632	0.2233909622658266	0.07439958512571535	0.1446975101783431	0.008437851146788451	0.1139863303985749	0.014286139626105	0.06837932913170072	0.1543917273776492	0.1068224167718334	0.01002929444835041	0.07555014566249024	0.2647695725342906	0.01031329893904615	0.009954265257508919	0.009666624736448083	0.01009981915392303
144.61264	0.02022788268004251	0.08418647688543233	-0.03870597839744751	1.100474034761179	1.036000891120378	-0.3533779967831158	0.2334422798038674	-0.1268358147963874	0.05096614648813546	0.03753094696287014	0.1881786673103364	0.02039657459825281	1.37524808781769	1.37524808781769	0.3794692260910659	0.3794692260910659	-0.05824107135343858	-0.1349137330455017	-0.4153117937528366	-0.6403771237132889	-0.4721358611451008	-2.274062044232785	-2.807636581230694	-0.07195757899969346	0.2944221813078882	0.2119060225638892	4.085786886629444	2.833832336971604	1.215618055846027	-4.583951704391459	-2.277042463594064	0.5986420727044337	-2.054657506913648	-2.054657506913648	-5.060073600324694	-5.060073600324694	3.364815221393911	-1.591925990706525	-0.4415810190185329	1.709719367939188	0.1278429556772393	0.1733277274520912	0.01796746624054267	0.05994502410247001	0.04017248204573172	0.03495692937223404	0.02702256595735284	0.1289336554813528	0.182093628160843	0.06885266883907823	0.01067726028000957	0.01027979512980509	0.009796681053449198	0.01154197695251577	0.01008978087568811	0.0100544950833836	0.01019245706870024	0.2616312681430497	0.01416730946668585	0.01024053291658843	0.1448169535963924	0.03316129138852294	0.01379971725386658	0.069422220948791	0.1961589809877323	0.07866238363477662	0.1719745914649831	0.01122879115014556	0.1120264637435793	0.01531401533192262	0.06534150089862537	0.1584316934370422	0.09520223434237778	0.009997819071241646	0.06595545716293488	0.2912726463484382	0.01037112469805915	0.009458292850890213	0.009782797560780761	0.01003819908091869
144.62968	0.007124762699818632	0.04490487657600069	-0.08827367295550906	1.099547486215168	1.041947675337923	-0.3494416153839625	0.3024368702561906	-0.07440250086941357	0.07048721254084551	-0.0406666301535076	0.1503348691247074	0.0344508274442741	1.325549472112038	1.325549472112038	0.2857632166486208	0.2857632166486208	-0.006317418173617935	-0.1685632839859411	-0.4300848890703417	-0.6180080452111499	-1.058966770170622	-2.274731772264121	-2.956217039445511	-0.03780864408839882	0.3982026818294911	0.245949444010337	3.970698578648429	3.229603292927029	1.036274267011345	-4.496627310580009	-2.103844358585768	1.028944612844111	-3.778984452995457	-3.778984452995457	-5.69176324268126	-5.69176324268126	2.693042234166827	-2.596946798358857	-1.298967089878854	0.9287808261930209	0.1291049924807674	0.1706534818897905	0.02105815702894925	0.0590033990513883	0.04009541578640072	0.04549786080563274	0.02037328487803425	0.1154400647505128	0.20056734266626	0.07588532101356124	0.01048611924465898	0.01006662528517535	0.01009527498444419	0.01148516624597494	0.01010966905109806	0.01006700699530502	0.01034536638527879	0.2241615590097099	0.0155009897479055	0.01108570719915804	0.1245930786940162	0.03495868439843872	0.01567447625873668	0.0654868891854036	0.1738635316788994	0.09499393356818553	0.1937662608814964	0.01172694441319978	0.1157934288578665	0.01598676987472766	0.06259180664810521	0.1445932345195257	0.07717813084765077	0.009952828032765244	0.06371457917278649	0.3097747634355212	0.009827701325877731	0.01001187155738791	0.01337179470763992	0.01140573108050943
144.64672	-0.01596040511964014	0.007879161317225179	-0.137474662929189	1.099171872584834	1.049347280414822	-0.3451512727625102	0.3676464769134223	-0.01895038976483376	0.08506775560284328	-0.1133861049714553	0.1170887127146988	0.05299309865236817	1.246143406286814	1.246143406286814	0.190325671934521	0.190325671934521	0.0320864792940556	-0.2194423027256726	-0.4591525555656608	-0.6095587012685101	-1.613117150483409	-2.043513143764271	-2.74768365424555	-0.007053680384572545	0.4668013216069619	0.2516007668723811	3.611595277627933	3.213728178331789	0.6528307337180856	-3.985340775972059	-1.787975365964104	1.152134236069189	-5.558112518600235	-5.558112518600235	-5.31450823403586	-5.31450823403586	1.789533372821249	-3.462088403334413	-2.059956468965426	0.08750197671609508	0.1377645452842128	0.1699802696845916	0.0330711102433391	0.07482234917042548	0.05165797258297052	0.05792659203497261	0.01561220316415057	0.07969847878316585	0.227179703710518	0.08543701229345046	0.01026437033225899	0.009872316594800108	0.01020169686017925	0.01180559971335842	0.01011437112912617	0.01007154671061206	0.0103213276996378	0.2021340310610566	0.01560207235940091	0.01113321106278027	0.1190659912158573	0.0307587263161523	0.0157958663353998	0.05304615692993293	0.1589042165830374	0.1117754617840922	0.2122469651990465	0.01082858351246757	0.111196430777546	0.01475881973927702	0.04799332065234586	0.1363665713586426	0.06593410832245852	0.009952587912241816	0.056273475002171	0.3180135766453143	0.009350846445302586	0.01273746503170734	0.02231270439647969	0.01499017022069681
144.66376	-0.04632719490750531	-0.02425551106409497	-0.1805378734987003	1.099299914518406	1.057743155417932	-0.3409761728641545	0.4231488611932946	0.03365568984032573	0.093632291284341	-0.1759835795882746	0.08879012674781861	0.06930122553107838	1.135479510989756	1.135479510989756	0.1079164377508076	0.1079164377508076	0.05362108659141511	-0.284176844840299	-0.4973116327162081	-0.6098019878888181	-1.898219692423608	-1.723276934092518	-2.248996938137128	0.02177479252542153	0.5154418884733368	0.2332149887963448	2.829157218099233	2.91932372734712	0.3623094128467815	-3.352155793936521	-1.548525728728611	0.7753055728474959	-7.432538516688245	-7.432538516688245	-4.258318687573274	-4.258318687573274	0.7445677340167016	-4.023137932242747	-2.281108158053337	-0.110101248035309	0.1489391580777212	0.1708608074746797	0.0495234675913987	0.09930454334654466	0.06918233592328465	0.06723868092307113	0.01538880944311245	0.03805471188843568	0.2495430380990499	0.09556783499970774	0.01042733332768104	0.01010196291798419	0.01023515162028726	0.01143375147212198	0.01009961159261056	0.01006620613645317	0.009997227804832072	0.1953551259013108	0.01341342976655044	0.01061473155215483	0.1230827804344908	0.02155210155603667	0.01340962280976813	0.03866497242372992	0.1479035590821696	0.1228328457697115	0.2263606118191045	0.00996929150739998	0.09475582589282167	0.01235536245539515	0.02669297139536863	0.1501994165343697	0.06256626623449858	0.01006512879690662	0.04320013738909513	0.3222757325889155	0.009962245525620687	0.01757806189419597	0.03560909370553787	0.02030311493583439
144.6808	-0.07818798402686454	-0.05048704898567646	-0.2132993582310766	1.099912714153418	1.066837448438121	-0.3372740423887756	0.4614714223428888	0.07904344703339562	0.09958723755790824	-0.2282675285503117	0.06377535809757576	0.07701827951785359	0.993208361477577	0.993208361477577	0.04676123587949275	0.04676123587949275	0.05767863070258632	-0.3555686674353029	-0.531102696602171	-0.6048328121939148	-1.797168456101329	-1.353008108972574	-1.569267258418195	0.04996684972998688	0.5467403833129317	0.1984863344824606	1.633222456720054	2.376894042828152	0.3686448928912183	-2.78957620043462	-1.398336353205229	0.1393968671285925	-9.212020868513402	-9.212020868513402	-2.90346437565309	-2.90346437565309	-0.2219417008157242	-4.083856412917998	-1.480635832348039	0.6589487267265799	0.1554083124994137	0.1684287159617761	0.06347184326349829	0.1186337543688412	0.08308387921841116	0.07129710986818044	0.02443487537325358	0.01076977877239284	0.2596424070675251	0.1022087489055735	0.01118505762065466	0.01092082881693805	0.01026348007803036	0.01061958595628397	0.01007622383725815	0.01005901766297781	0.009673531966764399	0.1892210757571718	0.01081019362455545	0.01004221695556437	0.1239013144107285	0.01347160900050336	0.01075135530573303	0.02986825518125635	0.1347662824207229	0.1297818660679939	0.2291484352380712	0.009723662898692259	0.0731616430783804	0.01038995776473887	0.01079647336629249	0.1857480047243092	0.06369997922872998	0.01025818440093574	0.03061879275107402	0.3286943103938162	0.01204690950824616	0.02270477750879972	0.04862146426278163	0.02541142667839283
144.69784	-0.1053930274178512	-0.06961581502002261	-0.2334719168914697	1.100989901961118	1.076232588150938	-0.3342685635769924	0.477583745662242	0.1127078363952897	0.1079333668878815	-0.2715433224360493	0.04142673662201495	0.07442901443880369	0.8243099292708453	0.8243099292708453	0.009542383200442523	0.009542383200442523	0.04782123239222229	-0.4232574487941782	-0.5408522202026038	-0.5808846091707018	-1.379153901503535	-0.8792937057235336	-0.7996162576328334	0.07574778425111944	0.5477618269264871	0.153733892666068	0.2860313753982102	1.546497276875922	0.6363662699934662	-2.277369379658351	-1.216441357030289	-0.4311635709300705	-10.48157526912962	-10.48157526912962	-1.479756451467301	-1.479756451467301	-0.8613475658188472	-3.520152003410546	0.5343459614976674	2.076918004528009	0.1602660716179181	0.1648280525639621	0.0727416494217282	0.1276207165759798	0.09126933109735523	0.07561004224558127	0.04744042000432236	0.003300875240503094	0.2581605307735731	0.1017317660532092	0.01195684800980315	0.01167027487727359	0.01012433242334597	0.009732337225195007	0.01005683796827836	0.01005664342008941	0.01014055711614543	0.1697926591238784	0.009367583806919499	0.009694461774406029	0.1152126179324401	0.01003363917652932	0.009489490720093131	0.03023269107724362	0.1174428757169574	0.1349808186432555	0.2116950075121658	0.009886676221990536	0.05594100926290263	0.009594882111294454	0.00554004439032364	0.2312571528912313	0.06971496526003577	0.01030084861363386	0.02195171577338102	0.3341212867508239	0.01390698645496925	0.02556162254057694	0.05518980291855355	0.02808199865702449
144.71488	-0.1242849858121063	-0.07951693863599697	-0.2404491570964825	1.102446033859785	1.085256264825436	-0.3320625671179649	0.4724006041018184	0.1300798025173139	0.1215116032075692	-0.3052602520966509	0.02319222392835348	0.06376118806717242	0.6415679606028754	0.6415679606028754	-0.003080869085426296	-0.003080869085426296	0.03094015338911683	-0.4771303925884581	-0.5081138237019952	-0.5336209670333145	-0.8505669220127408	-0.2627100398049538	-0.03811751330780425	0.09340673757475976	0.5017064001140011	0.1060801364044803	-0.8114163302064092	0.4742447752281018	0.9559198277766312	-1.63929199972382	-0.900045832873969	-0.7856181135224299	-10.78111451965607	-10.78111451965607	0.006017330239987628	0.006017330239987628	-1.051414673122671	-2.481116122097402	3.40274227598959	3.375632040123686	0.1701255605320078	0.1665984955685204	0.08122928210906225	0.1317769941519052	0.09956049483263499	0.08667712756638404	0.08278937968150471	0.00677692688461406	0.2492378345178531	0.09444084815047391	0.01125397589691474	0.01083372107797313	0.009646043159524179	0.008946790875977603	0.0100541484380819	0.01005866625746638	0.01211724072293221	0.1355889653982665	0.009244149428646419	0.009686297863887361	0.09977030217706399	0.01003786148270092	0.009559120994656375	0.03743688017700772	0.09998499372527279	0.1354366867701797	0.1705751616714598	0.01007200747107612	0.04746579252143837	0.009680672362775361	0.00730869387528902	0.2756710295751586	0.082250003778307	0.009882578405800917	0.01650862921913389	0.3279239408050298	0.01172529188497397	0.02479382037788568	0.05165968869127208	0.02754044191360994
144.73192	-0.1349330899728189	-0.07824062869758661	-0.2354941464693067	1.104082615019593	1.093039618376079	-0.3306202915769467	0.4531203520825017	0.1287900845664867	0.139383751674721	-0.3257362582066854	0.01132647012317827	0.0488857393610658	0.4640388416656574	0.4640388416656574	0.01084027484431086	0.01084027484431086	0.01393221972012163	-0.5129763287173356	-0.4253922057180126	-0.4710196268332091	-0.4272720275532769	0.4257197101286956	0.5942236134373367	0.09602512239098221	0.4036052731603281	0.06460337862327431	-1.351894607291824	-0.6225279519214306	1.117514539935668	-0.7110874301982747	-0.4689734287897445	-0.8975787886780704	-9.868430558586784	-9.868430558586784	1.672300537970927	1.672300537970927	-0.9217054285302063	-1.482458608952914	6.235307115982229	3.890266320812637	0.1804381533675842	0.1743356893304865	0.0924576528933414	0.1382916580145513	0.111707873312408	0.1013898170288856	0.1217164730583989	0.01068836484478014	0.2313080803741087	0.0836891120986497	0.00816206149116327	0.007553446281995531	0.009155351766865072	0.008833140441914109	0.01008385413011008	0.01006316825088171	0.01531575735135188	0.1005258473793453	0.0100060136957793	0.01015451682283695	0.08424067605198472	0.01067538166226336	0.01013421421868552	0.04521718724500214	0.09018024829960448	0.1243831463116351	0.1146649595614039	0.01010819481739908	0.04423381702884246	0.01017237015974812	0.01022368481018133	0.315356632432253	0.09917729335687976	0.009072231223323127	0.01295363385894565	0.3049049557389321	0.003370199640226698	0.02117094415979096	0.03974452850801458	0.02514845290862034
144.74896	-0.140093196401298	-0.06583914686431294	-0.221574306105738	1.105608876951378	1.098792773998814	-0.329779791076609	0.4297382673804099	0.1107895930709996	0.1581178254858865	-0.3278886949328775	0.006899678190039881	0.03437449636292229	0.3116102902597463	0.3116102902597463	0.05503776659694688	0.05503776659694688	-0.0008069893104811557	-0.536058509334946	-0.302259491832446	-0.4078424428550188	-0.204620558432355	1.022971345120108	1.017377763122969	0.08039706653399202	0.2667788409684883	0.03514916680536837	-1.31855214862048	-1.461220378678206	1.053278204302823	0.4933929712020567	-0.04244836573281116	-0.7408501256182906	-7.889722291607671	-7.889722291607671	3.560527111620571	3.560527111620571	-0.8558190268188286	-1.095572232548056	7.998618854153562	3.487209589057162	0.176139623570408	0.1800307349282327	0.1027529737644034	0.146902138354237	0.1217305151471967	0.1068374048740037	0.1545359131351091	0.01206897860921178	0.1978708294503899	0.07275802554136571	0.005062873708936415	0.004330475893830454	0.009763102682336398	0.0104330636641513	0.01014544018079949	0.01007176995701394	0.01816603393011035	0.08513499804326012	0.01126027339817461	0.01102587558045831	0.07457698747079693	0.01085653310186533	0.01065160635064321	0.0482413005702028	0.09434002629117839	0.1014732658515832	0.06531734786643838	0.0100798209596901	0.04008231597824848	0.01079019311470936	0.01138075086971207	0.3513063002311142	0.1157458812055954	0.008802398522199658	0.01100428535487259	0.274804074756309	-0.004864462340931047	0.01675091633787447	0.02571653576030295	0.02281157312350077
144.766	-0.1426005704258104	-0.04497992384065697	-0.2020254488142382	1.106735778185966	1.102064299917923	-0.3293551297033666	0.4097448688595589	0.08178775852407368	0.1746176283407207	-0.3088739835450399	0.009041187753987733	0.02513570245980218	0.1985686179177312	0.1985686179177312	0.1322519775539487	0.1322519775539487	-0.0184605108203886	-0.5570704048061097	-0.1632736827642405	-0.3570096011000912	-0.1025434189063018	1.39524956842849	1.262464298752117	0.05009794904763298	0.1155732649983391	0.01524727798729268	-1.00162844664986	-1.892816949561941	0.867152133362987	1.731014074488581	0.2807818709007263	-0.3116051084278441	-5.325030746575615	-5.325030746575615	5.496027018451773	5.496027018451773	-1.317207227839385	-1.362061561910292	8.042975648703518	2.496891183313962	0.150948040813866	0.1753481292608514	0.1030147333627408	0.1492697345373123	0.1189180825737562	0.0941073482359422	0.1755035333539515	0.01494053420648919	0.15271628475641	0.06498920645863554	0.008489158921885166	0.007896925535780121	0.01278850223465403	0.01382960449329579	0.0101836091313036	0.01008266762978627	0.01890523936250527	0.09812703519633566	0.01221518911608757	0.01150429226752383	0.0731053210823253	0.0116182682696809	0.01090976388452886	0.04646373225308332	0.1101755565923467	0.08309774188416297	0.04665271163974953	0.01015928329135986	0.03511816549626447	0.01110903701450842	0.0111636015692216	0.381953969638373	0.1285716233418558	0.0105609527815143	0.01062647872731369	0.2536219808176604	0.003904015405750038	0.01330411416732185	0.0163065643082239	0.0200689279820738
144.78304	-0.1430128629614451	-0.01970699235108914	-0.178928738897295	1.107283878972315	1.102789922506476	-0.3292498238860737	0.3945562394836224	0.04835477949417067	0.1882576319739801	-0.2710423458632175	0.01593440969407652	0.02504050448730527	0.1300036080930138	0.1300036080930138	0.2406164909007009	0.2406164909007009	-0.05057750961755553	-0.5819037423722846	-0.03838327937171336	-0.3247939083146263	0.05506889473359394	1.525366447301434	1.435570233427076	0.01390187143794861	-0.03048095035479864	-0.002217776881757092	-0.7943949418347291	-1.968138093325915	0.7366922930026063	2.657411935609127	0.4991714047573523	0.2841571730803329	-2.737917119736668	-2.737917119736668	7.142688951137234	7.142688951137234	-2.537111736253895	-1.64438239991131	6.409441454274257	1.341816767645714	0.1212205468172682	0.1610664788633086	0.08821584297992452	0.1370884795594192	0.1002842236781845	0.07064066754780821	0.1816766810896222	0.02353790542554889	0.1200543573411119	0.06401777683907924	0.02449527308188595	0.02458539012708938	0.01829080202355651	0.01635385064973688	0.01009624665865666	0.01008230999780131	0.01711387004664459	0.1252433624259916	0.01131482395505832	0.01020379849524542	0.07725149367952194	0.01397328435494141	0.01073605178856269	0.04453720207484305	0.1252914281430324	0.09559184865003835	0.07269117444060616	0.01040055882964495	0.03780957155291335	0.01034775972638624	0.01098494212065653	0.3985290216085444	0.1360318959122836	0.01479529692016062	0.01112862991990289	0.2434017829870154	0.04528231184581949	0.0113696686301766	0.01445646353591843	0.01330949713363118
144.80008	-0.1395307376283916	0.006245441073256106	-0.1529775170448976	1.107230934955773	1.101085554934651	-0.3294439022642372	0.3804266655620709	0.01567201933787545	0.2007802740469821	-0.2215679704860204	0.02602632500398452	0.03494226562812539	0.1028035781599446	0.1028035781599446	0.3725052795107027	0.3725052795107027	-0.1081413504996677	-0.6053217412656235	0.04845150272994549	-0.3115505621734274	0.3582450017772034	1.470932808369392	1.588360733941285	-0.01929918290088196	-0.169818105697868	-0.0187161384156	-0.8898227594317722	-1.797134057116985	0.7602436066379428	3.07650466801544	0.6474689854644864	0.8230867788147476	-0.5150778363501758	-0.5150778363501758	8.210178971373209	8.210178971373209	-4.196499713535017	-1.243166058052601	3.722715761566163	0.277838644168124	0.1116554062343808	0.1469383428228342	0.06406561645789717	0.1111462572853331	0.07537774893582191	0.05381816920012996	0.1703801720404626	0.03607667040606126	0.1271895234894729	0.06926576170008633	0.05034690871923864	0.05181688131957593	0.02391113238110703	0.01396517744354048	0.009860856150050206	0.01005874452784009	0.01401912082299795	0.141622581739603	0.007753405082950878	0.006817734083715481	0.08163817545736748	0.01689272996586372	0.01014747560556739	0.04578449697819808	0.1276744358809911	0.1478185843870973	0.1420437220935293	0.01066165504933305	0.05475605874050888	0.008180715114958919	0.0114386417057842	0.3866099831567136	0.1353721515850699	0.01932551919157185	0.01126654683104715	0.2272731413985977	0.1113636612115127	0.01046738372265121	0.01776611847973912	0.0006409964602734899
144.81712	-0.1305898665155422	0.02993911639700166	-0.1251952727268648	1.106669964748173	1.096946471707412	-0.3298450335454523	0.3634122939913897	-0.01211603089562664	0.2142456858674624	-0.1683432101917928	0.03774286467686705	0.05146140585838659	0.1096440674191166	0.1096440674191166	0.517063921030593	0.517063921030593	-0.1908338036753003	-0.615390323075612	0.08624519178229284	-0.314851016221398	0.6876540614474366	1.265305998323731	1.635892314438528	-0.04544649103145952	-0.3164618947485702	-0.02493867720900264	-1.118791269284739	-1.39210781867024	0.869051459003868	3.109707746338799	0.6833716971462123	1.042312898050255	1.229761425139823	1.229761425139823	8.636396805993378	8.636396805993378	-5.335299686163139	-0.06528171168888608	0.8143059522058957	-0.6170999088880997	0.1265013584238289	0.1413103112114907	0.04292166700430605	0.0816589455102856	0.05754855247994149	0.0521760427688495	0.140609541554153	0.0447879625351351	0.1730266690363854	0.07535397786538683	0.07194829088633342	0.07513660750298766	0.0258547043965271	0.008157655905308975	0.009718615830686705	0.0100347479349959	0.01132938377231871	0.1350749802650379	0.004770717954662746	0.004570473390953432	0.08169181616950201	0.0182055439258419	0.0101779326656133	0.04735579345570557	0.1174590758158717	0.2131089874125026	0.2407388728767428	0.01079729936754041	0.07899571442234506	0.00632871563863414	0.01204400407609808	0.3343307087661145	0.1220098596396006	0.02062246033510433	0.01026732492930798	0.195215415907373	0.1627570667461152	0.01012209522164827	0.01974655362752099	-0.009260552288822121
144.83416	-0.1178781096217011	0.04859100347840953	-0.09873483187863566	1.105707871429237	1.090146124432277	-0.3301631991268605	0.3445550294120138	-0.03039889036339666	0.228647143140345	-0.115089702883487	0.04804755451015983	0.06741438291805689	0.1429891185728089	0.1429891185728089	0.6644883836168871	0.6644883836168871	-0.2794009449558978	-0.6031917945349416	0.07733654720194483	-0.3317710127967242	0.7922362721213558	0.8894022918938708	1.425022611844481	-0.06703851578707194	-0.4799452257612487	-0.008258656966283737	-1.084583330226127	-0.6929303162017062	0.8644731743521999	3.107690957148911	0.4757152408123684	0.7590447438085605	2.584741972103182	2.584741972103182	8.589143090693005	8.589143090693005	-4.793018445808101	1.41437325369786	-1.637281455761964	-1.339310792106972	0.1429651083219807	0.1408946016401504	0.03277204263325272	0.05884944051026095	0.051529042872703	0.05767035244498063	0.09731395939263703	0.04283198608406952	0.2214552325566358	0.08341532264586386	0.07362902045344132	0.07772491078709762	0.02218093903205113	0.01277924126811689	0.01015692118506429	0.01007685415517683	0.009972254927002383	0.1132670987168672	0.01085808090526791	0.010187957521496	0.07536150310704406	0.01809329765485669	0.01306334787317705	0.04334756614669821	0.1038684861582755	0.2512157293735559	0.3454097491043531	0.01097913715117001	0.09307755659031752	0.008959994035736911	0.01213123087139248	0.2444808405464971	0.09419433644864503	0.01840507272402008	0.009322628124050842	0.1757120957643443	0.1565574193040397	0.01106024664694058	0.01393676808178796	0.005317446468494826
144.8512	-0.1067228172867733	0.05917654051201325	-0.07857822007345115	1.104371414389701	1.080503254751688	-0.329978765127797	0.3309272191129523	-0.03419682593641504	0.2408983139705872	-0.0598008435767784	0.05183615770641974	0.07432084291379938	0.197315954836268	0.197315954836268	0.8086677515054649	0.8086677515054649	-0.340760342806923	-0.5680506403278605	0.03286084703907122	-0.3593580590390527	0.5108650529749819	0.332176295185493	0.9051182937274613	-0.09037454905294971	-0.6445219568131174	0.03286662031342052	-0.5026524225897916	0.2767560242759333	0.5689658184334431	3.363614646225817	-0.07893988176437233	0.006237849669861822	3.701781195163957	3.701781195163957	8.292277382003283	8.292277382003283	-2.180624519824194	2.662682444879679	-3.303674930959367	-1.870708078377775	0.1361575382306401	0.1324184868751391	0.03122518228978228	0.04580128483523571	0.05047971480112243	0.05675643220556472	0.05292992343627066	0.03120969337972795	0.231143254579892	0.1068107357597199	0.05191805941020879	0.05448865044703476	0.01547481309502691	0.04770944503539244	0.01146345005058616	0.01023609793054784	0.009814873283033381	0.09509462223118273	0.03411287393649762	0.02832667471524749	0.06533839577806851	0.0207663673081574	0.02014240494090527	0.03234782990090111	0.09346726583696967	0.2485357170483843	0.4260625604682461	0.01163553667614102	0.08532218472047252	0.01964372933060731	0.01165233451644331	0.1428354256602058	0.05894304123129022	0.01846443780287365	0.01227212273038675	0.2228835824546042	0.09296167694287671	0.01599367503699192	0.002637628512471586	0.06356449881326008
144.86824	-0.1030578190125452	0.0591338026249963	-0.06874528679627531	1.102589938435967	1.068341474998325	-0.3290047815205691	0.3311806022160179	-0.02046830325970981	0.2463209986827051	0.002144328276334994	0.04352455649381891	0.06666923451625278	0.2690600060131897	0.2690600060131897	0.9464136026985204	0.9464136026985204	-0.348015550126434	-0.5158521204360496	-0.03362670661627094	-0.3940163871596545	-0.06438966444440584	-0.3407930005468744	0.2440116296072214	-0.1195336157854743	-0.7690659756752128	0.08116431005976213	0.5123898587005422	1.315809126660887	0.004170445882863194	3.881170276999016	-0.9214907798426559	-0.8991991157349748	4.647123613220618	4.647123613220618	7.838910636426466	7.838910636426466	1.418672348814633	3.423484399929105	-4.238930201450293	-2.15693295519603	0.1054406305283673	0.1065472477373796	0.03113175319884184	0.04345719299248939	0.04480804162462593	0.04456028995083762	0.02232413218922254	0.01777837564107096	0.1904078770122973	0.1513943621807986	0.01885511198495311	0.01684238739587575	0.01193489039501528	0.116602185499164	0.01315173710067326	0.01045856103657178	0.01018985014389549	0.1067540261308642	0.07280481224332383	0.05395308719273931	0.06361274315908916	0.03128641515965785	0.02897624071209147	0.01946903144956432	0.08859827094958622	0.2246952638882046	0.4561101567732401	0.01284033526982892	0.0607109295754204	0.03612665920329047	0.0110820373668059	0.07173519255980766	0.03128509091257139	0.02843028004933854	0.02385919980021992	0.3497462585087075	0.03281353923804493	0.02930464893242755	0.005845388045039271	0.1555404039884528
144.88528	-0.1092737970275189	0.04773619872449014	-0.0690894873670867	1.100278663785127	1.054747925286445	-0.3273456469379462	0.3484729024921978	0.009286759674949447	0.2418240886834905	0.07294136352789873	0.02016311097286158	0.04575017520229593	0.3543418610365938	0.3543418610365938	1.074554901313001	1.074554901313001	-0.3007859232948308	-0.454678351565642	-0.1115223076445127	-0.43117444311498	-0.6248069308767321	-0.9794338231307834	-0.244794897830564	-0.1514798699421929	-0.809141286963512	0.1090421054009705	1.442362427990991	2.106139433141431	-0.611990997528973	4.388351975002158	-1.800013856780695	-1.489926662908219	5.295261466200614	5.295261466200614	7.146244138011983	7.146244138011983	4.081641220033977	3.706633420696702	-4.738629397567336	-2.156327843572842	0.07293655624840957	0.06950616737778027	0.02981350776908015	0.05737092571437066	0.03240326846742571	0.02718516001591354	0.01375745396060376	0.009710906728355536	0.123230476877938	0.1931358452277252	-0.005609372212101003	-0.01236768765096018	0.01799409564737948	0.1911706664366376	0.01411299033402605	0.01059449402804825	0.01051491374045328	0.179149976313843	0.1152881839409473	0.07348076392126082	0.08888675113102695	0.05162876251067993	0.03488577617469185	0.01083943492148443	0.09275545456067305	0.2006434226066055	0.4297148543825017	0.01394545258866306	0.03510663339540696	0.04911623546324993	0.01077595226708568	0.06457481567494755	0.02423078035008893	0.04992341789443473	0.04589029174012529	0.4836275431300227	0.06028260613205735	0.05490080539493063	0.0552810523029842	0.236841734901742
144.90232	-0.1222006593506069	0.02707226353817479	-0.07457855088616981	1.097461448188407	1.041401962114655	-0.3255185994502963	0.3760181603357934	0.0483040325194304	0.2273637264601067	0.1495044350817032	-0.01605273358821003	0.01971569310366077	0.4459168708270165	0.4459168708270165	1.187688425932945	1.187688425932945	-0.2249445946012383	-0.3916028961141429	-0.1949983234630337	-0.4661057851648806	-0.8463052639571815	-1.405993961670216	-0.3222984885746275	-0.177116764109095	-0.7417939506960052	0.09771148571827738	1.676916086025658	2.366717821632339	-1.126833420359754	4.55984110255511	-2.379801102558756	-1.461712425359211	5.373122316894936	5.373122316894936	6.062536939154685	6.062536939154685	4.719056524653825	3.642108819560169	-5.05417805271433	-1.905195772370687	0.05838767922838478	0.03792440594954091	0.02952145197587076	0.09025613788236166	0.01919358486301259	0.01373999128305601	0.0232344182574821	0.008228518150361077	0.06468206310509106	0.1940703897342971	-0.002016512826778741	-0.006073316276399336	0.03725514022120797	0.2273771467520417	0.01375353434363499	0.01055456747230875	0.01057811682646111	0.3269319071870849	0.1544336706370783	0.07843457882257243	0.1496578178715025	0.08148700066246645	0.03782043307907031	0.008237855564625654	0.1056373154176164	0.1756475134934182	0.3709794834911908	0.01420139621072966	0.02060896526416717	0.04918114760590296	0.01071769886201817	0.1161747147306169	0.0371553993535329	0.07700921757752478	0.07495800677071096	0.5226542001861314	0.2168308686232943	0.09249842527479413	0.1672467737656209	0.2647491245602814
144.91936	-0.1347334115223924	0.001878893336800083	-0.07778595878722268	1.094325717690767	1.03009475238258	-0.32420813945138	0.3989911499067362	0.08641575979854996	0.2038205501010652	0.2247399136169814	-0.05776433346868447	-0.001051414341519084	0.5321876147019536	0.5321876147019536	1.27839462716604	1.27839462716604	-0.1500580976843876	-0.3314988171641135	-0.2805219603766462	-0.4954687371320776	-0.6006459952014829	-1.495505455148495	0.02941284399290403	-0.1877144113167896	-0.575693460467701	0.04834712982635814	0.9203644672724866	1.996933964047886	-1.623612916391423	4.258273173757422	-2.418088576145164	-0.8867193120804676	4.66493395899265	4.66493395899265	4.523529776688821	4.523529776688821	3.966540314743773	3.368195285874853	-5.158171451609327	-1.525960235604631	0.05949985231956197	0.02243671298432225	0.03062088992564511	0.1293803890164857	0.01133380678766247	0.008409188743116337	0.03751394917655681	0.01008227140909303	0.03267628179482572	0.1449146316665043	0.04039443792775578	0.05465013883318432	0.06735947512252914	0.2027427868759012	0.01281061797727259	0.01043148517396672	0.01047163908466219	0.5229384961417799	0.1971539833013984	0.07566209318792476	0.229926189588761	0.1205776417580174	0.04489943420909093	0.009328932175049315	0.1161476637940804	0.1390021409250275	0.3187490551492209	0.01357166960017265	0.01738959237422275	0.03568143973881911	0.01079246450026055	0.1794703853391577	0.05470111335801227	0.1047778484364311	0.1058603761634888	0.4434078685419079	0.4611788821248363	0.1346892061560574	0.3183718947577491	0.2409620385339254
144.9364	-0.1400143712642394	-0.02184302383362966	-0.07230643805442817	1.091164038329217	1.022222107957763	-0.3239651908041668	0.4018504047696113	0.1137467506658861	0.1709212205669708	0.2917117565938958	-0.09512968794691269	-0.009728070386781383	0.5998621425887399	0.5998621425887399	1.339665203976001	1.339665203976001	-0.0875448205354324	-0.2771713916665436	-0.3627706947686453	-0.5183695181272523	-0.03750267783598061	-1.23569212571507	0.6635021963129448	-0.1804026096963488	-0.3458859610482183	-0.02406672185556451	-0.6140439440506353	1.1410436552039	-2.194541047633262	3.628186476531511	-1.884703046139656	-0.104555366034439	3.208547222088133	3.208547222088133	2.641316724365688	2.641316724365688	3.261169408004709	2.984787065166882	-4.796794133785373	-1.171053075035262	0.05866017695973599	0.01945065383858009	0.02948772304593259	0.1521627783563799	0.009523409814553071	0.008990805200898747	0.04382917872927274	0.01193773106282012	0.02218996335441237	0.0781574771588564	0.111846862696455	0.1595707425269622	0.09690585736493572	0.1357471857797531	0.01249704943109133	0.01038880285085159	0.01036203960711595	0.705884027750286	0.2489156552513159	0.07709829976873026	0.3004100812416017	0.1652991865400067	0.06078513710449431	0.01106977197645322	0.1155503385425769	0.09125812236257709	0.2932266769933869	0.01239656921310449	0.01834234225065894	0.01758070770388711	0.01092136689749998	0.2017719177367412	0.05969060241539249	0.1395897107445196	0.1384864946248109	0.3247709122949632	0.6895403867157042	0.1681471905257423	0.455144870571257	0.2058230588197699
144.95344	-0.1355165831425439	-0.03887272866173914	-0.05478618662139063	1.088264373769104	1.018453761592068	-0.3250436433563498	0.3761132750737249	0.1246119675445535	0.1291629951928592	0.3476307517724882	-0.1196894812048169	-0.005604458021513078	0.63857560894869	0.63857560894869	1.367686651956598	1.367686651956598	-0.03033189275712468	-0.2299745910937508	-0.4335827126224743	-0.5363058922776498	0.5065450302724951	-0.7335052810882325	1.385012117779798	-0.1580943065269765	-0.1001722730296969	-0.1013869911522236	-2.351300390379144	0.1338671098872311	-2.662236341475253	2.989090421301523	-0.9636157369121603	0.5485976015506208	1.307853834807325	1.307853834807325	0.660097451628302	0.660097451628302	3.313020819765097	2.551707356874692	-3.829563133114016	-0.9602756989736235	0.045014173320715	0.01814155042060342	0.02379339137769487	0.14724064122581	0.01050922702626695	0.01062433095823222	0.03829088433094605	0.01252503490686652	0.02035401260593894	0.0344530504511437	0.1780840457981952	0.2603166556027953	0.1088140021733316	0.06910857977406817	0.01294942753360466	0.01044618164304196	0.01031357935883179	0.8197383687541158	0.2912790574186727	0.08137964223914572	0.344212484696826	0.2028744847060728	0.07696243125634875	0.01181152632445766	0.1170988570118054	0.04627561529060924	0.2772183519768466	0.01044559151409359	0.01858126145208358	0.00613500397974334	0.01081423554387908	0.1685386153664093	0.04783186685372619	0.1975459729736759	0.1778424479369426	0.2584160850495854	0.7997609458825535	0.1800004466702197	0.5296933040364606	0.1902242510339358
144.97048	-0.124475484298093	-0.04641714238355486	-0.02565753696786828	1.085840641568429	1.01867070472356	-0.3273584581508443	0.3235852945897941	0.1194812604771887	0.08298517110511894	0.3948086502822727	-0.1273018187823868	0.0071760751219139	0.6441612255822527	0.6441612255822527	1.362854364715278	1.362854364715278	0.03048568839803482	-0.1903449819587677	-0.4860593391617289	-0.5523166185280072	0.7175346463323589	-0.1533051808726612	1.977326370829721	-0.125563798580529	0.1183209939550332	-0.1649701707713065	-3.710545640152517	-0.6756422255437625	-2.726550929450608	2.598139980861869	0.05424038412877433	0.8811125208880869	-0.6318157929613474	-0.6318157929613474	-1.193012753203053	-1.193012753203053	3.653100067006898	2.108259999458638	-2.536886323105671	-0.9534210336250315	0.02455841958488958	0.01175874083169349	0.01602848683542574	0.1235243369393997	0.01128841731434939	0.01003950447492647	0.02613147903727379	0.0118214226029098	0.02006020092753897	0.02600552776102633	0.2001871557952733	0.2983854624197351	0.09425717339329723	0.03784303072352495	0.01315882530053495	0.01046698776985807	0.01028227404537063	0.8410902542601909	0.2900286862096006	0.07512026215950884	0.3631002660949126	0.214329627305833	0.0777380791268904	0.01112078784100334	0.1453354130388034	0.01765418964684832	0.2377577880273378	0.007420504739114796	0.0184608835828611	0.008562453889424795	0.009969626715716854	0.107860800685707	0.02866281726591861	0.2871827219621762	0.2222053333831044	0.2608618681148582	0.7505963501275649	0.16583101692127	0.5243922085168793	0.1876043168103651
144.98752	-0.1136758169041221	-0.04435529298284898	0.01077110796161453	1.084032700658221	1.022187594614433	-0.3305035736113187	0.2535512327735416	0.1035204784011808	0.03972799474154571	0.4377611402644373	-0.118650341165333	0.02233677934819277	0.6187998583732859	0.6187998583732859	1.328193979243764	1.328193979243764	0.09179860482698964	-0.1580663287851826	-0.5199945075508725	-0.5698751324789513	0.5059462345855117	0.3767431325252266	2.227535886149935	-0.08622130516107715	0.2869753070455142	-0.1978836424677369	-4.419598615491847	-1.123558910818604	-2.336249362083582	2.449731435816188	0.9232385694938116	0.8431374367489396	-2.286945321852224	-2.286945321852224	-2.846860786110084	-2.846860786110084	3.377761583018327	1.689759846161322	-1.478085299407615	-1.140689240510967	0.0106113547284547	0.003137386765805219	0.01044459640801518	0.0972952508011939	0.01090349964674935	0.007709109052827963	0.01511150828191623	0.009878309680270092	0.0201089775565795	0.0353818416408809	0.1659027832906843	0.2524737749212215	0.06542807689294555	0.05218667169447251	0.01240353190244678	0.01035584371378157	0.01022040534905391	0.7738695025180883	0.2313185540037533	0.05313164147966717	0.3598543387409657	0.1884621721378541	0.05839140916074135	0.009212509332376348	0.2010010165104038	0.008160259031085245	0.166342100152763	0.005228649872825111	0.01994152259813362	0.02671110389251392	0.008501375285615814	0.05545183173841216	0.01367425391183912	0.3906683440713807	0.2535961182598794	0.2792872691165714	0.5779344527609119	0.1328370649654432	0.4495118983458788	0.1739658213188276
145.00456	-0.1088835946434828	-0.03410343801054939	0.04761954118393891	1.082937205131005	1.028160635516033	-0.3338825285109419	0.1763906308192043	0.08265625738351952	0.004761512246849537	0.4784061872390846	-0.09739852114260031	0.03411330253236736	0.5689149627265566	0.5689149627265566	1.266397800017685	1.266397800017685	0.1389806173917917	-0.132382434607158	-0.5415303752526954	-0.5915344376258208	0.06849607592572107	0.8115465723736456	2.045556489935294	-0.04198368622983326	0.4090659051028321	-0.194344143536571	-4.603519203782669	-1.28504095650306	-1.769416504898287	2.263004905701573	1.541009992042427	0.5195366864138674	-3.48773541674038	-3.48773541674038	-4.401679009208697	-4.401679009208697	2.046728248544447	1.330191239263462	-0.9218939682900386	-1.415687340986227	0.01117956383385013	0.003814535010425618	0.008692438351700514	0.0764808492468801	0.009827476051376724	0.007779361695827642	0.00936902670032538	0.007466155041649342	0.01972660644618975	0.0400571982480768	0.09938819526808371	0.155690319275132	0.04943533147223169	0.1033079972479673	0.01110366388050524	0.01017704171520845	0.0101419472397611	0.6352303210350266	0.1410775240912938	0.02828764993647321	0.327182291741423	0.1341317681041151	0.03216325070878864	0.007500314157442507	0.2502504929956458	0.01032616425263004	0.08886864138373493	0.008955728563304548	0.0248860336116763	0.05675913446424088	0.008259686693304078	0.02526360932430278	0.006878868322875856	0.4648835275513871	0.2487814191331659	0.2576775442079943	0.3636160502525526	0.09456714823216383	0.3309084279792851	0.1393718230207191
145.0216	-0.110867031519409	-0.01731159433048896	0.07842695280366764	1.082617597894155	1.035952922081922	-0.3369645154970423	0.0979806078725064	0.06035044516195973	-0.02187355515550131	0.5128117117434924	-0.06771974612425304	0.03942569267235586	0.5027945298161467	0.5027945298161467	1.177852871617533	1.177852871617533	0.1563095804952413	-0.1120784205256564	-0.5554971518281928	-0.6170514394432061	-0.238315441444755	1.153733816546594	1.547845745268665	0.004632773164850827	0.5035577936212359	-0.1656709413186839	-4.619045828495059	-1.334902660067878	-1.369614100810149	1.671033264613252	1.924629841240077	0.1077791066834214	-4.182026424715403	-4.182026424715403	-6.003961769162081	-6.003961769162081	-0.05340523370855232	1.06057021478381	-0.5072879279258558	-1.545170193827435	0.02625047833305291	0.02758035961714957	0.009382241782312995	0.05912343979518653	0.00914574366023344	0.01562821620409535	0.008357466667991432	0.007823877502950716	0.01678031980225722	0.03175195345679982	0.03940266207365809	0.06542119003342112	0.06567676965054058	0.1760871407173916	0.01016241784804644	0.01005997581382755	0.01009164464778308	0.4538594953472923	0.06361155538553033	0.01785852975245841	0.2602127981323971	0.07719987313311047	0.01738821269175597	0.009483745424982462	0.25726785872354	0.01414144538505521	0.03630873389857159	0.02300377958600232	0.03791088946227611	0.08835321127113599	0.01268905856596847	0.01297276464900672	0.006367564205166708	0.4671364188794739	0.2027159414673464	0.1830312198950885	0.1848495187790086	0.06178855943433097	0.2019847172891541	0.09379200517146115
145.03864	-0.1146877270861828	0.004386562029017401	0.09990654951023203	1.083076627309835	1.045232370111785	-0.3395036318664071	0.01831438110242417	0.03748702430346403	-0.04431590266088505	0.5320508513897197	-0.03317316010845266	0.03870294285316297	0.4291391586198631	0.4291391586198631	1.061432880197474	1.061432880197474	0.1363824728550894	-0.09549152205625265	-0.558223233930171	-0.6414245412341578	-0.1327379135909609	1.381443876464551	0.9692286300016034	0.04879453954116933	0.5851647556512974	-0.1322148443313885	-4.761194372930934	-1.361240859157495	-1.281674746926876	0.4893200643148379	2.104620231659432	-0.1898762203646754	-4.370922061333312	-4.370922061333312	-7.664029797522582	-7.664029797522582	-2.260981465567908	0.9108749640283557	0.3919831255738979	-1.207193739706233	0.05134086744311526	0.07931859165479289	0.01043275755707461	0.04181718460245805	0.01016414883496007	0.03340303919180815	0.009472995243688252	0.01645748670560826	0.0101145995405706	0.01668331291039407	0.01043740442572776	0.01985020635349455	0.1094972967468528	0.2529740305493046	0.009965535296556855	0.01005415677334389	0.01008614530599316	0.2708151352381386	0.02522906091790145	0.02516347153681668	0.1734722309607349	0.04246421542387496	0.02070428188376536	0.01977522907981941	0.2228324374149818	0.01487163424304856	0.01742223445818518	0.04420187277180043	0.06700613647900296	0.1072817603992968	0.02451258033895585	0.01410553977707634	0.01048661822393209	0.3868432161190588	0.1361539143840927	0.0839418146407986	0.08157987361656512	0.0381177693272353	0.09527107630544765	0.05275461360669594
145.05568	-0.1127745499957746	0.02847963373746351	0.1122903558355713	1.084218336673933	1.055760241139453	-0.3415535071043147	-0.06522996200914215	0.01467469659109922	-0.06710384668887603	0.5271074979661655	0.002617869914255395	0.03461054914292768	0.356508752907404	0.356508752907404	0.9179444984024854	0.9179444984024854	0.08216246428759583	-0.08044062236421767	-0.5390276792563935	-0.6544351457116114	0.4075606068629315	1.411113407900829	0.4844971702875816	0.08390882334707675	0.6490382202344095	-0.1086484307967125	-5.041288513560852	-1.305769863681988	-1.410414397233732	-1.106124612686582	2.045971769957521	-0.2993500337454874	-4.070891221487182	-4.070891221487182	-9.138643637287444	-9.138643637287444	-4.027072065988745	0.9066513215422022	2.001534410483742	-0.1505673545866308	0.07978368686744222	0.1470537966313699	0.01082493760548229	0.02548406698566821	0.01362390694730532	0.05674599940045742	0.01069079978485855	0.03686742147250854	0.00376025755564729	0.005385429657968486	0.01190085249917984	0.01957780565041879	0.1573662177419089	0.3127747362821839	0.01021081455797531	0.01010464855538083	0.01010114529096362	0.1271357209564062	0.02011613607394506	0.03773189002847371	0.09735583124637942	0.03622956460414033	0.03361847007846497	0.0403681707554745	0.1851003061496318	0.01597464375502554	0.02262853561026744	0.06043304424751623	0.1168365147416749	0.1033979277463426	0.04269025069038351	0.02907893959608459	0.01925355871136126	0.2577128646364691	0.07842199882103941	0.0068913463454757	0.05396592899874174	0.02259694320702507	0.02993792673674641	0.02526804844070375
145.07272	-0.09972614068782359	0.05064956860550643	0.1173751361144386	1.085839998456683	1.067059981408506	-0.3432974034644169	-0.1526754393853201	-0.005776222064436044	-0.09210460341685867	0.4950307650650134	0.03482042449706153	0.02943379768884298	0.2931343286856155	0.2931343286856155	0.7541404387408043	0.7541404387408043	0.002866707270137915	-0.06434009595320489	-0.4893435281870176	-0.6434408685879672	1.132932767815653	1.138876195333848	0.1128629334218204	0.1042014816655369	0.6719037422712719	-0.09631659207899676	-5.181881343490258	-1.061321237314863	-1.541095661735668	-2.617490731938843	1.671944942387561	-0.3177258140419331	-3.306040257861454	-3.306040257861454	-9.978459796380218	-9.978459796380218	-5.154049951030363	1.044663741410785	3.876054478019726	1.582064806092025	0.1033912959415144	0.2069225771982672	0.01064929627039893	0.01377914228592189	0.01851914461655776	0.07647273713535938	0.01130291937204588	0.06471420005559679	0.009747074277993609	0.005261729666643771	0.02695848387414384	0.03977373433523242	0.1858278267400947	0.3372913225049582	0.01041979087332649	0.01013335117010818	0.01010437167994683	0.0438482827302683	0.02567355473554232	0.04117187337615976	0.05527062571069753	0.04543480146859609	0.04269239234843877	0.0665435762517857	0.1816344680383924	0.02495696067244747	0.04262199916645482	0.06010401284720158	0.1794332258362055	0.07832788279692497	0.06150098336708516	0.05343055748403294	0.03048447623104942	0.1383215034097444	0.04611168984224206	-0.004770973638930115	0.07415270054214482	0.01358884890114218	0.004599383212345673	0.01192520324507458
145.08976	-0.07562003235043435	0.06525522112636988	0.1163165574889868	1.087670895369289	1.07824314361816	-0.3448567565160943	-0.238328091738862	-0.02022955345425963	-0.1175919744487554	0.4422795494959051	0.05762792411722883	0.02299439008301418	0.2466141443340522	0.2466141443340522	0.5843535872497533	0.5843535872497533	-0.09129438474855286	-0.04496690091081489	-0.4113095568788409	-0.5994914119110251	1.684879346506157	0.5423769879685364	-0.2316474913506072	0.1074599444035808	0.6289067940970069	-0.08703040250644951	-4.831245757147562	-0.6143700772891193	-1.461408135399663	-3.485152097640313	0.9725211997165403	-0.4304152805377284	-2.124539229840261	-2.124539229840261	-9.751462450620814	-9.751462450620814	-5.722683579226454	1.251935903382403	5.204555842520889	3.535437419903291	0.1147187441524697	0.2380558030761478	0.01036654931774293	0.008585777025706324	0.02218105589993036	0.08427154786490992	0.01130593198321147	0.08731881481797421	0.04209581990911326	0.01855964770914022	0.0378880042136502	0.05392332835062429	0.1857293182973146	0.3224238873958789	0.01038870173860708	0.01011323816697264	0.01008769769015283	0.01331837029364887	0.02563582168938298	0.03224352248390931	0.0456994261576608	0.05203482547677152	0.0411118339949452	0.08707852574593172	0.2130734310827688	0.04451097397422251	0.07461941862084343	0.04366623409621662	0.232963873973443	0.04534780369857812	0.07308468148551432	0.07246856152225492	0.03808566206624615	0.07329246593806862	0.03721004632112827	0.06873903457504046	0.1013032261721214	0.009695748735797738	0.003335947971341911	0.008340564460570098
145.1068	-0.04564138334116458	0.06762498421467267	0.108970520778618	1.089438452241438	1.088131825805976	-0.3462164205776517	-0.3123844261569214	-0.02606442033327456	-0.1389842127943399	0.3826233156702398	0.06646498726197159	0.01264705698708692	0.2230390078737561	0.2230390078737561	0.4280171139016338	0.4280171139016338	-0.1914997386903666	-0.02196561061678772	-0.3193062548585486	-0.5241330595755187	1.824011185047907	-0.2469412875280736	-0.6194876193195713	0.09599885326732085	0.5130575362245209	-0.07257545555428255	-3.850883828207701	-0.09276113690702986	-1.030352130101809	-3.418271107811089	0.09037963105846292	-0.7613692150692553	-0.6428562654842741	-0.6428562654842741	-8.317152502406381	-8.317152502406381	-5.869741776559891	1.374850461672646	5.358729753590683	4.980534445444999	0.1109654106886194	0.2336732946892611	0.01027906123744725	0.008323433678912062	0.022546399038267	0.07746313787541181	0.01082661027584732	0.09228512442444453	0.1008118696607168	0.04134786978532232	0.03658595295442727	0.05027182095902775	0.1618238395310963	0.278054022287011	0.01021481838982707	0.01006995827733568	0.01006626252370565	0.01042809909213208	0.01876848479597822	0.01874066364589849	0.04817402911432669	0.04696019700840891	0.03144967539969285	0.09096257705654932	0.2466069163450763	0.06648149708827357	0.1139685014110162	0.02309547111336753	0.2539898531490426	0.01996133805988312	0.07205538704554951	0.07233246663045238	0.0371966241077937	0.06535712848475443	0.03901430792429526	0.2005405314051658	0.1027515397002363	0.009117322307709036	0.009004788892378199	0.009092729407487931
145.12384	-0.01642023415747693	0.05671523268893831	0.09482806932141977	1.090924039236032	1.095583544118266	-0.3472793309082753	-0.36638403556586	-0.02375964846529264	-0.1506016603147476	0.3306100041652864	0.06063537353256324	-0.004651507019758569	0.2253743543250677	0.2253743543250677	0.3040817916206532	0.3040817916206532	-0.2894837759359334	0.001813960955437482	-0.2342684303683489	-0.4325112361885129	1.574505232735175	-0.9864301207967471	-1.033866981852189	0.07515455429182182	0.3426693072548706	-0.05128734058373241	-2.46716617242588	0.3175882454735729	-0.2474030250914452	-2.574895757915463	-0.7188928650651454	-1.268950366453041	0.9120551454352525	0.9120551454352525	-5.955252281799845	-5.955252281799845	-5.636242402146214	1.249218259202482	4.263781177420556	5.28761149509951	0.09572103918165871	0.2009811496946437	0.01043160828204599	0.009894711723945421	0.02025495391244538	0.0597404563418637	0.01015955716460576	0.07833196155360347	0.1630150716241011	0.063574932911397	0.0260511124932657	0.03368302647951639	0.1240259629901579	0.2169624500079266	0.01006599364041228	0.01003712405637898	0.0100556184268421	0.01282859440037731	0.01152406527244287	0.00954472511372737	0.04510108686440396	0.03288427951701442	0.02032894000173931	0.07602640044910848	0.2516444150551425	0.07683840513189912	0.1473634315951265	0.009982331767999907	0.2347823482910651	0.009122818390835881	0.05924665227044743	0.05526955556818438	0.03021206525403073	0.08140542407556141	0.03911924604453446	0.3176220412122996	0.0732562919096601	0.009860347553671635	0.01227935892392287	0.01040252042911719
145.14088	0.008162864499368993	0.03590759250915822	0.07420470033662886	1.091987368934993	1.09981881722513	-0.3479651223086243	-0.3984125757992608	-0.01686042550387429	-0.148144665469799	0.2948737947187793	0.04401059879773848	-0.029923448073984	0.251981241262353	0.251981241262353	0.2252815183674264	0.2252815183674264	-0.3764844874647876	0.02066829558873978	-0.1751549968629254	-0.3493095492404804	1.196587516468674	-1.455476263457007	-1.39483262334214	0.05040740953140325	0.1523458939154821	-0.02780012103644707	-1.170524585116568	0.4922089514960228	0.6858899478868212	-1.466149403726345	-1.228705915467113	-1.766177376063486	2.235040617592944	2.235040617592944	-3.241695987831337	-3.241695987831337	-4.972286791185604	0.823634284575658	2.392081473201148	4.28815331470408	0.07581130004835619	0.1541036428198599	0.01069313009514639	0.01113239626830512	0.01759592488368396	0.03870172825697036	0.009975533546639978	0.05679724178886214	0.1982278449131753	0.07406325010740207	0.01451525789693588	0.01633323219416604	0.08222870522871412	0.1494908863058749	0.01001216566068818	0.01002648457590162	0.01005790110418564	0.01294490537982033	0.008220744309110732	0.007141876577866546	0.0353884189372469	0.01834638898413964	0.01261605909745429	0.05141504677985418	0.2258006805689235	0.0703136363860259	0.1583051442374704	0.006726027679040411	0.1897455595564286	0.00900449084941737	0.04191873281755929	0.03882459121453202	0.02474100951331725	0.08562892032859531	0.03318149236213798	0.3484260236839402	0.0331764468967571	0.0105669183469381	0.01197363826413636	0.01089244582510929
145.15792	0.02854686797360721	0.01100792058858692	0.04853067742506056	1.092574267841857	1.100642327716246	-0.3482709281629562	-0.413830099619195	-0.009883735976632613	-0.1308831079908052	0.2756831863461686	0.02282833255272231	-0.06143871898993705	0.2969425919722527	0.2969425919722527	0.1945986317090553	0.1945986317090553	-0.4449438508313134	0.02880590822700111	-0.1520098297119895	-0.2977532980270308	1.010833127924212	-1.565025873291337	-1.628630613041255	0.02518917765699307	-0.02511015470350142	-0.008559450332303573	-0.4314121074852922	0.4160368115047202	1.430585942590215	-0.6486073313116113	-1.354692991318298	-2.041849637743644	3.073543095321702	3.073543095321702	-0.7469169624387535	-0.7469169624387535	-3.804534497606825	0.2178872249459428	0.4462287639260853	2.329275449847876	0.0560257737171436	0.1065560763701448	0.01085326643524717	0.01144119500460077	0.01561860333681644	0.02204642535303703	0.01113071602866103	0.04224397312865114	0.1941683317431698	0.0678733612373285	0.008057885141910404	0.006810298037485274	0.04615541514132646	0.08724723398415242	0.01003074287547009	0.01003324405346614	0.01006712186281059	0.01517260094304623	0.00838472565303133	0.008495636317579661	0.02928259978835413	0.01079453649053838	0.009777655813500288	0.03116837277772746	0.1884618466349994	0.05909347591254258	0.1385853892445165	0.008633250942399834	0.1445557406623973	0.01166192872092082	0.02971585015386227	0.03956061067009679	0.02567804639183843	0.06737418496599035	0.0261489795438677	0.2794382170878711	0.00638614368913723	0.01078929798744361	0.01048641868218605	0.01073869039154981
145.17496	0.04746564546122246	-0.013259911095502	0.01974987715938181	1.092733934215814	1.098565419506647	-0.3482766537241892	-0.4209434211622991	-0.005701114319182322	-0.1020020382244248	0.2677112298256277	0.002071871841861273	-0.09616277073774109	0.3526689947960338	0.3526689947960338	0.2042894699234873	0.2042894699234873	-0.4927786649949722	0.02425055984043835	-0.1626971500975907	-0.2866675703773418	1.188955519830698	-1.368476061522432	-1.71790548076018	0.0006080754155616333	-0.174228015762352	0.002854990538434584	-0.4229004522941903	0.151518124536182	1.74264629053881	-0.4026214078143375	-1.15919976981032	-1.998059268689923	3.372386601369317	3.372386601369317	1.24977552307308	1.24977552307308	-2.118719875390547	-0.3784370032639424	-1.073047171140708	-0.04257851436845028	0.03722010254759735	0.06592471101866926	0.0107555827013659	0.01108123232635318	0.01348150765566765	0.01375468640676775	0.01406055510195299	0.04189689889422986	0.1622150314128747	0.04825531427372236	0.007563375018466691	0.006044152622514763	0.02270910744647191	0.04105750255572936	0.01008106057087455	0.01005088515726602	0.01007862783329349	0.02528587512714823	0.009667499265762491	0.009978176236014137	0.03491239949125401	0.0127071520457376	0.01103501343056385	0.02418216629518624	0.1579515019393866	0.06144520791755695	0.09278588619480403	0.01079230519714784	0.1173925236712886	0.01212492039832251	0.02846321321360715	0.06084772577315033	0.03185041816548551	0.03842408090121336	0.02551462016998467	0.153469852683996	0.001681197134879731	0.01062284447526274	0.009781209416955152	0.0104537581875336
145.192	0.06665976554524919	-0.03569750607183315	-0.01039562378675358	1.09263535476976	1.094804106783446	-0.3481192514282249	-0.4256911392884954	-0.004107833410715614	-0.06700379779173551	0.2647187168309171	-0.01693365457338801	-0.131826047592421	0.4128275174138668	0.4128275174138668	0.2370915358704309	0.2370915358704309	-0.5267464683013205	0.01107402699941297	-0.1937199529470096	-0.3036829661173799	1.645653589764117	-1.004257493102888	-1.712663768703461	-0.02349825260226399	-0.3017206626656198	0.008223710722461999	-0.9178270035195749	-0.2097754281353745	1.694290645241902	-0.5918226877470785	-0.7886761082482433	-1.723157635204105	3.320649422093946	3.320649422093946	2.862569732289252	2.862569732289252	-0.07730252796534326	-0.8892494745739199	-2.165063793611706	-2.478871844282101	0.01863604768858252	0.03170413742649066	0.01043551564828934	0.01043565668402963	0.01054760163638204	0.01192040804714381	0.01827171124444658	0.05218972518322011	0.1196957017488255	0.02210643883652033	0.01049488748751517	0.01019588504076612	0.01006539798129668	0.01002588718429181	0.0101407192682034	0.01007446567307309	0.01009086733347712	0.04254442188723731	0.01078235563515491	0.01043842992460344	0.05043409763883776	0.02108860338140891	0.01456853571694132	0.02823651971161645	0.1372813118982174	0.08043843234623879	0.0331521571091396	0.01173398145739597	0.1071273097255691	0.01014872974122817	0.03597245157084657	0.0945762045556913	0.03994044419319575	0.01001340755035647	0.03216445069460847	0.0140364370734264	0.01181062058440733	0.01028221308458457	0.01006118719533885	0.01025078398535799
