TendonLength
version=1
nRows=51
nColumns=5
inDegrees=no

This analysis gathers basic information about muscles during a simulation (e.g., forces, tendon lengths, moment arms, etc).
Units are S.I. units (second, meters, Newtons, ...)
If the header above contains a line with 'inDegrees', this indicates whether rotational values are in degrees (yes) or radians (no).

endheader
time	recfem_r	vaslat_r	vasint_r	vasmed_r
    144.34000000	      0.55700119	      0.27855781	      0.25429434	      0.25183293
    144.35704000	      0.55700119	      0.27855781	      0.25429434	      0.25183293
    144.37408000	      0.55700119	      0.27855781	      0.25429434	      0.25183293
    144.39112000	      0.55700119	      0.27855781	      0.25429434	      0.25183293
    144.40816000	      0.55700119	      0.27855781	      0.25429434	      0.25183293
    144.42520000	      0.55700119	      0.27855781	      0.25429434	      0.25183293
    144.44224000	      0.55700119	      0.27855781	      0.25429434	      0.25183293
    144.45928000	      0.55700119	      0.27855781	      0.25429434	      0.25183293
    144.47632000	      0.55700119	      0.27855781	      0.25429434	      0.25183293
    144.49336000	      0.55700119	      0.27855781	      0.25429434	      0.25183293
    144.51040000	      0.55700119	      0.27855781	      0.25429434	      0.25183293
    144.52744000	      0.55700119	      0.27855781	      0.25429434	      0.25183293
    144.54448000	      0.55700119	      0.27855781	      0.25429434	      0.25183293
    144.56152000	      0.55700119	      0.27855781	      0.25429434	      0.25183293
    144.57856000	      0.55700119	      0.27855781	      0.25429434	      0.25183293
    144.59560000	      0.55700119	      0.27855781	      0.25429434	      0.25183293
    144.61264000	      0.55700119	      0.27855781	      0.25429434	      0.25183293
    144.62968000	      0.55700119	      0.27855781	      0.25429434	      0.25183293
    144.64672000	      0.55700119	      0.27855781	      0.25429434	      0.25183293
    144.66376000	      0.55700119	      0.27855781	      0.25429434	      0.25183293
    144.68080000	      0.55700119	      0.27855781	      0.25429434	      0.25183293
    144.69784000	      0.55700119	      0.27855781	      0.25429434	      0.25183293
    144.71488000	      0.55700119	      0.27855781	      0.25429434	      0.25183293
    144.73192000	      0.55700119	      0.27855781	      0.25429434	      0.25183293
    144.74896000	      0.55700119	      0.27855781	      0.25429434	      0.25183293
    144.76600000	      0.55700119	      0.27855781	      0.25429434	      0.25183293
    144.78304000	      0.55700119	      0.27855781	      0.25429434	      0.25183293
    144.80008000	      0.55700119	      0.27855781	      0.25429434	      0.25183293
    144.81712000	      0.55700119	      0.27855781	      0.25429434	      0.25183293
    144.83416000	      0.55700119	      0.27855781	      0.25429434	      0.25183293
    144.85120000	      0.55700119	      0.27855781	      0.25429434	      0.25183293
    144.86824000	      0.55700119	      0.27855781	      0.25429434	      0.25183293
    144.88528000	      0.55700119	      0.27855781	      0.25429434	      0.25183293
    144.90232000	      0.55700119	      0.27855781	      0.25429434	      0.25183293
    144.91936000	      0.55700119	      0.27855781	      0.25429434	      0.25183293
    144.93640000	      0.55700119	      0.27855781	      0.25429434	      0.25183293
    144.95344000	      0.55700119	      0.27855781	      0.25429434	      0.25183293
    144.97048000	      0.55700119	      0.27855781	      0.25429434	      0.25183293
    144.98752000	      0.55700119	      0.27855781	      0.25429434	      0.25183293
    145.00456000	      0.55700119	      0.27855781	      0.25429434	      0.25183293
    145.02160000	      0.55700119	      0.27855781	      0.25429434	      0.25183293
    145.03864000	      0.55700119	      0.27855781	      0.25429434	      0.25183293
    145.05568000	      0.55700119	      0.27855781	      0.25429434	      0.25183293
    145.07272000	      0.55700119	      0.27855781	      0.25429434	      0.25183293
    145.08976000	      0.55700119	      0.27855781	      0.25429434	      0.25183293
    145.10680000	      0.55700119	      0.27855781	      0.25429434	      0.25183293
    145.12384000	      0.55700119	      0.27855781	      0.25429434	      0.25183293
    145.14088000	      0.55700119	      0.27855781	      0.25429434	      0.25183293
    145.15792000	      0.55700119	      0.27855781	      0.25429434	      0.25183293
    145.17496000	      0.55700119	      0.27855781	      0.25429434	      0.25183293
    145.19200000	      0.55700119	      0.27855781	      0.25429434	      0.25183293
