ModelForces
version=1
nRows=51
nColumns=77
inDegrees=no

This file contains the forces exerted on a model during a simulation.

A force is a generalized force, meaning that it can be either a force (N) or a torque (Nm).

Units are S.I. units (second, meters, Newtons, ...)
If the header above contains a line with 'inDegrees', this indicates whether rotational values are in degrees (yes) or radians (no).

endheader
time	addbrev_r	addlong_r	addmagDist_r	addmagIsch_r	addmagMid_r	addmagProx_r	bflh_r	bfsh_r	edl_r	ehl_r	fdl_r	fhl_r	gaslat_r	gasmed_r	glmax1_r	glmax2_r	glmax3_r	glmed1_r	glmed2_r	glmed3_r	glmin1_r	glmin2_r	glmin3_r	grac_r	iliacus_r	perbrev_r	perlong_r	piri_r	psoas_r	recfem_r	sart_r	semimem_r	semiten_r	soleus_r	tfl_r	tibant_r	tibpost_r	vasint_r	vaslat_r	vasmed_r	pelvis_tx_residual	pelvis_ty_residual	pelvis_tz_residual	pelvis_tilt_residual	pelvis_list_residual	pelvis_rotation_residual	hip_flexion_r_reserve	hip_adduction_r_reserve	hip_rotation_r_reserve	knee_angle_r_reserve	ankle_angle_r_reserve	subtalar_angle_r_reserve	hip_flexion_l_torque	hip_adduction_l_torque	hip_rotation_l_torque	knee_angle_l_torque	ankle_angle_l_torque	subtalar_angle_l_torque	calcn_r_RightGRF_Fx	calcn_r_RightGRF_Fy	calcn_r_RightGRF_Fz	calcn_r_RightGRF_px	calcn_r_RightGRF_py	calcn_r_RightGRF_pz	calcn_r_RightGRF_Tx	calcn_r_RightGRF_Ty	calcn_r_RightGRF_Tz	calcn_l_LeftGRF_Fx	calcn_l_LeftGRF_Fy	calcn_l_LeftGRF_Fz	calcn_l_LeftGRF_px	calcn_l_LeftGRF_py	calcn_l_LeftGRF_pz	calcn_l_LeftGRF_Tx	calcn_l_LeftGRF_Ty	calcn_l_LeftGRF_Tz
    144.34000000	    113.61406017	    412.13363972	      6.96655963	      6.59738684	      7.63919357	     17.54639655	     14.50770634	     51.85472140	    110.88061394	     16.55752533	      5.57789124	     11.70200568	   1870.53205913	     30.62351712	     11.97458902	     16.84571582	     11.60188459	    365.94840618	     20.77906546	      9.20494676	    100.15839684	     57.45438894	     18.20852819	     17.20064981	    858.11262398	     28.35030564	     99.88141160	      9.38686491	    995.23305225	    212.03094270	     28.60756741	     23.63050010	      7.72080971	     58.70236753	    118.79300505	    263.51968165	     19.45914554	     20.49850667	     61.24347932	     33.68939264	     84.78162644	   -120.33238244	     72.38831283	     80.47132494	    -48.07813342	     17.78305823	      0.07363539	     -0.02694748	      0.00394190	      0.04751398	      0.00681852	     -0.00189151	    -38.31552510	     36.52963956	     -8.41730252	     33.98593913	      1.14607241	     -0.09596858	    140.72493932	    400.78099880	     37.88238453	      0.23362378	      0.01941627	     -0.02894440	      0.00000634	     -8.15387783	      0.00001569	      0.00000000	     -0.00000000	     -0.00000000	     -1.13767628	     -0.04878528	      0.17792615	      0.00000000	     -0.00000000	     -0.00000000
    144.35704000	    121.49521904	    219.20464849	      7.78924307	      7.43942021	     38.37308224	     38.48726044	     14.26497876	      7.26185948	    649.03197133	     98.07008606	      5.22643028	     11.41181607	     15.27028465	   3132.46776650	     12.36120398	     17.41758408	     11.90397621	     12.12808954	      8.52683293	      9.48599765	      6.15308662	      4.62805175	      4.38456703	      3.88315571	    346.87928689	     86.92601533	    251.29499758	      9.42244262	    321.02832831	    347.32971302	      3.70794756	     22.72003771	      7.65406431	     60.64928595	      6.13060984	   1750.44085694	     19.31623783	     37.32991972	    240.07887423	     81.36463556	    -12.09721586	     -2.89003049	     -0.69297047	     -7.69346756	     -0.36660805	      1.14470072	      0.01396456	      0.00010133	      0.01151531	     -0.00101196	      0.05085436	     -0.00832788	    -57.91031197	     16.42539864	     -2.56404681	     38.87619653	      0.34649920	     -0.26946463	    115.26513872	    242.79130504	     19.98677886	      0.25149618	      0.03093533	     -0.02538346	      0.00000287	     -6.15301319	      0.00000849	     -0.00000000	      0.00000000	      0.00000000	     -1.17542932	      0.03492845	      0.17371482	     -0.00000000	      0.00000000	      0.00000000
    144.37408000	    132.38206295	    274.05026503	     50.06257466	      9.22491510	    100.45790825	    137.27013310	     14.10699433	      6.48933087	   2330.22455008	    332.75950760	      5.33831276	     11.49729689	     15.11471984	   7300.61704772	     12.92432955	     18.22569736	     95.97309222	     12.68569996	      9.00316672	     10.03808816	      4.65706486	      4.82564482	      4.70883636	     19.20508136	     37.85866752	    332.19075375	   1011.69131753	     19.29813371	    150.17172190	    645.14994799	      3.29388540	     21.78390508	      7.57210203	     63.03780947	      5.27366528	   5893.70764206	     20.05765406	    191.62643695	   1562.85064344	    493.79636603	    -35.73045550	     30.76868670	    -31.53552285	    -25.83414802	     19.95143072	    -13.12254310	      0.01665471	      0.01107244	     -0.00161459	     -0.00567111	      0.20530346	     -0.03589364	    -62.48761339	      6.89142922	     -0.52538783	     41.15675118	     -0.64465193	     -0.27183185	     74.91942723	    123.69853280	      1.83587772	      0.25594316	      0.03224416	     -0.01971997	      0.00000130	      0.43253049	      0.00000493	      0.00000000	     -0.00000000	     -0.00000000	     -1.20132893	      0.09578611	      0.18375276	      0.00000000	     -0.00000000	     -0.00000000
    144.39112000	    169.37817592	    398.83952221	      8.28816169	      6.84172203	     86.58703062	    162.60243678	     13.88221487	     25.92892942	     72.51492669	     10.31774362	      5.86612976	     12.14406334	     14.97127963	     27.63569906	     13.52514948	     19.10431876	     12.73539084	     13.21395544	      9.58018151	     10.83421211	      5.43425846	      8.90726029	     13.41153739	     33.72766236	    298.30763347	     18.44343995	     61.34243923	     89.20824774	    507.48262776	    146.90146818	     14.77062988	     20.90747045	      7.43826033	     65.51502812	     14.80546289	    156.79315740	     22.26332452	     24.92059844	     73.71184144	     40.18033427	     18.99676021	     50.64816170	    -20.36984922	      8.60787333	     14.41059750	     -5.83265518	      0.05069031	      0.00248970	     -0.00230479	      0.02378083	      0.00676569	     -0.00168573	    -56.93691987	     12.25310178	     -0.87758365	     40.47118043	     -1.73163177	     -0.11265017	      0.80808410	      0.97260496	      0.03547832	     -0.17082108	     -0.56159175	      0.14924324	      0.00000001	     -0.02527483	      0.00000005	     -0.00000000	      0.00000000	      0.00000000	     -1.21396767	      0.11982399	      0.21731988	     -0.00000000	      0.00000000	      0.00000000
    144.40816000	    123.19976711	    296.66828509	      7.08296128	      6.91733418	     50.07158603	    109.80615642	     13.73219140	     24.47287990	    182.19888203	     23.98746677	      6.44434483	     13.06206601	    260.77639694	     26.28214377	     14.12464619	     19.96421061	     13.19083342	     13.60297633	     10.09945112	     11.55766130	      9.47111046	      9.09205686	      8.25920987	     24.57241424	    282.71551411	     41.08946801	    163.44706050	     15.44003468	    439.34661509	    236.95518310	     15.14663441	     20.03915332	      7.35511969	     67.29146533	     26.48389590	    398.26141963	     25.28413446	     25.86928795	     77.05163064	     41.56172569	     16.31807018	    -15.84071670	     14.51451978	      9.99429066	    -10.35727515	      0.77991262	      0.04353265	     -0.00096729	     -0.00060353	      0.02126484	      0.01909738	     -0.00523916	    -53.84229023	     25.78359666	     -1.92889271	     37.60022000	     -2.27749022	      0.04175077	     -0.00000000	     -0.00000000	     -0.00000000	     -0.07714324	     -0.58510419	      0.15288413	     -0.00000000	      0.00000000	     -0.00000000	      0.00000000	     -0.00000000	     -0.00000000	     -1.21476480	      0.10122203	      0.26553739	      0.00000000	     -0.00000000	     -0.00000000
    144.42520000	    128.09722542	    293.53514709	      7.14027492	      6.96604442	     54.68630244	    103.78576635	     13.43768489	     24.60964136	     92.15591617	     11.70474620	      7.05350193	     14.03784283	     20.91054572	     25.42595783	     14.49758360	     20.49111711	     13.47704088	     13.76458664	     10.42174187	     12.08293039	      6.48001241	      5.46820915	      5.98524142	     22.69952626	    284.55911555	     23.29441436	    101.00227377	     15.68243019	    409.36844072	    121.66828178	     13.92915041	     18.92648439	      7.25784683	     69.49982288	     16.63238333	    181.47071786	     28.09943019	     26.31935491	     78.92790080	     42.13713953	      5.48996666	    -54.88176269	     20.84081852	      1.95203549	    -16.31133639	      3.65501702	      0.03848997	      0.00087903	      0.00201403	      0.01972966	      0.00991595	     -0.00345879	    -60.29800741	     34.72915344	     -3.34541042	     34.45515297	     -1.83233246	     -0.03823900	      0.00000000	      0.00000000	      0.00000000	      0.02009166	     -0.59242303	      0.13572414	      0.00000000	     -0.00000000	      0.00000000	     -0.00000000	      0.00000000	      0.00000000	     -1.20598477	      0.04707622	      0.30877819	     -0.00000000	      0.00000000	      0.00000000
    144.44224000	    184.42149810	    402.54768718	     55.94476199	      7.22406193	    134.16511578	    192.10887981	     13.06478149	     15.78091543	     85.78820849	     11.77780644	      7.41236358	     14.77052736	     14.89431825	     25.52796231	     14.59464124	     20.61223968	     14.04598172	     13.79524935	     10.54429955	     12.32828148	      4.70458525	      5.37141791	      6.18607573	     36.44432243	    127.56272898	     19.48538639	     85.18485205	     66.74842986	    313.39556353	    143.37427635	      7.80212279	     17.36726321	      7.86329110	     73.53629918	      5.42496078	    188.09913805	     29.77063338	     26.44994672	     79.59642889	     42.20681952	    -12.94149556	    -61.70274589	     -7.93964573	     -8.71566860	      3.88340064	      2.11126857	      0.03488656	      0.01413658	     -0.00257843	      0.01068918	      0.01016121	     -0.00339678	    -73.36754636	     35.47419787	     -5.39634316	     31.91538432	     -0.68816039	     -0.30219898	     -0.00000000	     -0.00000000	     -0.00000000	      0.10970653	     -0.59400528	      0.09615592	     -0.00000000	      0.00000000	     -0.00000000	      0.00000000	     -0.00000000	     -0.00000000	     -1.19024686	     -0.02281893	      0.33078440	      0.00000000	     -0.00000000	     -0.00000000
    144.45928000	    228.31922745	    504.03942663	     75.32230774	      7.58096642	    167.43162631	    238.60865607	     12.39099035	     16.65540892	     80.44897724	     11.91688360	      7.50360009	     15.20042420	     15.23454878	     26.26043519	     14.45169716	     20.40046936	     41.05484275	     13.84121501	     10.52038505	     12.27116567	      4.75921873	      5.38952508	      6.19379962	     45.40618388	    118.36366855	     16.61787956	     67.62056803	    168.95416041	    345.44450619	    197.81348931	      8.24837658	     15.35001658	      8.25854994	     79.39735153	      5.45338572	    200.00955592	     30.08485704	     26.18365848	     79.07424108	     41.73779218	    -25.96192269	     18.92867478	    -12.69767031	    -12.66404764	     10.47916433	      2.24805334	      0.03954515	      0.01879616	     -0.00410917	      0.01032365	      0.01069106	     -0.00295308	    -77.74056467	     40.00285243	     -7.82529475	     28.86498218	      0.40837433	     -0.40903928	      0.00000000	      0.00000000	      0.00000000	      0.18639358	     -0.58937239	      0.04302747	      0.00000000	     -0.00000000	      0.00000000	     -0.00002575	      0.00002122	      0.00000174	     -1.17167620	     -0.08613854	      0.32208414	     -0.00000000	      0.00000214	      0.00000000
    144.47632000	    213.88824664	    503.98302790	     27.44682500	      6.96474502	    125.41151477	    209.90895671	     11.68780267	     31.29431682	     81.06279477	     11.90846960	      7.35929183	     15.36833617	     15.62362000	     26.15558014	     14.24955301	     20.13876088	     13.30586816	     13.88088679	     10.40278327	     12.02354864	      4.81504479	      5.37098955	      9.18069501	     45.52137429	    214.75592244	     14.93383289	     60.60945514	    242.92390370	    441.19216040	    286.27449919	     17.68623308	     12.98906907	      6.75375258	     85.88361929	      5.48653337	    207.81381194	     29.26979991	     25.53882931	     77.49302263	     40.76025164	      2.94925367	    129.56179497	     11.00211153	     16.02760436	      1.06124132	      5.23572120	      0.04828639	      0.01202169	     -0.00430418	      0.02000820	      0.01152672	     -0.00260320	    -50.34398731	     30.38330159	     -3.26254619	      7.44354927	      6.27601113	     -0.28899965	     -0.00000000	     -0.00000000	     -0.00000000	      0.24773305	     -0.58114995	     -0.00790835	     -0.00000000	      0.00000000	     -0.00000000	    -22.36228425	    126.47426989	     19.22105896	      0.03288276	     -0.04861208	      0.01609253	      0.00000327	      1.30273763	      0.00000466
    144.49336000	    181.02962751	    471.98025635	      7.08668008	      7.03462590	     54.82377895	    156.48578193	     11.35853835	     54.99423057	     86.13508778	     12.49975565	      7.09849078	     15.35257891	     15.91469549	     25.40962392	     14.17453954	     20.13480650	     13.43468587	     13.86323501	     10.28243541	     11.91739576	      9.42218237	     29.01250550	     37.81744263	     43.00211620	    371.42378587	     15.82627085	     59.92719503	    246.76994172	    584.65975008	    402.83129390	     33.72650697	     10.43269351	      6.62425510	     92.22025333	     51.34493971	    215.61119279	     27.83352309	     24.84474022	     75.77950433	     39.78395181	     12.76110388	     78.40999149	     14.20516482	      2.97097865	     -8.15860826	     -8.72303174	      0.06123705	      0.00071948	     -0.00370732	      0.03361403	      0.01257676	     -0.00237255	    -73.69307996	     -0.89907468	     17.96499354	      1.06983589	     -2.72220138	     17.99466398	      0.00000000	      0.00000000	      0.00000000	      0.29455768	     -0.57566208	     -0.04386517	      0.00000000	     -0.00000000	      0.00000000	    -19.39306303	    566.41624647	     42.10244242	      0.06831055	     -0.03690137	      0.00287829	      0.00001034	     13.77103273	      0.00003557
    144.51040000	    158.83407461	    442.55873965	      7.17434332	      7.20528972	     13.10072927	    126.33006392	     11.44518645	     57.04267046	     90.92419695	     13.12775119	      6.82858049	     15.25941375	     16.19210613	     24.16048890	     14.32743780	     20.50076935	     13.86428969	     14.10208384	     13.11722953	     43.09948957	     28.32270319	     46.66731032	     46.64965689	     37.75651776	    429.68215740	     16.92551420	     58.84004352	    238.67393861	    641.12363905	    552.00283946	     40.99222680	      8.17525591	      6.67269970	     98.31941379	     79.56620500	    223.00192622	     26.37294548	     23.78910324	     73.00946690	     38.29368711	     39.49124234	   -238.14501751	     11.10231256	     19.48851210	    -19.96680844	      1.31775397	      0.06772570	     -0.00513009	     -0.00372061	      0.03347743	      0.01332542	     -0.00216709	    -85.58884852	    -57.13624039	     14.97481642	    -51.64377288	    -17.36034942	     36.72834778	     -0.00000000	     -0.00000000	     -0.00000000	      0.32688358	     -0.57997907	     -0.05978044	     -0.00000000	      0.00000000	     -0.00000000	    -73.07144850	   1320.56067134	      9.34478058	      0.08209783	     -0.02423428	      0.00534899	      0.00002277	     -2.52496836	      0.00006595
    144.52744000	    114.59482104	    342.58659046	      7.31363821	      7.42869854	      7.40453408	     81.03179106	     11.95457982	     32.47748775	     90.53652892	     13.41435763	      6.62654745	     15.15064004	     16.72102698	     23.22451783	     14.64885846	     21.07310620	     14.40585133	     88.87521574	     42.41164461	     50.69672869	     34.01303538	     47.13039461	     41.17717215	     20.58742996	    391.13618121	     19.24177179	     57.90579651	    191.71580519	    565.91415047	    623.93243822	     36.08047062	      6.80208102	      6.87672019	    104.03362203	     83.67597410	    221.95914855	     25.27009888	     22.41868881	     69.27051381	     36.32351326	     -5.28556764	    -56.70723090	    -15.39232913	     -7.28263854	      4.27274768	     13.56772694	      0.06055624	     -0.00838444	     -0.00275647	      0.01804311	      0.01312907	     -0.00199398	    -78.88306473	   -118.63961896	      8.27263509	    -83.49351751	    -40.24231544	     65.27000737	      0.00000000	      0.00000000	      0.00000000	      0.34119575	     -0.59896863	     -0.05699564	      0.00000000	     -0.00000000	      0.00000000	   -105.90941830	   1498.13800717	     -3.17253612	      0.10199999	     -0.02001507	     -0.00760481	      0.00003083	    -19.97741793	      0.00008613
    144.54448000	     48.66444966	    178.13143367	      7.43493577	      7.63388467	      7.33864512	     13.70160653	     12.77982508	      6.53402346	     85.73552545	     12.90212100	      6.49354487	     15.07015371	     17.69622605	     23.62425583	     15.00856216	     21.59149302	     14.79694480	    243.61106057	     73.04329038	     20.86237431	     44.14872900	     43.51105963	     29.77784916	      3.44208144	    313.32845722	     20.19097572	     66.08113202	     74.74748209	    397.35082436	    535.50167870	     23.33798131	      6.50263198	      7.16912769	    108.66988090	     78.95965251	    212.16771301	     24.62287987	     24.61759039	     80.55784418	     41.03850871	    -30.38945361	     64.12532918	     12.48756135	    -23.81447259	    -14.43088970	      0.30422228	      0.04176866	     -0.01085915	      0.00023322	     -0.00046765	      0.01202944	     -0.00195356	    -48.52571661	   -133.57438569	     28.72598370	   -115.54142706	    -71.81330550	    102.98090259	     -0.00000000	     -0.00000000	     -0.00000000	      0.33182601	     -0.63310675	     -0.04013433	     -0.00000000	      0.00000000	     -0.00000000	   -147.98456885	   1586.66845936	      0.71372126	      0.12050846	     -0.01792101	     -0.01716594	      0.00002810	     -0.74585288	      0.00006078
    144.56152000	     26.24515173	     85.34326599	      7.48356555	      7.76331392	      7.26918187	      7.74219767	     13.74182699	      6.71063830	     80.03706955	     12.53917435	      6.43563258	     15.00169329	     19.08307366	     26.09597082	     15.31621255	     21.91461910	     14.89273869	    440.46411693	     28.53202796	     12.74463698	     66.53136893	     30.42629717	      5.34479294	      3.49430022	    291.71962403	     22.74726684	     78.77880068	     14.02326267	    259.68604894	    299.25795255	     11.74062403	      7.27065183	      7.47067277	    111.30446482	     69.36831154	    202.99646439	     24.33863801	     33.29858757	    256.31689700	     74.58029800	     -1.76588483	     77.29664562	    -27.08737292	      8.13820494	     42.28348754	    -20.54722864	      0.02280922	     -0.00921646	      0.00669510	     -0.00243461	      0.01078708	     -0.00198370	     18.37401769	   -197.33954307	     73.64824389	   -160.44183247	    -92.81236548	    121.54315625	      0.00000000	      0.00000000	      0.00000000	      0.29350164	     -0.67802282	     -0.01517418	      0.00000000	     -0.00000000	      0.00000000	   -186.55612153	   1643.00858711	    112.34629892	      0.12950507	     -0.01521399	     -0.02083351	      0.00003253	     30.99241861	      0.00009352
    144.57856000	     59.18359570	    116.49124793	      7.48247047	      8.11936751	      7.53469064	      8.14962354	     14.71190936	      7.34866525	     75.27768544	     12.67791340	      6.46678638	     14.94561942	     20.71184915	     30.86200350	     15.55303920	     22.05331642	     14.74831011	    457.67616672	     11.65893074	     13.68236824	     73.94475789	     10.10002156	      5.88210915	      3.60221875	    277.06440056	     25.09704633	     88.34031478	     16.55286208	    201.03992731	    135.46148392	      4.22038597	      9.23730322	      7.75277842	    111.48867772	     49.70049776	    199.21675794	     24.25719276	     45.17275234	    343.13798515	    101.44674847	    -16.98649413	     -3.80377274	     87.09687021	    -15.42243279	    -83.29700996	     -1.11965194	      0.01279904	     -0.00169481	      0.01061920	     -0.00374845	      0.00983666	     -0.00201188	     -5.47989154	    -80.26991531	     34.12457868	   -150.13222774	   -118.13737892	    140.39729054	     -0.00000000	     -0.00000000	     -0.00000000	      0.22257157	     -0.72630174	      0.01209853	     -0.00000000	      0.00000000	     -0.00000000	   -133.25253433	   1720.00132470	     20.20861692	      0.14291800	     -0.00988291	     -0.02601629	      0.00003004	     14.97621381	      0.00008953
    144.59560000	     64.00620266	    129.98178523	      7.47287884	      8.15328892	     10.01370234	     14.85168602	     15.68759784	      7.60129127	     71.35729929	     12.69630062	      6.45560793	     14.90099368	     22.41138138	     37.14459909	     15.68282227	     22.03339333	     14.52157103	    328.37800761	     12.42794211	     14.62239688	     57.82303190	      8.69559917	      6.63444898	      3.82499261	    226.31182853	     25.64202090	     94.17223958	     19.16364114	    196.01932087	    131.12420746	      4.20358262	     12.67566826	      8.02805527	    109.41060837	     40.88670477	    198.73101824	     24.26266555	     35.74518718	    261.73725976	     78.35617331	    -10.03362313	    -53.42509954	    -16.42307221	     -5.38523560	     10.69149641	     10.07161987	      0.01317324	      0.00131914	      0.00776669	     -0.00308246	      0.00913047	     -0.00203730	      2.35654548	   -146.03333236	     20.54293949	   -134.11557344	   -124.78476195	    132.49249334	      0.00000000	      0.00000000	      0.00000000	      0.11794491	     -0.76909033	      0.03838795	      0.00000000	     -0.00000000	      0.00000000	    -68.62121233	   1739.53713651	     86.03412334	      0.14937996	     -0.00291259	     -0.02874901	      0.00002586	    -10.56132327	      0.00007325
    144.61264000	     49.17043925	    102.64369247	      7.42017880	      7.89534946	      8.57731395	     15.13839806	     16.73520708	      8.04750446	     67.74725247	     12.75189033	      6.46576510	     14.86321147	     24.10609596	     43.25041811	     15.62878690	     21.80756902	     14.30947306	    262.37905052	     13.01850966	     15.27626350	     45.36338753	     11.53022880	      7.23368272	      4.00608030	    172.99528833	     26.18239812	    100.03280099	     21.47039494	    172.88563737	    126.39313407	      4.83461670	     17.71178316	      8.33835671	    105.48474690	     35.54198354	    196.87454098	     24.29838252	     27.06665004	    150.93120922	     52.50899187	     24.24583887	    -10.90565897	    -56.68039234	     18.50816860	     45.62223268	     -0.90090728	      0.01155883	      0.00146786	      0.00526133	     -0.00181620	      0.00843413	     -0.00210448	     29.04015213	   -154.24750833	     18.37348589	    -91.38390163	   -136.07020894	    128.01299891	     -0.00000000	     -0.00000000	     -0.00000000	     -0.01721200	     -0.79665779	      0.06409322	     -0.00000000	      0.00000000	     -0.00000000	    -21.73526948	   1631.53685769	    102.87499561	      0.16029287	      0.00423575	     -0.03218616	      0.00003146	     -9.03471705	      0.00007324
    144.62968000	     33.05155069	     57.89456011	      7.65166261	     18.50732542	      8.95934786	      7.92750903	     17.90659382	      8.09316754	     64.07791066	     12.47718033	      6.46633690	     14.81250763	     25.85288910	     48.21224886	     15.33508819	     21.30727226	     14.08759578	    310.77002810	     13.38148040	     15.42973554	     45.00200653	     12.31880509	      7.56824085	      3.89898952	    115.00960061	     26.32947587	    105.97921097	     22.41785622	     87.82542767	     24.80015975	      3.48521740	     23.66297876	      8.76152518	    100.12837371	     23.00879169	    190.11865765	     24.29086444	     21.71051576	    144.57702379	     44.11574615	     24.52128304	     26.11669977	      3.40177649	     11.71157640	     -6.80509401	      1.91630038	      0.00311091	      0.00203787	      0.00517054	     -0.00168712	      0.00755336	     -0.00221630	     38.61023141	    -90.46950697	      6.23769785	    -36.16646709	   -146.01450960	    123.86739276	     -0.00000000	      0.00000000	      0.00000000	     -0.17431090	     -0.79992922	      0.09238438	      0.00000000	     -0.00000000	      0.00000000	     27.69720698	   1467.43356754	     60.82634842	      0.17494999	      0.00946574	     -0.03395827	      0.00002398	     -5.11255772	      0.00005679
    144.64672000	     20.72117788	     23.69858926	     16.96600315	     50.02475941	     12.29037901	      6.61281396	     20.48907542	      8.45840801	     60.38565926	     12.12615247	      6.45781706	     14.70218116	     27.65812941	     52.65054113	     14.81678897	     20.52812069	     13.80208160	    353.12398842	     24.37819822	     15.05937652	     45.29950635	     15.76718658	      7.60965499	      4.07384578	     68.28337272	     25.23235883	    105.65047181	     21.18033563	     20.83731771	     15.78804218	      3.49310245	    181.17687142	     20.51558336	     93.84774252	     13.65962558	    179.69302444	     24.09428945	     31.65743244	    273.36523390	     76.90249025	     -8.03321081	     15.18795771	     32.66858946	     -7.84013294	    -24.58910360	     -2.73732653	     -0.00374780	      0.00224353	      0.00516539	     -0.00305435	      0.00654329	     -0.00227338	     38.77705901	    -59.23723081	      6.70337137	     10.67163443	   -144.82019491	    114.51077750	      0.00000000	     -0.00000000	     -0.00000000	     -0.34065580	     -0.77319386	      0.12773688	     -0.00000000	      0.00000000	     -0.00000000	     82.50162341	   1283.38195531	     34.77024680	      0.18636857	      0.00938737	     -0.03247461	      0.00002455	      6.48970398	      0.00005364
    144.66376000	     15.97881695	     12.61190399	     24.61709828	     59.01096419	     14.50464242	      6.48326003	     72.30590304	      8.78331653	     57.14215434	     11.73959953	      6.37907631	     14.47809928	     29.23513582	     57.06503238	     14.15035818	     19.55582353	     14.81201438	    320.46099706	     36.67324435	     14.29983985	     40.42624117	     15.90934969	      7.40654294	      4.19901251	     41.30204323	     22.84098665	     96.47808604	     18.42800907	     19.05361308	     16.31729570	      3.54313666	    349.95517311	     33.83442316	     87.24513053	      8.76535766	    170.65015973	     23.54827847	     43.19784874	    401.53627064	    111.21524829	    -18.04332510	    -16.21511856	     21.18042080	    -11.38228383	    -13.40935249	     -0.86832406	     -0.00625507	      0.00237700	      0.00460929	     -0.00420705	      0.00563801	     -0.00215615	     44.37973795	    -49.52913690	      0.38200588	     38.81609985	   -136.99763873	    102.50240166	     -0.00000000	      0.00000000	      0.00000000	     -0.50331827	     -0.71546559	      0.17450235	      0.00000000	     -0.00000000	      0.00000000	    126.86078145	   1068.99305278	      3.39110552	      0.20322197	      0.00774820	     -0.03073911	      0.00001907	      5.18661931	      0.00004052
    144.68080000	     10.28773799	     10.94561682	     24.20037087	     52.11216974	     12.86006847	      6.77174089	    133.45070015	      9.12010102	     54.44117766	     11.52934987	      6.23131980	     14.10331483	     29.96231882	     60.15275863	     13.49729571	     18.59991463	     40.30695136	    241.92862260	     41.31872775	     13.41796084	     29.96499743	     14.10854110	      6.95703264	      4.53504691	     19.63683950	     20.53629409	     82.97808455	     15.35579729	     19.61468945	     16.77144179	      3.60561727	    479.55581711	     40.17761457	     80.87367820	      6.83927496	    164.76333558	     22.57397683	     39.69272321	    366.47602506	    101.70680472	     -1.51593364	    -27.43226991	      2.90366405	      3.14179365	     -4.41976472	      6.03039916	     -0.00703183	      0.00159046	      0.00341889	     -0.00365985	      0.00496642	     -0.00184078	     64.89348200	    -37.00878274	     -9.55557495	     40.35276062	   -117.53142518	     86.48718365	      0.00000000	     -0.00000000	     -0.00000000	     -0.65264975	     -0.62897151	      0.23425345	     -0.00000000	      0.00000000	     -0.00000000	    149.32573423	    819.28160503	    -31.80100848	      0.22353726	      0.00748259	     -0.02934977	      0.00001751	     -6.55322050	      0.00003623
    144.69784000	      7.47383136	     10.35810171	     20.66342603	     40.62212377	      8.13939653	      6.54303834	    196.71747201	      9.16269103	     52.37450211	     10.86415631	      5.94840420	     13.58541647	     29.29655971	     59.84468678	     17.57922979	     40.49512626	     71.18347277	    158.68377527	     48.96935803	     19.55895745	     17.04006763	     10.92900880	      7.54921575	      4.30260627	     13.73785468	     18.85516960	     70.54651436	     12.86937733	     20.03064658	     17.55278565	      3.65908466	    622.88451306	     44.45169333	     75.35329279	      5.26887629	    158.70349387	     21.21829699	     29.19187669	    260.94404403	     73.32816886	      6.56332067	     -0.69302768	    -28.25140095	      8.12328126	     23.26701844	     -0.74856055	     -0.00788419	     -0.00027433	      0.00191782	     -0.00268985	      0.00441216	     -0.00142688	     78.35908951	    -44.61309351	    -11.23144039	     30.97206057	    -87.85569014	     61.59166934	     -0.00000000	      0.00000000	      0.00000000	     -0.78327992	     -0.51692260	      0.30140619	      0.00000000	     -0.00000000	      0.00000000	    146.64314799	    551.91655724	    -26.01542814	      0.24173871	      0.00913224	     -0.02701617	      0.00000922	     -7.82099984	      0.00002015
    144.71488000	      7.97665296	     11.06996375	     21.93383963	     38.41111850	      7.65441068	      6.89161429	    247.31849461	      8.98900882	     49.80172213	      9.82607378	      5.59526885	     12.97183346	     27.37475351	     55.92823731	     32.78263876	     83.19675725	     86.49256617	    104.51890674	     37.38267620	     22.33829551	     10.39607267	      7.03245610	      6.15867642	      4.28298111	     14.11940124	     16.92450481	     58.53778384	     10.84565898	     20.55551488	     17.52529785	      3.66704511	    803.06494124	     52.98992491	     71.72426221	      5.06059518	    145.54559777	     19.67292744	     17.61493663	    124.06573299	     37.40917955	     -2.95385491	     31.20926232	    -12.67713745	     -7.52088380	      9.29886581	     -2.16890635	     -0.00841059	     -0.00033588	      0.00143345	     -0.00116915	      0.00404305	     -0.00105782	     86.23238202	    -16.44687724	     -3.25457023	     19.76117550	    -60.21614706	     39.49685794	      0.00000000	     -0.00000000	     -0.00000000	     -0.89388578	     -0.38371007	      0.35983116	     -0.00000000	      0.00000000	     -0.00000000	    121.92094652	    311.94675939	    -31.60811073	      0.26542966	      0.01854720	     -0.02918318	      0.00000531	     -2.87476933	      0.00000944
    144.73192000	      8.42882881	     11.66754045	     20.46097147	     32.70884708	      9.70693374	      7.26587903	    295.23600835	     12.79572112	     45.30955149	      9.10948416	      5.51373282	     12.44945292	     25.01735907	     55.29085310	     34.99466190	     90.24509985	     85.03198973	     58.51077024	     23.91468251	     19.33492432	      7.01901769	      6.65181579	      6.25174791	      5.75888626	     14.35536383	     15.64732406	     43.74852759	     10.15946237	     20.86247133	     17.74521270	      3.67752021	    998.38413442	     65.63694731	     70.99788927	      4.96405248	    124.95011439	     18.35962884	     15.58039604	     46.40641522	     25.86866224	     -1.61270034	     20.19758982	     11.40840234	     -4.34274506	    -10.66318574	     -0.56167860	     -0.00755389	     -0.00020434	      0.00099155	      0.00412835	      0.00356622	     -0.00073194	    106.76310099	      9.64906920	      3.35830061	      1.06217199	    -35.01620810	     21.89423312	     -0.00000000	      0.00000000	      0.00000000	     -0.98600703	     -0.23880251	      0.38584516	      0.00000000	     -0.00000000	      0.00000000	     73.88879889	    150.07105934	    -27.90980121	      0.28957939	      0.03374319	     -0.03917594	      0.00000285	      1.14356098	      0.00000506
    144.74896000	      8.80192527	     12.04543701	     24.32872105	     38.26327733	     11.05937578	      7.58640191	    335.24253510	     14.39803599	     90.22241685	     15.08590749	      5.02282802	     11.79924473	    202.08497759	     49.24600706	     23.12174199	     75.51659114	     95.47407419	     50.49012366	     16.47291612	     12.18897873	      6.27841291	      5.56042794	      5.20114465	      6.44719808	     14.39635514	     24.28067867	     75.23492034	      8.96173695	     20.90467434	     18.36594293	      3.57370467	   1094.63739170	     76.19073932	     72.55485116	      4.79840201	    226.08149094	     17.67072928	     16.07249785	     48.09234812	     26.77811436	     -6.75227142	    -10.35782423	     13.14671452	      1.34119528	     -9.06525126	     -0.88851477	     -0.00824989	      0.00039615	      0.00127306	      0.00732144	      0.00683297	     -0.00128437	    116.53752695	     13.93876847	      4.12810949	    -13.70934973	    -13.32797988	      6.20116735	      0.00000000	     -0.00000000	     -0.00000000	     -1.06062058	     -0.10238974	      0.36050238	     -0.00000000	      0.00000000	     -0.00000000	     40.46561793	     63.38151150	     -7.32408560	      0.26603058	      0.00129022	     -0.01093839	      0.00000107	      4.23839667	      0.00000334
    144.76600000	      8.88471912	     12.23574844	     12.60385857	     18.77928500	      8.60188315	      7.78609716	    376.96378820	     34.84993731	     47.45788111	      8.50390120	      5.20405150	     11.60502342	     99.98278743	     45.72273074	     18.74674984	     40.49653238	     44.86386666	     35.08028304	     15.48769284	     14.07069637	      5.91048678	      5.93135314	      5.57983552	     12.14471109	     14.40079419	     14.94197748	     36.12412399	      9.74320058	     20.87754039	     19.92344004	      4.45154001	   1248.87067397	     93.59747680	     73.79859708	      4.75991923	    115.09814318	     17.99748453	     17.28245282	     52.14135406	     28.78028119	      5.61631423	      0.47783271	      7.64988555	      4.46797149	     -5.14631895	      1.94995700	     -0.00410889	     -0.00020760	      0.00065650	      0.02296406	      0.00354721	     -0.00063328	    121.62615080	     19.68557186	      0.59729602	    -25.28960787	      1.35072213	     -0.10270208	      0.00000000	     -0.00000000	     -0.00000000	     -1.11571364	     -0.00513452	      0.28508717	     -0.00000000	      0.00000000	     -0.00000000	      0.00000000	      0.00000000	     -0.00000000	      0.01228552	     -0.33804960	      0.63410709	      0.00000000	      0.00000000	      0.00000000
    144.78304000	     18.73503007	     12.38857491	     63.72895678	     98.74165024	     42.51401717	      9.57127066	    365.15471303	      7.43619233	    699.80921993	    112.01336464	      5.11036408	     11.45284228	     19.55508560	   2417.69331655	     12.23750355	     17.19935739	    167.49302246	    100.73559586	      9.84120419	     10.59899693	     15.06267139	      5.04527858	      4.87723739	      5.76804177	     14.29883025	    120.51178440	    353.23624764	      9.57306234	     20.68852654	     22.34043169	      3.41909745	   1015.46166854	     84.79581693	     71.09159111	      4.80987036	   1812.02568444	     18.96732039	     72.75733048	    627.92677589	    195.96760361	     -8.75022213	    -21.58594916	     -5.42259328	     -6.74345080	      3.35487061	      1.76415267	     -0.01640678	      0.00456907	      0.00470911	     -0.00336763	      0.05297965	     -0.00906700	    105.87515538	     21.78073320	      0.27738494	    -22.22006478	      2.23717311	     -0.54008362	     -0.00000000	      0.00000000	      0.00000000	     -1.14852180	      0.02394852	      0.18458658	      0.00000000	     -0.00000000	      0.00000000	      0.00000000	      0.00000000	     -0.00000000	      0.10119011	     -0.34315768	      0.63092673	      0.00000000	      0.00000000	      0.00000000
    144.80008000	     51.04603864	     13.76972734	     71.97692395	    109.80400732	     55.88980211	     20.75761980	    334.49266463	      7.18186210	    658.96916852	    104.17400413	      5.39895425	     11.54988313	     17.09154538	   2249.03941115	     12.30755554	     17.24468968	    138.89998154	    110.90976605	      9.82081361	     10.82265175	     19.30629531	      4.97282846	      5.03516364	      7.18317935	     14.90119331	    105.71779559	    342.56635711	     10.52908037	     20.73519047	     25.04243201	      3.39583200	    917.83679628	     85.17868467	     64.64777404	      4.98544588	   1751.90279538	     20.37379863	     71.09939011	    592.28445530	    187.61005392	     -2.63524431	    -47.53414981	    -12.57794059	     -3.71299453	     11.70511980	      0.59895274	     -0.01629827	      0.00661433	      0.00610338	     -0.00278420	      0.04931523	     -0.00992077	     92.64819287	     17.32133569	     -0.55771340	    -21.69760063	      3.48834236	     -1.21588994	      0.00000000	     -0.00000000	     -0.00000000	     -1.15695320	     -0.02634381	      0.09157170	     -0.00000000	      0.00000000	     -0.00000000	     -0.00000000	     -0.00000000	      0.00000000	      0.18537931	     -0.33494890	      0.62781517	     -0.00000000	     -0.00000000	     -0.00000000
    144.81712000	     25.81891975	     40.19753369	      8.60596065	     10.84754695	      9.87876464	     11.54193631	    282.62885969	     40.40491303	     36.08967723	      6.62380629	      5.87745294	     11.94444530	     46.74627032	     29.31333804	     12.46768985	     17.35908923	     12.23520959	     50.13633933	     10.22912990	     11.23516683	      9.45343316	      5.67456945	      5.42246515	     15.34790712	     45.46973636	     10.95612294	     35.68347234	     11.89901770	     43.65582721	     27.53651533	      6.10557526	    862.49517225	     85.37935539	     59.15604018	      5.24298466	     67.06152936	     22.21994008	     21.80165432	     64.74436689	     35.54259464	     15.35683132	    -38.83311258	     -1.96270502	      9.64176122	      3.64282909	     -1.08786283	      0.00038541	      0.00122477	      0.00165544	      0.03500251	      0.00244083	     -0.00088432	     77.15120868	     13.81198305	     -1.57957952	    -20.56942103	      4.09230487	     -1.56446365	     -0.00000000	      0.00000000	      0.00000000	     -1.13727268	     -0.14009183	      0.02532016	      0.00000000	     -0.00000000	      0.00000000	      0.00000000	      0.00000000	     -0.00000000	      0.25401080	     -0.31954449	      0.62678988	      0.00000000	      0.00000000	      0.00000000
    144.83416000	     12.09690955	     13.21631739	     14.88562431	     17.29501040	     12.78899093	     11.08236659	    102.10206534	      9.44747402	    239.36905243	     32.30858441	      6.28594152	     12.57680116	    460.33844641	     28.31429425	     14.49324469	     25.21582557	     47.60920313	     14.71149018	     11.09716369	     12.29084028	      5.08024632	      5.66131779	      6.18701408	      5.42299986	     14.90486364	     48.96558244	    198.98648183	     13.57770140	     21.06635633	     29.68512935	      3.69284136	    242.63492048	     25.92470877	     60.16070112	      5.59090085	    496.57439490	     24.45050596	     23.03669102	     68.04095153	     37.30628886	     16.89382443	     95.19164697	      6.65072953	     17.04163364	     -9.39484587	     -4.77033412	     -0.00293692	      0.00134712	      0.00035872	      0.00444159	      0.01951931	     -0.00647198	     50.92360561	      9.49722543	     -2.37928135	    -14.68983022	      3.62824422	     -1.44832544	      0.15247493	     -0.12075866	     -0.02082889	     -1.09200572	     -0.27564855	     -0.01436024	     -0.00000000	      0.01046090	     -0.00000001	     -0.00000000	     -0.00000000	      0.00000000	      0.29911979	     -0.30552714	      0.63053040	     -0.00000000	     -0.00000000	     -0.00000000
    144.85120000	      8.56234115	     11.90526643	      7.23065379	      7.86637356	      6.94903029	      7.52738651	     18.90318704	      6.86571529	   1083.38967219	    147.24849091	      6.89368446	     13.86940734	   2390.96450357	     32.30823990	    142.64565774	    202.90899144	     12.79778105	    321.84304804	    186.43851448	    200.21364240	     27.15008926	     34.17815469	     36.99670265	      3.42388981	     14.28182437	    273.43148557	   1158.91701680	    139.95425427	     20.37325383	     33.18337277	      3.48224369	     51.15920455	      7.48899949	     73.30725093	     23.98176215	   2256.28687495	     27.39665692	     77.05646577	    668.50186271	    198.68468911	    -26.16027280	    139.18660839	     54.45560083	    -21.73275465	    -64.69558747	    -23.39434349	     -0.00610920	     -0.00816488	      0.00081852	     -0.00226966	      0.10920657	     -0.03776697	     21.95181728	      6.33712131	     -3.47706440	     -6.10243045	      2.62514884	     -1.03189674	     17.67585843	    249.09464463	    -52.44899034	      0.09843948	     -0.00254843	     -0.03687041	      0.00000324	      7.16619133	      0.00001522	      0.00000000	      0.00000000	     -0.00000000	      0.31962112	     -0.29855453	      0.64042480	      0.00000000	      0.00000000	      0.00000000
    144.86824000	    162.99897075	    223.98000361	     91.40687391	    131.49066879	    100.20747428	     88.24782108	    157.48659347	      6.73018430	    710.00679316	    114.50962788	      7.45384980	     15.30135157	     21.91262898	   2314.45087022	     13.38568058	     18.48250825	     12.64828316	     63.80087276	     11.82019818	     13.21615515	     34.12395811	      5.76693116	      6.69041259	     12.93445327	    164.58470679	    195.57099970	    810.29831394	     15.35937910	    145.03209151	     32.27234215	      3.30665904	    568.57028656	     65.10991314	     93.94788083	      5.72403541	   1962.37043487	     29.99208290	    162.62118165	   1470.01658911	    418.65162571	    -21.47618794	   -100.60153026	    -57.50858785	    -11.33412540	     62.76431144	     22.08234173	     -0.00940067	      0.01580512	      0.01109019	     -0.00461070	      0.10137490	     -0.02781061	     11.40495555	     12.31182631	     -7.12871528	     -2.86340019	      2.03996944	     -0.54961047	    -11.10878145	    867.54286490	     72.81473184	      0.09163102	      0.01015065	     -0.02913370	      0.00001672	    -16.20443867	      0.00004680	     -0.00000000	     -0.00000000	      0.00000000	      0.31921188	     -0.30040869	      0.65523486	     -0.00000000	     -0.00000000	     -0.00000000
    144.88528000	      7.40052874	     10.24747030	      7.32086229	     35.65030504	      6.65237628	      6.62597301	    133.78646086	      6.89917374	    252.06473393	     35.20832595	      7.73565473	     16.26327213	   1118.08812223	    545.43916488	    211.52775870	    283.52241110	     18.21980461	    849.24106268	    421.80641941	    376.75871266	     71.22776822	     74.03606338	     71.22166391	      3.31852168	     13.55019146	    143.49914514	    651.70921273	    133.00022747	     19.47621026	     32.84608475	      3.28542035	    411.85004959	     28.33384516	    109.01232159	     36.65108416	    502.50618199	     31.22452041	    128.14541221	   1189.32778869	    326.28438235	    -28.09838831	   -129.93216284	     95.94871652	    -44.55406564	    -91.74999901	    -12.90130956	     -0.01717466	     -0.01423824	      0.00389870	     -0.00362679	      0.03598469	     -0.01582533	     22.18247358	     19.16786629	    -11.03210154	     -7.29119400	      2.12035863	     -0.26642421	    -25.36779970	   1241.25752466	    -49.22532806	      0.11491259	      0.02943808	     -0.01969326	      0.00001651	      4.17499176	      0.00007742	      0.00000000	      0.00000000	     -0.00000000	      0.30215911	     -0.31223767	      0.67153188	      0.00000000	      0.00000000	      0.00000000
    144.90232000	      7.17957735	      9.95981147	      7.28865233	      7.65815033	      6.61513629	      6.42636561	     16.17623260	      6.65073595	      6.79947401	      3.54721035	     12.78477668	     47.99755729	     32.83857707	     50.58521745	    126.50912764	    184.20415094	     12.86861398	    125.86650659	    115.81142496	    164.34266031	      7.41701153	     21.72533572	     34.38333668	      3.36098760	     13.71297836	      6.54848444	     15.01075167	    157.17924070	     19.79814443	    561.61301711	      4.42301927	     24.85288783	      7.22751503	   1539.84587655	     21.17456253	     16.14351075	    200.24308766	    114.35132502	   1072.75284941	    287.17121160	     52.49397680	     38.35357436	     -3.67209763	     42.06194301	     14.84123467	     -8.77203686	      0.00228800	     -0.00543907	     -0.00150391	     -0.00333217	     -0.00035080	      0.00108891	     33.87336886	      8.38426384	     -7.82401883	    -13.53849170	      2.34277965	     -0.36734638	   -162.24311258	   1311.66555669	     37.94231771	      0.12220811	      0.03373762	     -0.00468106	      0.00001747	     14.84655918	      0.00006252	     -0.00000000	     -0.00000000	      0.00000000	      0.27021880	     -0.33575774	      0.68556391	     -0.00000000	     -0.00000000	     -0.00000000
    144.91936000	      7.36326869	     10.25053299	      7.32013356	     32.71354676	      6.58608750	      6.45487184	     23.91088971	      6.71375109	      6.95079673	      4.55310531	     51.80713487	    196.50697193	     29.58776800	     50.76869504	     60.03235236	     31.42673016	     12.54019973	    709.12610906	    280.40848609	    192.99359651	     68.77826481	     62.19859171	     46.77967481	      3.41028422	     14.46522933	      6.16462837	     14.37536948	     23.64003269	     19.78886481	     33.56656536	      3.30824213	    122.84571161	      9.00690954	   2062.95892984	     39.33925521	    150.19403260	    889.93838846	    222.98689343	   2089.25600564	    555.05339890	     16.47001790	     69.99817537	    -19.31829597	     20.73816070	     13.20125725	      2.33977361	     -0.01089142	     -0.00936168	      0.00395721	     -0.00698938	      0.00343258	      0.00618393	     35.85990440	    -15.48491947	      2.36819854	    -17.49676141	      2.41947732	     -0.74161234	   -197.87027110	   1418.69569393	    -14.80935506	      0.12936951	      0.03245780	      0.00229952	      0.00001714	     -9.03640102	      0.00009186	      0.00000000	      0.00000000	     -0.00000000	      0.22177294	     -0.37068807	      0.69508985	      0.00000000	      0.00000000	      0.00000000
    144.93640000	      7.96035346	     11.11821451	     17.36127325	    124.84315011	      6.58345363	      6.76279687	    190.23278599	      6.92448011	      7.16999896	      6.65965461	     75.12322591	    286.29057981	     30.91342385	     51.47365641	     12.29690560	     16.91444292	     12.20363543	   1550.70829343	    458.37200408	    181.09765157	    178.21923786	    124.22095692	     58.31848242	      3.50698580	     15.85688277	      6.01980897	     14.16791011	      9.97168482	     20.46320749	     33.53430264	      3.36051705	    686.54662290	     64.57853152	   2856.22427660	     80.74651522	    287.29153369	   1270.18499762	    313.68431636	   2924.43681569	    778.16095651	    -41.99275835	      9.10036894	      0.35537017	    -31.88274825	    -18.04079044	     14.18178927	     -0.02919991	     -0.01385605	      0.01259970	     -0.01088962	      0.00751953	      0.01051409	     35.90569724	    -30.33726987	      9.81433670	    -18.47159702	      2.45890082	     -1.05378264	   -158.05204875	   1561.89165798	    -90.33072277	      0.13788000	      0.02963831	      0.00393007	      0.00003143	    -30.73942566	      0.00011079	     -0.00000000	     -0.00000000	      0.00000000	      0.15292463	     -0.41292619	      0.69934236	     -0.00000000	     -0.00000000	     -0.00000000
    144.95344000	      8.71932706	     12.19568176	     15.69081055	     70.15199263	      6.63349820	      7.22914997	    102.26260567	      7.22903564	      7.21394602	     11.57247977	    100.07798956	    384.78961396	     38.51157434	     53.57888350	     41.87725802	     66.71959277	     68.27127696	    748.65718038	    225.07624428	    114.75704308	     88.96540741	     61.57367494	     29.41649242	      3.63805677	     15.21293257	      6.16926484	     14.57782825	      8.39023085	     21.21836571	     33.37448769	      3.44993620	    282.67283033	     26.72070784	   3213.33452293	     40.56433815	    475.76121780	   1654.34337603	    347.59869515	   3235.61881434	    865.11136072	    -20.03840118	      1.04287267	    -70.75689936	    -11.33069417	     70.58884680	      1.50419141	     -0.01985639	     -0.00880224	      0.00582281	     -0.01364121	      0.01430793	      0.01646667	     38.70062055	    -28.53460617	      9.62833627	    -15.72902239	      2.54013901	     -1.18417667	   -126.63928113	   1626.00016233	    -16.00671942	      0.14166514	      0.02327517	      0.00686850	      0.00001874	     -5.26497495	      0.00007249	      0.00000000	      0.00000000	     -0.00000000	      0.05997524	     -0.45580658	      0.69723259	      0.00000000	      0.00000000	      0.00000000
    144.97048000	      9.36565145	     13.14531781	      6.73097219	     15.75067692	      6.67626878	      7.68226981	     13.98170945	      7.50961787	      7.20900279	     10.38082681	     83.45112870	    331.78659357	     84.74586227	     55.02761180	    149.76452761	    155.18219034	     10.72284666	   1254.70475178	    423.13164100	    292.95503606	    155.09996449	    129.05776849	     75.05477299	      3.74890194	     15.80475839	      6.51037374	     15.34163373	     63.54613288	     21.66836211	    221.99094704	      3.52190116	     22.79825215	      7.30571243	   3759.17608686	    134.17522083	    429.26294646	   1343.88052350	    309.57388572	   2886.67220019	    777.46275840	     13.80646468	    -20.36194327	     31.75705542	      9.92814112	    -22.17386862	    -13.24954577	     -0.01618650	     -0.02567152	      0.00546398	     -0.01359271	      0.01397404	      0.01587689	     39.47062296	    -20.85712071	      7.15223749	     -9.93046257	      2.65858116	     -1.34058164	    -73.24547284	   1668.12651655	    -86.73688404	      0.15250968	      0.02006779	      0.00406435	      0.00002401	      9.41168568	      0.00008004	     -0.00000000	     -0.00000000	      0.00000000	     -0.05820242	     -0.49187032	      0.68629351	     -0.00000000	     -0.00000000	     -0.00000000
    144.98752000	      9.82991299	     13.84970591	      6.66171980	     38.45365184	      6.78224395	      8.05593377	     13.99816759	      7.72535418	      7.35633146	      9.96916303	     76.21183017	    311.03945735	    211.03375237	    217.07143891	     11.46155918	     15.39711952	     10.57513756	   1397.64594535	    368.65083140	    166.27265508	    205.85928409	    132.40833098	     53.26033746	      3.84594260	    100.97795110	      6.78910770	     15.88969865	      7.75922915	     21.75896142	     37.63524477	      3.54646524	    116.65290307	      7.94270442	   4453.19798907	    171.27206703	    431.21004154	   1197.34835704	    274.09260262	   2564.45748190	    697.02261417	     14.74350961	     -9.75286007	     39.25664997	      0.73858376	    -31.87466894	      3.57972701	     -0.01913441	     -0.02608620	      0.01116148	     -0.01311443	      0.01348892	      0.01630685	     32.69485354	    -16.92430769	      8.00261847	     -3.67725802	      2.74959489	     -1.63393204	      1.25363596	   1612.23936701	    -91.66645452	      0.16967813	      0.01784085	     -0.00066872	      0.00002929	     -5.10800506	      0.00007969	      0.00000000	     -0.00000000	      0.00000000	     -0.19941684	     -0.51315723	      0.66369525	     -0.00000000	     -0.00000000	     -0.00000000
    145.00456000	     10.11486302	     14.28822986	      6.65751585	     28.29236753	      6.90218710	      8.33411195	     14.20880703	      7.84503495	      7.77302090	      6.18703983	     59.08501478	    246.85845157	    351.74024717	    207.74467746	     11.20688953	     15.59591795	     10.63010022	    958.50461831	    161.56565583	      9.42350043	    167.55549400	     80.54770682	     11.85228871	      3.90897407	    276.08840672	      6.86233980	     15.93348796	      8.36864424	     21.71245730	    229.39741674	      3.55253913	     24.13940784	      7.66630823	   4714.56246717	    143.19263130	    342.39467597	    912.23811436	    185.67120567	   1742.21832272	    478.47707805	     13.08963981	      5.21991900	     -6.87220717	      9.41729869	      6.50067795	      3.66141647	     -0.00864524	     -0.01637330	      0.01265120	     -0.00940932	      0.00853515	      0.01361184	     17.47659962	    -12.37566523	      9.51595011	      1.02320461	      2.67056031	     -1.78276276	     48.75371334	   1468.01992154	    -69.94873936	      0.18414417	      0.01380842	     -0.00790192	      0.00001536	     -8.28846717	      0.00005849	     -0.00000000	      0.00000000	     -0.00000000	     -0.35857122	     -0.51128270	      0.62742367	      0.00000000	      0.00000000	      0.00000000
    145.02160000	     10.30829006	     14.56608423	      6.67264137	      6.53654966	      7.02667211	      8.57418660	     14.39377522	      7.95504580	      8.42972687	      4.46757703	     37.96303415	    167.72011509	    423.28710508	    226.02941461	     11.36854480	     15.82690830	     10.68898467	    482.66234373	     55.65063626	      9.41602673	     93.75592760	     41.62644638	      5.49244963	      3.93854986	    269.24606344	      6.84670627	     15.70818854	      8.77819855	     62.07517641	    488.71420832	      3.67300965	     24.20223953	      7.73361544	   4506.68702507	     92.70705632	    125.10517325	    580.70460508	     83.17579276	    780.13140725	    216.71822331	      4.06961456	     15.13084816	    -23.99386549	      4.88215183	     18.45528456	     -1.37528412	      0.00373558	     -0.01042725	      0.00740604	     -0.00434025	      0.00113033	      0.00911027	     -3.10363888	      0.88600693	      5.98624748	      4.73260600	      2.35047331	     -1.48957141	     88.27331822	   1257.86686711	    -51.30912314	      0.20325141	      0.01149643	     -0.01721043	      0.00002043	     -6.98112067	      0.00006330	      0.00000000	     -0.00000000	      0.00000000	     -0.52781451	     -0.47927769	      0.57559589	     -0.00000000	     -0.00000000	     -0.00000000
    145.03864000	     31.44133397	     49.87413774	      6.73156171	     11.09202867	      7.21849004	      8.84804107	     14.32602846	      7.88373674	      9.23440702	      5.09080685	     27.06862449	    113.15519882	    193.70563656	   2229.30617670	     11.34551959	     15.78192225	     10.60406646	    221.14366257	      8.69427731	      9.19757348	     60.89246835	      7.08914025	      4.61173372	      3.94273020	    260.22413019	      7.00065430	     15.73377152	      8.47038149	     84.16399140	    301.91736119	      3.55491990	     24.14926519	      7.79615256	   2227.01155097	     52.13301989	    143.76980069	    404.34007969	     93.28707772	    874.06769820	    246.07754820	    -23.07451509	    -10.96667023	    -14.66166262	    -14.46891543	      9.73880118	     -0.68097413	      0.00223876	     -0.00313293	      0.00831853	     -0.00487826	      0.00185773	      0.00671359	    -24.37122888	     18.49472952	     -1.68746521	     10.27334346	      1.94778601	     -0.95714264	    146.11020032	   1048.25509761	    -18.40658396	      0.21795558	      0.01013958	     -0.02685328	      0.00001368	     -7.57832340	      0.00004777	     -0.00000000	      0.00000000	     -0.00000000	     -0.69624972	     -0.41490236	      0.50557882	      0.00000000	      0.00000000	      0.00000000
    145.05568000	     66.19081701	    249.21754482	      6.70457998	      6.33641373	      7.36784197	     54.17036075	     13.96513660	     22.15839756	     10.08037944	      5.11065280	     17.52867797	     82.33379852	    395.81303987	   1017.56223730	     11.22143560	     15.49451999	     10.36892370	     13.26136427	     31.59538244	     64.25246473	      6.11466509	     20.70131631	     23.11828822	     13.06245295	    189.42747507	      7.45687587	     16.34216718	     85.40288007	    326.18608789	    453.25948559	     19.79502732	     23.38314778	      7.70436144	   2267.21750248	     31.29169261	     21.13108937	    255.85537387	     19.05996681	     57.02254990	     31.27212327	     -5.29543717	     -7.88377837	     -3.53871027	      1.38124346	      3.08054977	     -5.58100116	      0.02542049	     -0.00398775	     -0.00379880	      0.01251644	     -0.00258239	      0.00438416	    -40.92122365	     30.08665052	     -7.89874460	     19.32031038	      1.74827949	     -0.68352326	    160.59242327	    810.81199554	     23.61418714	      0.22984465	      0.01044498	     -0.03358495	      0.00001259	      3.43686054	      0.00003182	      0.00000000	     -0.00000000	      0.00000000	     -0.85060305	     -0.32298685	      0.41652637	     -0.00000000	     -0.00000000	     -0.00000000
    145.07272000	     91.25231840	    362.06812787	      6.71258283	      6.29882545	      7.42972068	     65.15750564	     13.55522640	     49.70624628	     10.91048725	      5.27525063	      7.05911676	     28.65572075	   1338.79824853	     31.74677542	     10.98654887	     15.15131405	     10.14025339	     87.78894822	     60.23026224	     81.04556374	     29.62887159	     44.99619477	     37.49216190	     23.37122831	    397.70417952	      8.14484530	     17.44403863	     96.47344974	    571.49258309	    265.94033870	     32.18302074	     22.46458295	      7.62465285	   1339.14383358	     64.79683089	     21.80899630	     60.35747868	     19.32932583	     57.86678329	     31.73465261	     14.11444262	      5.28158226	     23.94185593	     11.83698067	    -19.08484395	      1.07176877	      0.04429361	     -0.01020500	     -0.00427033	      0.03107930	     -0.00400947	      0.00087218	    -50.74364299	     33.10000446	     -9.56416816	     29.88386121	      1.75986934	     -0.82413247	    162.82189288	    586.40005524	     32.32583930	      0.24084851	      0.01294972	     -0.03611885	      0.00000667	      5.61367751	      0.00002356	     -0.00000000	      0.00000000	     -0.00000000	     -0.97860542	     -0.21423095	      0.31480249	      0.00000000	      0.00000000	      0.00000000
    145.08976000	     79.95893040	    256.40466934	      6.74583334	      6.32692286	      7.48081978	      9.65537357	     13.31261267	     67.73197005	     11.51335109	      5.35359462	      6.30106246	     19.73095379	   1276.93659731	     29.51318959	     10.99978688	     15.11763791	     10.10674943	    115.61843829	      8.12827788	      8.54887062	     61.31226242	      9.61153817	      4.47717131	     18.20412014	    541.39127482	      8.55688461	     18.18578034	      7.10387670	    500.76705749	     29.43846252	     24.12919750	     32.11195648	      9.14504197	    612.13780533	     56.64463011	     22.11135834	     47.33056839	     20.02394563	     59.91353996	     32.81262549	      3.44608037	     19.00678420	     27.16736553	     -6.53453354	    -20.92880561	     10.94732690	      0.03327677	     -0.01141400	      0.00620825	      0.04613648	     -0.00148560	      0.00077266	    -58.45928183	     29.45129668	     -7.43335815	     39.20888149	      1.53021956	     -1.05395391	    159.48350699	    385.76558549	     27.29177356	      0.25409162	      0.01912115	     -0.03324673	      0.00000575	     -5.30622159	      0.00001321	      0.00000000	     -0.00000000	      0.00000000	     -1.07380784	     -0.10052380	      0.21622880	     -0.00000000	     -0.00000000	     -0.00000000
    145.10680000	    192.01153912	    368.99466775	     38.57901540	     35.88904489	     91.14830565	     66.11579553	     13.23443219	      7.31940576	    782.74515636	    127.97169727	      4.95262886	     10.92899438	     14.41581515	   3848.60800651	     11.36837529	     15.58079929	     10.34461761	     12.82780987	      8.49588056	      9.03530577	      5.11742092	      5.14579405	      4.78033313	      6.08494194	    399.79889412	    111.71445579	    328.51802403	      7.13561345	    250.54672684	     71.46879835	      3.35288406	     21.40158589	      8.16287221	     51.34324077	      5.49781892	   2263.94945003	     17.72333519	     97.92703366	    873.87699743	    258.48237147	    -11.02761242	     16.42647320	    -16.50302839	    -14.86045038	     15.46347215	     -3.43818069	      0.00947357	      0.00910224	      0.01574225	     -0.00377255	      0.05160879	     -0.00873114	    -65.62001234	     20.52025583	     -4.15557221	     45.52302401	      0.68112059	     -1.06538699	    123.54209777	    221.68565879	     31.70478188	      0.26715049	      0.02971584	     -0.02751309	      0.00000188	     -4.40396496	      0.00000857	     -0.00000000	      0.00000000	     -0.00000000	     -1.13734557	      0.00812340	      0.14036554	      0.00000000	      0.00000000	      0.00000000
    145.12384000	    168.20242882	    374.07087207	     21.38539574	      6.57062075	     88.22625747	    127.16729253	     13.18839203	     10.73802323	    266.40508616	     40.88500686	      5.11798273	     10.98958198	     14.37280701	   1334.73196409	     12.03005631	     16.47255686	     10.76530154	     13.53584697	      9.18836046	      9.92252687	      5.18329419	      5.40728399	      5.34420134	     21.40406141	    303.97115565	     31.00091233	     86.29386401	      7.64127636	    403.16376770	    416.63411969	      6.20665654	     20.81308759	      7.51429195	     52.22775478	      5.54304922	    742.56188915	     18.70894376	     22.31977954	     66.28190304	     36.18887477	     -5.74027833	     -6.59174362	    -24.88196656	      2.68924411	     17.00564667	     -5.16862766	      0.03027560	      0.00573827	      0.00400528	      0.00467998	      0.01970574	     -0.00313572	    -65.35087042	     13.03464257	     -2.15325356	     46.74043293	     -0.52756132	     -0.86742642	     70.39562533	    110.45655098	     10.63301772	      0.25893999	      0.02029344	     -0.01537724	      0.00000142	     -3.90243120	      0.00000315	      0.00000000	     -0.00000000	      0.00000000	     -1.17547143	      0.10107334	      0.09866968	     -0.00000000	     -0.00000000	     -0.00000000
    145.14088000	    116.21275744	    315.82606385	      6.77812319	      6.50571361	     30.90811903	    104.45469269	     13.12683108	     38.40390456	     12.48053326	      5.31420590	      6.81646585	     14.81656960	    252.25579676	     26.34896450	     12.73202517	     17.43583752	     11.20279078	     14.64231498	     10.06616219	     11.07631213	     29.61731453	     35.95033925	     36.03937620	     30.38645793	    415.07086864	      9.47376035	     20.13401334	     56.13231693	    643.01158495	     74.82377863	     19.93757622	     20.29172292	      7.45327205	    146.37108123	     47.59217526	     22.86294972	     28.09492232	     23.23859721	     69.21395539	     37.59390449	     11.58270178	    -30.65622635	     -1.81527967	     12.54696105	     -0.44271186	     -1.85419351	      0.05431546	     -0.00802624	     -0.00201879	      0.02967906	     -0.00037655	      0.00010405	    -56.28891195	     13.50028377	     -1.44590620	     42.76656431	     -1.42923231	     -0.62110672	     28.53672142	     55.22116407	      3.56139424	      0.36541482	      0.18043143	     -0.00946770	      0.00000117	      1.74809874	      0.00000340	     -0.00000000	      0.00000000	     -0.00000000	     -1.19631886	      0.16517210	      0.08506767	      0.00000000	      0.00000000	      0.00000000
    145.15792000	     71.47933464	    205.28214041	      6.77616031	      6.54228732	      8.25131045	     44.07457021	     12.98949903	     26.22714246	    255.24043920	     32.72484164	      5.98344418	     12.25088209	    436.57840176	     27.13927933	     13.20786182	     18.08556230	     11.51389224	     52.42589209	     10.42159601	     11.51633082	     46.69538110	     27.07492802	      8.31467536	     16.16909728	    405.37524306	     50.65627131	    194.72775572	     11.34990866	    552.79570025	    398.87261553	     15.38496154	     19.60726846	      7.39407621	     59.56551023	     59.41460156	    554.13337765	     23.07893811	     23.95684357	     71.46772073	     38.63630077	     20.25995476	     -1.00126814	     24.81062637	     17.13628942	    -19.33216870	      7.64279186	      0.04475845	     -0.01148975	      0.00136478	      0.01989937	      0.02340984	     -0.00600503	    -46.61064762	     15.14334188	     -0.58810408	     36.48651042	     -1.57973187	     -0.50403609	      0.00000000	      0.00000000	      0.00000000	     -0.01747550	     -0.55055678	      0.23903677	      0.00000000	      0.00000000	      0.00000000	      0.00000000	     -0.00000000	      0.00000000	     -1.20757518	      0.19042505	      0.08033667	     -0.00000000	     -0.00000000	     -0.00000000
    145.17496000	     54.60411907	    147.23327078	      6.83864283	      6.58255629	     10.45015771	     32.94168583	     12.78891496	     20.54879929	     91.69128771	     11.63973615	      6.58014679	     13.30772894	     17.25838635	     30.07203905	     13.40234368	     18.28152810	     11.63126562	     18.86452638	     10.83926122	     11.94966895	     28.74877426	      9.62129966	      7.40209097	     12.08371740	    277.61238092	     22.92636763	     91.85757226	     13.86110099	    373.17493375	    145.07619968	     10.41071406	     18.79391614	      7.40294832	     67.95334166	     34.22478885	    183.37114810	     25.66726928	     24.35077272	     72.70510627	     39.14980853	     -4.65442130	      6.46286658	      7.30699971	     -4.22297704	     -4.37567140	      2.30130209	      0.02969622	     -0.00705749	      0.00164676	      0.01464219	      0.00961153	     -0.00280596	    -44.02144645	      9.29806083	      0.73387173	     32.41107381	     -1.20892818	     -0.63102148	     -0.00000000	     -0.00000000	     -0.00000000	      0.04381148	     -0.55011932	      0.23362010	     -0.00000000	     -0.00000000	     -0.00000000	     -0.00000000	      0.00000000	     -0.00000000	     -1.21404205	      0.17776257	      0.06912125	      0.00000000	      0.00000000	      0.00000000
    145.19200000	    102.98711414	    186.69941974	     48.56869705	     25.01220012	     82.14347125	     88.56152337	     21.02843366	      6.95504830	    237.01952217	     33.69855573	      6.97143463	     14.24109847	     19.19659234	    445.68212011	     13.22615406	     18.06561759	     44.43051390	     14.17143205	     10.28272635	     11.62385378	      5.08086660	      5.65734044	      6.40264538	     12.16290112	     55.88128988	     41.16574851	    153.95724333	     14.75864542	     83.89466180	     28.42612175	      3.28569556	     25.55299511	     13.03722536	     77.99850141	      5.18460173	    593.93969059	     27.78951641	     35.76768626	    305.09468311	     83.89227157	    -28.49643420	     30.89955057	    -48.34145389	    -28.10865514	     36.51928668	    -11.40199368	      0.00527351	      0.01059390	      0.00384066	     -0.00103415	      0.03383311	     -0.00686887	    -47.63026472	     -5.91613417	      2.65773169	     31.02630599	     -0.59484402	     -1.05504475	      0.00000000	      0.00000000	      0.00000000	      0.09640290	     -0.54937217	      0.21745970	      0.00000000	      0.00000000	      0.00000000	     -0.00000000	      0.00000000	     -0.00000000	     -1.21747818	      0.14150460	      0.05084687	      0.00000000	      0.00000000	      0.00000000
