FiberLength
version=1
nRows=51
nColumns=5
inDegrees=no

This analysis gathers basic information about muscles during a simulation (e.g., forces, tendon lengths, moment arms, etc).
Units are S.I. units (second, meters, Newtons, ...)
If the header above contains a line with 'inDegrees', this indicates whether rotational values are in degrees (yes) or radians (no).

endheader
time	recfem_r	vaslat_r	vasint_r	vasmed_r
     13.59999390	      0.10353760	      0.11433650	      0.11647138	      0.11428505
     13.61679388	      0.10107773	      0.11035670	      0.11257282	      0.11079233
     13.63359387	      0.09854829	      0.10671772	      0.10901018	      0.10760008
     13.65039385	      0.09671649	      0.10413681	      0.10646324	      0.10532248
     13.66719383	      0.09652222	      0.10345950	      0.10578965	      0.10472151
     13.68399382	      0.09846107	      0.10512996	      0.10744656	      0.10620099
     13.70079380	      0.10237133	      0.10894838	      0.11119585	      0.10955820
     13.71759378	      0.10769321	      0.11422507	      0.11636185	      0.11418698
     13.73439377	      0.11388770	      0.12021975	      0.12230628	      0.11950302
     13.75119375	      0.12049150	      0.12634541	      0.12849935	      0.12501871
     13.76799373	      0.12730125	      0.13244132	      0.13479850	      0.13060477
     13.78479372	      0.13410098	      0.13850269	      0.14121287	      0.13627544
     13.80159370	      0.14004906	      0.14397637	      0.14718075	      0.14150347
     13.81839368	      0.14461984	      0.14856134	      0.15237047	      0.14599248
     13.83519366	      0.14760647	      0.15216576	      0.15663807	      0.14962438
     13.85199365	      0.14889350	      0.15494796	      0.15985325	      0.15229257
     13.86879363	      0.14864779	      0.15718595	      0.16216732	      0.15422187
     13.88559361	      0.14724648	      0.15896313	      0.16395297	      0.15575799
     13.90239360	      0.14484196	      0.16015023	      0.16515589	      0.15679839
     13.91919358	      0.14140921	      0.16049055	      0.16550260	      0.15709909
     13.93599356	      0.13717146	      0.15986020	      0.16486109	      0.15654298
     13.95279355	      0.13259778	      0.15839720	      0.16338268	      0.15526639
     13.96959353	      0.12800607	      0.15634259	      0.16132229	      0.15349849
     13.98639351	      0.12306673	      0.15376787	      0.15852960	      0.15120406
     14.00319350	      0.11744079	      0.15054361	      0.15469040	      0.14797582
     14.01999348	      0.11112564	      0.14638324	      0.14987852	      0.14384482
     14.03679346	      0.10423989	      0.14126498	      0.14419929	      0.13889914
     14.05359345	      0.09692640	      0.13519930	      0.13769644	      0.13317071
     14.07039343	      0.08966881	      0.12852635	      0.13073669	      0.12700434
     14.08719341	      0.08277187	      0.12145941	      0.12354940	      0.12061255
     14.10399340	      0.07625206	      0.11403209	      0.11617221	      0.11401717
     14.12079338	      0.07060068	      0.10697876	      0.10926649	      0.10782960
     14.13759336	      0.06623145	      0.10122668	      0.10354718	      0.10272701
     14.15439335	      0.06371561	      0.09779133	      0.10000402	      0.09960328
     14.17119333	      0.06358409	      0.09730808	      0.09949369	      0.09915697
     14.18799331	      0.06608627	      0.10000571	      0.10230301	      0.10162564
     14.20479330	      0.07093788	      0.10552434	      0.10783580	      0.10654906
     14.22159328	      0.07725464	      0.11253272	      0.11470156	      0.11269994
     14.23839326	      0.08387867	      0.11922796	      0.12131524	      0.11861783
     14.25519324	      0.08970184	      0.12415076	      0.12626568	      0.12303294
     14.27199323	      0.09420262	      0.12670580	      0.12886782	      0.12534593
     14.28879321	      0.09736357	      0.12697215	      0.12914046	      0.12558799
     14.30559319	      0.09923380	      0.12523435	      0.12736636	      0.12401195
     14.32239318	      0.09976150	      0.12176621	      0.12385781	      0.12088766
     14.33919316	      0.09883178	      0.11678654	      0.11888862	      0.11644837
     14.35599314	      0.09657534	      0.11069750	      0.11290600	      0.11109094
     14.37279313	      0.09349384	      0.10422652	      0.10655226	      0.10540196
     14.38959311	      0.09053923	      0.09853748	      0.10078556	      0.10028871
     14.40639309	      0.08878067	      0.09472802	      0.09670452	      0.09673785
     14.42319308	      0.08868447	      0.09306026	      0.09483209	      0.09513616
     14.43999306	      0.08968623	      0.09280244	      0.09453684	      0.09488549
