Joint Reaction Loads
version=1
nRows=51
nColumns=10
inDegrees=no

This file contains the reaction forces and moments
applied to the specified body of a joint pair and expressed  in the specified reference frame.

Units are S.I. units (seconds, meters, Newtons, ...)
endheader
time	patellofemoral_r_on_patella_r_in_patella_r_fx	patellofemoral_r_on_patella_r_in_patella_r_fy	patellofemoral_r_on_patella_r_in_patella_r_fz	patellofemoral_r_on_patella_r_in_patella_r_mx	patellofemoral_r_on_patella_r_in_patella_r_my	patellofemoral_r_on_patella_r_in_patella_r_mz	patellofemoral_r_on_patella_r_in_patella_r_px	patellofemoral_r_on_patella_r_in_patella_r_py	patellofemoral_r_on_patella_r_in_patella_r_pz
     13.59999390	   2021.25167153	   -232.99163819	     11.43681112	    -10.11177527	      4.99597736	    -54.01530604	      0.00000000	      0.00000000	      0.00000000
     13.61679388	   1226.50358781	   -181.74289381	    -14.81651558	     -6.81473629	      3.13972137	    -30.55473741	      0.00000000	      0.00000000	      0.00000000
     13.63359387	    690.17576818	   -118.71943992	    -20.56617485	     -4.20554980	      1.82316065	    -16.02437040	      0.00000000	      0.00000000	      0.00000000
     13.65039385	    375.26166709	    -68.72293483	    -16.87134545	     -2.45627083	      1.00485379	     -8.30196941	      0.00000000	      0.00000000	      0.00000000
     13.66719383	    230.65082935	    -43.28908297	    -12.37863311	     -1.59036501	      0.61664934	     -5.02830476	      0.00000000	      0.00000000	      0.00000000
     13.68399382	    227.14155353	    -41.70659115	    -10.85739602	     -1.54116695	      0.60650849	     -5.07825556	      0.00000000	      0.00000000	      0.00000000
     13.70079380	    324.10591427	    -52.42843695	     -7.54720253	     -1.92670434	      0.81261092	     -7.81137882	      0.00000000	      0.00000000	      0.00000000
     13.71759378	    470.92471366	    -55.84532582	      2.42612728	     -2.34883263	      1.05477978	    -12.54743835	      0.00000000	      0.00000000	      0.00000000
     13.73439377	    643.80914935	    -41.08801299	     18.97895112	     -2.69525368	      1.25867524	    -18.70796307	      0.00000000	      0.00000000	      0.00000000
     13.75119375	    859.39374752	     -2.59199430	     41.86213817	     -3.04952765	      1.45125629	    -26.68003754	      0.00000000	      0.00000000	      0.00000000
     13.76799373	   1165.88168093	     73.75060989	     73.89919036	     -3.54569395	      1.69745877	    -38.02152868	      0.00000000	      0.00000000	      0.00000000
     13.78479372	   1604.29658378	    216.01125895	    118.57875595	     -4.25241506	      2.01617121	    -54.15929399	      0.00000000	      0.00000000	      0.00000000
     13.80159370	   2143.67049797	    455.18296005	    173.93112789	     -5.14638269	      2.35831470	    -74.12008419	      0.00000000	      0.00000000	      0.00000000
     13.81839368	   2704.52444495	    795.25214688	    233.18542979	     -6.17241954	      2.66166708	    -94.85238815	      0.00000000	      0.00000000	      0.00000000
     13.83519366	   3180.01328741	   1197.78974876	    286.15058597	     -7.21081034	      2.86356368	   -112.24480699	      0.00000000	      0.00000000	      0.00000000
     13.85199365	   3463.27940305	   1544.46719056	    327.55305844	     -7.28132709	      2.80968297	   -122.65269249	      0.00000000	      0.00000000	      0.00000000
     13.86879363	   3554.53484568	   1782.45188216	    352.49628892	     -7.53572349	      2.91765609	   -125.83016725	      0.00000000	      0.00000000	      0.00000000
     13.88559361	   3510.98120893	   1818.59706992	    367.28551020	     -7.42907722	      2.97239337	   -124.72811184	      0.00000000	      0.00000000	      0.00000000
     13.90239360	   3377.50189956	   1778.62437921	    360.68821112	     -7.41055472	      3.03922280	   -120.00929362	      0.00000000	      0.00000000	      0.00000000
     13.91919358	   3156.12704202	   1659.89616448	    332.05032892	     -7.37211974	      3.07957698	   -111.79059931	      0.00000000	      0.00000000	      0.00000000
     13.93599356	   2876.11858392	   1481.93550838	    287.29797003	     -7.24722360	      3.06142018	   -101.24924859	      0.00000000	      0.00000000	      0.00000000
     13.95279355	   2586.30637770	   1284.46711778	    236.02600144	     -7.08447505	      2.98806384	    -90.23454421	      0.00000000	      0.00000000	      0.00000000
     13.96959353	   2310.17874202	   1065.39613461	    187.51118421	     -6.80362245	      2.85176732	    -79.89639527	      0.00000000	      0.00000000	      0.00000000
     13.98639351	   2018.94502950	    811.07183703	    145.88036321	     -6.65818337	      2.79189048	    -69.15693709	      0.00000000	      0.00000000	      0.00000000
     14.00319350	   1696.03327352	    559.50581126	    110.11781397	     -6.12895937	      2.72702740	    -57.44674467	      0.00000000	      0.00000000	      0.00000000
     14.01999348	   1360.62890227	    337.15636296	     80.45116366	     -5.05067799	      2.39391150	    -45.47199357	      0.00000000	      0.00000000	      0.00000000
     14.03679346	   1048.98677862	    176.84143079	     54.76392664	     -4.08784534	      1.97836681	    -34.34628891	      0.00000000	      0.00000000	      0.00000000
     14.05359345	    777.61562795	     72.15353530	     33.12954849	     -3.29030072	      1.54025091	    -24.71747594	      0.00000000	      0.00000000	      0.00000000
     14.07039343	    565.15182049	     10.94547102	     15.84249701	     -2.69385619	      1.18051656	    -17.17974322	      0.00000000	      0.00000000	      0.00000000
     14.08719341	    401.56680604	    -20.87437597	      2.48445804	     -2.21399626	      0.94907823	    -11.39745593	      0.00000000	      0.00000000	      0.00000000
     14.10399340	    283.02886927	    -33.58940590	     -7.00763704	     -1.81546463	      0.83575342	     -7.25808151	      0.00000000	      0.00000000	      0.00000000
     14.12079338	    205.17865142	    -34.79170047	    -13.31867960	     -1.52811686	      0.75703222	     -4.61498516	      0.00000000	      0.00000000	      0.00000000
     14.13759336	    155.53024616	    -29.00419718	    -17.34540178	     -1.42126011	      0.59901034	     -3.14541433	      0.00000000	      0.00000000	      0.00000000
     14.15439335	    122.88163149	    -22.99248088	    -18.88904890	     -1.51738103	      0.27778120	     -2.28895197	      0.00000000	      0.00000000	      0.00000000
     14.17119333	    118.21456741	    -23.36916558	    -20.18809452	     -1.80309694	      0.00717492	     -2.02637743	      0.00000000	      0.00000000	      0.00000000
     14.18799331	    228.15711814	    -41.65779024	    -29.25503949	     -2.29384648	      0.86954000	     -4.51122349	      0.00000000	      0.00000000	      0.00000000
     14.20479330	    673.42721438	   -106.18694538	    -51.43786649	     -3.28922899	      5.10677089	    -15.79045492	      0.00000000	      0.00000000	      0.00000000
     14.22159328	   1752.17715316	   -191.94052417	    -44.73185447	     -5.37357373	     14.90931925	    -46.39287754	      0.00000000	      0.00000000	      0.00000000
     14.23839326	   3474.99315503	   -185.06828081	     20.86820593	    -10.01263896	     28.39612917	    -99.36535789	      0.00000000	      0.00000000	      0.00000000
     14.25519324	   5276.21794085	    -50.49747878	    119.01166048	    -16.34892826	     39.02328616	   -157.15031302	      0.00000000	      0.00000000	      0.00000000
     14.27199323	   6404.32612567	     91.19241772	    188.55836637	    -21.32740143	     42.44847432	   -194.34338893	      0.00000000	      0.00000000	      0.00000000
     14.28879321	   6433.85072224	    100.59170672	    193.85445090	    -22.49554662	     38.95905377	   -195.65646232	      0.00000000	      0.00000000	      0.00000000
     14.30559319	   5449.27594789	    -16.07436550	    141.09212342	    -19.82570106	     31.04050182	   -163.59809160	      0.00000000	      0.00000000	      0.00000000
     14.32239318	   3882.32690981	   -144.09145610	     62.58422035	    -14.96951894	     21.20092836	   -113.09624573	      0.00000000	      0.00000000	      0.00000000
     14.33919316	   2298.65032839	   -189.90244802	     -3.49602009	     -9.94321026	     11.97413739	    -63.37252189	      0.00000000	      0.00000000	      0.00000000
     14.35599314	   1113.60578696	   -150.15045830	    -33.73597068	     -5.92858033	      5.32071783	    -27.88081060	      0.00000000	      0.00000000	      0.00000000
     14.37279313	    440.27919097	    -76.12033350	    -31.30463318	     -3.18276958	      1.73975990	     -9.67229963	      0.00000000	      0.00000000	      0.00000000
     14.38959311	    161.78498485	    -28.96751509	    -17.76044751	     -1.58822106	      0.36544553	     -3.21371675	      0.00000000	      0.00000000	      0.00000000
     14.40639309	     91.41570223	    -14.99648455	    -11.41532411	     -0.96220896	      0.10348590	     -1.86358726	      0.00000000	      0.00000000	      0.00000000
     14.42319308	    107.38694991	    -14.84667884	    -15.05450216	     -1.01607999	      0.29091300	     -2.41167378	      0.00000000	      0.00000000	      0.00000000
     14.43999306	    153.74753828	    -19.27941824	    -22.91073408	     -1.39225443	      0.58672523	     -3.57263278	      0.00000000	      0.00000000	      0.00000000
