Coordinates

Units are S.I. units (second, meters, Newtons, ...)
If the header above contains a line with 'inDegrees', this indicates whether rotational values are in degrees (yes) or radians (no).

inDegrees=no
nColumns=21
nRows=1022
DataType=double
version=3
OpenSimVersion=4.5.2-2025-05-03-6a4c6ec41
endheader
time	/jointset/ground_pelvis/pelvis_tilt/value	/jointset/ground_pelvis/pelvis_list/value	/jointset/ground_pelvis/pelvis_rotation/value	/jointset/ground_pelvis/pelvis_tx/value	/jointset/ground_pelvis/pelvis_ty/value	/jointset/ground_pelvis/pelvis_tz/value	/jointset/hip_r/hip_flexion_r/value	/jointset/hip_r/hip_adduction_r/value	/jointset/hip_r/hip_rotation_r/value	/jointset/walker_knee_r/knee_angle_r/value	/jointset/patellofemoral_r/knee_angle_r_beta/value	/jointset/ankle_r/ankle_angle_r/value	/jointset/subtalar_r/subtalar_angle_r/value	/jointset/hip_l/hip_flexion_l/value	/jointset/hip_l/hip_adduction_l/value	/jointset/hip_l/hip_rotation_l/value	/jointset/walker_knee_l/knee_angle_l/value	/jointset/patellofemoral_l/knee_angle_l_beta/value	/jointset/ankle_l/ankle_angle_l/value	/jointset/subtalar_l/subtalar_angle_l/value	/jointset/ground_pelvis/pelvis_tilt/speed	/jointset/ground_pelvis/pelvis_list/speed	/jointset/ground_pelvis/pelvis_rotation/speed	/jointset/ground_pelvis/pelvis_tx/speed	/jointset/ground_pelvis/pelvis_ty/speed	/jointset/ground_pelvis/pelvis_tz/speed	/jointset/hip_r/hip_flexion_r/speed	/jointset/hip_r/hip_adduction_r/speed	/jointset/hip_r/hip_rotation_r/speed	/jointset/walker_knee_r/knee_angle_r/speed	/jointset/patellofemoral_r/knee_angle_r_beta/speed	/jointset/ankle_r/ankle_angle_r/speed	/jointset/subtalar_r/subtalar_angle_r/speed	/jointset/hip_l/hip_flexion_l/speed	/jointset/hip_l/hip_adduction_l/speed	/jointset/hip_l/hip_rotation_l/speed	/jointset/walker_knee_l/knee_angle_l/speed	/jointset/patellofemoral_l/knee_angle_l_beta/speed	/jointset/ankle_l/ankle_angle_l/speed	/jointset/subtalar_l/subtalar_angle_l/speed
15.31999299999679	-0.1776061596644762	0.05276765446027644	0.008689408977644026	2.191246193133078	0.923993538982806	0.9422994083642839	0.08262777744831919	-0.03006433799528873	-0.1152847140946557	0.5885746174726805	0.5885746165627816	0.2397711596270094	-0.2021164796619359	0.6287613254584665	-0.005364318197281982	-0.04246521824955445	1.497211202920787	1.497211201601395	-0.2193923077542143	-0.3057448012543169	-0.5378246869831125	2.459263364058835	0.3249519015341745	0.1735204129299903	0.5889883067867534	-0.03919723349662665	-5.346371198943767	-3.213051933048758	-1.793085084678678	-4.470165662874628	-4.47016566362299	-6.916938223527385	3.257086769640918	2.977318272158997	2.537513145642054	-2.780994688134448	-7.569637819767838	-7.569637805429725	2.758893652277727	-1.291631770715695
15.32665965999679	-0.1819449906052003	0.06862888683455089	0.01114685132937313	2.192441852889006	0.9278504244849473	0.9420170759913229	0.04815245840628164	-0.05085419059980056	-0.1281009040152998	0.5587214843760505	0.5587214835132791	0.1916210229798386	-0.1803180762500528	0.6481962642621742	0.01106004579319554	-0.06098013965203077	1.444529504083838	1.444529502859853	-0.201573641716357	-0.3149973546856983	-0.7621022593491416	2.286195744641114	0.4176770762663006	0.1845630712040746	0.5666709626169268	-0.04636850771694814	-4.997278513527522	-3.006924299418579	-2.043466868926918	-4.483528246233799	-4.483528232235623	-7.505327469565874	3.27327616327813	2.855322415634861	2.385329788807763	-2.755970826456489	-8.226803175150302	-8.226803161677962	2.586175842429317	-1.465063793348307
15.33332631999678	-0.1877291522250603	0.08308794871769756	0.01431834357531571	2.19369896366711	0.9315319733375591	0.9416695900348915	0.0159673446398947	-0.06994072443418499	-0.1423922062287016	0.5288297142897134	0.5288297135552047	0.1400306231313772	-0.1586053773410316	0.6668394960750907	0.02639363103677404	-0.0789878543051294	1.387621849546196	1.387621848398217	-0.1848852914158317	-0.3249845725158762	-0.9691515007640256	2.040296061055682	0.5372912243236481	0.1919776313346032	0.5366277394408171	-0.05873334799964346	-4.66158584441799	-2.703935865048853	-2.231566561185753	-4.480745083428741	-4.480745059732783	-7.945045489211728	3.22988130872172	2.736575556621879	2.212298638227111	-2.630482449175604	-8.838414123000081	-8.838414114067	2.424614512393751	-1.50614754646824
15.33999297999678	-0.1947998248522273	0.09569918903364977	0.01834365282643302	2.194993859103438	0.9349914783621471	0.9412229976613703	-0.014057034628068	-0.08672524242138377	-0.1576678914434161	0.4990340816460534	0.4990340810896691	0.08606964688846026	-0.1374032742079742	0.6846484129544741	0.04053868242119318	-0.09585664682564909	1.326772426635133	1.326772425528071	-0.1691565208276979	-0.334712062854572	-1.146043211176337	1.734425672485685	0.6716921266585768	0.1959327734129627	0.5002921343017204	-0.07601940209465882	-4.350499534310682	-2.319570606453544	-2.335652293475574	-4.452655099992055	-4.452655070894599	-8.212738369690499	3.118962067725708	2.601917810584212	2.030867110908447	-2.416680071798536	-9.410234733215638	-9.410234729817077	2.302995581199355	-1.382240086808004
15.34665963999678	-0.2029184065164518	0.1061191037045835	0.02327817918904242	2.196304240922118	0.9381915240316341	0.9406465853710869	-0.04210743790191839	-0.1007379162321433	-0.1733135788849516	0.4695501246691096	0.4695501243150738	0.03095661046687912	-0.1171816985617738	0.7014574153154155	0.05348040531718081	-0.1110498298553263	1.262230504552429	1.262230503452819	-0.1540314765712484	-0.342992138571092	-1.281951416252012	1.386136228740488	0.8078818212548795	0.1966693425810392	0.4589974423622233	-0.0975280581866968	-4.069903219597034	-1.876707799228777	-2.340743232712082	-4.384318831460623	-4.384318800328254	-8.28752847117631	2.935039552129199	2.433959607833718	1.853239908374311	-2.130815830939917	-9.946708501736063	-9.946708502542187	2.247413717113626	-1.068719328581577
15.35332629999677	-0.2117839772234981	0.1141325756558762	0.02909112180794659	2.197609634917684	0.94110293750995	0.9399156645189297	-0.06839097526566229	-0.1116802742959145	-0.1886427549771992	0.4407093547647751	0.4407093546183927	-0.0239665063948391	-0.09843778312881638	0.7169965277643984	0.06528077007085337	-0.124150938182633	1.194224786028097	1.19422478491569	-0.1390001371162566	-0.3485118984542114	-1.36915340856159	1.016106215917185	0.9331939981704427	0.1944919112467914	0.4138683069917768	-0.1221572246239314	-3.820003844198494	-1.40345825903265	-2.24038758064965	-4.256125836799891	-4.256125805925772	-8.153738922410582	2.675467758312455	2.219090974026231	1.690032807532134	-1.792592519521718	-10.44927034949081	-10.44927035211811	2.277399949742287	-0.5533651593723247
15.35999295999677	-0.2210563701806567	0.1196678133466257	0.03567138559302376	2.198891779780441	0.9437031629876393	0.9390140899623365	-0.09309783476844495	-0.119451242882232	-0.2029565424324834	0.412984742794856	0.4129847428497768	-0.07727878949124545	-0.08167641106775875	0.730922230265275	0.07606404562878009	-0.1348844440160358	1.122989297337786	1.1229892962078	-0.1234539001403357	-0.3499297018491611	-1.403651541462595	0.6463475675487038	1.036364822899693	0.1897581619812399	0.3657604015291844	-0.1484579363568108	-3.595642463394198	-0.9304510742060836	-2.037349743962092	-4.045612234360903	-4.045612204964647	-7.803863165096152	2.340590510878997	1.949064316941241	1.549160664901002	-1.424466925058802	-10.91460390486501	-10.91460390724004	2.402489892930117	0.1596234284824478
15.36665961999677	-0.2303812969624975	0.1227991234865744	0.04283976337972041	2.2001349521427	0.9459744493830894	0.9379363010801506	-0.1163690383031273	-0.1241542431715422	-0.2156043725404158	0.387001734684415	0.3870017349293123	-0.127544521360148	-0.06738971860483338	0.7428563845619701	0.08599605235830955	-0.1431315252167851	1.04880047957072	1.04880047842916	-0.106761144679103	-0.345995200389821	-1.38514920851747	0.2983804689663704	1.108333512208661	0.1828704449479187	0.3152656734166032	-0.1747206248985645	-3.387497408813649	-0.487922448374299	-1.743203194394813	-3.729964503464109	-3.729964475857344	-7.241408058271091	1.933925953275903	1.621811331647349	1.435085947319678	-1.050841198614078	-11.33306682696263	-11.3330668279428	2.619745346772124	1.046695776790677
15.37332627999676	-0.2394134724459324	0.1237378877221716	0.05036554573417282	2.201326228542889	0.9479022616946324	0.9366886841376402	-0.1382745174732229	-0.1260851806634218	-0.2260386041124138	0.363530935645893	0.3635309360695773	-0.1733946735618552	-0.05603524410211792	0.7524282449855838	0.09526001404624547	-0.1489395190875287	0.9720234518953195	0.9720234507533159	-0.08835483731952536	-0.3356834355410951	-1.316543144140405	-0.008454537219716209	1.142784725126937	0.1742633151864048	0.2627686813272598	-0.1990935842786699	-3.183876038776605	-0.1029503665904005	-1.376955915509672	-3.288949546020039	-3.288949519917502	-6.483186495677829	1.462353723792651	1.241615938238061	1.348578984254392	-0.6969308957918439	-11.6875634515169	-11.6875634506069	2.912689407801347	2.063764108080201
15.37999293999676	-0.2478359607363012	0.1228131746665256	0.05798619460876648	2.202455620043557	0.9494741350253657	0.9352900228266769	-0.1588033263257605	-0.1257034041756244	-0.2338575251216967	0.3434610610590382	0.3434610616528125	-0.2136206187750021	-0.04801349501078189	0.7593165860730614	0.1040329484149801	-0.1525220677153325	0.8931634391190288	0.8931634379905775	-0.06782150991216065	-0.318329506912673	-1.203356345304667	-0.2583918456196903	1.136543484327549	0.1643767714850636	0.2085173039533093	-0.2197378597725179	-2.972476333619533	0.2028362717811898	-0.9630016777459688	-2.707828381685054	-2.707828356727738	-5.56061597739096	0.9360676821762772	0.8190216718571047	1.287133714594223	-0.3870819071551824	-11.95317684748816	-11.95317684424426	3.252003530913164	3.147288391266743
15.38665959999676	-0.2553760555911649	0.120444437642843	0.0654293335914661	2.203515981942157	0.9506789806202925	0.9337708217784824	-0.1778646203727301	-0.1235897698859179	-0.2388335399267421	0.32775366844422	0.327753669200364	-0.2472719656513237	-0.04364689016961698	0.7632904974959537	0.1124669837307444	-0.1542462125117303	0.812916226850817	0.8129162257532809	-0.04497928322975122	-0.2937475442118149	-1.05325555732998	-0.440199558399334	1.089872542395453	0.1536171593694101	0.1526862403797566	-0.2350067183272123	-2.741852879988497	0.4147983545690827	-0.5287894437417872	-1.979851146819902	-1.979851123151022	-4.51958899144751	0.3682206701919541	0.3704851524168694	1.246001745266439	-0.1425732641153832	-12.09787884729765	-12.09787884118618	3.598112711203445	4.217926005068524
15.39332625999675	-0.26181789975417	0.117109506846562	0.07243624126795722	2.204502655684933	0.9515067812162339	0.9321714276397894	-0.1952975729477849	-0.1203973724630559	-0.2409258474279419	0.3173835358763302	0.3173835367838355	-0.2737477893067843	-0.04316182190816127	0.7642461972592297	0.1206789349631391	-0.1546039622025388	0.7322095680533888	0.7322095670070837	-0.0199328139742783	-0.2623167563838377	-0.8755347431385739	-0.5476292150643096	1.006610088394934	0.1423181487280102	0.09543009326306189	-0.2436217439707727	-2.482641536796927	0.5259362192689799	-0.1025464602042967	-1.108017953630001	-1.108017932069668	-3.418580132590421	-0.2256391205364617	-0.08251917115398065	1.21957957390298	0.02077840302759263	-12.08456369046506	-12.08456368119217	3.90546065912111	5.186722710280435
15.39999291999675	-0.2670113711813027	0.1133112211319107	0.0787854615146137	2.205412883189898	0.9519485948634683	0.9305390683125944	-0.2108886008559456	-0.1168009034105514	-0.2402787165788225	0.3132705740254392	0.3132705750665334	-0.2928689480647035	-0.04667501189881244	0.76223554124902	0.128749337233091	-0.1541683437992817	0.6522263647237058	0.6522263637497494	0.00690446429695923	-0.2250188663386516	-0.6805140212688039	-0.5793862206639393	0.8940510557503309	0.1307129542608983	0.03692171374687466	-0.2448170809611963	-2.188509621328286	0.5366667401758584	0.2887454499429533	-0.1058134083856578	-0.1058133900500002	-2.324866635106842	-0.8282947291973335	-0.5151005945850607	1.202801790700313	0.09481071101366291	-11.87447401533491	-11.87447400290638	4.127929068793387	5.963389880216918
15.40665957999675	-0.2708766473143575	0.1095456061639655	0.08431446534738969	2.206245095906858	0.9519967565499121	0.9289241027301716	-0.2243938400171036	-0.113450019295055	-0.2372072160207548	0.3162107846887118	0.3162107858386518	-0.3049192860780822	-0.05418532874960871	0.757481470196398	0.1367298746734912	-0.1535367027391712	0.5744007989220773	0.5744007980420264	0.03482584398082495	-0.1834158280398205	-0.4788279691218458	-0.5387133633058238	0.7624595247576818	0.1189257825038647	-0.02262588528539311	-0.2384283358348714	-1.856792969416697	0.4538781254084234	0.6211054739663777	1.003247276827953	1.003247291024619	-1.309028010994084	-1.421775805517812	-0.901272927321646	1.19221507474664	0.08057258649775446	-11.43183550276941	-11.43183548691677	4.224594671625339	6.465759567489279
15.41332623999675	-0.2734031991920506	0.10627379505528	0.08893647521975631	2.206998229715672	0.9516452052314761	0.9273759195165536	-0.2355653402139933	-0.1109307136693906	-0.2321717052354178	0.3268139503819594	0.326813951611044	-0.3106457146881246	-0.06557230723662658	0.7503754935780477	0.144656113228557	-0.1532670035775514	0.5003808003636636	0.5003807996038099	0.0628839033412949	-0.1395639064868256	-0.280434383276606	-0.4327072576072818	0.6240913702209037	0.1069888219552203	-0.08294089463113059	-0.2249065330126113	-1.489019349436669	0.2895263541161381	0.8751998482286799	2.187141742849394	2.187141752312989	-0.4382202374720312	-1.988443697326229	-1.217017680865086	1.186458678663082	-0.01119797569418818	-10.72921343546731	-10.72921341495764	4.164946328399207	6.629200947863957
15.41999289999674	-0.2746411386625291	0.1038989508676845	0.09264922685082395	2.207671235995316	0.950889950974634	0.9259390044049156	-0.2441806987680518	-0.1097366413689659	-0.2257415128000241	0.3454542686302417	0.3454542699052042	-0.311211522222896	-0.08060225358481604	0.7414529854359249	0.1525611321593134	-0.1538151846782964	0.4319545197668337	0.4319545191652848	0.0899737390625452	-0.09586894940095046	-0.09335759471660147	-0.2715336192676913	0.491791470505735	0.09488246703713712	-0.143670620627033	-0.205255922034503	-1.091380530497345	0.05911045348231279	1.037915663355503	3.407655854795362	3.407655858996792	0.230976758799244	-2.512167227010663	-1.443764909075071	1.186064365122086	-0.1608580723856737	-9.752802355639393	-9.752802328240374	3.93274057299563	6.414604180088767
15.42665955999674	-0.2746846961437088	0.1027482178046277	0.09553393546394827	2.208262893046423	0.9497296445816845	0.9246496039737994	-0.2500743549745789	-0.1102501497348953	-0.2185491811553661	0.3722384602845434	0.3722384615681498	-0.3081032724822696	-0.09894223935696148	0.731346503790346	0.1604860771474409	-0.15548125609267	0.370944411705377	0.3709444113158346	0.1149354388773253	-0.05489719695756282	0.07729515550403621	-0.06773072016026634	0.377534442766101	0.08258119803766636	-0.204378005565958	-0.1809235344974805	-0.6746363302121166	-0.2196766971424159	1.103543009772702	4.623284766452137	4.623284764722804	0.6591618484675033	-2.979496586972199	-1.57130590022275	1.192788597602742	-0.3416235188999283	-8.506692663932537	-8.50669262746268	3.527835578156677	5.813516145228686
15.43332621999674	-0.273651741063512	0.10305876467374	0.09774544179945475	2.208771874794499	0.948166050116635	0.9235331940056561	-0.2531646684134997	-0.1127313239063259	-0.2112391967854627	0.4069946745248094	0.406994675775204	-0.3029982493459389	-0.1201815432181135	0.7207244813270586	0.1684856505937542	-0.15836928071849	0.3190787876032824	0.3190787874887653	0.1366614002114172	-0.01916429763171315	0.2294900006289968	0.1643278523481087	0.2912760089781709	0.07008139967179887	-0.2645736863630924	-0.1536716592611384	-0.2529067445445919	-0.5280024430256904	1.074213108536472	5.792527483669536	5.792527475342871	0.8291946464917923	-3.380691346043671	-1.599165310650879	1.208811517909714	-0.5219285288290589	-7.015236133290152	-7.015236087455877	2.96584839735909	4.84944759204909
15.43999287999673	-0.2716649567458211	0.1049672226214916	0.09949600225083639	2.209196903884165	0.9462042493984804	0.9226028297552418	-0.2534696054026392	-0.1173132742387604	-0.2044164334463517	0.4492836983513819	0.4492836995232846	-0.2976053583661303	-0.1438588051912126	0.7102265272124672	0.1766284759359846	-0.162364821280357	0.2778556650885384	0.2778556653033621	0.1541955810839049	0.009071228379428514	0.3636841177615321	0.4089516668340537	0.2401844699884763	0.05739809717982421	-0.3237565760129871	-0.1254400153185444	0.1584342541141056	-0.8467393188862417	0.9595669725659668	6.877205463541981	6.87720544832324	0.7489668996142127	-3.710359938724641	-1.536298357962508	1.236024622933843	-0.6683227030136993	-5.322926178829837	-5.322926126664887	2.276227849242127	3.575313572470968
15.44665953999673	-0.2688379815526938	0.1085031420192452	0.1010350283745786	2.209536781914832	0.9438526767539568	0.9218584624691246	-0.251107410496764	-0.1240028157203123	-0.1985989888977079	0.4984310130244523	0.4984310140728584	-0.293496752721884	-0.1694914236559926	0.7004050280986204	0.1849933309696804	-0.1671337463710689	0.2484163010090683	0.2484163015762658	0.1668172750739197	0.0279868332779526	0.4819967652977918	0.6498503366491228	0.2281882547013831	0.04453260592810548	-0.3814182163697445	-0.09819377377895457	0.5450369825603349	-1.157261012726513	0.7757867294856652	7.845320613174515	7.845320591486063	0.4513541400118036	-3.967459118069863	-1.399595398327195	1.275517133122823	-0.7489790481460966	-3.491622450582902	-3.491622398238349	1.499686731089461	2.067881777021848
15.45332619999673	-0.2652669735266329	0.1135881627916235	0.1026268577016978	2.209790134135972	0.9411233014472949	0.9212872982976786	-0.2462830430024898	-0.1326865576318315	-0.194179364099676	0.5535752914266218	0.5535752923121784	-0.2919498176815921	-0.1966024583590387	0.6916793946501391	0.1936627488745302	-0.1721460010356529	0.231445360147073	0.2314453610432315	0.1741075417399685	0.03633126827622758	0.5874286186349216	0.8711255895775895	0.2558406657091187	0.03142134439824707	-0.4369948825214959	-0.07376505875460072	0.8955259977849067	-1.442274298054485	0.5440760413447836	8.673088002184311	8.673087975291587	-0.008846514712576945	-4.154545995888579	-1.211637255802243	1.327296667032434	-0.7376104145962241	-1.595429072018332	-1.59542902688326	0.6856221965794773	0.420477279286639
15.45999285999672	-0.2610272301999043	0.1200424368359955	0.1045285999972313	2.209954792893517	0.9380322560787095	0.9208652016445439	-0.2392629674989718	-0.1431426565569086	-0.1913971977625258	0.6137272604328179	0.6137272611267645	-0.2938191720136772	-0.2247403007732549	0.6843070299044929	0.2027153048399878	-0.1767254949870442	0.2271109585108086	0.2271109596654324	0.1759986901331166	0.0335086880362524	0.683107088343416	1.058424054674852	0.3204587512017014	0.01788192728043283	-0.4897869811761218	-0.05369941547547365	1.203057358766211	-1.686679720806483	0.2887554106158098	9.346006670611901	9.346006640340404	-0.5607854605686208	-4.276393483421106	-0.997961643013912	1.390145310078102	-0.6172892279046436	0.2859784598688335	0.2859784913664603	-0.1104226360125424	-1.264924588927626
15.46665951999672	-0.2561750593555585	0.1275986814372685	0.1069694173370357	2.210026873804078	0.9346010105385467	0.9205590912444135	-0.2303406183130134	-0.1550582239023682	-0.1903251610214481	0.6778325177261322	0.6778325182119194	-0.2994554029098822	-0.2534878586392208	0.6783734401969614	0.2122168515562682	-0.1801233699498856	0.2350513269027477	0.2350513282094186	0.1728060488545146	0.01961031230398886	0.7714552444616287	1.200034002571118	0.416389731177978	0.003578846748592542	-0.5388826063555558	-0.0391122360130563	1.466565998511126	-1.878388317658422	0.03527107056542355	9.858983242894068	9.858983210954996	-1.125564496081461	-4.338301748544141	-0.7841060268393928	1.461417178574757	-0.3835261354431622	2.074474420776379	2.074474434387874	-0.8296127049969176	-2.885427946956577
15.47332617999672	-0.2507554229371092	0.1359226866236828	0.1101317777124687	2.209999747360612	0.9308579360512083	0.9203302334569541	-0.2197947308572231	-0.1680515824000985	-0.1908676964951095	0.7448321596518901	0.7448321599222303	-0.3086815292554606	-0.2824608429370526	0.6738018307264358	0.2222098748825496	-0.1816072694177021	0.2544074219905526	0.2544074233226484	0.1652383119285025	-0.004603802048632808	0.8533119596902941	1.287686598375023	0.535342507198995	-0.01197105834924106	-0.5831223212160132	-0.03056640723579824	1.691623388838876	-2.008922268795656	-0.1916416460709798	10.21556070333012	10.21556067073983	-1.62536675476243	-4.34460755152074	-0.592786989323112	1.536677532095172	-0.0458614363876674	3.699987973271503	3.699987967192764	-1.413469480781544	-4.344437685450266
15.47999283999672	-0.244815044578793	0.1446376530154143	0.1141353739197986	2.209863205361461	0.9268399013918249	0.9201382135587257	-0.2078440771129263	-0.1816971872068787	-0.1927712299016545	0.8137154765162578	0.8137154765684973	-0.3208308861305035	-0.3112981455824855	0.6703798286959842	0.2327001786206061	-0.1805542199344243	0.2838945152291727	0.2838945164563927	0.1543799127676163	-0.03776950709782922	0.927223557466891	1.316886726076551	0.6668750412566558	-0.02934550771810326	-0.6211260036987134	-0.02799580910966695	1.890592734224867	-2.073584587204847	-0.3695593953185343	10.42632759777026	10.42632756500747	-1.992552923979371	-4.297862264187186	-0.4416635968578306	1.60929876684088	0.3727373019058647	5.105576509357375	5.105576484310332	-1.808642392655016	-5.558412233110186
15.48665949999671	-0.2384187213159788	0.1533491354660094	0.1190249984962411	2.20960313096187	0.9225934958198485	0.9199451997525427	-0.1946046341830983	-0.1955500311013021	-0.1956442285560161	0.8835597356718776	0.8835597355072601	-0.3348421463069532	-0.3396495385262953	0.6677977855108478	0.2436414753211301	-0.1765313197430721	0.3219011547843436	0.3219011557897871	0.1416379257020035	-0.07802680250806721	0.9892493672367437	1.286785088802662	0.7990895523830095	-0.04912015064503231	-0.6513745391738733	-0.03069644201645908	2.081683132305094	-2.071149802355258	-0.4797215538292209	10.50667390534184	10.50667387328522	-2.177501761696309	-4.198843934063063	-0.3421787321855697	1.670288153991763	0.8389071646577604	6.250488191087373	6.25048815034341	-1.972717035288954	-6.463120912286644
15.49332615999671	-0.2316644367901385	0.1616681357573716	0.1247635472003316	2.209201927577293	0.9181755939126972	0.9197200163340121	-0.1800574226358278	-0.2091669010742812	-0.1989854027739243	0.9535536271537763	0.9535536267834533	-0.3493991593649614	-0.3671657619023906	0.6656902316995851	0.2549204305944566	-0.169349415942741	0.3666010175638182	0.3666010182596305	0.1286485766109053	-0.1231668893430688	1.033535453579958	1.199791518000603	0.9194573174087116	-0.07174015749612783	-0.6723212864669954	-0.03739276514037677	2.286692445237263	-2.003275035144855	-0.50812187254365	10.47419494916809	10.47419492000152	-2.154039983706533	-4.047208731114944	-0.299787854088469	1.70863670467332	1.313809489905038	7.110964503879055	7.110964452724239	-1.880350964755299	-7.018903564218516
15.49999281999671	-0.2246922409422894	0.1692313391364692	0.1312306907530657	2.208639853539582	0.9136531317900599	0.9194415294224016	-0.1640351583021406	-0.2221235027040874	-0.2022183138570974	1.023003340400832	1.023003339854974	-0.363096477726197	-0.3934941337324878	0.663671626057229	0.266346208234533	-0.1590807035540622	0.4160631842799227	0.4160631846168042	0.1171452032447574	-0.1708085146528675	1.053558603630401	1.061125854281223	1.015685630305619	-0.0973814300549167	-0.6825157243583025	-0.04637650345814838	2.527713427556273	-1.873881405384058	-0.4463375196462916	10.34614808342044	10.34614806054132	-1.921617058618481	-3.842439701262375	-0.315352706430813	1.712321617416618	1.758827248345798	7.679055839462459	7.6790557839177	-1.528460640856218	-7.214037800703065
15.5066594799967	-0.2176837858771342	0.1757183070486435	0.1382273993612817	2.207897232220056	0.909102032720429	0.9191008942832252	-0.1462323578168052	-0.2340276993702556	-0.2047305884585401	1.091322988607802	1.091322987940056	-0.3746074967596012	-0.4182806270969152	0.6613608472883717	0.2776485913482544	-0.1460391209213409	0.4683498230686569	0.4683498230354757	0.1087988125759433	-0.2185879765734516	1.043599389817455	0.8783490462570951	1.076607879001906	-0.1258322216284223	-0.6807343208331972	-0.05570659749448883	2.823529383180994	-1.688611384635514	-0.2920780574366704	10.13735761927924	10.13735760606972	-1.503914679592835	-3.584796217925344	-0.3869902976071779	1.669835061406485	2.140844069790777	7.960168094486134	7.960168039734596	-0.9390358083156091	-7.065350661126023
15.5133261399967	-0.2108525592418484	0.1808653609255201	0.1454865004455442	2.206957299205283	0.9046052619690717	0.9187023253013129	-0.1262384009969734	-0.244529395468963	-0.2059158284568052	1.158013315729741	1.158013315012014	-0.3828321452747047	-0.441177667493855	0.6583938380227481	0.288487206211048	-0.1307296716961367	0.5215955795458374	0.5215955791599306	0.1050508325888715	-0.2643425610015934	1.000005797681267	0.6608336507804933	1.093102235110144	-0.1564243748179854	-0.6661077364956878	-0.0634476961445565	3.186429105584457	-1.454364214462824	-0.0494473229174893	9.858820870466596	9.858820868817297	-0.9442058647311742	-3.276052300571978	-0.511693922882945	1.571927095226188	2.436159766971128	7.970151592815562	7.970151542107118	-0.158550979267163	-6.615602876871036
15.5199927999967	-0.2044269718144026	0.1844757072845309	0.1526893516729583	2.205809294612581	0.9002501127539768	0.9182622383951832	-0.1035892014735031	-0.2533276328701055	-0.2052163779890254	1.222633694149579	1.222633693459039	-0.3870051087975262	-0.4618558053982848	0.6544271007167379	0.2984720831582315	-0.1137778485254543	0.5740677723210299	0.5740677716142853	0.1069621455565495	-0.3062659383106291	0.9220660953941194	0.4191707217058821	1.058992078852494	-0.1880296827614144	-0.6382193860586445	-0.0679136102126642	3.619848891051796	-1.178933211420239	0.2710562562307838	9.517088977918108	9.517088987470247	-0.2983400665985745	-2.91991331506169	-0.6864466682538137	1.413205682041025	2.632488314890684	7.732525677684179	7.732525632187361	0.7463062540606802	-5.927768356707587
15.52665945999669	-0.1986288195772562	0.1864255365887958	0.1594880868397859	2.204451361078902	0.8961250116793771	0.9178068636827816	-0.0778314718076857	-0.2601757911401797	-0.2021652626167269	1.284772448022841	1.284772447426769	-0.3867527834541841	-0.4800171277750079	0.6491352524480711	0.3071934995621872	-0.09585255756494422	0.6242093690014614	0.6242093680081791	0.1151015449220161	-0.3430170483977149	0.8125466019635164	0.1645676618018017	0.9717870086508464	-0.2191205203193975	-0.5971466547159444	-0.06787613157209441	4.116952396270237	-0.8708118074637108	0.6527910115566538	9.114366376860451	9.114366395066064	0.3733972269899494	-2.522135101983146	-0.9089296704784227	1.193274650441994	2.728927971786494	7.276107887491716	7.276107846898149	1.696031987847575	-5.07697794154342
15.53332611999669	-0.1936488351902096	0.1866663032740879	0.1655317497962996	2.202892855025818	0.8923162981098001	0.917368683541067	-0.04859345761825435	-0.2648862152663856	-0.1964255023034763	1.344019865124075	1.344019864667022	-0.3820959703871075	-0.4954087479143277	0.6422044508025043	0.314257229373171	-0.07759527083409261	0.6706676091103615	0.6706676078602801	0.1294905674103163	-0.3737708935670942	0.6780461274792873	-0.09168624994950195	0.8330808523901037	-0.2478828339388021	-0.5434263497778129	-0.06270381857461872	4.660105109641122	-0.5392150398342055	1.073522016605198	8.649191211101689	8.649191233836383	1.014207068480004	-2.090444385878558	-1.178089151560143	0.9171909426920519	2.734202400877184	6.633072482100287	6.63307244549738	2.607566340942827	-4.141386180516554
15.53999277999669	-0.1896206436784753	0.1852235688003387	0.1704936444829329	2.201155764941736	0.8889054531358636	0.9169822305680354	-0.01565578166149185	-0.2673353980779321	-0.1878244397381031	1.399947273459312	1.399947273156191	-0.3734037032118181	-0.5078352999946407	0.6333225187372097	0.3193201803144792	-0.05956498985309607	0.712311053997378	0.7123110525144745	0.1496116582371161	-0.3982090885378892	0.5290587921255083	-0.3387500694020653	0.6485180082698463	-0.2723696727737203	-0.477961655325307	-0.05241491920318095	5.221447544385038	-0.1941756832036963	1.506394147309087	8.117555796722671	8.117555819453928	1.577360349692021	-1.634325630822735	-1.494490804820494	0.5951024357380056	2.663804296033989	5.837424973837317	5.837424940534556	3.403737834744225	-3.19350177726478
15.54665943999668	-0.1865968088269964	0.1821914938876067	0.1740971806480134	2.199274987390914	0.8859669724671162	0.9166797966481461	0.02098707597221924	-0.2674689607835454	-0.1763796726187089	1.452094819057429	1.452094818895387	-0.3613097186891785	-0.5171696509190484	0.6221692440617269	0.3221205533993037	-0.04220363674756721	0.7482380268731788	0.7482380251794296	0.1744751417978978	-0.4164585456053288	0.3791716601045482	-0.56706481648586	0.4273938760241811	-0.2906893195860449	-0.401934618149337	-0.03765408616562641	5.765259346886063	0.1536883264865008	1.921506318587652	7.514384938871474	7.514384957982548	2.03074034198027	-1.164704073785537	-1.859775082789869	0.2409548691803716	2.536856773955685	4.923955883876199	4.923955854052618	4.021206361550367	-2.293524147849916
15.55332609999668	-0.1845343157718851	0.177720226984347	0.1761380211605479	2.197297271756045	0.8835666401044595	0.9164875118241256	0.06108820669626421	-0.2653030959806831	-0.1623121639018044	1.499969974074107	1.49996997402083	-0.3466064536503289	-0.5233612079486972	0.6084147899989626	0.3224963904498344	-0.02582157030583274	0.7777796237870687	0.7777796219097096	0.202730668275327	-0.4289950392540839	0.2430496798762677	-0.769628046020427	0.181940363496041	-0.3012118385150706	-0.3167769678354943	-0.01960542484544205	6.252420655952315	0.4940082207761027	2.288185456840803	6.835242140649394	6.835242153873535	2.359008115694601	-0.6935416932655037	-2.274785315640812	-0.1296577038988448	2.373263998613505	3.927627591149877	3.927627566244948	4.415734182907131	-1.485504291980244
15.55999275999668	-0.1832962657781453	0.1719943625068836	0.176500186290205	2.195278829080814	0.8817598253676796	0.9164222219739357	0.1041442341469436	-0.2609189486230137	-0.1460420805051476	1.543057425154602	1.543057425165137	-0.330132861283744	-0.5264412243673418	0.5917334416252233	0.3203880215073643	-0.01060091730647082	0.8004992851786877	0.8004992831590918	0.2328036680138969	-0.4365298126117774	0.1337363040181068	-0.9432913354637407	-0.07379132411216469	-0.3027557805908021	-0.224184900843186	0.0001612758496281896	6.646076428491544	0.8178734444728193	2.577855499703187	6.077980535515155	6.077980541131716	2.563293751552674	-0.2333430320828339	-2.737023333711726	-0.5020768008751304	2.191189929328425	2.883091355376194	2.883091338180126	4.564417955242674	-0.7959598803056915
15.56665941999668	-0.1826712830086844	0.1652044399442381	0.1751632941264494	2.193281877122593	0.8805896684353776	0.9164896045957008	0.149428940475571	-0.2544490878657719	-0.1281645300956272	1.580838856693013	1.580838856709888	-0.3126721709823829	-0.5265247715879273	0.5718334091074437	0.3158236217894902	0.003385065103675954	0.8161886203773501	0.8161886182793835	0.2630370656522103	-0.4398929195913523	0.06017860370719481	-1.089462432987607	-0.3254472748380748	-0.2947154473834104	-0.1261305353515337	0.01990419010754564	6.917034409217728	1.118909720028242	2.767103786369256	5.244011629587366	5.244011625470437	2.658576670824376	0.2033140277523085	-3.238544415591622	-0.8649474540557658	2.004778769144051	1.824007734155808	1.824007728545066	4.46509857165173	-0.2341878560489203
15.57332607999667	-0.1824066557189805	0.1575168602830035	0.1721991351273319	2.191370596197579	0.8800852979335051	0.916683802349763	0.1960583574912713	-0.2460585472869852	-0.1094061235118449	1.612819228252179	1.612819228202418	-0.2948734651749942	-0.523810346269887	0.5484968396290797	0.3088915828986026	0.01613880575304203	0.8248576977629529	0.8248576956779079	0.2918209560881249	-0.4399234773872717	0.0256745719244748	-1.213844967459817	-0.5599824199765207	-0.2771089177402316	-0.02483700022836225	0.03794206500386695	7.047623022104928	1.393766324620719	2.840232091741982	4.338955289475922	4.338955273238023	2.669282085899489	0.6039859799681584	-3.765101506067354	-1.211704700266548	1.822356182303033	0.7820693303516495	0.7820693404911322	4.133438326079027	0.205971397918108
15.57999273999667	-0.1822475503805714	0.1490489122059674	0.1677584077885195	2.189607033357605	0.8802603829487393	0.9169885182813489	0.2430739401864854	-0.2359253442018895	-0.09056830591719524	1.638554977343605	1.63855497714072	-0.2772061095976908	-0.5185790621039771	0.5216201335746747	0.2997072594053847	0.02769612145435585	0.8267180469901567	0.8267180450343427	0.3176969070267174	-0.437376618368956	0.02763757532333652	-1.325190348648221	-0.766935171118756	-0.2505469801482568	0.07729806712824254	0.05285201478976675	7.033173666909835	1.641773601800077	2.790586781569337	3.372561694040925	3.372561664264312	2.624005187503729	0.9563176493037182	-4.296934081535072	-1.54073246311717	1.645570788532579	-0.2141846978322416	-0.2141846688598416	3.598365249180087	0.5429014422309569
15.58665939999667	-0.1819735463892034	0.1398546279675779	0.1620509255017932	2.188047433507079	0.8811123515375638	0.9173792069797495	0.2895274517814063	-0.2242257741489687	-0.07246665867897907	1.657679407329065	1.657679406884199	-0.2599492782717308	-0.5111941270212159	0.4912439744968372	0.2883832359330818	0.03808236445719444	0.8221575296585749	0.8221575279612001	0.339428779818905	-0.4328561348033936	0.05855971676883624	-1.433372702679384	-0.9390848620449535	-0.2161404353744873	0.1778216120901811	0.06359696288462782	6.881146567380404	1.863907545918964	2.620456540637925	2.357974293381775	2.357974250943978	2.55042654046723	1.248059918203792	-4.810955150054132	-1.854187073089882	1.469816337708758	-1.140587932435695	-1.140587884036451	2.896727263011914	0.8028335287782616
15.59332605999666	-0.1814266270450656	0.129924344381104	0.1553237062793989	2.186739308256227	0.8826224370233117	0.9178258524958192	0.3345547217926082	-0.2111278016399914	-0.05587479659487543	1.669921662761342	1.669921662000694	-0.243212356459284	-0.5020993557086131	0.4575667082531483	0.2750108590059981	0.04727565055759913	0.8117076459130877	0.8117076445968248	0.3560375661298656	-0.4267779181321267	0.1074660467860869	-1.547288097654048	-1.072436166962157	-0.1753773410552403	0.2743458953613465	0.06957497638346459	6.608877275439178	2.061471368586197	2.339881823910678	1.310598301238524	1.310598249743565	2.471233361827472	1.467346981085616	-5.283362373593085	-2.155882624357753	1.285890533848986	-1.978349266084051	-1.978349200848784	2.067969814750834	1.015147889596087
15.59999271999666	-0.1805299360292137	0.1191975492662809	0.1478410799238021	2.185719333168699	0.8847564130637273	0.9182958465489142	0.3774329886152534	-0.1967930231366709	-0.04147836185219527	1.675117740557902	1.675117739438791	-0.2269779303386142	-0.4918150107317354	0.420941792436009	0.2596573977206593	0.05518424435016783	0.7960056169500163	0.7960056161099118	0.3668028658562985	-0.4193633174103907	0.1611622945848136	-1.673031174893879	-1.165676145001567	-0.1300012746711259	0.364630703289155	0.07060386105036819	6.241036556821173	2.234901672751286	1.964904793460506	0.2468883068281602	0.2468882517810077	2.401469501294576	1.603226241861761	-5.691702131241836	-2.448820229338236	1.082494499999853	-2.714585632829742	-2.714585556375242	1.149570044585126	1.208199744636275
15.60665937999666	-0.1792990234200191	0.1075862246568448	0.1398688628644443	2.185012013218703	0.8874657524722587	0.9187566470882885	0.4176214346313472	-0.1813852499337845	-0.02984091538002789	1.673213749977692	1.673213748496209	-0.2111569371887625	-0.4809286017799373	0.3818637831592395	0.2423790750935979	0.06164145971830163	0.7757547183412804	0.7757547180266282	0.3712384440994131	-0.4106576744068691	0.205317000428695	-1.812586336257108	-1.219619645365392	-0.08190259809880059	0.4466339625629967	0.06687969643838076	5.807102215839418	2.383026330499509	1.515865215769479	-0.8167417075036615	-0.8167417602405569	2.347581473632695	1.646732432971669	-6.016320300067966	-2.733007733486449	0.8488288156386005	-3.342327206755069	-3.342327127046743	0.1739405269674366	1.405932390265249
15.61332603999665	-0.1778448521666171	0.09500515432289793	0.1316601894117032	2.18462904526575	0.8906891353916837	0.9191782358891143	0.4547840860643431	-0.1650818250222381	-0.02137912551381441	1.664262611168998	1.664262609357725	-0.1956439373953559	-0.4700751289278034	0.3409449863175215	0.2232459549202315	0.06641538334509488	0.7516859320524319	0.7516859322545051	0.3690535935273691	-0.4005689670959916	0.2259365214056985	-1.963038811305212	-1.237354831586223	-0.03301649927689811	0.5185729299848149	0.05896617020680252	5.338542855535508	2.503008945249919	1.016396614519639	-1.864787350484199	-1.864787395978521	2.308339483275777	1.593036008659834	-6.241814508498425	-3.004162180927337	0.5763054402866614	-3.860149501139882	-3.860149427393425	-0.8326878120127721	1.625244886173211
15.61999269999665	-0.1763650891874877	0.08140571613780412	0.1234380064127693	2.184569356110876	0.8943544768707363	0.919535649707057	0.488792566017929	-0.1480831064380255	-0.01634232942948296	1.648415683853229	1.648415681772956	-0.1803607708976871	-0.4599000225518785	0.2988815119052956	0.2023718045285796	0.06922636743124876	0.7245228343515216	0.7245228350002889	0.360113555665237	-0.3889208018662296	0.2113490061487543	-2.116345158350021	-1.224960859550257	0.01477775245436248	0.5790187501396914	0.04782010620691386	4.865621607793636	2.590907128123273	0.4929806336183502	-2.883322611979092	-2.883322646710456	2.277274169321988	1.444302025200713	-6.358727329371785	-3.253503725574727	0.2592900004783106	-4.271584794866501	-4.27158473596059	-1.849513019494137	1.874387860023082
15.62665935999665	-0.1751222494163557	0.06680862291624341	0.1153741168784723	2.184819796105184	0.8983816386646132	0.9198116037186469	0.51970746391051	-0.130617221174921	-0.01479648182808169	1.625910228443634	1.625910226174508	-0.1652816271622817	-0.4510046637766723	0.256408717177955	0.1799422608291703	0.06976953419482829	0.6949511002565958	0.6949511012289319	0.3444092337189323	-0.3755118950093861	0.1540088855696072	-2.259932720404645	-1.191605095953225	0.05975111277090367	0.626999461141292	0.03477853393507388	4.414297924617348	2.642465104489569	-0.02614753763462945	-3.86060377894718	-3.860603800539393	2.245629694936297	1.211794023271593	-6.364888558627842	-3.468419641591209	-0.1038997214568374	-4.584312723798637	-4.584312686503431	-2.85927723739757	2.152618031410761
15.63332601999664	-0.1744127065815759	0.0513293112648181	0.107572072259329	2.185356411188658	0.9026857132083446	0.9199987235285895	0.5477414969665244	-0.1129395632339961	-0.01661992786859201	1.597052924974485	1.597052922610388	-0.1504392620249907	-0.4438834612471952	0.2142511960314783	0.1562363010887425	0.06774719744875375	0.6635944185003044	0.6635944196389667	0.3220409117687977	-0.360174244315121	0.05135035247411414	-2.378297649085847	-1.148288829669947	0.1004024474146103	0.6620605667989278	0.02145271975851991	4.003976499508083	2.653881619017483	-0.5134354713847376	-4.787630493201986	-4.787630499808899	2.204981094393799	0.9162679191477341	-6.265614841036896	-3.633794564947857	-0.5090531304770846	-4.809031465224326	-4.809031452842383	-3.846059498042253	2.45087200026363
15.63999267999664	-0.1745336194901893	0.03519010939889024	0.1000616088437077	2.186146160124944	0.9071804760587392	0.9201008283540004	0.5732117356799072	-0.09532738491866161	-0.02151809904607916	1.562200294224218	1.562200291870795	-0.1359155890660099	-0.4388632337714104	0.1730758395794899	0.1316368197570116	0.06291506275484864	0.6309990704582786	0.6309990715971343	0.2932163866246277	-0.3428242417164968	-0.09439511521362229	-2.455279323864693	-1.105801186268582	0.1355141283312823	0.6842532795547893	0.009559290141337424	3.646493594659526	2.622506733650533	-0.9450539774695308	-5.658473571748681	-5.658473561672787	2.149310794606576	0.5870145881497739	-6.072633929174485	-3.733927815533557	-0.9441114746205315	-4.958000524784993	-4.958000536696201	-4.7932058875405	2.753193249397192
15.64665933999664	-0.1757535868109288	0.01871667754371426	0.09280680232423989	2.187148928722699	0.9117815165838037	0.920133032198001	0.5964891213600796	-0.07807026216990123	-0.02905736477211947	1.521738293038401	1.521738290811493	-0.121820082478343	-0.4360514865181751	0.1334552547031858	0.1066271083147137	0.05513793592300469	0.5976289736242265	0.5976289746128514	0.2582618127131676	-0.3235018237911053	-0.2770741966620921	-2.476411332797225	-1.072764189043641	0.1641859390207606	0.6940518854715192	0.0007412143303837834	3.346286755847406	2.547360532054669	-1.303465719956659	-6.470176308794736	-6.470176280788451	2.076587060365077	0.2602274261618935	-5.802132436937843	-3.754785404260686	-1.388413696948896	-5.043387881573203	-5.043387913880009	-5.681619618540363	3.038894296691469
15.65332599999664	-0.1782902170975839	0.002319619760009101	0.08572548721755863	2.188319713212208	0.9164086597620286	0.9201207068760275	0.6179519971629263	-0.06145766463518389	-0.03871278632269261	1.476063993873204	1.476063991893018	-0.1082595588825606	-0.4352971328801347	0.09584546425312226	0.0817720719597716	0.04444494302460404	0.5638718226984526	0.5638718234192386	0.2176420741224938	-0.3023930655309712	-0.4877012462390137	-2.43099661281525	-1.05426785875002	0.1858537744546753	0.6922332070881345	-0.003590341809815233	3.101302370611739	2.429533321950318	-1.578975340023404	-7.222256327252213	-7.22225628142967	1.989741057601603	-0.02310665861958262	-5.472568937054643	-3.686298488065565	-1.813623824310163	-5.075637413728945	-5.075637460783477	-6.488663187504074	3.285309709070585
15.65999265999663	-0.1822932601550194	-0.01353674030934976	0.07871486880772717	2.189610917289751	0.9209876736324547	0.9200975380820899	0.6379452352450317	-0.04576296709127193	-0.04992215118232998	1.425571209832545	1.425571208211252	-0.09530398759053549	-0.4361672533844718	0.06057584697199161	0.05768416668028856	0.03107284487850371	0.5300551827883841	0.5300551831622144	0.1719855669930928	-0.2798335505254635	-0.7148792954836922	-2.313886183356398	-1.051423471728419	0.2003073276306478	0.6797973700478687	-0.002365468653945516	2.903570554195661	2.272935458527891	-1.770040753542396	-7.916069375699245	-7.916069314481515	1.896855737737375	-0.21993909906749	-5.103391026491919	-3.524642046062819	-2.186353535052703	-5.062170541601026	-5.062170597775201	-7.187981424455312	3.470732721328323
15.66665931999663	-0.1878272268165412	-0.02837609457022639	0.07167683355702641	2.190974769785284	0.9254517082056943	0.9201030428719197	0.6567405739733353	-0.03122104378701584	-0.06213797672094121	1.370640371521956	1.370640370346643	-0.08295383403653435	-0.4379443289324018	0.02784308286527728	0.0349749739083235	0.0154872100137025	0.4964695590311515	0.4964695590127561	0.1221064873430734	-0.2562927680426158	-0.9443464305303895	-2.126785260919019	-1.061850773307176	0.2077054092743513	0.6579591339605863	0.005088636279752094	2.739116309150928	2.085357585882961	-1.882398553867898	-8.554152027932705	-8.554151956419462	1.810533176108422	-0.2885446707681039	-4.714987216862681	-3.274144477607964	-2.472056537940127	-5.006583707319201	-5.006583768204749	-7.750439386635358	3.577110642477028
15.67332597999663	-0.19485209874772	-0.04175748040227801	0.06453842661157255	2.192365752487847	0.929742630409319	0.920179772272506	0.6744985051998172	-0.01800097641519347	-0.07487100538265945	1.311633621228534	1.31163362054424	-0.07111388053286338	-0.4396474179993737	-0.002294137260114364	0.01419795593613174	-0.001623874338098081	0.4633957459328998	0.4633957455015839	0.06901727578339142	-0.2323421254658905	-1.15919540178256	-1.878523358824349	-1.08051304829502	0.2085576079158581	0.6281008145749449	0.01899898825594986	2.588884373273595	1.878628105843433	-1.927491799367762	-9.139247409343763	-9.139247334933929	1.746619799811852	-0.1922538774833354	-4.328116025068946	-2.947842418737388	-2.639178603458177	-4.908111691741997	-4.908111754319687	-8.14610143457562	3.592235984714869
15.67999263999662	-0.2032115364253733	-0.05331994998567913	0.05726716879448169	2.193742736288786	0.9338116539785437	0.9203701035752017	0.691243712693125	-0.006183397678941895	-0.08772235186925245	1.248898062694907	1.248898062492083	-0.05957735749319217	-0.4400786057859015	-0.0299105654494769	-0.004206017838499332	-0.01938201574411192	0.431135315256977	0.4311353144091242	0.01392518824064605	-0.2086104341321583	-1.341884033339604	-1.584009461586353	-1.100414538040346	0.2036569109455166	0.5916113547049119	0.03907359400171939	2.431833538470319	1.667093294816421	-1.920678265265377	-9.672861239443529	-9.672861170931892	1.722377255242371	0.09670334117560334	-3.961561269746305	-2.566108465493395	-2.662715367364189	-4.761256332388855	-4.761256394423344	-8.346956494838267	3.511289549393086
15.68665929999662	-0.2126373246914749	-0.06281721581315358	0.04988149507513912	2.195070585598818	0.937618790819043	0.9207125751499826	0.7068643804176922	0.004249098823088357	-0.1004030202174041	1.18277900715273	1.182779007362099	-0.04802451885410203	-0.4378956880978587	-0.05519219774546709	-0.01994928851924441	-0.03677236451486282	0.4000418411853907	0.4000418399317526	-0.0417908418719373	-0.1857317907059931	-1.476740735441681	-1.262405632478396	-1.113462962024662	0.1939950868104129	0.5497225220713251	0.06444979621689892	2.248574512924291	1.465507195707264	-1.879198323210483	-10.15382003187951	-10.15381997812452	1.753952670476067	0.59314984266028	-3.629606545119481	-2.154063380555201	-2.527201731056794	-4.55603879738089	-4.556038856697088	-8.330052585907064	3.337539686440017
15.69332595999662	-0.2227673448167236	-0.0701394489077023	0.04245378044280811	2.196321235838639	0.9411315815441629	0.9212381191947544	0.7211317471656825	0.01340943949024604	-0.1127388080977069	1.113641288602816	1.113641289100855	-0.03604031032902862	-0.4317122555196614	-0.07840225975922227	-0.03291964823277496	-0.05271600958446165	0.3705471570272547	0.3705471553941212	-0.09662475346475759	-0.1642920838138212	-1.551410474063641	-0.9351571060461277	-1.111821651126888	0.1806905738769288	0.5034636107208577	0.09371943384916956	2.023674176921458	1.287594209745309	-1.81985698585921	-10.57732961568722	-10.5773295837619	1.853247477449158	1.294876191531014	-3.341119183771394	-1.738753065196526	-2.229246309610708	-4.279242344104336	-4.279242398178464	-8.080735553289326	3.08205409710454
15.69999261999661	-0.2331702597838469	-0.07532165317958896	0.03510380067898111	2.197474304872526	0.9443238382620028	0.9219667059282315	0.7337311792094169	0.0214956758390557	-0.1246599758738019	1.041895257040815	1.04189525766837	-0.02315319740594364	-0.4202229540494451	-0.09984518674425498	-0.04318365088899243	-0.06615621235416259	0.343176781922941	0.3431767799549401	-0.1490089598844798	-0.144780294022625	-1.557617986173088	-0.6238969568456547	-1.089305803247543	0.1649161398077992	0.45369209473616	0.1250209760706329	1.747029809966066	1.144966387424127	-1.756876886653771	-10.93446381554949	-10.93446380878247	2.024839473797185	2.179348686841054	-3.099591493239121	-1.346266131298569	-1.779009264637582	-3.916316398668051	-3.9163164445231	-7.595666830957954	2.762608930703848
15.70665927999661	-0.2433759694344244	-0.07853725760859191	0.02798441056438764	2.198517159490817	0.9471745563784839	0.922904734244103	0.7443026934087553	0.02877243175013792	-0.1361786390658148	0.968025439303659	0.9680254398953666	-0.008892203451955979	-0.4023452564958713	-0.1198299411505483	-0.05097032131276126	-0.07614923927357369	0.318552120457625	0.3185521182204307	-0.1973982686447127	-0.1275487270646449	-1.492219986702787	-0.348127878824894	-1.042278029261414	0.1478068841785514	0.4011032330074574	0.1561688379921797	1.415426159838553	1.04573095859226	-1.70040630170538	-11.21186475957816	-11.21186477643526	2.263694423282053	3.20218442719654	-2.902775208336923	-0.9987766334168789	-1.200081706816167	-3.453365353517042	-3.453365387870713	-6.885232537730771	2.40214935496723
15.71332593999661	-0.2529138778857812	-0.080076469612208	0.02126294592986953	2.19944433038206	0.9496667666022707	0.9240434045293107	0.7524922437846735	0.03554289579280272	-0.1473586379580866	0.8926202187599375	0.8926202191761361	0.007144664163085491	-0.3773637063568354	-0.1386294816794836	-0.05663627927580809	-0.08194959996852136	0.2973798853791041	0.297379882959745	-0.240366743102348	-0.1127844982879032	-1.358364498123544	-0.123067143178134	-0.9700782650667504	0.1303615049647509	0.3462087416254206	0.1848206176149424	1.034051625214853	0.9931852270399686	-1.655738263106484	-11.39178516350901	-11.39178519802179	2.554086468949052	4.298005375016304	-2.742047377987221	-0.712053852707917	-0.52801726689517	-2.878986839402635	-2.878986859282032	-5.974960711747158	2.026956351878966
15.7199925999966	-0.2613566824199368	-0.08031237456481148	0.01510071167413518	2.200256330942804	0.951786276279039	0.9253583464772199	0.7580099641013243	0.04211452443371475	-0.1582824038312035	0.8163992943834775	0.8163992945342451	0.02521958187860384	-0.3450595585346969	-0.1564381710095812	-0.06061780143091643	-0.08308232612068477	0.280429706824528	0.280429704325876	-0.2767099391584661	-0.1004942931813388	-1.165841798105154	0.04180293076087513	-0.87517915764885	0.113366682418197	0.2893329315934798	0.2086844582159034	0.6168973420328845	0.9853107909181151	-1.623200037981329	-11.45274806358337	-11.45274810717856	2.870000177178365	5.38401287283035	-2.60260127565152	-0.4941190133199873	0.1920430441560416	-2.185982930054888	-2.185982933872261	-4.905684498675951	1.664489929834474
15.7266592599966	-0.2683620274932373	-0.07966054637507754	0.009632446676209314	2.200958103177023	0.9535205391365766	0.9268106989814546	0.7606852628690675	0.0487645498257984	-0.1690196975171465	0.7402343210294083	0.7402343208841551	0.04539228819336529	-0.3058068090512983	-0.1733353013002022	-0.06337864485581049	-0.07939671521862	0.268500843770732	0.2685008412989063	-0.3055435668043551	-0.09050461869724598	-0.9300531554873286	0.143213420439473	-0.7630147530987658	0.09736207594130439	0.2306570739481047	0.2257411333518092	0.1853678364800745	1.015194275101512	-1.598858937745042	-11.3709343446447	-11.37093438846994	3.177205390307554	6.36652567456151	-2.465132515465179	-0.3453266385770518	0.9085636786089041	-1.372894615867577	-1.372894604329589	-3.73227952983676	1.340904674668516
15.7333259199966	-0.2737026838614813	-0.07853880382257622	0.004948339599466093	2.201557369355892	0.9548579798377206	0.9283496112108358	0.7605067256542637	0.05571072075900375	-0.1796041740590081	0.6651579903895043	0.6651579899720338	0.067476681663209	-0.2606147373410011	-0.189264716578942	-0.06536299276319699	-0.07109597208512934	0.2623798028099739	0.2623798004583854	-0.3263885762044432	-0.08247957835302351	-0.6696588270871583	0.1835989760660283	-0.6413812257305953	0.08264596716495232	0.1703083445554951	0.2344423491580709	-0.2348158201784371	1.07213115556955	-1.576156934654349	-11.12224554360255	-11.12224558045239	3.436893740144695	7.150420810290163	-2.3089044658392	-0.2597825142557326	1.567643040139477	-0.4451524468840813	-0.4451524230035546	-2.520838273266472	1.078287950677915
15.7399925799966	-0.2772783319301563	-0.07733316473301467	0.00108130383240906	2.202063127067164	0.9557879683968772	0.9299159141048592	0.7576377012071829	0.06309100366995066	-0.1900230842828339	0.5923575017816493	0.5923575011548867	0.09102541485466661	-0.2111004346631119	-0.2040373976288484	-0.06696132315479281	-0.05873768844262996	0.2627922966657777	0.2627922945027459	-0.3392321837142209	-0.07595768499072404	-0.4035731980425712	0.1698064021059383	-0.5194914747776804	0.06930992763028779	0.1084568626985671	0.2338621121168927	-0.6176211023553114	1.143177987785617	-1.548093921092697	-10.68489149980559	-10.68489152526805	3.610307162766264	7.650395100163207	-2.115381310108471	-0.2277095183441152	2.117672504796206	0.5844183277824941	0.5844183597354876	-1.344303291576515	0.8917441425648247
15.74665923999659	-0.2791082627786606	-0.07637377118987797	-0.00199904695214859	2.202484420887974	0.9563012968601265	0.9314466488185599	0.75240588696859	0.07095465187672548	-0.2002206966348553	0.5231496728209452	0.5231496720670131	0.1153460781583407	-0.1593865510003903	-0.2173565480502559	-0.0684933455949326	-0.04320252311871373	0.2703545982644608	0.2703545963300784	-0.344555384702256	-0.07040778676087417	-0.1484391543521533	0.1114845187094991	-0.4069652760317368	0.05728398552776361	0.04535925500779774	0.2238041520772709	-0.940265670992856	1.214982598469627	-1.508977269773589	-10.04226364785253	-10.04226366053562	3.66341860669354	7.80168662081679	-1.87112571420491	-0.2380731080115184	2.514113462278061	1.695942836939196	1.695942873035753	-0.2768506398497967	0.7866503586430684
15.75332589999659	-0.2793111591629904	-0.07592127145534286	-0.004386210655282679	2.202829411286997	0.9563906708903906	0.9328801720969662	0.745273526175263	0.07926580360341841	-0.2101096136972619	0.4589368226167194	0.4589368218187337	0.1395463371237511	-0.107936068412311	-0.2288569846558494	-0.0702073143522367	-0.02563229088821961	0.2855300090233266	0.2855300073365238	-0.3433202796890252	-0.06530135725465359	0.08269235879710997	0.01961315367437316	-0.3129936209749928	0.04637985993267812	-0.01867813979737296	0.2048651093127632	-1.185421288708289	1.275661847812885	-1.454994850616325	-9.185769301682949	-9.185769302492405	3.570840897335676	7.567965155692022	-1.569167218230594	-0.2807759312950945	2.723816962524499	2.863647271888618	2.863647309865511	0.6124455339808578	0.7565783378313573
15.75999255999659	-0.2780793479087806	-0.0761619738572165	-0.006231560999938135	2.203104727873363	0.9560508158030736	0.9341614614820977	0.7367968909984625	0.08791878041836038	-0.2195823447350761	0.4011449533173479	0.4011449525483703	0.1626015923894146	-0.05934692283198506	-0.2381495518814312	-0.07229142576292882	-0.007341830892105891	0.3085947106050703	0.3085947091765986	-0.3369146052615209	-0.06019500995344909	0.2808240242393089	-0.09465123277668383	-0.2456315652168368	0.03633395587888207	-0.08336488023130618	0.1784250916866394	-1.342346971752352	1.316371332684315	-1.383814444016813	-8.117243067424393	-8.117243058226874	3.318663969547951	6.945428011491861	-1.209288650107211	-0.3480589382993734	2.728525958587651	4.057448339709998	4.057448379338471	1.266002041659189	0.7823848448356509
15.76665921999658	-0.2756510565754839	-0.07720964031502214	-0.007734397932424858	2.203315113286396	0.9552782481768789	0.935247033683282	0.7275799944019504	0.09676198460324945	-0.2285184163920643	0.3511482454383842	0.3511482447597122	0.1834378881980532	-0.01613268458231326	-0.2448658913203104	-0.07489165656868456	0.01028889755926557	0.3396146482152935	0.3396146470592736	-0.3270553278812753	-0.05481390752662024	0.4411978777982366	-0.2208149892867559	-0.2110817061345034	0.02685048637960457	-0.1484537340567558	0.1465393551932877	-1.407534622312769	1.332290093174944	-1.293695297321519	-6.850594469971888	-6.850594452235232	2.90618209760056	5.962844531845882	-0.7978943860870013	-0.4350315658786573	2.527234952561084	5.244641769400015	5.244641811714832	1.643515720574717	0.8329218776531409
15.77332587999658	-0.2722823222546257	-0.07911181073938922	-0.009127334286934611	2.203463325049424	0.9540710493030964	0.9361088261397176	0.7182256523462454	0.1056262736503051	-0.2367843315846651	0.3101857544432329	0.3101857539100237	0.2010223996951319	0.0194830579985873	-0.2487007878620792	-0.07813028735386633	0.02593327851186617	0.3784338164984604	0.3784338156364299	-0.3156573300563089	-0.04912409435410259	0.5631647726915721	-0.3495632555763689	-0.2130434521340634	0.01763341588074445	-0.2137144745191224	0.111739855812297	-1.384803110341704	1.322990032937701	-1.18223749112751	-5.412471598736913	-5.41247157280107	2.346429189175118	4.677420897873023	-0.3473450839873469	-0.5393573406191077	2.136909319083563	6.391645979029161	6.391646025009402	1.726546475430629	0.8676811637381965
15.77999253999658	-0.2682215006408294	-0.08185848300206636	-0.01065812051504274	2.203550184065456	0.9524289508074223	0.9367365417864528	0.7092885235104938	0.1143539352789304	-0.2442245658203794	0.2792774155756339	0.2792774152436014	0.2144536552545671	0.04573253450193372	-0.2494473329114894	-0.08211985210185732	0.0384346287282054	0.4246745280239346	0.4246745274810467	-0.3046772193965339	-0.04338060849581794	0.6495270791138362	-0.4729590166297525	-0.2523217925943737	0.008398007628920094	-0.2788688205665409	0.07677850976444703	-1.284599667727471	1.292253615249918	-1.045035278044199	-3.841778136630452	-3.841778102178006	1.665606262361718	3.167238991513475	0.125548162629761	-0.6602354390272431	1.591166805123521	7.465855264038515	7.465855313707853	1.521303134373176	0.8413895509580804
15.78665919999657	-0.2636896014978357	-0.0853913373025461	-0.0125699806155204	2.203574637564087	0.9503539508756906	0.9371381860170679	0.7012351701427919	0.1228246867469517	-0.2506452967235926	0.2591474967948965	0.2591474967198727	0.223045216696871	0.06141285544311038	-0.2470195359488749	-0.08696887194341628	0.04690703537545005	0.4777503180411862	0.477750317838924	-0.2959459289970046	-0.03813921043031009	0.7054979305694067	-0.5844342705693337	-0.3267703900681262	-0.001135021771850474	-0.3434979901697206	0.04434751467894861	-1.122642389821842	1.247368007658527	-0.8749919792930129	-2.187905536741463	-2.187905494357183	0.9017612915843396	1.52215251927914	0.6017250053918158	-0.7970308070679067	0.9368985297100785	8.437563133471972	8.437563185712936	1.059159747746319	0.7102558696226589
15.79332585999657	-0.2588679667286432	-0.08961267985405094	-0.0150825554138317	2.203533753373341	0.9478516000251809	0.9373387634093344	0.6944144540704542	0.1309753723443894	-0.2557979848281954	0.2501641809471049	0.250164181173593	0.2263990472052824	0.06593518484529345	-0.2414590491182444	-0.0927786347493928	0.05080762610290554	0.5368915916604723	0.5368915918092156	-0.2910061815775926	-0.03422253518913763	0.7375847098146022	-0.6787395101390294	-0.4315169918492127	-0.01125231271469593	-0.4069377942418375	0.0168130312576285	-0.9182283809651526	1.197955923928259	-0.6630494069968782	-0.507682246620859	-0.5076821992775573	0.1030462475315197	-0.1647678881389113	1.062373861160705	-0.9480353803748099	0.229162417764722	9.281835866373397	9.281835918971844	0.3946581533831038	0.4392614036060554
15.79999251999657	-0.25389309128188	-0.09439417194141654	-0.01837502773090295	2.203422636488499	0.9449329567106691	0.9373773366052569	0.6890396200116097	0.1388105920300933	-0.2593732181174838	0.252303088954435	0.2523030894985534	0.2244658819200107	0.05932277945223639	-0.2329252430981184	-0.09963316957404671	0.04997098886815258	0.6011830535462321	0.6011830540377803	-0.2909718222561892	-0.03263713446237061	0.7525768121198052	-0.7519301006310591	-0.559374350828755	-0.02225681201539097	-0.4681876841639017	-0.004005402374365336	-0.6924483919740032	1.15443976803598	-0.400501265200596	1.138686395842146	1.13868644275985	-0.674481218664965	-1.803885792533937	1.491380875777924	-1.109695678293155	-0.4748981715857276	9.980131572635294	9.980131622213273	-0.3990477690429378	0.009357392324594403
15.80665917999657	-0.2488577554902983	-0.09958546449627287	-0.02257228128411326	2.203234318343286	0.9416170180726839	0.9373028221141126	0.6851821976164904	0.1464021416963118	-0.2610138113412606	0.2651397417166954	0.2651397425550721	0.2175883380404813	0.04217192950988071	-0.2216698179153122	-0.1075857875402198	0.04460299929745509	0.6696103322272504	0.669610333026839	-0.2964256491624056	-0.03444748891803441	0.7566622425020475	-0.8013363917513204	-0.7013198977407318	-0.03446642543461299	-0.525863781972066	-0.01699161718045421	-0.4664468127461792	1.126241604631757	-0.08230214961023011	2.692127942901793	2.692127983319463	-1.369926226328186	-3.313535291320676	1.87748325862048	-1.276338727155447	-1.121938960645964	10.52139408544829	10.52139412742957	-1.237130977692207	-0.577129591232959
15.81332583999656	-0.2438175977619121	-0.1050223535173051	-0.02773422435165779	2.202959694930663	0.9379332543371384	0.9371689672977995	0.682776952425953	0.1538760560842606	-0.2603502847771854	0.2878716369851828	0.2878716380582015	0.2065192787031658	0.01558792457635638	-0.2079987181542915	-0.1166450649304107	0.03523929558109589	0.7411114804873643	0.7411114815265503	-0.3073700599297597	-0.04062464879049725	0.7546887794974255	-0.8254421356028392	-0.8469577013066705	-0.04820060077691864	-0.5782169960350256	-0.0218217240650686	-0.2598784814251474	1.11990769124248	0.2897296686508193	4.09896008246215	4.098960111926113	-1.921972117128528	-4.623133305094677	2.215877131913448	-1.440251612172128	-1.666990262352265	10.90239332333455	10.90239335230571	-2.031867858704484	-1.294506172855984
15.81999249999656	-0.2388018595884974	-0.1105337872230862	-0.03384811517062154	2.202587597467121	0.9339237875639474	0.9370289596643737	0.6816358843586635	0.1613877809866784	-0.2570541080588406	0.3193660486425126	0.3193660498704916	0.1924058013989042	-0.01889757631551769	-0.1922259965988339	-0.1267621525366126	0.02267924407080627	0.8146279255184651	0.8146279266927685	-0.323239663458802	-0.05189531630185387	0.7496742738030509	-0.8236682404859683	-0.9849651432870572	-0.06375367112080034	-0.6232210015685622	-0.01898541969972148	-0.0897739996936793	1.137486917618601	0.7049521507322087	5.314259247475459	5.314259264516954	-2.274747155119708	-5.675780422770313	2.508973212289034	-1.591985665529409	-2.076209493980206	11.12721741837452	11.12721742919287	-2.702248429132968	-2.095856544999679
15.82665915999656	-0.2338262040301393	-0.1159472976980645	-0.04082400887706723	2.202105090036855	0.9296447751939994	0.9369301247797921	0.6814679352508138	0.1690884770565287	-0.2508976731354509	0.3582261126982398	0.3582261140016498	0.1767304915710482	-0.05942647842707106	-0.1746262234666036	-0.1378207347580895	0.007907385249556143	0.8891493462151837	0.8891493473916652	-0.3429770399613763	-0.06861809047346497	0.7426894889660685	-0.7961315574264534	-1.10359771029599	-0.08135327481735799	-0.658720323974382	-0.009737481970054319	0.03002400899596039	1.175554579960459	1.143912514223249	6.303937103646808	6.303937109658833	-2.384643377678692	-6.430891688913475	2.766049324861626	-1.720847533209675	-2.327947582869003	11.20598278254569	11.20598277214692	-3.183069590254732	-2.918890673394357
15.83332581999655	-0.2289049578184889	-0.1210929842272263	-0.04849401156940765	2.201498090456674	0.9251666544153823	0.936909190548344	0.6819005648709835	0.1770878563447281	-0.2418071522512314	0.4028661888772538	0.4028661901927965	0.1612068800911275	-0.1039317684263229	-0.1553930893783087	-0.1496309066931645	-0.007987924541755221	0.9637478905405035	0.9637478915778911	-0.3651634110276993	-0.09070769463494538	0.7331418487566217	-0.7434629391599569	-1.191339213007297	-0.1011058453847297	-0.682620612233983	0.004024028346876358	0.08888142414555504	1.225183167192795	1.580430376776409	7.045469057384492	7.04546905566422	-2.227021325989289	-6.866775126077793	3.001753416176365	-1.815582991864859	-2.412615259672477	11.15297013126364	11.15297010045699	-3.43208926873612	-3.694239492492941
15.83999247999655	-0.224060362736234	-0.1258065982973317	-0.05661650277207114	2.200752375799399	0.9205730388656831	0.9369886057359013	0.6825002460806779	0.1854202786245149	-0.229895822865261	0.4515883110333723	0.45158831232319	0.1476344414969712	-0.1502704281432672	-0.1346113176216652	-0.1619281728480222	-0.02389242972756147	1.037598865956875	1.037598866734876	-0.3881871655845182	-0.117618253084045	0.7193643513602324	-0.6667203018565376	-1.237743467881662	-0.1229375857423229	-0.6930985794195157	0.01995113407651679	0.07907671296868088	1.272941325820543	1.98525086168177	7.527561487123893	7.527561481842188	-1.801400316250561	-6.982538478915545	3.23366092848314	-1.86521869444484	-2.331858602084824	10.98448427314824	10.98448422743174	-3.434070089309071	-4.354601965353886
15.84665913999655	-0.2193273665203698	-0.1299323352044214	-0.06488652231917735	2.199854962768951	0.9159582210572331	0.937174354005591	0.6827907768794552	0.1940205397641977	-0.2154702215360002	0.5026541383124109	0.5026541395665132	0.1377278791937058	-0.1963644571872005	-0.1122469224083163	-0.1743783825526552	-0.03873712669556191	1.109987157656194	1.109987158105154	-0.4104269652240812	-0.1483859508492136	0.6993312149879973	-0.5673834079218782	-1.234427462301521	-0.1465431583284887	-0.6888059574857319	0.03549806842218844	-0.004509541904151445	1.302758303710884	2.330375829132505	7.749212054951023	7.749212050109588	-1.13378572617167	-6.79847484890566	3.479294309721261	-1.859989657215947	-2.097397523362219	10.71676752922522	10.71676747802618	-3.201051130237621	-4.843163702773137
15.85332579999654	-0.2147537804775552	-0.1333257874520661	-0.07295296847339128	2.198795770675541	0.9114234071486643	0.937455579989838	0.6822701657711643	0.202714080636649	-0.1990079473017515	0.5543497900212589	0.5543497912525114	0.13294300243317	-0.2403373846714247	-0.08815770163525354	-0.186588963040157	-0.05156111222644132	1.180300784205371	1.1803007843255	-0.4304238704818647	-0.1817215917472312	0.6713022005734893	-0.4474024694620349	-1.176097212705915	-0.1713539540175735	-0.6690415711083513	0.04820783663067819	-0.1644857711353524	1.298320217989762	2.593080445180689	7.718570084718156	7.718570082980395	-0.2752849110106598	-6.354243672155472	3.753120618424152	-1.792292097535062	-1.729716801856418	10.36427303675125	10.3642729911101	-2.76883856746293	-5.119961513759611
15.85999245999654	-0.2103967416914368	-0.1358572982704853	-0.08044229072461419	2.197569408415648	0.9070719847039492	0.937806146711138	0.680427813031826	0.211223755645861	-0.181112070639919	0.6050431262223017	0.6050431274542313	0.1343245550719284	-0.2806305946281188	-0.06212249235702654	-0.1981264057323534	-0.06156540731876963	1.248014762558698	1.248014762420268	-0.4470191652566495	-0.21613632601442	0.6342803278053888	-0.3092617439258765	-1.061439191065356	-0.1965332519619066	-0.6338646345750838	0.05599841905530377	-0.4007851770343437	1.245563521374661	2.758806037714752	7.451832211223188	7.45183221303499	0.7030280714889314	-5.704650558450547	4.063987942455024	-1.657591088724703	-1.256666218935667	9.938507226506076	9.938507195840492	-2.190391629034711	-5.165394023521768
15.86665911999654	-0.2063166806270649	-0.1374156506026633	-0.08698712748587246	2.196176901702147	0.9030043104288668	0.9381879814599727	0.6767631173280169	0.2191922294206113	-0.1624514081508646	0.653233939863877	0.653233941115084	0.1423988038819294	-0.3160844461221589	-0.03388523750125146	-0.2085393427152947	-0.06815698949818122	1.312669363358874	1.312669363080919	-0.459441110254042	-0.2500808191900081	0.5883183846196856	-0.1560081341928025	-0.8936785285856241	-0.2209985775571775	-0.5841211345457649	0.05740569652514495	-0.7104505724520267	1.134793397519527	2.822462244718416	6.972212101182511	6.972212104674561	1.718214888337065	-4.913419216454992	4.413276652447504	-1.455167790887642	-0.7119040885576083	9.447502984537113	9.447502973652352	-1.527359345994977	-4.98078303711106
15.87332577999653	-0.2025694966089766	-0.1379116978153003	-0.09225704926078414	2.19462718651363	0.8993126632771529	0.9385557821692012	0.6708049114808494	0.2262161031231985	-0.1436976967964796	0.6975972663443815	0.6975972676149043	0.1571262778356607	-0.3459736571685063	-0.003208543568932336	-0.2173857013124638	-0.07098159018125891	1.373846843992986	1.373846843706579	-0.4673333228122264	-0.2820794504265685	0.5347590937955805	0.008801955880000743	-0.6806302378522693	-0.2434694455674388	-0.5213671745744569	0.05174308968593172	-1.087636505442125	0.9620314142477902	2.788080934429655	6.308882854018789	6.308882855643938	2.685148911994628	-4.04589436662249	4.793926402977798	-1.188574904917557	-0.1330646810376747	8.895878032239919	8.895878039882039	-0.8412823953692794	-4.586415891038993
15.87999243999653	-0.1991973239973057	-0.1372812585753696	-0.09598771671213371	2.192938194397068	0.8960770291580029	0.9388624404825314	0.6621297939526741	0.2318858001785326	-0.1254697237086292	0.7370191758743524	0.737019177138027	0.1779196249715079	-0.3699940493248924	0.03006963184800615	-0.2242616058087857	-0.06994312745842192	1.431150311735968	1.431150311545192	-0.470727237225848	-0.3108447131294576	0.4764103033365294	0.1812755121645472	-0.4341708360365288	-0.2625427253257849	-0.4477004097574916	0.03915494785475117	-1.523940476032049	0.7293772775969694	2.667157410320132	5.495761005822729	5.49576100149105	3.5260930877052	-3.161974849341651	5.190493887954225	-0.865689495960731	0.4404227453074919	8.285401541141635	8.285401560779087	-0.1858092711657065	-4.017665802867654
15.88665909999653	-0.1962184920182123	-0.1354864032459744	-0.09800468420134954	2.191137336095103	0.893362223299037	0.9390644563807304	0.6503772560817681	0.2358244898175788	-0.1082913707004773	0.7706237185012872	0.7706237197069364	0.2037205627014175	-0.3882065170457188	0.06598335214010831	-0.2288290688927619	-0.0652075011858597	1.48418777122501	1.484187771179743	-0.4699688311250334	-0.3353611555247498	0.417599601908482	0.3574935877737637	-0.1691766113776381	-0.2767976085399912	-0.3655345138282152	0.02056183136418108	-2.009013518862047	0.4443705509691262	2.476231508989407	4.570065505203829	4.570065491759367	4.178618707384386	-2.310526372262047	5.580314644698998	-0.4982872443647002	0.9698288621488006	7.615960044621081	7.615960067054298	0.399110221355471	-3.319859155833606
15.89332575999653	-0.1936179002920656	-0.1325141861424136	-0.0982387038985833	2.189261197936829	0.8912165685325996	0.9391266616219318	0.6352604200464953	0.2377197451044593	-0.09256680417348059	0.7977895951217658	0.7977895962041965	0.2331208076633741	-0.400950999439884	0.104397565341718	-0.2308390963937862	-0.05718906356111558	1.532563516784222	1.532563516873208	-0.4656151395002156	-0.3549333573542939	0.3639523455296644	0.53396967729444	0.09793587719411526	-0.2849254677761447	-0.277367650228584	-0.002488975231124687	-2.531200166408984	0.1184781148156513	2.234241809564963	3.570692910812898	3.570692887378224	4.600740047608398	-1.526045980187227	5.935802105008174	-0.101084255661759	1.419797639324363	6.886767089596733	6.886767106209469	0.8903890897327614	-2.542792867241894
15.89999241999652	-0.19134067533424	-0.1283717919293089	-0.09673053649825039	2.187354316624502	0.8896719691152637	0.9390256963548185	0.6165737524420384	0.237342820117783	-0.07857286608054073	0.8181557456417418	0.8181557465390903	0.2645062820169004	-0.4087463756149308	0.1449863708628755	-0.2301465732871045	-0.04651925177265335	1.57587794828255	1.575877948446698	-0.4583196965602249	-0.3691991379543594	0.3215823224198821	0.7082618947990267	0.3508559546709811	-0.2858742709390785	-0.1856043490838777	-0.02804272912343026	-3.077730315567933	-0.235051190876279	1.960074921638753	2.536541996165273	2.53654196458708	4.772722751782188	-0.8277674505238053	6.227966862923065	0.3097583048004874	1.760976817392413	6.097652825925137	6.097652831317035	1.28193023541095	-1.735947738196002
15.90665907999652	-0.1892931953678617	-0.1230774739779896	-0.09362497177654851	2.185466994829889	0.8887449066594796	0.9387518979912824	0.594201328438855	0.2345528724920888	-0.06646610980060431	0.8316158888383537	0.8316158895083943	0.2962023086451868	-0.4121921442287632	0.1872376903621348	-0.2267140109640206	-0.03399888361908279	1.613735689236747	1.613735689395387	-0.4487269492703997	-0.3781151743499945	0.2957704728351143	0.8795705750748962	0.5749178187297157	-0.2789872159866863	-0.09245566768085464	-0.05398667724470306	-3.634439752292008	-0.6034413433592478	1.670678184527993	1.504877559734407	1.504877523860592	4.695638059020285	-0.221047210641471	6.430642689564305	0.7184042537256295	1.972205990117968	5.250221585098825	5.250221578243095	1.581906544448322	-0.9450440900496084
15.91332573999652	-0.1873527243264051	-0.1166486184498033	-0.0891556287098384	2.183652304702099	0.8884379168548584	0.9383095455976593	0.5681265252154635	0.2292877723102434	-0.05629996143878551	0.838302198766681	0.8383021991959042	0.3266002247662654	-0.4118858804965613	0.2304848593359578	-0.2206040542571219	-0.02053860597932039	1.64576022221048	1.645760222289575	-0.4373918241381446	-0.3819240975952541	0.2898256259596143	1.048939528009157	0.7583112828071954	-0.264101648804472	0.0001117067380323241	-0.07828843893640525	-4.185752606284698	-0.976059388394392	1.379903308448407	0.5096980437341425	0.5096980081129204	4.387418086824234	0.29939049534291	6.524120471807486	1.11085798478665	2.041835222956353	4.348609507165232	4.348609490862422	1.808140811017876	-0.2098720405064593
15.91999239999651	-0.1853831168846936	-0.1090903826165222	-0.08362272873770815	2.181962644387733	0.8887412892574285	0.9377156137627445	0.5384400983463832	0.2215466395022214	-0.04804774084755806	0.8385581507262467	0.8385581509305553	0.3542529574872175	-0.4083662485699514	0.273958489665883	-0.2119636461317765	-0.007093603703820743	1.671611874792351	1.671611874744692	-0.4247329063263202	-0.3811103642275478	0.3043459895398996	1.218894607240372	0.8929974698294516	-0.241582182661183	0.09038789687372115	-0.09920295957387024	-4.715101658511998	-1.345234693070577	1.097846773244051	-0.4198560752447962	-0.4198561064889855	3.877725795739693	0.7452101496946668	6.497634882258052	1.475946127466622	1.968164733501685	3.399739003155461	3.399738982323435	1.98283743649353	0.4369495250473407
15.92665905999651	-0.1832555222352066	-0.100388092462293	-0.07736579391491896	2.180446291038008	0.8896346388751373	0.9369972997374529	0.5053459588892787	0.2113695047967427	-0.04162886444656663	0.8329015087230671	0.8329015087423793	0.3779358750658137	-0.4020847442961797	0.3168524061566884	-0.2010033597604255	0.005402096163574683	1.691006110516241	1.691006110329148	-0.4110202194133137	-0.3763506873448872	0.3363871800473435	1.392720218858571	0.9752711468637618	-0.2122915128640401	0.1768654947588502	-0.1154282142952926	-5.205093477833858	-1.706303169662376	0.8305920380716794	-1.260821882800001	-1.260821906674136	3.20280484894785	1.130232963183105	6.351165685785518	1.805783660521296	1.759110701054456	2.413178167258875	2.413178147057728	2.127578104023216	0.9703471495307441
15.93332571999651	-0.180874802466588	-0.09050523384078085	-0.07073477640824276	2.179144299891486	0.8910879287481777	0.9361887882653086	0.4691668997224201	0.1988196658911562	-0.03693435201921474	0.821980071888837	0.8219800717781569	0.3966746651415232	-0.3934038137947664	0.3583988344850663	-0.1879757218097329	0.01609579521654003	1.703729805432897	1.703729805124789	-0.3963940162692319	-0.3684649498868541	0.3787086641652141	1.57350332109336	1.005619080784955	-0.1775189966516535	0.2581396864073622	-0.1261730170769023	-5.637486213528855	-2.056714893621163	0.5807337318076889	-1.997242549175341	-1.99724256418246	2.400768083399715	1.466824337369183	6.09625036042639	2.095570205609821	1.430834899591923	1.400680952420806	1.400680936820506	2.259103080139984	1.372316865695095
15.9399923799965	-0.178208219895961	-0.07938866495269151	-0.06406422980152979	2.178087980617469	0.8930618733258822	0.9353278559035887	0.4303485877756822	0.1839749690123869	-0.03384676245938448	0.8065238321761731	0.8065238319951762	0.4097439736165375	-0.3826156076511765	0.3979430505692139	-0.1731572746948482	0.0242641227180337	1.709653552147933	1.709653551756755	-0.3809073597281226	-0.3583713315529788	0.4199766239877012	1.762928165300518	0.9880698387448268	-0.1388799362138056	0.3328330755410992	-0.131146213448114	-5.993858826279136	-2.394351153405809	0.3483446850231722	-2.620403936984517	-2.620403943220462	1.507620591009429	1.763436889944388	5.754916422401411	2.342728342597179	1.005613995492884	0.3754786707336094	0.3754786614786035	2.386529531951336	1.631328604381925
15.9466590399965	-0.1753084541338334	-0.06698228052663237	-0.05765100019426381	2.177297134421069	0.895508039295318	0.9344526100562929	0.3894558013460078	0.1669304523262294	-0.03225591939741863	0.7872976638928508	0.7872976636953086	0.4166438354373517	-0.3699709921832894	0.4350045481953035	-0.1568370061954099	0.02934753201598228	1.708738929716685	1.708738929282932	-0.3645802879639031	-0.3470426558732275	0.4462332889743655	1.96000017899629	0.9299240712680943	-0.09818817783764022	0.399581660819912	-0.1305392939482416	-6.257228663547707	-2.715975114408432	0.1310733281876486	-3.128439869904984	-3.128439869037146	0.5547022083459441	2.024109345419467	5.356812473318122	2.545976356357361	0.5101095278074177	-0.6484885184652217	-0.6484885223638792	2.510743111043126	1.742677838635777
15.9533256999965	-0.1723236695773588	-0.05324837844975618	-0.05173177992664632	2.176779221963967	0.8983690637670976	0.9335982710639776	0.3471557821166469	0.1478089223374488	-0.03207772310220687	0.7650584524590226	0.7650584522827653	0.4170652380174499	-0.355704831393506	0.4693150259893891	-0.1393097881589007	0.0309759296050377	1.701040744628213	1.701040744178059	-0.347450665103854	-0.3354571954223829	0.443216790764714	2.160077011771822	0.841946992675452	-0.05730559803310382	0.4570839658528293	-0.1250252548355513	-6.414224063371491	-3.01640591820766	-0.07668188605669589	-3.525438548909523	-3.525438543984522	-0.4320128923719345	2.249963842500792	4.935223350655516	2.704760736486562	-0.02566987043037238	-1.65732091160377	-1.657320913229078	2.625886119088356	1.709618030373417
15.95999235999649	-0.1694909705353688	-0.03819349331614805	-0.04646076136338472	2.176529573948069	0.9015794027862981	0.9327940776848926	0.3041864962166601	0.1267754562715823	-0.03327664814887853	0.7405189779268901	0.7405189777869077	0.4108562605688645	-0.3400481564333486	0.500827575829092	-0.1208729131028278	0.02898669221674075	1.686704039265026	1.68670403880201	-0.3296108544853801	-0.324543191507575	0.3989194899581887	2.354539712994443	0.7379506428781375	-0.01798351122699764	0.504209133533443	-0.1157101572988496	-6.457359615719817	-3.288076249082448	-0.2837170726462566	-3.820361840550842	-3.820361835165971	-1.431168875711405	2.44134662281629	4.522506072556292	2.81883395202805	-0.5698265770363881	-2.637998860379467	-2.637998863079615	2.721926696823529	1.543877842212984
15.96665901999649	-0.1671137854707	-0.02189381337585023	-0.04189405623600267	2.176532613211092	0.9050669262297466	0.9320607989935648	0.2613109818085171	0.1040544764820843	-0.0358813662729241	0.7143190672997278	0.7143190671891504	0.3979958296502306	-0.3232282375025023	0.5296955254608249	-0.1018255237477912	0.02342948975976853	1.66595515203182	1.665955151541918	-0.3112262963745157	-0.3151242896799015	0.3057476927697094	2.531253664776552	0.6332080372081774	0.01827729655754236	0.5401349243511691	-0.1040015923118212	-6.386816975091891	-3.520723705201819	-0.5000305269053774	-4.025945759654864	-4.025945756528195	-2.424608049399205	2.599159029218959	4.145716151822391	2.887829666021247	-1.091035812448423	-3.579303165319131	-3.579303170745249	2.787434739925516	1.26489901772577
15.97332567999649	-0.165527646228859	-0.004514998807773276	-0.03798696306154894	2.176763874082067	0.9087553857536801	0.9314092859138807	0.2192633515558616	0.07994747725442068	-0.03998294380302344	0.6870044132502862	0.6870044131501205	0.3785776234156808	-0.3054636453620769	0.5562255651360114	-0.08247008587211455	0.01455332420433987	1.639086958628625	1.639086958095656	-0.2925356386331294	-0.3078725525138738	0.1617869403803299	2.675762526711742	0.5423467822732432	0.05032260685738629	0.5644628638845814	-0.09143974695919763	-6.211080834109691	-3.701590852812635	-0.7338502037413869	-4.157469073773699	-4.157469073755445	-3.395805266194245	2.72507513787109	3.823412185278672	2.911142578112356	-1.561230080846033	-4.472598866881746	-4.47259887396216	2.812330749152764	0.8984937875418331
15.97999233999649	-0.1650609982516624	0.01367785112541469	-0.03460459284104495	2.177192485077365	0.9125674599247882	0.9308401028902371	0.1786951878172936	0.05484659127096582	-0.04571408291673127	0.6590144327794586	0.659014432671047	0.3528041543029634	-0.2869602828413552	0.5808151742160718	-0.0631128083708645	0.002777643526754453	1.606439890647869	1.606439890071719	-0.2738329445418447	-0.3032700601706759	-0.02896073729938401	2.773006658482887	0.4775434745732453	0.07738794607833807	0.5772729364649194	-0.07954900934680854	-5.946197835289634	-3.816496749779996	-0.9891019436340988	-4.231268268359533	-4.23126827061386	-4.328409878341775	2.821129842377501	3.564166007797152	2.888375763117784	-1.957597453845428	-5.312302605965685	-5.312302611068148	2.79047004157021	0.4756774879354733
15.98665899999648	-0.165997301370354	0.03232265983411537	-0.03154253831703201	2.177783783663542	0.9164279452619426	0.930344013788974	0.140130674839378	0.02923822994217644	-0.05321507391886287	0.6306806994710509	0.6306806993446936	0.3209897831523356	-0.2679108158798638	0.6038854914041911	-0.0440594396793232	-0.01134679257027103	1.568380984958202	1.568380984368567	-0.2554341623473086	-0.3015773421999896	-0.2571443645745484	2.809283416386849	0.4473310274255448	0.09909732346330787	0.5791144288876111	-0.06973058994304246	-5.613983891313229	-3.851696678698507	-1.264008101723879	-4.263079469871508	-4.263079472678692	-5.205046938943111	2.889175102890863	3.366616585875759	2.820233085335737	-2.263668640499253	-6.096012089064011	-6.096012087135456	2.721713471781694	0.03175746392146897
15.99332565999648	-0.1685426231702928	0.05097587648715036	-0.02855342555844056	2.17850181371478	0.9202667142903111	0.9299030587493297	0.1039356542179083	0.003692705949778241	-0.06259457445741555	0.6022364497927252	0.6022364496513601	0.283570473667709	-0.2484973893432596	0.6258183781027506	-0.02560456031538037	-0.02718169402780394	1.525283061995069	1.525283061455127	-0.237632520171991	-0.3028077032938993	-0.5090924319286793	2.774150501469129	0.4560165195908574	0.1154314389986225	0.5709479584321338	-0.06319075917930275	-5.239725629123773	-3.796153322538875	-1.550926534407121	-4.26640935902395	-4.26640936038061	-6.006519337186803	2.930460045012148	3.220595318632713	2.709516984941471	-2.469661338708783	-6.824345842070897	-6.824345828457262	2.613130524653662	-0.394572164292453
15.99999231999648	-0.172800961110404	0.06913970235664456	-0.02537553807193011	2.179311540214729	0.9240211643175316	0.9294920258571653	0.07030250966220451	-0.02116134950064933	-0.07389297101846046	0.573836317772858	0.5738363176327421	0.2411170768570218	-0.2288965858197272	0.6469034424507137	-0.008014856618315528	-0.04404547004927884	1.477505848688297	1.47750584828536	-0.2206494615969814	-0.3067084094325219	-0.7680810966353636	2.661996896148228	0.5036237635422836	0.1266761434030028	0.5540524203854955	-0.06089190025730021	-4.849778098448572	-3.643745934584661	-1.837233656585934	-4.251122323162241	-4.251122321134315	-6.711574192307335	2.945372789290902	3.108941329029373	2.561881850556023	-2.572307033791566	-7.500520820505011	-7.500520792918554	2.479106360848714	-0.7624365934270705
16.00665897999647	-0.1787585587634061	0.08629801927173791	-0.02176040725407834	2.180180677870637	0.92763795416246	0.9290802091004546	0.03925077773824848	-0.04467577945682413	-0.08705408116399825	0.5455843910007494	0.5455843908896452	0.1943479170199204	-0.2092856395243542	0.6672988017255861	0.00849097279265433	-0.0612551670059996	1.425380834418856	1.425380834243712	-0.2045888189691773	-0.3127517554397128	-1.01575649882172	2.473047740688869	0.5862385814633504	0.1333593696846524	0.5299055731798716	-0.06351368035032623	-4.469273592111433	-3.39495252348544	-2.106874091317352	-4.222372893657182	-4.222372886812799	-7.297357520268214	2.93332079199166	3.009778153779696	2.386047765348198	-2.574368916969934	-8.129647723379231	-8.129647683175198	2.340262308571999	-1.030578567582414
16.01332563999647	-0.1862782100788321	0.1019566248523658	-0.01749712726058627	2.181081075075253	0.9310738682924563	0.9286334177011106	0.01064247878180301	-0.06623009671954772	-0.1019082675280365	0.5175680667663675	0.5175680667184528	0.1441360259856524	-0.1898490528000281	0.6870082296185944	0.02376134554418826	-0.07816462986828834	1.369201913787338	1.369201913909491	-0.1894019239116829	-0.3201404885024395	-1.233721368054657	2.213628931884209	0.6966250082265693	0.1361809783635059	0.5000415866115416	-0.07141545209436385	-4.119984753269	-3.057639553494393	-2.342169767596005	-4.179933825806796	-4.179933813735734	-7.74055261923449	2.892717628512981	2.899149693381515	2.193275080920535	-2.48401145653062	-8.717689908190497	-8.717689860251772	2.221288248585052	-1.159862592343178
16.01999229999647	-0.1951050407053483	0.1156824987672875	-0.0124320005955447	2.181989601828605	0.9342956479068263	0.9281162412466704	-0.0157883691689065	-0.08528034140368562	-0.1181674437966704	0.4898951403780337	0.4898951404256075	0.09150680964468695	-0.1707852650363783	0.7058772139854117	0.03772477081312048	-0.09419820960189522	1.309224212417761	1.309224212866174	-0.1748700379685224	-0.3278319126052372	-1.405415979768766	1.895607169621365	0.824990024350989	0.1359334225595981	0.4658834711824011	-0.08459725364752028	-3.818169534146767	-2.646751840280171	-2.525522030959294	-4.117890664811607	-4.117890648543503	-8.019088184610103	2.820958839717076	2.754071450960418	1.996050667839833	-2.314100872635326	-9.27004873422435	-9.270048685510526	2.147972985524429	-1.116333062066565
16.02665895999646	-0.2048858591700833	0.1271366817089203	-0.006482911854082641	2.18288847377626	0.9372786495359207	0.9274945697189265	-0.04039159798255248	-0.1014021587074768	-0.1354302841274143	0.462731741132006	0.4627317412949805	0.03762285736655025	-0.1523135962678147	0.7236105783050396	0.05039180986626789	-0.1088796075179301	1.245673460375019	1.245673461131118	-0.1606082379454181	-0.334583544136519	-1.51825894017276	1.535060543865845	0.9597856773283513	0.1334127918086646	0.4285645822532153	-0.1026637124933396	-3.572385255023339	-2.182916298667763	-2.64074658314123	-4.024705802749674	-4.024705784988272	-8.114258473430009	2.714390318595907	2.555879892795413	1.806151621497244	-2.081440574890557	-9.78983863446183	-9.789838591910037	2.143794751675015	-0.8745937181489406
16.03332561999646	-0.2152019083867777	0.136096577834376	0.0003517187599955892	2.183764986699713	0.9400044357135209	0.9267383080361946	-0.06354407879034646	-0.1143219065746718	-0.1531952352871862	0.436338123695988	0.4363381239709785	-0.01624621625921306	-0.1346807489917047	0.7398112368962021	0.06184358890817858	-0.1218552109163689	1.178767207821745	1.178767208826587	-0.1460927411067798	-0.3390222509373679	-1.565348114605017	1.150524240640268	1.088551237157729	0.1293348400149643	0.3888012383881999	-0.1248052620136472	-3.382094920179617	-1.690350135222972	-2.674137855424101	-3.883848830548001	-3.883848815489664	-8.013055284768452	2.568518523085124	2.293007271012323	1.632698139932906	-1.805861790050777	-10.27612567457138	-10.27612564305444	2.226325608969848	-0.4214921680626537
16.03999227999646	-0.225608402291134	0.1424669088648037	0.007990246502957592	2.184610781172509	0.9424579311593377	0.9258240905674311	-0.08559008794993941	-0.123933528944217	-0.1708810762178676	0.4110974904771026	0.4110974908303603	-0.06876949577349294	-0.118164701631672	0.7540318143601616	0.07221017916694641	-0.132910477913834	1.108746654023566	1.108746655196491	-0.1307124244286699	-0.3397391621543354	-1.545654121219143	0.7614480072903815	1.198987971694959	0.1242820042733284	0.3469005902555966	-0.1498209864969682	-3.238390155283297	-1.194807412021653	-2.615755833917774	-3.675295177019111	-3.675295169323902	-7.710461357595356	2.37856817029789	1.961895771312252	1.481227056305372	-1.509025750888063	-10.72257865249104	-10.72257863354471	2.403605606621632	0.2398626169041522
16.04665893999645	-0.2356698093977685	0.1462821892589919	0.01627330662833292	2.185420889860865	0.9446251191899693	0.9247376652736743	-0.1067941053073911	-0.1303032360658808	-0.1878574395607095	0.3875318791500007	0.3875318795200594	-0.1186149043879791	-0.1030742056613934	0.7658254818932317	0.08164767070360167	-0.1419772405492168	1.035915303168263	1.035915304429444	-0.1138433701314197	-0.3354108587233126	-1.462704630151092	0.3871800825801744	1.280311622148368	0.1186894251704989	0.3029025397164031	-0.1761939582069165	-3.126789168700747	-0.7219732819391579	-2.461072317717458	-3.377850907648472	-3.377850910649668	-7.211437023778436	2.140209128063654	1.566025860465766	1.354167726823623	-1.212913759569423	-11.11676879034807	-11.11676878235308	2.670999749081568	1.086435712999495
16.05332559999645	-0.2449853669702008	0.1477030766012259	0.02497823155562088	2.186192756505393	0.9464918065648262	0.9234756518903253	-0.1273137311392924	-0.133664063421068	-0.2034856140971095	0.3663012591927005	0.3663012595050653	-0.1645208258956979	-0.08974316562248277	0.7747887215231507	0.09032061733252415	-0.1491304043405671	0.9606806096419072	0.9606806109287047	-0.09493995596377884	-0.3249397932064475	-1.323269712415261	0.04603224209956709	1.324483426662839	0.1128446843340192	0.2567336402596724	-0.2021985623628725	-3.030066498217638	-0.2959294375616183	-2.212244413842431	-2.971753240675105	-2.971753254750589	-6.53233468991869	1.850373450567295	1.114816164285833	1.251747669551448	-0.9381965433137083	-11.43992230024954	-11.4399223000013	3.009560825378387	2.073417955434595
16.05999225999645	-0.2532093881492673	0.147005358027537	0.03384008146550622	2.186925227406942	0.9480431450029596	0.9220465460889495	-0.1471866639037791	-0.134399189923575	-0.217164480110628	0.348185880906798	0.3481858810960425	-0.2053745593586589	-0.0785190856801809	0.7806004103502924	0.09838898522522933	-0.1545738717610458	0.8835962271685519	0.8835962284394689	-0.0736294138737611	-0.307597679864431	-1.137145368939605	-0.2460055540931992	1.326937794268477	0.1068789570134783	0.2082749383346017	-0.2260178968476018	-2.929585369667675	0.06268570717176151	-1.878342956823575	-2.441051216122449	-2.44105123822088	-5.701497134319943	1.508219717990801	0.6236456947006273	1.1723857346649	-0.7026404518303573	-11.66700961932759	-11.6670096239734	3.386695272629427	3.135270207027035
16.06665891999645	-0.2600723132362872	0.1445599261276154	0.04257597724314012	2.187617482781248	0.9492633807456657	0.9204709031055629	-0.1663232466667076	-0.1330128506427141	-0.2283749136783965	0.3340536954496264	0.334053695479655	-0.2402914792025479	-0.06974489541305161	0.7830628341085685	0.1059966453504717	-0.1586159486182592	0.8054015908488399	0.8054015920767211	-0.04979399540792689	-0.2831519296396515	-0.9173761230886218	-0.476578021789864	1.286888065960517	0.1007622325984522	0.1573762497695025	-0.2458743462910262	-2.805904969767603	0.3384444992709679	-1.474760857705796	-1.77572169327649	-1.775721717928833	-4.758840188962811	1.116109096430149	0.1141377761437208	1.112896204343744	-0.5195437650261673	-11.76754816191616	-11.76754817008705	3.75916534585963	4.189715270929952
16.07332557999644	-0.2654012926726655	0.1408055859888676	0.05091065884024	2.188268017988841	0.9501357404317766	0.9187805937770516	-0.184504826619122	-0.1300915476536477	-0.2367190169501172	0.3248143937367859	0.3248143936105468	-0.2686874855447397	-0.06373509816703098	0.782141172246023	0.1132625493194292	-0.1616347160784047	0.7270523972044411	0.7270523983664163	-0.02362652396248157	-0.2519565157852364	-0.6797541994326366	-0.6377319262669596	1.207399924551576	0.09432555739657815	0.1038915968982588	-0.2601757364881248	-2.640076559870397	0.5221921938555064	-1.02230868958848	-0.973551573695204	-0.9735515950211532	-3.754221764312701	0.6802799456955715	-0.3867577139425431	1.069143442039433	-0.3963430171684846	-11.70758098013856	-11.70758099179935	4.077976858620856	5.14437669245967
16.07999223999644	-0.2691338316183464	0.1362192201117809	0.05860166146380994	2.188873879110536	0.9506426963698807	0.9170170835890912	-0.2013942541765851	-0.1262613575081127	-0.2419526956597023	0.3213622603384784	0.3213622600939785	-0.2903359953799106	-0.060749177512647	0.777991313621342	0.1202777954850062	-0.1640358382717442	0.649733626701602	0.6497336277731249	0.004351116715396122	-0.2149904595236569	-0.441259348458642	-0.7259460829936792	1.09517951942463	0.08731398939580723	0.04775583648093545	-0.2676580194773717	-2.415943419342186	0.611151377561764	-0.5461091485875794	-0.04155437429412573	-0.04155438790854407	-2.744414192086811	0.2109649857990432	-0.8493246401998816	1.037092590146425	-0.3338167350722523	-11.45291265455292	-11.45291267007206	4.294479270108385	5.905785404206847
16.08665889999644	-0.2713184431036522	0.1312878089968484	0.06546178950787034	2.189430324336507	0.9507668135680241	0.9152288334611511	-0.2165636038805313	-0.1221474559932411	-0.2440098096770803	0.3245120977903402	0.3245120974868049	-0.3054000645745882	-0.06096640832950558	0.7709663031528671	0.1271098408579021	-0.1662080546553662	0.5748475439599301	0.5748475449150414	0.03331176028689223	-0.1738304399388473	-0.2178158328373901	-0.7415918232649704	0.9599665612673614	0.0794589516116769	-0.01092358307968387	-0.2675038463238745	-2.122879934471933	0.608195483066531	-0.07414736893127578	1.003419224553702	1.003419220549031	-1.78870310971986	-0.2781493732661376	-1.244807423334308	1.013834816984491	-0.3262063592641538	-10.97330704765683	-10.97330706700126	4.366779883653275	6.389917888651507
16.09332555999643	-0.2720998376226026	0.1264849853323751	0.07137626210097034	2.1899309862635	0.9504921496436501	0.9134680102374504	-0.229539332841692	-0.1183403110506925	-0.2430151284226485	0.3349344770983238	0.3349344767986931	-0.3144315203357152	-0.06446629834187	0.7615964554771665	0.1338124880098941	-0.1684823388742355	0.503972002936571	0.5039720037516383	0.06218771808497448	-0.1305525693921834	-0.02201096108609538	-0.6881809889928309	0.8135594051534577	0.07055290468688588	-0.07179896681796738	-0.259431125833534	-1.758142445753332	0.5206477139102239	0.3646500144111091	2.135116505915608	2.135116510747823	-0.943480931925244	-0.7710467333582736	-1.549420037379914	0.9982513611848499	-0.3621416520270943	-10.24708579298003	-10.24708581550141	4.265455541794512	6.532578371872207
