Inverse Dynamics Generalized Forces
inDegrees=no
nColumns=21
nRows=51
DataType=double
version=3
OpenSimVersion=4.5.2-2025-05-03-6a4c6ec41
endheader
time	pelvis_tilt_moment	pelvis_list_moment	pelvis_rotation_moment	pelvis_tx_force	pelvis_ty_force	pelvis_tz_force	hip_flexion_r_moment	hip_adduction_r_moment	hip_rotation_r_moment	hip_flexion_l_moment	hip_adduction_l_moment	hip_rotation_l_moment	knee_angle_r_moment	knee_angle_r_beta_force	knee_angle_l_moment	knee_angle_l_beta_force	ankle_angle_r_moment	ankle_angle_l_moment	subtalar_angle_r_moment	subtalar_angle_l_moment
13.84172792	8.39213211443551	-22.13433925963388	0.07526766652970679	-43.12541650915291	-34.25342506351862	32.29095278776226	7.634170038821685	-28.09353550610293	9.658580007761225	2.339848442048995	10.24746508954257	5.683939548905531	-28.01377748974677	-0.1169081406784795	0.3082883957415521	0.05112439052612206	-67.66870815891608	2.803550371346636	7.480949641985434	-1.543351683156127
13.85679457	-5.91377521600459	-13.43711153667509	3.268690357120111	-8.399955402579723	21.6850818335397	16.71906952012358	22.50051598015416	1.739916127409964	6.871570795997096	-30.00930008823276	15.31323681455323	11.65898066559944	2.68842487154821	-0.1096066111136447	-1.542911930620702	0.07618281629770127	-34.87952671100014	2.255034834813779	1.497320470418011	-1.63885047818104
13.87186122	-9.329521129363929	-2.766364597165295	1.337538151118137	9.650096095146141	30.89110411893487	1.653874755066243	41.65877854113005	26.99719422604006	3.749930253736679	-57.09239255239912	20.27132981801538	16.43858145162905	15.91635788181135	-0.09150237385481851	2.75398047045525	0.09036950708752667	-10.06866394415336	1.625088863494536	-1.892957124028196	-1.629606193369146
13.88692787	-5.311467534435275	7.254769944755904	-3.486845669919407	12.07533069718963	13.48157663211661	-9.400155896932338	60.47838052151264	42.93124779674841	0.7041934587416567	-75.70806412235929	23.83699348382298	19.19824494414757	15.14439216541827	-0.06694070371083732	13.77919977955241	0.08837145633261766	3.74061534774288	0.8552955121529147	-2.547780005748534	-1.408136672054453
13.90199452	0.7935751407931647	12.42970982466418	-6.838556710877962	6.659326107727197	-5.362695438974805	-13.22794682256302	75.55405662316234	46.67535378625545	-1.496623534485895	-86.01103262581319	25.61173269777414	19.47038142608802	7.133285133244569	-0.04393995575861247	29.9375327314341	0.06975356609909329	7.635832980999102	-0.07942029483403748	-1.585992092449838	-0.9108784006255946
13.91706117	4.785288934605884	10.5022291838121	-5.804636646981727	1.703357749482579	-14.71259984189979	-9.637737434127805	86.81839267504836	40.7402355105318	-2.518636388988667	-91.92458550780782	27.13042107365277	17.28080203820291	-2.512839954292513	-0.02899500902831868	48.29552051616607	0.04069119855567926	6.083885871796207	-0.9831822501261418	-0.5210770212773317	-0.2777247336554965
13.93212782	4.282558610391747	3.393737855378222	-1.214379712807951	-0.4004215158474198	-17.12750472112304	-1.682067634554864	95.36555094499607	32.57381955623082	-2.89765133034871	-97.95481325470978	31.11521423305076	13.00001057315085	-10.5101017930264	-0.02387695605917745	65.60018892060448	0.01128843490235014	3.576211915043685	-1.280811039415228	-0.1692963596698619	0.04243685072881315
13.94719447	-0.3981573271338826	-4.27940198021693	3.601769900686098	-2.512127935266997	-15.93427871543616	6.508094168699131	101.3126312726321	29.52641380825682	-3.440341875157502	-105.0803359271321	38.9796501174305	7.285220222606757	-15.57970183150394	-0.02603731150097507	78.46122328894694	-0.009860676349693167	2.366889430772847	-0.2758171345180818	-0.4546505605196699	-0.5109146158112405
13.96226112	-5.169351873590936	-8.514062268106978	5.784784778239753	-5.860195329740455	-8.740970166774588	11.57308066114303	104.1051280264798	33.57542696669075	-4.349204862033666	-109.5597697936813	48.27952030659409	1.240977129087624	-18.11344695607255	-0.03137703031020793	82.99780040880214	-0.0199914599706196	2.613490621850969	1.914503500004847	-0.9484412063681954	-1.956883585146412
13.97732777	-4.428340734662759	-7.954821377288106	4.646460406573218	-6.367431611167683	5.800990517765293	11.26679998831098	103.8137465344666	40.3853888463106	-5.088698070735643	-106.8816127294561	52.45219595468006	-3.418543487797441	-19.57481273048789	-0.03693435481947514	75.51182154466849	-0.02227076713177559	3.594230807233858	3.14763408087871	-1.352758527289006	-2.945539145151557
13.99239442	3.008777755225962	-3.850241227393188	1.409383317086344	-0.1386514846653293	19.84501534884807	4.991990332485159	101.4743624066051	42.81935607041281	-4.998756554897292	-98.07015317539859	43.77275676598433	-4.57889376551797	-21.45023967966605	-0.04176511644013078	54.7392641699801	-0.02203822621058231	4.633005589428585	-1.005972011261807	-1.592193966940683	-0.5673791999054707
14.00746107	10.98446097428565	1.099543585226746	-1.934058932202161	9.209043319646453	21.36776321045347	-4.576014285414589	98.17161415829435	35.59922133233499	-3.90063013158711	-90.67775672007392	17.99283256187257	-0.6327409716161547	-24.28533298742364	-0.04591171601952752	23.26446214898185	-0.02271842101428195	5.373853848833614	-15.41928005353074	-1.68214421992339	8.46700867534614
14.02252772	11.70322574208937	4.160510717419122	-3.819214983239491	13.06770225663649	8.028072295880055	-11.36996080646345	93.72985796697242	18.19863011482565	-2.152173473424454	-90.80048820305234	-22.36710145300787	8.231176008437146	-27.3799796528503	-0.04864476721265631	-14.53814938219502	-0.02477806240400374	5.677970867824436	-41.98495592666885	-1.623815304385897	25.68507055921609
14.03759437	4.239614734915884	3.93838472903302	-3.868891160027259	7.956128181061038	-8.714267527140903	-9.854973009803434	86.2070893809734	-4.923773664174083	-0.2758229438207225	-94.57675724733726	-68.40591615890102	19.55389809083947	-29.26957262636395	-0.04757405283644603	-55.79370384118843	-0.02791103928006161	5.491133599725923	-77.20638721774617	-1.411082518834417	49.3586290015236
14.05266102	-4.838031462748313	1.152615941605175	-2.718863912253756	-0.7688597074847082	-15.25713967599411	-0.3139579328283624	73.12927279751759	-26.35498409754113	1.381608380452477	-90.55205875762292	-108.6378320195516	29.68839368697821	-28.69555886433603	-0.03968027943497717	-98.58192635048965	-0.03369353359150601	4.832100403690487	-113.2508269829613	-1.086157605933181	74.88863982290327
14.06772766999999	-8.791620660401094	-2.023963574618457	-1.165348236776545	-5.91771789479967	-8.798713497576662	10.50863040932994	54.02885569927485	-39.05205437229118	2.678012403574584	-71.0138841444052	-133.5600516765723	35.55653508151676	-25.44320747440657	-0.02381113754704979	-137.7309669147325	-0.04582437005532225	3.850666199239667	-141.942234836556	-0.7559509917019328	96.68790136276208
14.08279431999999	-6.50195186550162	-3.8202301165005	0.4074579813031025	-5.728086586519529	2.314913939277011	15.02168909987039	32.08603897118326	-39.5236280760048	3.500503956104005	-39.605459488272	-138.5730790323421	35.74820393245936	-20.40529001806886	-0.002577395619881628	-163.106823499171	-0.06738803149337237	2.825863908047525	-158.4219809803426	-0.5414890459649088	110.254369021391
14.09786096999999	-1.526899583047586	-4.129375016439864	1.87003606974216	-3.231701975455993	8.268897144037492	11.16882796892606	12.91426462785027	-29.35241404986719	3.715074182162273	-8.198486052369958	-124.87171640055	30.7097520801681	-14.86391402013698	0.01838239727556539	-164.2272696788437	-0.09724931917003003	2.04803496981447	-161.8203127964861	-0.5044058887371833	113.4163836859754
14.11292761999999	2.23880489811081	-3.821535905944164	2.884208816894354	-1.367003268269048	5.947491708216463	3.236024123129524	1.183842940793577	-14.23336012383115	3.383426927287416	12.18299106343146	-98.82747870538257	22.41189384750386	-9.769458594773068	0.03361622860185656	-137.7478896734427	-0.1287211082181245	1.66638731297224	-153.4173149988304	-0.6162240940565323	106.4396006604485
14.12799426999999	3.261888827023522	-3.115800483532743	2.770769081850811	-0.6832878614317625	-0.8286014172383387	-3.034289433649929	-2.158327066023609	-0.9488360499834475	2.939906301840854	17.81037327782289	-69.63847648700572	13.58960806772608	-5.675529215521316	0.04112747830629519	-91.12037236310678	-0.1521181990978019	1.632682880896247	-134.8657372947721	-0.7908122995867044	91.34917723299054
14.14306091999999	2.070471869098868	-1.26773720948608	1.015158382608183	-0.5185177214826607	-6.272786433807786	-5.350364800058865	-0.1539156541290274	6.116950543747091	2.911072421800324	12.45303400194364	-45.16271715867635	6.612392390733489	-3.021748097668755	0.04329281796749254	-39.28735945802334	-0.1597257813377383	1.78027851300049	-108.1700910408238	-0.9406844584322642	71.14454938591163
14.15812756999999	-0.1840445454785382	1.937252260148141	-1.884277628750755	-0.3562841509213925	-6.954973875296809	-5.100180712883515	1.997297655219571	6.949090346069797	3.294373590543337	3.75588038027442	-27.96136402919574	2.549324379298251	-1.976937316009118	0.04501296715324275	2.799456457826241	-0.1497335339686327	1.956606602231073	-76.71506865138838	-1.011382504930619	49.28009690362925
14.17319421999999	-2.42477135482088	4.976250717793644	-4.120870781681355	0.0004306128296278078	-3.073117331887988	-4.091195431927702	-0.7323507938531177	5.222828465926674	3.290744135655054	-0.449497975197386	-14.87662461288726	1.074062595188621	-1.763286306115728	0.05045151576755598	26.48094478503655	-0.1265917226647582	2.096878843929349	-45.4908727441146	-0.9881674515053631	29.21552063159465
14.18826086999999	-3.695810699327132	5.569714253525767	-3.599870018301225	0.2450663097964197	2.385316099043004	-2.42309695926072	-11.47121928409022	5.434628360486104	1.889944889717375	5.366922839366193	-1.061149347836458	1.129230300608129	-0.3294242092776161	0.06020158146573967	31.28288110592112	-0.09803668821557891	2.185903249825688	-19.72067414011856	-0.890907212254004	13.72456800045781
14.20332751999999	-3.432009024444674	2.923222536342428	0.1561886903776251	-0.5251823960752025	5.881065474080038	0.4553023623788081	-30.6083950406662	9.632098855922548	-1.072825577487651	22.84257145622995	14.87547533847594	1.630847069280077	4.857940391709538	0.07042330256944554	22.67765122652326	-0.07123162625100146	2.137794990448803	-2.746787288875523	-0.7561196133885398	4.095095469985801
14.21839416999999	-1.788626820305957	-1.408333320911703	4.895479444184547	-2.515991528802568	5.884880709070622	3.86535378939586	-55.86669170045624	15.87335219716095	-4.391787716377281	49.41842590111958	29.21552506416669	1.762018106180181	15.26699578313218	0.07475589796890107	7.967554393970667	-0.0504801357857952	1.702081841795733	5.317689201389213	-0.5998244770921136	-0.2268621101222324
14.23346081999999	0.4097112029156698	-5.028479292025346	6.818325564467613	-4.037890380996351	2.856719898293699	6.084327186041581	-83.25217451752295	19.73424877327933	-6.158778058897785	79.64718411711735	36.35988154265227	1.073893869297097	30.28060139688917	0.06830663316722177	-7.056988995251117	-0.03716978879559278	0.5620403203020297	7.129530330817628	-0.3960186137059584	-1.133731573271737
14.24852746999999	1.901707720730759	-6.61617306478138	3.63640019360714	-3.042287154864129	-3.178400443550192	6.028098228102022	-108.4466738685214	18.27795515261764	-5.230939357653094	107.2320224223188	33.85536435751121	-0.3462385609823077	47.61224083159221	0.05120434121587413	-19.15688150812063	-0.03082686644344752	-1.265204593767653	6.157577584039104	-0.1423958960479211	-0.7385398584149219
14.26359411999999	1.5506346347265	-5.94686594393166	-3.034532528384953	0.1119025647728273	-12.10558451402234	3.73511448100039	-127.8409084914207	13.5674083158822	-2.268786194428141	126.9599913382494	24.66447130085392	-1.822264885819336	64.6654299452122	0.02890208855349564	-27.08191578313911	-0.02995037628149493	-2.907566224086128	4.83557112334025	-0.02106097431028553	-0.4238796818549025
14.27866076999999	-0.5300024274562786	-2.725645548783432	-8.487354453026509	2.456105003257162	-19.10404036101731	-0.6380299715273918	-138.8858968318706	12.01098079211394	0.6770305260970959	136.3600479780782	14.90018399299753	-2.37025874350751	79.35008036890903	0.008721253394154693	-31.00177873538824	-0.03240464212686275	-2.621431377824863	4.09041156922722	-0.4788768404502145	-0.6237944049289892
14.29372741999999	-2.435195120745899	3.110431035277871	-8.692803396849259	1.198729545355791	-14.31842920385367	-6.802527839522572	-140.4911139231471	18.62432387192982	1.862566635211106	136.5433683412545	9.427210262600914	-1.207740454485902	89.46381460454194	-0.004666135864488331	-32.30467810116167	-0.03599240858836774	0.9681950915773712	3.968287863822747	-1.91513463836779	-1.200987244749163
14.30879406999999	-1.969211275061947	9.491663859760299	-3.710426196167424	-3.389296022457826	6.945773209859547	-12.58455544500631	-134.1170836914939	30.50048781880815	1.502414611878769	131.2982086003015	9.156582551469432	1.711136078581922	91.45345025139463	-0.01117097863204614	-33.04565302593975	-0.03931553945131076	6.466175627812277	4.334406392914425	-3.875551104629144	-1.896223177873213
14.32386071999999	0.8363474432985744	11.97347026193723	2.502708420504046	-7.670069798242552	33.03130329414568	-13.4944015227435	-124.2280076163606	36.23687893601127	1.903812975693737	124.465183405407	11.64483387383084	5.324165846620565	80.27018559420708	-0.01346534090008222	-34.73356620167381	-0.04202510187207333	8.132743104770078	5.092506870168669	-4.351060807439654	-2.516717575275599
14.33892736999999	3.434520964663799	7.105791051240304	5.625574677066862	-7.532043280323244	41.66316615270858	-6.16345254474558	-115.6822445288952	23.64994986286108	5.641004998786723	117.3001522509801	13.5772402380253	7.594853723814113	51.05565142661013	-0.01376175042051696	-37.18858989928908	-0.04391813672251589	-1.886129457686524	6.055622402150644	-0.3282186364743014	-2.905228343563341
14.35399401999999	3.646182453236522	-3.476456279911595	4.379101936755553	-2.25613022469837	22.40759873821093	7.047788684518008	-109.1265299147615	-10.14636601953731	13.07178997308692	108.0249407602348	12.76414523869299	6.439069355275128	2.038441609041751	-0.01251019190115562	-38.53423083758089	-0.04388472862374085	-27.69197365068935	6.846768851435311	10.15143503886053	-2.901662902226085
14.36906066999999	2.041030823150455	-13.1100434509663	0.864537160168465	4.586120386152757	-10.09592795229383	18.09947511479428	-99.91796117178737	-55.59885452295467	21.58299201912039	94.02498547049333	8.599114871094908	1.120996211805692	-62.53977368274747	-0.009857990109044772	-36.54004547735799	-0.04009160018293257	-65.48741161117358	7.030219588080324	26.08214724130765	-2.412946249481395
14.38412731999999	0.6796249073297731	-15.20346181069722	-1.878177350789582	8.347482317713625	-30.16024372711607	19.38673748551338	-83.02317169432037	-97.50958963663194	27.52952659333585	74.73131207281499	1.567788111265688	-6.870712385285571	-131.4755629154465	-0.007673471544639326	-30.31596491258782	-0.03129492474484524	-105.7008163209588	6.375942528435306	43.61936469243575	-1.525244506036482
14.39919396999999	0.4155671786218705	-8.5527674523171	-2.467433756026991	7.069132412214682	-25.47723370870498	9.962188894772948	-58.49450390680682	-125.0070030207547	28.8954882548096	52.69630008870638	-7.243152450380331	-14.30369351188529	-189.651782280294	-0.009605662937802462	-21.03424014606447	-0.01791313834531454	-138.9528623830711	5.026568259603544	58.06966265996288	-0.5235991148312733
14.41426061999999	0.4725075035516878	2.430686221405758	-1.724013710879861	2.257603067438681	-4.535455262965497	-4.488708105466385	-31.52168849806453	-135.8236386151289	26.07412884094633	32.16296209025964	-16.37833576581257	-17.85688391980198	-224.0637503204409	-0.01907324666809487	-11.22931654396789	-0.001933267619694707	-160.1345316207361	3.432714822376485	66.06630888506615	0.2302321353617734
14.42932726999999	0.1137303970799587	12.01736960915963	-1.199246449581875	-2.950339999786131	15.8709003217318	-16.83484275635875	-8.07386985141928	-133.3944762175593	20.64958519091366	16.51629002571255	-24.25000887164581	-15.84858548801068	-228.7610685478957	-0.03712979240350327	-3.383646119154618	0.01413171763937759	-168.3932145353073	2.110803672218868	66.65333933216472	0.4825938652074203
14.44439391999999	-0.3644944617116464	16.62222772645144	-1.422030862186165	-5.969942429675317	25.02522086634493	-22.47594884794166	8.707614162144669	-122.2887266055866	14.10903124315932	6.528367433490298	-29.45185134308846	-8.990780601372903	-205.783256055722	-0.06164157653449936	1.123158997720729	0.02849229481857157	-164.8900808391884	1.389948288354552	61.03402296575949	0.2107103719410562
14.45946056999998	-0.4320065474112121	14.50393842675554	-1.395110906997707	-6.005298148591095	21.05668569424787	-19.06060399311065	18.67984646436953	-106.400854154148	7.672821960203223	0.3466398263923658	-30.9123793262128	0.06382695819767159	-162.7883999202771	-0.08761299170795779	2.204198290973495	0.0408550196837032	-150.9549110121132	1.292840927432817	51.46646668707172	-0.3842978714463235
14.47452721999998	-0.3790065778173959	4.523709265368803	0.3587372507748626	-4.093896754604346	5.133015502389009	-5.377636377969568	22.93854094011998	-88.95434507377072	2.578528748746121	-5.020065376046245	-27.89124201697661	7.958060292290039	-109.9950466733352	-0.1082449564380382	0.6879554034746499	0.0522294043939255	-127.8366974726395	1.593350944753218	40.11209578260932	-0.9957477375072016
14.48959386999998	-0.883264570824313	-12.21519166871225	3.99449656098723	-2.026579312786015	-21.26925295248131	16.47240137175052	22.82198913494217	-71.60576105809407	-0.2248469436133335	-11.61176238370017	-20.32833276585943	12.14190561380429	-58.00417654207698	-0.1170479726307392	-2.09985038391744	0.06365774441827028	-97.61921695139193	1.993799615624769	28.50169428805647	-1.374268124886867
14.50466051999998	-1.691243517536004	-28.9826738759678	7.317440167415084	-0.8255941428977983	-50.64241439691765	37.372212889542	20.17111615151245	-53.02342295972199	-0.828738945398601	-18.94487472745033	-9.877381883467207	12.18974100335245	-15.96030637171857	-0.1109188561035059	-4.642254810551141	0.07446768473994826	-64.16236304445455	2.313111770574343	17.73412499966746	-1.459141203905736
14.51972716999998	-1.673498612520576	-33.56643895266565	6.87321580953709	-0.1492490019198587	-62.69385558069916	42.07422362371079	17.16415244464528	-29.72203051614801	-0.5646411190289859	-24.03975219538198	-0.8400977900666065	10.24054014198514	10.81198497319014	-0.09241440209130711	-5.630828082067271	0.08137453985413282	-33.02682548207496	2.578517705552672	8.890726113830969	-1.409127314193858
14.53479381999998	-0.5581980436437606	-14.45536847065278	0.6322208110194527	0.9457997130484479	-28.6893933226422	17.04507068142118	15.14974136426232	0.4376742291863405	-1.219137013926013	-23.39790640464503	0.6096491394972663	9.939092506811511	22.56237243981345	-0.06895212987972098	-4.491151768828026	0.07965666204980455	-9.834995916372401	2.967284890552835	2.998518687571417	-1.500635454189421
14.54986046999998	0.2792784067109577	31.68832173134188	-10.37003337782153	3.081936797078197	71.46094365589407	-40.84864672058431	14.15194890485236	35.75179679792146	-3.935647537567645	-15.62879992487134	-10.54597169056972	14.25075678905668	24.0534351751765	-0.04875376262254678	-1.615007937290188	0.06608001503437379	2.28187976838836	3.645820178068057	0.4981715744934309	-1.948167195421239
14.56492711999998	-0.659594879318914	98.63127692229398	-23.33756522698526	6.320353476405151	234.0578306201523	-123.3814324141225	13.70712152841423	72.37497144274801	-8.721859289741426	-2.304382039929135	-34.83169161282383	23.72163871591544	20.92639169755413	-0.03614734106178612	2.081878441358815	0.04132705260958472	4.227834735103801	4.639249440903851	0.8671688970952698	-2.778634102501655
14.57999376999998	-3.25283123742892	175.8184210851539	-36.40440433961361	10.25792548701766	432.9720793517779	-217.7747579168505	13.51276684726316	108.2063849171625	-14.7221243054484	13.65916280357206	-67.37452923953786	36.42595382591123	16.63526045576288	-0.02946910411539905	5.93426641822302	0.009969288180627447	0.2943797931547194	5.825970146441758	2.824003599781999	-3.842811721920979
