TendonForce
version=1
nRows=51
nColumns=5
inDegrees=no

This analysis gathers basic information about muscles during a simulation (e.g., forces, tendon lengths, moment arms, etc).
Units are S.I. units (second, meters, Newtons, ...)
If the header above contains a line with 'inDegrees', this indicates whether rotational values are in degrees (yes) or radians (no).

endheader
time	recfem_r	vaslat_r	vasint_r	vasmed_r
     11.81333003	   1085.98760475	    442.43120453	    131.51240611	    209.00434484
     11.82826335	    751.27891281	    325.11145829	    100.70411126	    158.85153166
     11.84319667	    488.63532243	    231.05823853	     75.91745062	    118.33510505
     11.85812999	    301.19950281	    168.96092525	     59.61407765	     91.48252914
     11.87306330	    179.96499258	    139.83856552	     52.27375344	     79.08185764
     11.88799662	    119.33387756	    138.51908016	     52.66740183	     79.08661381
     11.90292994	    113.79339848	    154.97668771	     58.22119660	     87.29585530
     11.91786326	    156.93143339	    178.59276968	     66.27044782	     99.33713954
     11.93279658	    250.57042325	    203.17193881	     75.42862108	    112.80189602
     11.94772990	    395.23744145	    227.49512138	     85.53123016	    127.20870423
     11.96266321	    571.25484908	    253.47014164	     97.17386778	    143.30084761
     11.97759653	    746.73638269	    284.44988657	    111.60761694	    162.86554721
     11.99252985	    879.58603311	    317.40799932	    127.86360162	    184.36932237
     12.00746317	    944.76896300	    348.88542760	    144.51067265	    205.85190888
     12.02239649	    939.98162342	    380.41087684	    160.59474908	    226.19725856
     12.03732981	    879.82773791	    415.07636943	    175.91628285	    246.17298644
     12.05226312	    798.08292945	    448.47775059	    191.15473289	    266.14819752
     12.06719644	    710.68162982	    476.54413410	    204.35874601	    283.38474765
     12.08212976	    622.83344637	    493.58628393	    212.71743212	    294.16998364
     12.09706308	    533.34744318	    495.00216281	    213.83574086	    295.42345240
     12.11199640	    443.70993412	    480.47741751	    207.43929422	    286.86120994
     12.12692972	    360.26428621	    454.12448384	    195.56714561	    271.18681766
     12.14186303	    288.84893282	    421.38656457	    181.03078840	    252.09696836
     12.15679635	    230.90916738	    386.41564267	    165.98878476	    232.39212495
     12.17172967	    181.21509413	    353.31637014	    151.17325265	    213.50119438
     12.18666299	    140.06827807	    324.74156619	    136.01341771	    193.98200560
     12.20159631	    107.58062267	    297.76990348	    121.43603876	    174.85003602
     12.21652963	     84.02828765	    275.42339987	    108.17923776	    157.25859436
     12.23146295	     69.32600725	    258.11654860	     96.89856790	    142.43901098
     12.24639626	     60.57303526	    238.39343719	     86.82185182	    129.39141358
     12.26132958	     52.91918591	    203.17079658	     76.06407850	    114.76712037
     12.27626290	     44.96497843	    150.05771036	     64.90975546	     97.83138273
     12.29119622	     42.03373947	     99.24721554	     55.73053639	     81.52867462
     12.30612954	     58.25005069	    111.16698292	     54.55207475	     76.72041671
     12.32106286	    108.31524646	    285.05933918	     71.59309197	    104.83428747
     12.33599617	    192.20630703	    711.01599072	    117.26121912	    191.36902991
     12.35092949	    287.61847910	   1389.15459338	    193.99468988	    347.98353404
     12.36586281	    362.88309758	   2187.14870371	    290.12365591	    553.96132344
     12.38079613	    402.99344525	   2885.19630636	    381.50767009	    754.74912599
     12.39572945	    421.81711653	   3270.61172435	    440.08148596	    883.31933866
     12.41066277	    444.62745798	   3218.26363140	    444.82315024	    891.38999495
     12.42559608	    476.54636432	   2741.66151020	    391.98096128	    774.07518334
     12.44052940	    491.68330886	   2001.01202440	    299.15526112	    574.75148414
     12.45546272	    460.41588278	   1228.45101293	    196.50026860	    361.28145218
     12.47039604	    382.22407641	    611.46799830	    110.81521735	    189.83386823
     12.48532936	    283.69557363	    230.55102666	     56.21914150	     85.88673681
     12.50026268	    194.73484332	     66.75532320	     32.81047495	     44.61490999
     12.51519599	    134.49306802	     46.97596022	     31.34617689	     44.15862026
     12.53012931	    114.90570727	     89.02305923	     39.99019886	     60.19473278
     12.54506263	    136.94254698	    130.20892551	     49.07334763	     74.82419905
     12.55999595	    186.83571448	    150.36232122	     55.16903992	     82.70827646
