Moment_knee_angle_r
version=1
nRows=51
nColumns=5
inDegrees=no

This analysis gathers basic information about muscles during a simulation (e.g., forces, tendon lengths, moment arms, etc).
Units are S.I. units (second, meters, Newtons, ...)
If the header above contains a line with 'inDegrees', this indicates whether rotational values are in degrees (yes) or radians (no).

endheader
time	recfem_r	vaslat_r	vasint_r	vasmed_r
     11.81333003	    -47.63300979	    -17.47095135	     -5.11879434	     -7.90267564
     11.82826335	    -33.72949835	    -13.26983224	     -4.02778613	     -6.20216982
     11.84319667	    -22.42151354	     -9.71969046	     -3.12012823	     -4.77076079
     11.85812999	    -14.08658636	     -7.28653116	     -2.51156955	     -3.79563263
     11.87306330	     -8.51424778	     -6.11708381	     -2.23614151	     -3.33850848
     11.88799662	     -5.63443854	     -6.04404652	     -2.24675630	     -3.32828082
     11.90292994	     -5.27557625	     -6.60874648	     -2.42487262	     -3.57431969
     11.91786326	     -7.03819457	     -7.28802821	     -2.65011408	     -3.87771321
     11.93279658	    -10.66934589	     -7.73890423	     -2.85093562	     -4.12217684
     11.94772990	    -15.39970303	     -7.75218716	     -2.94435748	     -4.18126304
     11.96266321	    -20.29983752	     -7.69712840	     -3.04809043	     -4.24273332
     11.97759653	    -25.00689824	     -7.99777050	     -3.32374791	     -4.55057075
     11.99252985	    -25.57031885	     -7.51212154	     -3.32490252	     -4.44961509
     12.00746317	    -23.11019444	     -6.69762749	     -3.19822463	     -4.19247351
     12.02239649	    -19.68270913	     -7.29234213	     -3.10585240	     -4.00751648
     12.03732981	    -16.85977767	     -8.57554250	     -3.38702050	     -4.56487426
     12.05226312	    -16.69724624	     -9.87021717	     -3.99795865	     -5.39552298
     12.06719644	    -16.31558276	    -11.27530441	     -4.66609073	     -6.28982484
     12.08212976	    -15.26060511	    -12.30445395	     -5.16490087	     -6.94465817
     12.09706308	    -13.26831534	    -12.49246198	     -5.26707764	     -7.07407968
     12.11199640	    -10.62710124	    -11.75951042	     -4.92946963	     -6.62840962
     12.12692972	     -7.99480331	    -10.45964386	     -4.32400716	     -5.82438833
     12.14186303	     -5.85776824	     -9.05922069	     -3.67610181	     -4.95349775
     12.15679635	     -4.54107541	     -7.87579335	     -3.13544636	     -4.21931500
     12.17172967	     -4.13599203	     -6.66744018	     -2.97782090	     -3.85495246
     12.18666299	     -3.65593759	     -6.27155699	     -3.02371238	     -3.96921183
     12.20159631	     -3.23539513	     -6.90843702	     -3.10881654	     -4.15013590
     12.21652963	     -2.85531306	     -7.49821396	     -3.14291732	     -4.27713154
     12.23146295	     -2.50531748	     -7.65154957	     -2.99422670	     -4.14558650
     12.24639626	     -2.28926685	     -7.54365501	     -2.81041685	     -3.96920521
     12.26132958	     -2.15677840	     -7.12245856	     -2.68242005	     -3.87594102
     12.27626290	     -1.93736702	     -5.68317420	     -2.44185398	     -3.55579960
     12.29119622	     -1.87039955	     -3.94076364	     -2.17882813	     -3.09877681
     12.30612954	     -2.63553760	     -4.52685070	     -2.17753627	     -2.98840474
     12.32106286	     -4.91875153	    -11.67622239	     -2.87218476	     -4.10790148
     12.33599617	     -8.65278319	    -28.77022370	     -4.65568812	     -7.40712625
     12.35092949	    -12.70246093	    -54.69085675	     -7.53242390	    -13.12024758
     12.36586281	    -15.59648278	    -82.92496348	    -10.92403875	    -20.15522804
     12.38079613	    -16.82114505	   -105.23378351	    -13.91053134	    -26.46980747
     12.39572945	    -17.24539437	   -116.22290724	    -15.69878134	    -30.22023254
     12.41066277	    -18.14483252	   -114.29939148	    -15.86051459	    -30.48026273
     12.42559608	    -19.83157743	   -100.12416271	    -14.30741529	    -27.17999406
     12.44052940	    -21.16667638	    -76.64139582	    -11.35833012	    -21.11349093
     12.45546272	    -20.59807881	    -49.72468963	     -7.80401972	    -13.98854225
     12.47039604	    -17.81053479	    -26.19229944	     -4.63630526	     -7.81346841
     12.48532936	    -13.81864354	    -10.42369840	     -2.49963051	     -3.78462287
     12.50026268	     -9.75101442	     -3.10385867	     -1.52383077	     -2.05932049
     12.51519599	     -6.80816581	     -2.20226740	     -1.48742983	     -2.08250131
     12.53012931	     -5.80946252	     -4.17369604	     -1.89797962	     -2.83930353
     12.54506263	     -6.84048848	     -6.05894338	     -2.28290072	     -3.45955665
     12.55999595	     -9.11348479	     -6.84367555	     -2.47468532	     -3.67974922
