FiberPassivePower
version=1
nRows=51
nColumns=5
inDegrees=no

This analysis gathers basic information about muscles during a simulation (e.g., forces, tendon lengths, moment arms, etc).
Units are S.I. units (second, meters, Newtons, ...)
If the header above contains a line with 'inDegrees', this indicates whether rotational values are in degrees (yes) or radians (no).

endheader
time	recfem_r	vaslat_r	vasint_r	vasmed_r
     11.58666301	      1.88001105	     34.18424613	     12.81385341	     18.74173055
     11.60226299	      7.86799966	     31.99812094	     11.74760098	     17.51546361
     11.61786298	      9.25319030	     25.93345125	      9.42910617	     14.29824577
     11.63346296	      5.02522533	     16.42388254	      5.98044194	      9.17380343
     11.64906295	     -3.94691717	      5.13001551	      1.87584349	      2.89191139
     11.66466293	    -16.85349911	     -6.82663344	     -2.49475574	     -3.84410846
     11.68026292	    -34.85347068	    -19.84485653	     -7.21896246	    -11.04826410
     11.69586290	    -60.95816041	    -34.89070984	    -12.71334138	    -19.15927470
     11.71146289	    -99.04105286	    -52.71894205	    -19.61971613	    -28.87996490
     11.72706287	   -144.78183649	    -70.45558901	    -27.18393081	    -38.79294878
     11.74266285	   -195.58264892	    -89.73606782	    -36.31645643	    -50.23813858
     11.75826284	   -227.02367933	   -103.95508244	    -44.74166078	    -59.88960020
     11.77386282	   -193.17885490	   -100.35072457	    -46.74019226	    -60.28972742
     11.78946281	   -111.68463152	    -88.75686950	    -44.48673020	    -55.51552442
     11.80506279	     -1.09047468	    -87.09012868	    -37.02798447	    -45.79931897
     11.82066278	     82.55955965	    -77.49271743	    -32.51864246	    -41.13347243
     11.83626276	    137.09839716	    -59.83099047	    -25.46913325	    -32.19865937
     11.85186274	    174.84833818	    -29.78538013	    -12.82147527	    -16.18844551
     11.86746273	    182.93075121	      7.69667470	      3.32240052	      4.19285485
     11.88306271	    159.52354825	     40.36353094	     17.31583508	     21.87396875
     11.89866270	    120.67404598	     60.64268876	     25.70122586	     32.49983612
     11.91426268	     84.17219550	     70.66589201	     29.56938658	     37.41026726
     11.92986267	     62.70976882	     76.44062152	     32.99159451	     40.18555881
     11.94546265	     48.40253687	     78.21292895	     38.94650236	     48.53370722
     11.96106264	     38.34287775	     90.07054663	     42.49412789	     54.52792559
     11.97666262	     30.95045149	    100.66452569	     44.00581547	     58.43014219
     11.99226260	     23.00873289	     97.13699414	     39.77787729	     54.68575101
     12.00786259	     15.19461181	     79.58863344	     30.91833799	     43.88567520
     12.02346257	      9.63034550	     60.46658188	     22.53393023	     33.12894884
     12.03906256	      5.16457145	     37.55927976	     13.67503912	     20.64425761
     12.05466254	      2.07779419	     17.49386895	      6.36838457	      9.76387281
     12.07026253	     -0.30359767	      0.50656001	      0.18501211	      0.28492645
     12.08586251	     -2.47987287	    -14.61481244	     -5.32261193	     -8.16724038
     12.10146250	     -4.71409388	    -28.11464496	    -10.22285077	    -15.49692044
     12.11706248	     -7.03652552	    -37.97623166	    -13.97348001	    -20.78573655
     12.13266246	     -9.07996905	    -40.30205898	    -15.16813371	    -22.10720794
     12.14826245	    -10.43916474	    -33.15067975	    -12.75355865	    -18.24320632
     12.16386243	    -11.38625844	    -20.09636356	     -7.85824069	    -11.10000504
     12.17946242	    -12.18568835	     -5.67779342	     -2.23750980	     -3.14354395
     12.19506240	    -12.91183652	      6.67730543	      2.63010073	      3.69632665
     12.21066239	    -13.38326227	     15.59307366	      6.09954482	      8.61354310
     12.22626237	    -12.94664443	     21.70973529	      8.39655053	     11.95916578
     12.24186235	    -10.61549088	     26.18296900	      9.98333766	     14.38885707
     12.25746234	     -6.01358813	     29.03262535	     10.89297525	     15.91916734
     12.27306232	     -0.08065545	     29.51082689	     10.88552418	     16.15400230
     12.28866231	      4.90979353	     26.93533828	      9.81057133	     14.79765901
     12.30426229	      6.67128651	     21.51802506	      7.82677141	     11.97459801
     12.31986228	      3.84370625	     14.02241145	      5.13456738	      7.92416365
     12.33546226	     -3.70571039	      5.31933442	      1.95911033	      3.03312622
     12.35106225	    -16.41793580	     -4.62853955	     -1.70280035	     -2.63499206
     12.36666223	    -35.43903226	    -16.41608543	     -6.00759087	     -9.26760035
