inDegrees=no
DataType=double
version=3
OpenSimVersion=4.5.2-2025-05-03-6a4c6ec41
endheader
time	/jointset/ground_pelvis/pelvis_tilt/value	/jointset/ground_pelvis/pelvis_list/value	/jointset/ground_pelvis/pelvis_rotation/value	/jointset/ground_pelvis/pelvis_tx/value	/jointset/ground_pelvis/pelvis_ty/value	/jointset/ground_pelvis/pelvis_tz/value	/jointset/hip_r/hip_flexion_r/value	/jointset/hip_r/hip_adduction_r/value	/jointset/hip_r/hip_rotation_r/value	/jointset/hip_l/hip_flexion_l/value	/jointset/hip_l/hip_adduction_l/value	/jointset/hip_l/hip_rotation_l/value	/jointset/walker_knee_r/knee_angle_r/value	/jointset/patellofemoral_r/knee_angle_r_beta/value	/jointset/walker_knee_l/knee_angle_l/value	/jointset/patellofemoral_l/knee_angle_l_beta/value	/jointset/ankle_r/ankle_angle_r/value	/jointset/ankle_l/ankle_angle_l/value	/jointset/subtalar_r/subtalar_angle_r/value	/jointset/subtalar_l/subtalar_angle_l/value	/jointset/ground_pelvis/pelvis_tilt/speed	/jointset/ground_pelvis/pelvis_list/speed	/jointset/ground_pelvis/pelvis_rotation/speed	/jointset/ground_pelvis/pelvis_tx/speed	/jointset/ground_pelvis/pelvis_ty/speed	/jointset/ground_pelvis/pelvis_tz/speed	/jointset/hip_r/hip_flexion_r/speed	/jointset/hip_r/hip_adduction_r/speed	/jointset/hip_r/hip_rotation_r/speed	/jointset/hip_l/hip_flexion_l/speed	/jointset/hip_l/hip_adduction_l/speed	/jointset/hip_l/hip_rotation_l/speed	/jointset/walker_knee_r/knee_angle_r/speed	/jointset/patellofemoral_r/knee_angle_r_beta/speed	/jointset/walker_knee_l/knee_angle_l/speed	/jointset/patellofemoral_l/knee_angle_l_beta/speed	/jointset/ankle_r/ankle_angle_r/speed	/jointset/ankle_l/ankle_angle_l/speed	/jointset/subtalar_r/subtalar_angle_r/speed	/jointset/subtalar_l/subtalar_angle_l/speed	/forceset/addbrev_r/activation	/forceset/addlong_r/activation	/forceset/addmagDist_r/activation	/forceset/addmagIsch_r/activation	/forceset/addmagMid_r/activation	/forceset/addmagProx_r/activation	/forceset/bflh_r/activation	/forceset/bfsh_r/activation	/forceset/edl_r/activation	/forceset/ehl_r/activation	/forceset/fdl_r/activation	/forceset/fhl_r/activation	/forceset/gaslat_r/activation	/forceset/gasmed_r/activation	/forceset/glmax1_r/activation	/forceset/glmax2_r/activation	/forceset/glmax3_r/activation	/forceset/glmed1_r/activation	/forceset/glmed2_r/activation	/forceset/glmed3_r/activation	/forceset/glmin1_r/activation	/forceset/glmin2_r/activation	/forceset/glmin3_r/activation	/forceset/grac_r/activation	/forceset/iliacus_r/activation	/forceset/perbrev_r/activation	/forceset/perlong_r/activation	/forceset/piri_r/activation	/forceset/psoas_r/activation	/forceset/recfem_r/activation	/forceset/sart_r/activation	/forceset/semimem_r/activation	/forceset/semiten_r/activation	/forceset/soleus_r/activation	/forceset/tfl_r/activation	/forceset/tibant_r/activation	/forceset/tibpost_r/activation	/forceset/vasint_r/activation	/forceset/vaslat_r/activation	/forceset/vasmed_r/activation
150.992	-0.05555703447393565	-0.05904254703691829	1.506527237374324	0.8108569671455778	0.985299625224996	-1.009676698685859	-0.1980383121344291	-0.01157272772578749	-0.06970999823698795	0.667872274901788	-0.04285620078413187	-0.05364278422724509	0.1751749705989989	0.1751749705989989	1.444412741129937	1.444412741129937	0.1345239190096877	-0.2963649668039941	-0.2026237721634995	-0.3643770226268028	-1.821220677306945	0.04838431565464754	1.343512118260034	-0.1534575896975765	0.8922650997587822	-0.07153563578286266	-4.176530336138457	-2.48023982403725	0.1489806370117336	-0.7328049217145098	2.39864363972585	-2.095092910025953	-1.888193927622558	-1.888193927622558	-9.281759491757763	-9.281759491757763	-5.825890029659872	1.40772422249295	0.8537386609896338	-0.8559238757656755	0.01727788332877488	0.01058767272909234	0.01454481950577479	0.0122599067988257	0.03158730406165517	0.02589571026928529	0.01053813650327348	0.01037210360271913	0.470204816470473	0.06630423715810664	0.03043547068547038	0.03884193755293364	0.1539741845593935	0.5247068157660055	0.01152562279263996	0.01078106690519841	0.01074167665934278	0.08875632478908331	0.04301889131262408	0.07977594320325414	0.05246302776245006	0.04473390089184579	0.03319017486816435	0.01070447192697531	0.257401309949182	0.01007750359612587	0.0100377244051574	0.1527970629067211	0.2472125369491981	0.08194464346143197	0.01081242302959763	0.01011156151949419	0.01034878344246939	0.1063388394506897	0.1201802335096199	0.3066851898852175	0.1514098632469611	0.01151515299891842	0.01184260395257491	0.01161727824701348
151.00736	-0.08584550567489907	-0.06488169178873548	1.520545053671773	0.8088166760913883	0.9981965809836305	-1.011048048338158	-0.2453876249945854	-0.05367495945154493	-0.08039480501859342	0.6506782562007971	-0.004764934226733806	-0.08766012125093386	0.1620245426308946	0.1620245426308946	1.28304101053058	1.28304101053058	0.01852260961963823	-0.2707886996159331	-0.1588697394182157	-0.3632327466299218	-1.716255120208115	-0.349762476790475	0.802752897574149	-0.1274651210496765	0.8000505784702774	-0.08611572741598457	-2.875705704903432	-2.551034104823464	-0.7390689236741349	-1.313368927062566	2.246923426670568	-1.942711996283272	-0.4827114349033665	-0.4827114349033665	-10.75435785984562	-10.75435785984562	-6.679627298043437	1.81294774607227	2.061938605674146	0.3273122964195461	0.02096395331888915	0.07195937263902087	0.0126982462677113	0.011397623993122	0.02333075688534999	0.03009667952834454	0.01091991350240886	0.05509239514417155	0.3393215480354388	0.04790536738082497	0.03682552066002044	0.0381339000837452	0.1028617291393725	0.3791310435931902	0.01207061520209928	0.01050414044159833	0.01032490380747338	0.110090449579238	0.07557441433981241	0.1023573050809248	0.06368673449117805	0.06721014627625883	0.05368978674299604	0.04901106208814493	0.2242645387743733	0.07963796046275035	0.1121511930170826	0.143803599426057	0.2245173645978958	0.05591949664347003	0.04002080589574042	0.0418285947788747	0.01917875118430686	0.07091381623246325	0.1083591337429547	0.2923478307455968	0.1702411862477712	0.01094293327405135	0.01114184746588459	0.01100187623734382
151.02272	-0.1119556773115074	-0.07215624931335034	1.530504318006072	0.8069612673394777	1.009996840008424	-1.012446790805492	-0.2827474047753897	-0.09322007060870761	-0.09288374769846827	0.6276623919093646	0.02943658584043013	-0.1167657918610176	0.1627965244326502	0.1627965244326502	1.111516442553366	1.111516442553366	-0.0907088734783119	-0.2424555144667037	-0.1200591700447489	-0.3528049013845981	-1.438811863716926	-0.6145537276898368	0.3305073073665198	-0.1057861055023393	0.6914906035427056	-0.09449056323447588	-1.682108770527291	-2.437497486077305	-1.147020665817199	-1.910266641075433	1.969508253248122	-1.591507356331262	1.023466333768325	1.023466333768325	-11.9618326887478	-11.9618326887478	-6.791998987316046	2.092386540166922	2.44352133599095	1.378424972198833	0.02594090312094063	0.1183792952082069	0.01138738710558972	0.01074826597511059	0.01705660670612016	0.03212496435589593	0.0121898779821449	0.0883408028910647	0.2302274493553241	0.03812683554026525	0.03857005601035027	0.03486844090787301	0.05852227595931343	0.2467261832944168	0.01224288778041373	0.01026637377764888	0.009961150647116539	0.1191480899188872	0.09207749171067535	0.1095264316485949	0.06851475315542281	0.07932784853016114	0.06645440911696845	0.07638801368884984	0.1945954201556126	0.1266940857892453	0.1851137556400735	0.12763302192234	0.2002211196618272	0.03415708191880232	0.06154934063585031	0.07097501890694062	0.02958211078133736	0.04051454788388478	0.09326106054181967	0.2729972973571399	0.1691745055159504	0.01046685543524431	0.01056223015684182	0.01049497517811074
151.03808	-0.1303431480651887	-0.08092239058543832	1.534471821123658	0.8053674625342769	1.019862444477623	-1.013848588306986	-0.3043845591590049	-0.1273762207095583	-0.1046318739001736	0.5953973958098153	0.05665568288130767	-0.1367819791150185	0.1874268730145306	0.1874268730145306	0.9265109201707051	0.9265109201707051	-0.1858949555899559	-0.2114804349796584	-0.09262640096835427	-0.3289155041092781	-0.9279048646686063	-0.677324440781582	-0.01739894409098977	-0.09151681461021932	0.558987718637284	-0.09317020038606035	-0.6751078499811564	-2.049138188989814	-0.837669348580413	-2.482959769458093	1.519772926921305	-0.9785874493730464	2.655779471963866	2.655779471963866	-12.63671444089769	-12.63671444089769	-5.923006214136191	2.107734272454816	1.712247697104031	2.138000720879617	0.03327049690628724	0.1431680706828053	0.01083093055208571	0.01039645702971376	0.01347424379509008	0.03226956065195417	0.01438004569302479	0.1048258922073528	0.1587449889520492	0.03925455862320049	0.0338557918472447	0.0283613934093519	0.02733337476261027	0.1422919885219049	0.01189733598257718	0.01011051462309819	0.00980692029448841	0.1092398171335537	0.08510309259443813	0.09471941560172446	0.06395606763097569	0.076324171192323	0.06712023326079349	0.08843198191632895	0.1720873770073812	0.1381752910531634	0.2116517159287049	0.1015936205573831	0.1767331966561787	0.01920482322871717	0.07204900320239199	0.09455427593482953	0.04293366059537337	0.01934919704793706	0.07455055450828577	0.2452766487110875	0.1401456136200129	0.01015585799500245	0.01018893729781184	0.01017179248796815
151.05344	-0.1388204336482054	-0.08968233337461172	1.533213176424595	0.8039826581649153	1.02732686629678	-1.015166902426271	-0.3101263220839953	-0.1533112140870294	-0.1090614867859179	0.5539584373996844	0.07514014935514413	-0.1452045581029677	0.2400252727109281	0.2400252727109281	0.7340186963461192	0.7340186963461192	-0.2611103886232001	-0.181617454265524	-0.08309613038078069	-0.2944970348347846	-0.2662550287323229	-0.5538865215664955	-0.214375581031807	-0.08523491280839206	0.4061467193974415	-0.08210353193056437	0.1085762118345839	-1.421895805988681	0.06907548501505695	-2.93646841816026	0.9524862919251424	-0.2089077729273341	4.332992686974707	4.332992686974707	-12.56195791340856	-12.56195791340856	-4.423867583192245	1.772696775884561	0.2082412083754449	2.442027535737682	0.04413942369730355	0.1530187385184142	0.01084657523702265	0.01027640960327848	0.01246021810450168	0.0342903947218729	0.01660818891638392	0.1082908500219617	0.1265459458851819	0.0455907261337105	0.02480995164924679	0.02031755530715224	0.01220724376705355	0.0753267883485228	0.0112040120929784	0.01006606853074649	0.01007831145366151	0.08294252758163889	0.06013523118703788	0.06418179483229833	0.05209133220472184	0.0617048656848148	0.05705753148001391	0.09027307193748579	0.1594014391837642	0.1174728509651998	0.1956553469013066	0.06935438852889095	0.1603827301117262	0.01030973203926965	0.07436670925162001	0.1098205394046948	0.05960092949726351	0.008843576318486771	0.05530661598608173	0.2094544228601379	0.09204174649507631	0.01001973631340512	0.01002446148435593	0.01003415295826775
151.0688	-0.1372373270733534	-0.09632011701713739	1.529152117905288	0.8026905809736777	1.032245901582805	-1.01628447019648	-0.3035751963194315	-0.1690347185116977	-0.09989815377885032	0.5062712333613338	0.08480682637233533	-0.141861410166279	0.3195331378629926	0.3195331378629926	0.5465791282041814	0.5465791282041814	-0.3147975126254228	-0.1581518336217144	-0.09490453265826086	-0.2578361803676898	0.3687937256008156	-0.311051832886478	-0.2686240318407689	-0.08492276268648512	0.243738617125066	-0.06355771958155787	0.6699712281003101	-0.6894414941984222	1.2020618128872	-3.187646752922189	0.3992352444570708	0.5369021526397497	5.90335419566853	5.90335419566853	-11.66677436508403	-11.66677436508403	-2.914623235234692	1.168217069832729	-1.439805551277422	2.191247230024495	0.06055348669339147	0.1648363745632281	0.01111375828864035	0.01030325768535366	0.0153602026002592	0.0439598689685895	0.01793607771097308	0.1078389620319265	0.1209956380895689	0.04870735876255261	0.01580275457201012	0.01350583789989997	0.01003199058310645	0.04364145693369562	0.0105099020590266	0.01011907706873283	0.01080351680353912	0.0508020057712236	0.03135289913965292	0.03221853811788782	0.0384436735452005	0.04429963688392969	0.04255277375289498	0.09281345962930723	0.1573143879042261	0.08269334512990528	0.1600331912208581	0.03951685517073002	0.1575742667610527	0.004238046148489646	0.07488484840960721	0.1150662945874318	0.07760252988444616	0.006630306214896423	0.03982428693019541	0.1710778259914942	0.04425464831886833	0.01000500989970547	0.009978578655307676	0.01000414467455718
151.08416	-0.1277904718230506	-0.09912416081041313	1.524893454577897	0.8013909439720002	1.034673258264981	-1.017097791273669	-0.2893498964709247	-0.1743329795048565	-0.07516742583899455	0.456223137757126	0.08749652543710609	-0.1285162223646875	0.4217365031691717	0.4217365031691717	0.3777163666785739	0.3777163666785739	-0.3507658464200729	-0.1440355982245791	-0.1265121096326187	-0.2287598291719706	0.7909253681578372	-0.01449217948359925	-0.2096761694075616	-0.08766203426468523	0.08302774180811764	-0.04069236760905773	1.03195575760091	-0.02534206823058899	2.172431429779664	-3.236228720769724	0.02250775434677169	1.138425707821197	7.224758941150228	7.224758941150228	-10.0828252889663	-10.0828252889663	-1.864533940942931	0.5897864587191883	-2.71034723990495	1.413915241896168	0.08530676845685121	0.1952185122110834	0.01149282200650902	0.01050761965275993	0.02631359761035527	0.06582402650885033	0.01822890988158698	0.1106589261845302	0.1270851423509292	0.04502513247362219	0.01020445484326482	0.009711126428078367	0.01360918241786393	0.03699571412677485	0.0100791561874621	0.01019088031525588	0.01149256917206055	0.02491449838915897	0.01138650860652929	0.01085012649944002	0.02803324768270719	0.03155297527066932	0.03059296278296161	0.1048358535469035	0.165837956876602	0.05500826033206174	0.1310818066000923	0.02268371333005495	0.1712335421434338	-0.0004175497869625972	0.07865573232745765	0.109763527396143	0.09229175649096885	0.008300463391566353	0.03092946134190086	0.1395849310668049	0.01287183827686894	0.01003384653236975	0.009934038713084943	0.009980290489443527
151.09952	-0.1145824710989953	-0.09718797988117754	1.522316896647683	0.8000340739480878	1.034736243110373	-1.017548461096174	-0.2711904975558639	-0.171170082771346	-0.03801950538722857	0.4066785188210337	0.08689756182885443	-0.1074858097094391	0.5413785688327232	0.5413785688327232	0.2371647936982453	0.2371647936982453	-0.3758257461830261	-0.1367795122560945	-0.1722124317963944	-0.2149795338037697	0.8911066223677317	0.2990687567504055	-0.07500268363357851	-0.09127979122846362	-0.06995208236312053	-0.01659917604764023	1.233254725109543	0.4241273169516744	2.73942340565353	-3.172334663848988	-0.05460584882270231	1.594350464010478	8.231111664649315	8.231111664649315	-8.084646302899698	-8.084646302899698	-1.363450723671663	0.422430511964317	-3.390788305996153	0.2785870864100279	0.1204076428366999	0.251206384292446	0.01195202538734843	0.01092778511302266	0.04959369803104806	0.1004509486502183	0.01794295451028387	0.1186962299800561	0.1377322652030138	0.03780383215474511	0.008515109278645802	0.008787888106590695	0.01659226269561321	0.04429135547180098	0.009946930462425167	0.01015250040410017	0.01108970107720506	0.01197659546472778	0.004091055399717844	0.003073065594084787	0.02252778488790104	0.02527984657332473	0.02477928837487735	0.1284195738385925	0.1849429841128533	0.04604509598663176	0.1220621595528932	0.02889278328354724	0.2001816128146947	0.001199003346816229	0.08744993171131396	0.09495029510759079	0.09852622441719638	0.01023642254727866	0.02904715458901902	0.1222487220076521	0.001468733612304743	0.01005064966212623	0.009851982119755468	0.009921913795462518
151.11488	-0.1022600102972533	-0.09029232830859904	1.522284131735593	0.7986159569137652	1.032536733274674	-1.017628266176807	-0.2512034583697426	-0.1631337726800665	0.00515412815088463	0.3585261351729175	0.08757147794822855	-0.08055238202623767	0.6736645445724271	0.6736645445724271	0.1292973085496797	0.1292973085496797	-0.3957454950343044	-0.1286391985616093	-0.2248713038476921	-0.2198287270226754	0.6956658985403117	0.6124119032505191	0.0839553609381067	-0.09408139462738137	-0.2165753339165213	0.006650907929526887	1.343029716173999	0.6002887569999089	2.845326382176533	-3.107996649591315	0.1718976939521722	1.945852906369317	8.94421501873108	8.94421501873108	-5.933483434020972	-5.933483434020972	-1.174197665058691	0.873694382438545	-3.564387558420262	-0.93641949843753	0.164573975111859	0.3279843503364009	0.0122398029948482	0.01128227705750977	0.0847927912426687	0.1439261375525065	0.0170536545363179	0.1306581096268452	0.1515902996004111	0.03239065787407863	0.00911454979926112	0.009364700463197524	0.01672872719513961	0.05577343489053178	0.009985129412998893	0.009907334593238627	0.008689289979017431	0.01044050911034997	0.005556962707770296	0.00456906245959245	0.02044883354790382	0.02321075590031277	0.02502220163230122	0.1601469017235363	0.2118992153210325	0.05345086998222889	0.1295598185262813	0.06453164046084325	0.2395042158816396	0.01939277928657393	0.1011144688595275	0.07397524754083012	0.09392206754022217	0.01097638732191659	0.0329512282046022	0.1180449145449547	0.003077079287326905	0.01004236035061713	0.009836760245350363	0.009899978542058901
151.13024	-0.09411342397472774	-0.07873667803455807	1.524485288363459	0.7971727778998507	1.028094705082924	-1.017354169014069	-0.2296048805376628	-0.1540224594635279	0.04754226545264607	0.3112235718383716	0.09307240115104695	-0.04948563977269679	0.8149279541287924	0.8149279541287924	0.05487004650635278	0.05487004650635278	-0.412458416368688	-0.110590274879355	-0.2787620876646738	-0.2415088381209685	0.3636932132121797	0.899968690323516	0.1885963533402594	-0.09339145591636354	-0.3625583287946666	0.0291859571710104	1.478803377430672	0.5583829315929888	2.58073843458128	-3.087388871054877	0.5586853027579687	2.140418222558006	9.434071057593592	9.434071057593592	-3.748258084760797	-3.748258084760797	-0.9662682597866564	1.78593135405645	-3.459512108715138	-1.901654694613575	0.2116527746070574	0.411286144842346	0.01209145399156526	0.01084175123127464	0.1251556674773613	0.1893868193616169	0.01456285757109604	0.1436101667208551	0.1654791200302484	0.03119663079260472	0.01015018962174181	0.01011872608934371	0.01514782144745159	0.06282317856020128	0.01005786557209698	0.009543309573822019	0.005078307231101225	0.01259219750334733	0.009733939849134895	0.009662664163153784	0.01911785006573951	0.02309119509531485	0.03034449323859043	0.1936797614577763	0.2369729129182309	0.06567162757839744	0.1425355920043224	0.1271033075111982	0.2791532182361901	0.06193346367415618	0.1180304043731473	0.05205485753062249	0.0801716567034445	0.01072235338474652	0.04037064008749051	0.1185490133349743	0.008366042604075185	0.01003498093816214	0.010088068997209	0.01006655401416813
151.1456	-0.09061095890163104	-0.06341476236679246	1.527277276603736	0.7957900727301941	1.021371698848334	-1.01672372475491	-0.2045380271581241	-0.1462456420086249	0.08423578957523123	0.2643133669961698	0.1042160202417875	-0.01783228764722324	0.9624786860961432	0.9624786860961432	0.01384725621437655	0.01384725621437655	-0.4241440153330744	-0.0770494070621862	-0.3308322303865429	-0.273724521444263	0.1087779980685297	1.107152030601908	0.1470680289456056	-0.08542531850941996	-0.5103453981836205	0.05363764892092042	1.795125909211272	0.4386209688558157	2.117992536470402	-3.051882664775645	0.8875017087323183	1.997448782931399	9.755897010474676	9.755897010474676	-1.538469935693611	-1.538469935693611	-0.5377242120197868	2.788897234617941	-3.274027889918448	-2.341293341227024	0.2515942727139958	0.4812737205755806	0.01233750474486463	0.008974805966052657	0.1610228678328747	0.2290125969686795	0.009645069474332019	0.1521418062670231	0.1731609454268155	0.03299426719826619	0.01068511015099662	0.01045533812915035	0.01356500734971055	0.06015008834790871	0.01011015580181476	0.009452417118238705	0.004056589890103893	0.009844114069198287	0.01256778070366801	0.0150192015428137	0.01627369217730342	0.02425318098579256	0.04023033624119454	0.2208858471274414	0.2439626979446022	0.07137879934097485	0.1528308869914796	0.2004415909994069	0.3032016712013561	0.1237206399547326	0.1338755778740027	0.03403488385931609	0.06201300990162885	0.01019659366388582	0.0476844845743039	0.1153289681361528	0.01172282966481683	0.0100777322637173	0.01072281433439488	0.01052923545629562
151.16096	-0.08936090783858762	-0.04611081272590581	1.527938573974112	0.7946010244644832	1.012399333066654	-1.015683237838447	-0.1721709495602492	-0.1398925181737296	0.1131449076130326	0.2186980071737842	0.1188464074331149	0.008179820877194969	1.113750713050861	1.113750713050861	0.006120044856150537	0.006120044856150537	-0.4274926517200023	-0.02692184973166428	-0.380032246550716	-0.3077879899528108	0.08185905886341094	1.152530489524267	-0.09015016872096068	-0.06777067098538973	-0.6509640899970108	0.08316080664804817	2.426612215702692	0.3965896913993549	1.617937588079805	-2.895008963774972	0.9979907353053884	1.355775586066482	9.892207027576481	9.892207027576481	0.6002932548044209	0.6002932548044209	0.109108227747789	3.691311173057851	-3.077978786355888	-2.162597822301363	0.2741560292780003	0.5182107527687121	0.01568969870405859	0.006350724977430733	0.1849026716227768	0.2552367373047716	0.003984518721163449	0.1496705207030414	0.1710197785566931	0.03499792910970514	0.01068536533854725	0.0104126453486831	0.01256119714493994	0.0484052597768982	0.01015252646522989	0.01021323632745666	0.01143072593070204	-0.0005652651691218065	0.01264887272085818	0.01929225433772761	0.01128954878592324	0.02581576252301755	0.05213652685956484	0.2336560011860806	0.2199468680318354	0.06760432064874458	0.1580196565023563	0.2568753557015832	0.2954266711089745	0.1832352093485015	0.1423487115063601	0.02204025738988604	0.04615675116667586	0.009877072566007873	0.0503418093909521	0.1057091783696734	0.01215750608304347	0.01021303352196637	0.01157705084806057	0.01119936303463939
151.17632	-0.08659265063560374	-0.02970653921024252	1.523775426580541	0.7937433892550543	1.001479721991597	-1.01414596403983	-0.1275869926129747	-0.1328518596807788	0.1342645604279541	0.1765802120850826	0.133262650311475	0.02151509974846048	1.264980613499039	1.264980613499039	0.02877330169817622	0.02877330169817622	-0.4202421676798954	0.03908087961290796	-0.4256719355398441	-0.3356058974545701	0.3018419399896853	0.9629335485703093	-0.4687151033711396	-0.04258831845825373	-0.7606004545461988	0.1178133012819104	3.400064095462467	0.5445994746059654	1.146800284479086	-2.572373982160791	0.8589807673501927	0.2857191188101947	9.724339299020256	9.724339299020256	2.329735722946971	2.329735722946971	0.8311231141812293	4.580012171850447	-2.821581428368258	-1.495883059308147	0.2737595708435546	0.5099480149353587	0.02505088573097375	0.005892998582240726	0.1938859447897576	0.2614828038635711	0.003388977364003081	0.1338524548777848	0.1623321111779307	0.03493439171466901	0.0104786804564994	0.01025191826087724	0.01187765440804058	0.03345403089608055	0.010201403418464	0.01211910100275899	0.03039688602984469	-0.009792798497248335	0.01024967571790137	0.02146313860003152	0.007196859804832506	0.02550115009835837	0.0595344395885786	0.2276852309329984	0.1689566734517847	0.06086385077176017	0.1584005128915231	0.2696534972163715	0.2510235602897444	0.2119506727491909	0.1387294463829096	0.01508450460602465	0.04091050764121184	0.009838382087323846	0.04598062475293074	0.09235133993699797	0.01109106360126566	0.01043501866696405	0.0122143705047488	0.01177184939337132
151.19168	-0.07904156691971859	-0.01776336936601329	1.513758950006439	0.7932853018009919	0.9893647513340718	-1.012063420848122	-0.06674003450782036	-0.1216974687538959	0.1479458560679819	0.1398642491345924	0.1438975750033732	0.01826461099970355	1.409941377732578	1.409941377732578	0.07242981945722442	0.07242981945722442	-0.4025077235665748	0.1196277837905625	-0.4660886254547315	-0.351854691088013	0.687856943972984	0.537344947637916	-0.8286459026808675	-0.01694821069295806	-0.8053757224814718	0.1523500271072774	4.563367337339555	0.9290991676303519	0.6591230849418139	-2.185276941499736	0.5145627556387397	-0.857050657808865	9.060055862681562	9.060055862681562	3.178601943709255	3.178601943709255	1.459568770819167	5.444221548704398	-2.406615930659504	-0.5767260974500241	0.2527053577805216	0.4578229659984947	0.03952889746667188	0.01190418069409088	0.1885004178547188	0.2436461327867126	0.01597561627271551	0.1110542444693352	0.1545030456187003	0.03243105625365743	0.01031688373080827	0.01015122674264151	0.01129596694461253	0.02261241792782396	0.01024353596200805	0.01463529187421128	0.05599485094684494	0.002574994559082028	0.006948403299625991	0.02068100700688248	0.01236151136633397	0.02228986782358113	0.05592993517673621	0.2054064037368738	0.1163894756459734	0.05979649552374568	0.1554772441405526	0.2297515287819282	0.1849571289019385	0.1928696815985926	0.1228832239705633	0.01095896178103225	0.054309766192738	0.009934283837935685	0.03882870721009001	0.08000688156494615	0.01003531584293621	0.01066509953617322	0.01223691379445209	0.01192385118917632
151.20704	-0.06497261522726493	-0.01320791203597639	1.499535213908863	0.7931760899145336	0.9772965205917596	-1.009503561248045	0.01110027884635032	-0.1030154432107202	0.1534606326690692	0.1079984192814556	0.147928435149405	0.0004148592082945119	1.539604644771375	1.539604644771375	0.1211141524993641	0.1211141524993641	-0.3765521819565888	0.2101395444115243	-0.4983664779989609	-0.3539940986130771	1.13728621546138	-0.01114018496812014	-0.9936457207414714	0.001342320812659714	-0.7547883652978936	0.1777927715162355	5.608585461032154	1.506208149639675	0.06529648262527943	-1.959272115458024	0.003355584372936843	-1.638288248393654	7.730303550551849	7.730303550551849	2.868490443304488	2.868490443304488	1.890524410566236	5.940505491717303	-1.765884316944766	0.4299005477022871	0.2202425957389572	0.3770514464087135	0.05257200257623632	0.02653915641457597	0.1703690095263486	0.2026148712318044	0.04558513003130371	0.09445400719910881	0.1525494845360187	0.02937531185688042	0.01025747062255861	0.01013180850719709	0.01084945996648311	0.02054505694898568	0.01024773101157603	0.01645064455510706	0.07524720631271839	0.05720506112755033	0.005963500685634223	0.01733520882724386	0.03721258819183326	0.0200000313411625	0.0417623914938663	0.1751808396779977	0.09544628973785574	0.0662779678073543	0.1531595558523825	0.1539474891853058	0.1265209888493773	0.1340550764210177	0.1000466147018037	0.008834048946694154	0.08933644070768558	0.01001381265317807	0.03986544185972576	0.07349757768097159	0.009601545799475236	0.01078372856426832	0.01163335927992985	0.01157554046656098
151.2224	-0.0442249861802867	-0.01680979845444437	1.484727775021064	0.7932781578611527	0.966823492725618	-1.006677216055167	0.1019838207522422	-0.0751346507123872	0.1490073013403441	0.07699135754231559	0.1432350614064194	-0.02529473770050895	1.643466877322022	1.643466877322022	0.1571909221355484	0.1571909221355484	-0.3455710247135876	0.3012367878698458	-0.5191221086179987	-0.3406803220458193	1.557568410383878	-0.4998523612921579	-0.8990897311537478	0.00994699157531968	-0.5987634861098819	0.1858285470295119	6.223238933553628	2.107888248557847	-0.6562373331797067	-2.10417702697281	-0.6264673236038284	-1.853321166938744	5.713828118873646	5.713828118873646	1.551229020979969	1.551229020979969	2.112602606552241	5.717226319419613	-0.9153935697024526	1.4958714706749	0.1874377668368332	0.290905550149133	0.05613137125730337	0.04576882042675193	0.1414257249624263	0.1462851336601622	0.08428678195252957	0.09636534955924697	0.156140066452623	0.02853115990745776	0.01026396055424975	0.01014161614446725	0.0105708130524961	0.02690302117464206	0.01020090577067398	0.01641219365655336	0.07616655647846828	0.1553101187627519	0.01143421194894164	0.01323525320402364	0.08442740494370203	0.02578918054379761	0.02529861753869779	0.1473269578998395	0.1227314865114369	0.07449007820381162	0.1565274501391107	0.07499615528596622	0.1008573867418865	0.06429442357952805	0.08039714222116673	0.01043982280801153	0.1388654808760215	0.01002672091471069	0.05910115619075225	0.07668767668635659	0.009666788261017854	0.01071606512194431	0.01078292802221861	0.01094774772610784
151.23776	-0.01803049736337672	-0.02674557641938476	1.472715946684843	0.7934766083336303	0.9594206888422526	-1.003891413760404	0.1983453589180284	-0.03970240760426925	0.1333185376567923	0.04081169594915516	0.1289219629914123	-0.0516277437913978	1.712279827862384	1.712279827862384	0.1683545458635306	0.1683545458635306	-0.3124832776901035	0.3819226976918275	-0.5259010544252503	-0.3107239864724169	1.852930426603483	-0.7891444199238501	-0.6482133561725439	0.01490878724310008	-0.3571176230928739	0.1729104283796547	6.270185332797387	2.481242006419745	-1.388829851277455	-2.650237353122319	-1.251827772780434	-1.63975275346355	3.195680566085883	3.195680566085883	-0.2346300576045101	-0.2346300576045101	2.17113545420408	4.772603908959284	0.03172013896406431	2.61492805611985	0.1612658780095679	0.2214986906391677	0.04761409986830765	0.05973657432250132	0.1050560562771889	0.08870244625111609	0.1130007859599377	0.1203229130921714	0.1621283756137399	0.03133177304006801	0.01032380916080207	0.01015561254249727	0.01042012079250353	0.03678295810578037	0.01012865882392794	0.01454925997508813	0.05818698441127333	0.266956589280592	0.0253051900547443	0.01028841299043079	0.1406691907908299	0.04303797419664104	0.01554834284342266	0.1297032172552355	0.183476135116433	0.07816651962292212	0.1671536499492491	0.02045825702986471	0.112229730894917	0.01423328582686086	0.07614498823067849	0.01873175529382029	0.1856419154354433	0.01001759106071622	0.09517380910789856	0.0910312771984452	0.009916294300516298	0.01049955558396767	0.01011811453200609	0.01036988536959212
151.25312	0.01105528702058526	-0.03978469632600527	1.464510973217454	0.7937880567067428	0.9560790805890731	-1.001458665596662	0.2920474586097005	-0.001768926627992815	0.107620841935004	-0.005397981319054928	0.106337683522658	-0.07450426422021267	1.740757226080819	1.740757226080819	0.1522416151697266	0.1522416151697266	-0.2794862798707192	0.4435432689658321	-0.5185856529350404	-0.2643133798910445	1.93160861310037	-0.8677601317900517	-0.4341478144774443	0.02676953943007986	-0.07385466324704269	0.1414808236749289	5.847485612957284	2.434985897529435	-1.926331710182587	-3.395796860042485	-1.690192533601671	-1.298067464676367	0.5024988476494542	0.5024988476494542	-1.819117537765832	-1.819117537765832	2.107465061561109	3.320405048112889	0.8859795532114605	3.618992569391637	0.1424616330729392	0.1815968295844125	0.0320744208941189	0.05966386096956149	0.06709023536827508	0.04522527285599405	0.1144585758733296	0.1583796998022882	0.1680268711676169	0.03708301667121747	0.01045639783215352	0.01019736092033047	0.01044709382020332	0.04389366828627927	0.01007850947777128	0.01205014818423398	0.03265139112294337	0.3434776856229561	0.04362173228494661	0.00919850053800921	0.1809738477040907	0.06556419803423333	0.01496185205241963	0.1248564879814728	0.2414897822251781	0.07693357229440989	0.1807974054907691	-0.001839726967068821	0.1442715582764764	-0.0003043133529071311	0.09411701749287044	0.03499884824961529	0.2099445812759151	0.01005763498458716	0.132858502920584	0.1143238630430971	0.01018019282382862	0.01025850919056651	0.009824481098809131	0.01004891613426294
151.26848	0.03946250569009038	-0.0532952520261847	1.458405268255668	0.7943773461858891	0.9570533266443763	-0.9996150891505362	0.3774237082136767	0.032255026295406	0.07611885712849564	-0.06238221654580255	0.07930550938120229	-0.09342464206901586	1.728727644837693	1.728727644837693	0.1162357946558065	0.1162357946558065	-0.2483654336407897	0.4798453758636559	-0.5002689432102292	-0.2056802349069049	1.748065922192667	-0.8472714647680288	-0.3960522648550022	0.05281780908399623	0.1989393708763193	0.09805728635671851	5.198267576127451	1.976287344025085	-2.113436701958708	-4.010972628056904	-1.804681288652562	-1.037899130572713	-2.036864026563808	-2.036864026563808	-2.702021234154444	-2.702021234154444	1.929544214537139	1.474034542695155	1.430345420461087	4.157496306410427	0.1283819787767245	0.1712038212494897	0.01757507657656405	0.04554622549218371	0.03470490261847128	0.02552625371609631	0.08798091261178395	0.195164982173457	0.1729173823814192	0.04408538238058148	0.01063771817802239	0.01028564189486966	0.01082466804077012	0.04439767047420814	0.01007964239073309	0.01021111033332763	0.01282952310826532	0.3484054245169664	0.05693527239821158	0.00943086571485814	0.1852003927235317	0.0802235684200263	0.01898999872682735	0.1292295619378977	0.2659610050252144	0.07543857029462649	0.1909985300266697	-0.001535387393675345	0.1753587023632071	0.01782140969504235	0.128221863157566	0.05695111720864496	0.2007189490638082	0.01016007188055597	0.1526383450850417	0.1410748947506902	0.01042654873483318	0.01010670908882665	0.009830210551865252	0.009988733512627837
151.28384	0.06345271796344941	-0.06668808914684662	1.45148014531522	0.7954681523681877	0.9618500330281072	-0.9984825243646338	0.4525663339569136	0.05759758220678999	0.04438593153224431	-0.1260406206771313	0.05286487968828284	-0.109413839906255	1.680289551231406	1.680289551231406	0.07296411730527889	0.07296411730527889	-0.2208510631077363	0.4849718866156723	-0.4771560920141691	-0.1440865759404495	1.338550647125774	-0.8777210400202728	-0.5400320566962784	0.09228766601280963	0.4172493371749709	0.05023402897556296	4.55651840352682	1.309986129853823	-1.951346954677788	-4.219232756714143	-1.593361905577682	-0.8794826980234262	-4.209046585770911	-4.209046585770911	-2.746191067491063	-2.746191067491063	1.639285158368712	-0.7484325046210957	1.492244833768175	3.929028037667727	0.1176139407920953	0.180222283535782	0.009200473561863756	0.02620287336014618	0.01360062763503569	0.0288724130579955	0.05001868398455721	0.2158997857109772	0.1770050183780391	0.05086038359674511	0.01076061239767376	0.01037689870606717	0.01157717790993295	0.03865483312520383	0.01011388975992279	0.009510758371758084	0.004458915038739046	0.2817714404400119	0.0569040076364291	0.01004828768528166	0.1526835483162912	0.07703378191713656	0.02144921329023945	0.1346053608251176	0.2511565549883336	0.07791565865635465	0.1947611021132475	0.00665552716146374	0.1928339480989971	0.05267354043764359	0.1605264410554542	0.07953951657790143	0.1619484201803887	0.01022494624138822	0.1447919840649606	0.1647319520822143	0.01058159364588476	0.01007426392680896	0.009977552488594324	0.01005860912363322
151.2992	0.08026977818058509	-0.08137393643863342	1.441530522372522	0.7972202512801786	0.9694206670700765	-0.9980713981688824	0.5184164130928984	0.07311003701514428	0.01693012989990519	-0.1892655125246532	0.03120802670840959	-0.1228213524228775	1.601674071825261	1.601674071825261	0.03432186253564572	0.03432186253564572	-0.1983557924883426	0.4540827657771095	-0.4572018833741847	-0.09094808718703172	0.8132832828809005	-1.043989786051575	-0.7717548186572054	0.1375828518766359	0.5552444509801119	0.004771927056353533	4.025905390010378	0.7069394246309625	-1.579440517370055	-3.933463775190476	-1.186670705511548	-0.7173173981575443	-5.959324741448196	-5.959324741448196	-2.157883578712912	-2.157883578712912	1.281394555206834	-3.162531264783639	1.028488699751552	2.962475036441368	0.1119714871577573	0.1953244741982079	0.007080525135593968	0.0115808144229801	0.005724991415066857	0.0456949040728326	0.01964985200209248	0.2134239217546756	0.1816101266429567	0.05611895426355577	0.01070239381755897	0.01036474744164196	0.0122509294010223	0.02998035975737673	0.01012269147090973	0.009590536496489221	0.004899343072546925	0.1783313683306824	0.04357314420446545	0.01041793396224801	0.1021347263972942	0.05758797939022744	0.01966450629242259	0.1322963214177737	0.213990893934561	0.08431649354209696	0.1946418046308591	0.0129089058695438	0.1953699713672612	0.08407991620205751	0.1725492901948761	0.0975030420141427	0.1098786297090655	0.01007289531127145	0.1157131661254728	0.1807137657385745	0.01043278441666617	0.01011358358866188	0.01014990433415149	0.01010913684446457
151.31456	0.08894962761392777	-0.09934386686225644	1.428047767255408	0.7996529318286618	0.9784644829461646	-0.9983012457293389	0.5764978234174521	0.08109499331172554	-0.004240280436164383	-0.2450487136803956	0.01616385392585514	-0.1324680118907542	1.498951799943724	1.498951799943724	0.00754295042054825	0.00754295042054825	-0.1812403770883397	0.3871286837769795	-0.4475611619325073	-0.05448660161916039	0.3001292869329372	-1.311815099570552	-0.9777105120484318	0.1787751225970138	0.6079332526265618	-0.03301098910756121	3.551544287557434	0.3444627981006491	-1.166514173764274	-3.265995022270322	-0.7603418818407576	-0.4393721191941843	-7.361256034000158	-7.361256034000158	-1.273612604958946	-1.273612604958946	0.9480095122960057	-5.316781732753201	0.1884791960302103	1.669573002032745	0.114280813256096	0.2067068731776644	0.008416006285402424	0.005740642527282167	0.009182466061989827	0.06466211882952751	0.004897659860837789	0.1903228757976503	0.1887695866841643	0.05830661633676505	0.01045490826395265	0.01015385267964403	0.01196812736281114	0.02192673819527209	0.0100526544236146	0.009844059774262627	0.008411600464999398	0.08296670287244799	0.0253264476003818	0.01037962113457978	0.05718166603261305	0.0332513002150298	0.01522394898965761	0.1188474041795265	0.1758656156948169	0.09102918282754242	0.1957991659310419	0.01442777821163178	0.1870959883738843	0.09738032184158121	0.1576341523097471	0.1075919752721422	0.0638590657026117	0.009613619834269848	0.08107719927509727	0.1884480026473966	0.009788025951936603	0.01016077475551872	0.01027324221604985	0.01006995206075849
151.32992	0.09021971145703039	-0.1214044529585276	1.412060714305879	0.8026387615009271	0.9877325002264887	-0.999025943506693	0.626812809718906	0.08530620888927896	-0.01932577688989032	-0.2889227187791537	0.007150453100098111	-0.1363331468683496	1.376589689836045	1.376589689836045	-0.00475600585595933	-0.00475600585595933	-0.1685406170460902	0.2914900897920647	-0.4516385589861846	-0.03581585131947755	-0.1228421693006954	-1.556190368912213	-1.081292488728755	0.2076178032242793	0.5871995890523651	-0.05964476344997743	2.990292349874032	0.2245033736428792	-0.8110033803448728	-2.42373708440729	-0.4323727301621924	-0.02273906407001017	-8.534578973823931	-8.534578973823931	-0.3081362398517739	-0.3081362398517739	0.7121445287503771	-6.752270688112188	-0.7000663831459485	0.5978631739636797	0.1240368450373656	0.2103382648583185	0.01036578853075982	0.006462874678192379	0.01955753899893206	0.07885950182275472	0.002058314969482593	0.1558106852514086	0.1991895719167506	0.05632427610145066	0.01020370381901517	0.009789308147140293	0.01008710691737476	0.01608548510607721	0.009923379132616428	0.009944598053660339	0.01097466013829102	0.02386801206511538	0.01155375580385161	0.01008636904870538	0.0306892701433651	0.01544597953989481	0.01118344356717643	0.09863406249471196	0.1467728236263083	0.09481205795844029	0.2009526272367212	0.0124613336557818	0.1717175330521938	0.09029990282205479	0.1239506142458525	0.1104228704065899	0.0370090816485968	0.009095865667042024	0.05327322139475819	0.1905744121047196	0.008861837760553357	0.0102091045048914	0.01027355022192066	0.01001921290512386
151.34528	0.0855760674938246	-0.1462430208295394	1.395427265010848	0.805947121662985	0.9962418028989326	-1.000065623403929	0.6671815696818322	0.08852604772148928	-0.02937109760778805	-0.3195161315395731	0.002410047952347312	-0.1330752457115208	1.237517664797579	1.237517664797579	-0.00152610615638489	-0.00152610615638489	-0.158937956243712	0.179619666319799	-0.4671980954249598	-0.02948378956346762	-0.4530576340812623	-1.643575966980793	-1.054707320179243	0.2196090640992755	0.5139494444554488	-0.07413636160739445	2.227372295300544	0.209996007968329	-0.5146136465401471	-1.575871265630212	-0.217836703161307	0.4441884503940016	-9.5380099191993	-9.5380099191993	0.7535952758040937	0.7535952758040937	0.5390308532492796	-7.366597797266904	-1.253145748162774	0.07220940075591177	0.1349201308877754	0.2049427019872814	0.01151439576796037	0.009352446408760423	0.03107291834471083	0.08568024568024757	0.004792830287036103	0.1205493937793231	0.2097591059658153	0.05119817998854362	0.01027311448449605	0.009572840925732191	0.007252428990938726	0.01157115710678715	0.00987391285981961	0.009984849837984941	0.01158481055893604	0.002982636686127723	0.006119683489689938	0.009830342739091022	0.0210150895051477	0.008312898852683825	0.009324621001335342	0.07980388707404865	0.1238864885431649	0.09592775873276051	0.2075059104051886	0.009094808435108903	0.1503926854959878	0.07149164204980807	0.08672897820334087	0.1125855214254173	0.03187315118418474	0.009206376747934531	0.03547651497709794	0.1893802517478155	0.008573728657896715	0.01035438444239403	0.01010833792372552	0.01019767985756018
151.36064	0.07623263835376801	-0.1707702527114351	1.380166952149949	0.8093061238509575	1.003361113700156	-1.001244576497185	0.6942837811555298	0.09112791138978081	-0.03496591303924364	-0.337457543577902	0.0005142210774593562	-0.1231059944748051	1.084846201052492	1.084846201052492	0.01973436499976717	0.01973436499976717	-0.1526384517288452	0.06332443673445834	-0.4869340149868876	-0.02794411453729622	-0.737651669504174	-1.50061044506934	-0.9035604075781343	0.2141390818963589	0.4105183523836359	-0.07801642323067166	1.25957404338377	0.1266151361847537	-0.2213396685529709	-0.7904953729598196	-0.05464598983062659	0.834495891485901	-10.27538414807152	-10.27538414807152	2.054487532068185	2.054487532068185	0.2649683580184742	-7.421440425034562	-1.220823157607109	0.0254078817186453	0.1370781121661529	0.1882916385567606	0.01174394556264504	0.01141034458220365	0.0378881053861716	0.08322351766709381	0.01263757983775753	0.09326993615592639	0.2137300952344043	0.04620338921673647	0.01093195393660903	0.01001432525770735	0.006128204326343351	0.006597720577810778	0.01011345914814651	0.01026363020154831	0.01105618913215025	0.005671872100167598	0.007086857202047606	0.009938906159997228	0.01994507978343455	0.009204522224168428	0.009587401036444261	0.067430503293161	0.1014421501763119	0.09681906514562651	0.2093707353844088	0.006329420799393817	0.1233610344310582	0.05201021565551948	0.05842940363094019	0.1266966338208642	0.04300399479668662	0.01067572402481253	0.02527593127293538	0.1838101145844674	0.0102189810791461	0.01075719629229105	0.009900390635851341	0.0108896807688931
151.376	0.06260849408686198	-0.1912189765062772	1.368103517341174	0.8124568229764467	1.008792362466883	-1.002420833395127	0.7055193431070045	0.09112336856748157	-0.03575669139835524	-0.3439384862944739	0.001210489204344036	-0.1082206280616065	0.9245727842434147	0.9245727842434147	0.06339737475584881	0.06339737475584881	-0.1527124394542382	-0.04942484307228408	-0.5018344646000097	-0.0262832858322808	-1.025076021077784	-1.123923629303527	-0.6442901073304911	0.1932833676368198	0.2963989013022804	-0.07406231518831553	0.1938993539135415	-0.1467627881877086	0.1208435869824941	-0.06966280350317866	0.1369499656235022	1.091827861254421	-10.47288232153231	-10.47288232153231	3.664138464988953	3.664138464988953	-0.3094617279340058	-7.139616541628204	-0.6469504174848922	0.1442943750751913	0.1233697084690178	0.1581083014930497	0.01147006038356441	0.01189553546811743	0.03659278439029592	0.07007530300601086	0.0324032600493413	0.08040345037775051	0.2053135058495346	0.04405591179247159	0.01208533369940987	0.0114297718522388	0.01065653556520842	0.001622743190519266	0.01072287404145966	0.01088506300724439	0.01042623485658541	0.01574346816130006	0.01044315333051908	0.01062558025266101	0.02112156003738826	0.01324600879273789	0.01101103512832613	0.06156652978897752	0.07916141626005906	0.09726805251650222	0.202224063053799	0.006761801422135088	0.09363592816670943	0.0378809127933136	0.04583268656022531	0.166224589576426	0.06387678230940659	0.01327931925086924	0.02004412785771612	0.1707199382763794	0.01412960095480437	0.0115003783156443	0.01005604944145079	0.01215136996165479
151.39136	0.04460658481198371	-0.2041598459263181	1.360804605785544	0.8151865416662728	1.012500444266507	-1.003490783575395	0.7004140906590541	0.08540203788246449	-0.03090302258095573	-0.3400844775175424	0.005249946947580166	-0.0901724974523801	0.7677362045680332	0.7677362045680332	0.1334776144621166	0.1334776144621166	-0.1644869180750187	-0.1527030569604183	-0.5060357631611515	-0.02396448439969583	-1.319788339472033	-0.5523377566899015	-0.2902840830918054	0.1604706947969185	0.1863754614925138	-0.06434274777215714	-0.8175558061529788	-0.6233524683713811	0.5092251341482261	0.5808684149811978	0.3932196741651559	1.261539622737759	-9.774520797703516	-9.774520797703516	5.461772246243903	5.461772246243903	-1.266064273825549	-6.456038868293666	0.1093566038101023	0.1399086239269391	0.09482268780304094	0.1166075511462653	0.01106982757218498	0.01140414979356654	0.02841527923782369	0.04876471607829192	0.07200725207982532	0.08632482578042215	0.1864389749644926	0.04414636379362617	0.01293315729699295	0.01320505672519507	0.02306553109442296	0.001812950148132984	0.01138549478004288	0.01140887680732485	0.01015284677247493	0.02360261152992115	0.01317879015657719	0.01172905993588177	0.02193431221223666	0.01666344904986787	0.01269722252900359	0.0610063426303171	0.06168000360892827	0.09270174363860437	0.1874695850415375	0.01356279435558221	0.06887564448443383	0.02869773371057526	0.0525939350966608	0.2368254161123198	0.09170838127369549	0.01484884242178586	0.01810545827926662	0.1493728494846008	0.01783848826833172	0.01242058830786819	0.01113246249375206	0.01354669341825455
151.40672	0.02247817748154219	-0.207072416670119	1.359619974410922	0.8173461747598868	1.014617350349462	-1.004369317418742	0.6808603221737424	0.07156921936309338	-0.02014297819582827	-0.3271749353641185	0.01338004085095324	-0.06972244657823436	0.6302586716325287	0.6302586716325287	0.2309222997205124	0.2309222997205124	-0.193019974306957	-0.2405120914505181	-0.5005517461442662	-0.02357741014067533	-1.563670382931863	0.1533844648090408	0.1447600714925668	0.1201228488585781	0.08833641292612264	-0.04914919245885491	-1.649556798482367	-1.193906205203284	0.8684892567621355	1.126021897839853	0.6704114920416578	1.409797651211991	-7.935445379511383	-7.935445379511383	7.18790388702969	7.18790388702969	-2.481840470427816	-5.295132035413983	0.5430627370513414	-0.1104039283376042	0.06042479392150452	0.07250584514293983	0.01071714319034644	0.0107729206669006	0.01827525952008291	0.02672183941979362	0.1309004971688574	0.1113196533205567	0.170536690547656	0.04386437540076575	0.01197073546826788	0.01332234231500834	0.04017639867260328	0.01529207992392778	0.01133428863694176	0.01090652049039617	0.01015052674962273	0.02651373420692767	0.01401862050670146	0.01254647277755667	0.02163751518011161	0.01776130248121167	0.01415911989054778	0.06604400372177111	0.05251188419861257	0.08019869984449265	0.1711747829858461	0.02837323951789598	0.05785629629895676	0.02019171759993062	0.07906019448270032	0.3299596265127991	0.1253704304327809	0.01177993680460334	0.01762969634812157	0.124171469121524	0.01573298491994579	0.01302492093922803	0.01323574185097454	0.01413011512584376
151.42208	-0.00237544863968157	-0.198580047230892	1.365579878222527	0.8188645277860672	1.015318959256591	-1.004966817077742	0.6502500528614737	0.04950910655483298	-0.00482650933102002	-0.3070032703136492	0.02519197784570477	-0.04713041845045938	0.5296731809156968	0.5296731809156968	0.3526096187436728	0.3526096187436728	-0.2404366183439283	-0.3086732168102733	-0.493285575286972	-0.02865938725614895	-1.666943136090609	0.9183653330771944	0.6312508908738368	0.0779247736789981	0.0008939331428930095	-0.02776141353094053	-2.253618705041048	-1.675649469096627	1.077318983935987	1.523828833247702	0.8640274865964161	1.528047772096032	-5.015848935997508	-5.015848935997508	8.593655759995697	8.593655759995697	-3.699706972778515	-3.903370379891173	0.301297163493951	-0.5856252982361556	0.0313332495252806	0.03756631848155327	0.0104604446797449	0.01053162182431889	0.01100804930684483	0.01241702991270391	0.1944067650965706	0.1482379728358138	0.179339846029309	0.04265731441835665	0.008023202489186766	0.009306715138299176	0.05320299120866719	0.04557040671074662	0.009891956301731992	0.008756539602791569	0.01018450493739331	0.02523011424386778	0.01284184818725393	0.01220696647290549	0.01995446399126053	0.01660937084280065	0.01519186503563861	0.07651515196503601	0.04981674011345793	0.06565394540078716	0.1597741294201082	0.04845300991163603	0.06350059737381814	0.008089344279722009	0.1181570447447152	0.4221101445905548	0.1591814044550267	0.002465762771334033	0.01656110705926872	0.1027491582030187	0.002880289270006721	0.01255511163152099	0.01509680760889859	0.01281117553284569
151.43744	-0.02740760137852558	-0.1785319748940433	1.379056767586157	0.8197630848435904	1.014683003459878	-1.005189341047837	0.6120306208865804	0.02169335462509368	0.01171353789922285	-0.2818331036518989	0.03872399387554858	-0.02345592982668909	0.4795948267243576	0.4795948267243576	0.4925068226019441	0.4925068226019441	-0.3052463322051074	-0.3578027089167851	-0.4946500427191217	-0.0420998587093557	-1.576949832291905	1.657814267455716	1.110943071547629	0.04051474767301329	-0.08696340038487604	-0.0006038704533037117	-2.670611538604432	-1.918580643771731	1.02300624172397	1.759203326420685	0.8819605262737653	1.526088850153632	-1.465574907059605	-1.465574907059605	9.554573152734491	9.554573152734491	-4.708144169543661	-2.693704909245394	-0.5674153934089408	-1.195934592722554	0.01445237440596474	0.02076032573580717	0.01033289854388409	0.01075129106697304	0.008408858433021169	0.01084350986623723	0.2381436671429108	0.1822783339778974	0.2324038315650302	0.04316918838018332	0.0024933214795374	0.001303051629621115	0.05340436288538649	0.08302863583839044	0.007658984296686544	0.006034478065070776	0.01018240430602124	0.02011078071787336	0.01021765063579917	0.01084260746355668	0.01644325480753961	0.01407372555867131	0.01569269316417751	0.08882270592084791	0.04720149656376824	0.06092804958029445	0.1567972425091928	0.06643232593022491	0.07915484781843057	-0.006613303110543183	0.1548144820818384	0.4799965667872745	0.1807303276537145	-0.007065660658259681	0.0134478181194215	0.09112844459595892	-0.01658029337424383	0.01035722973630281	0.01378749118423751	0.009200056021394499
151.4528	-0.04992177635258821	-0.1481800593779162	1.39934659769819	0.8201594208356193	1.012565261828309	-1.004972374288072	0.5685465796766882	-0.008071549508773417	0.02465896338676967	-0.2537798622655099	0.05121814964954003	-0.001289372824285701	0.484118365329388	0.484118365329388	0.6437654988494157	0.6437654988494157	-0.3838726342234009	-0.3923405800613039	-0.511114548845947	-0.06528361960484484	-1.331409565012784	2.265452011551325	1.503408431591191	0.01387810994481183	-0.1926293918621126	0.02879988565917611	-2.984951916143896	-1.898628451763647	0.6459016095529336	1.877720776317961	0.7159715488017645	1.307982684389079	1.955725531584013	1.955725531584013	10.07892938245698	10.07892938245698	-5.443851684290602	-1.847411290812798	-1.603135098349052	-1.824924094518271	0.009829697143561366	0.02371036468247322	0.01037388306398662	0.01100529284661544	0.009307321753834958	0.02144781257482092	0.2414751619763637	0.1966459485409231	0.3328755412797245	0.04753833623947308	0.001249541779021661	-0.004172946479330536	0.03942721778237301	0.1062132089502195	0.00754713308724032	0.006407365696462716	0.01028004497397567	0.009625636684783841	0.007652406905117757	0.01090795606548816	0.01029307074337211	0.01090715033307152	0.01586780586288354	0.09640350705841749	0.03833200895628398	0.07162387627918644	0.1606127476967475	0.0747163647268778	0.09213395429945996	-0.01250738844319515	0.1727563273751034	0.4732518239826871	0.1771036936815696	0.0002173703735787111	0.00826473834338276	0.0890425659792788	-0.0220810419212168	0.006839286231763386	0.006655717789834765	0.004964624279319453
151.46816	-0.06840959251535698	-0.1106298280988086	1.424560873850921	0.8202396503284395	1.008561618603457	-1.004329545861295	0.5209453903293068	-0.03659702142062433	0.02881914137540611	-0.2237290654791365	0.06050289246765444	0.01579847610058058	0.5346628443003894	0.5346628443003894	0.800261745356888	0.800261745356888	-0.4719074869411858	-0.4162373385103993	-0.540918541948063	-0.09757342321092485	-1.047511643171919	2.599885712853237	1.740603082644833	0.000607368567213549	-0.3315160645051553	0.05404400480842481	-3.245330505663414	-1.721414514749763	-0.04304844722491169	2.002832579159104	0.4517586214311913	0.8545771754080496	4.408077088863395	4.408077088863395	10.24036370689513	10.24036370689513	-5.864408442096888	-1.202473226606669	-2.213583551643405	-2.336925913957106	0.01240377033605911	0.03901255954809238	0.01056139175429968	0.01052565993075086	0.01141884889143034	0.03791962570935576	0.2010124618548551	0.1815734223400216	0.457083618252548	0.0534281849566012	0.012908620234194	0.005905825846318321	0.01957145484217637	0.09837185396645289	0.01397562382391071	0.01479262475262907	0.01064769048333426	-0.005845310444395992	0.0080478434988718	0.01677659903483422	0.001955596037901421	0.007928243454703693	0.01663018133225517	0.09340327037228367	0.0225152633493048	0.08892464612154165	0.1615608619979516	0.07182076909761878	0.09180900925050534	0.01064461969658327	0.1634024490071095	0.392916016814759	0.1450088627674105	0.04709207287269342	0.00360546379554047	0.08823408000241401	0.01844882187807761	0.004803928806197968	-0.00396363139167623	0.004997194203962694
151.48352	-0.08322583361665105	-0.07114281978563756	1.452161043855083	0.8201914931093377	1.002140493556252	-1.00337392900172	0.4700557155655781	-0.06252961488636102	0.02003173646469861	-0.1904402055590484	0.06597873751466175	0.0247291248483063	0.6111078362072295	0.6111078362072295	0.9569654065918953	0.9569654065918953	-0.562209102100083	-0.4298314405323906	-0.5751247417837346	-0.1360425064849361	-0.8491078104430113	2.521998522815857	1.810223795753768	-0.002268865859977325	-0.5037936452769669	0.0691173268672112	-3.427721370945549	-1.531250194488822	-0.95311443846646	2.291339175833953	0.2110483986541035	0.2544131865436827	5.27823231107119	5.27823231107119	10.10279707688631	10.10279707688631	-5.688349475322315	-0.4777190089179473	-2.068024753203238	-2.592634781092814	0.01603970755172908	0.05336902196276727	0.01076726666602942	0.008845082787878768	0.01291520395299095	0.05031207838203565	0.1338185797808047	0.1404830936018572	0.5580173703618981	0.05495031508963574	0.04164161566269346	0.04345834611986985	0.007905058995122024	0.06742410044846119	0.02913490992771029	0.03310596533319576	0.01127365284671115	-0.01643682278732856	0.01519369162429733	0.03098741612853228	-0.003412237747068522	0.007195287416856984	0.01913398282955902	0.07839338836946616	0.00808052726045607	0.09501436974868688	0.1437326250913183	0.06386215569912627	0.07605005603617181	0.07771647351767304	0.1300186594177148	0.2630755109259175	0.09539835677665034	0.1462682891542887	0.005804527296997526	0.07703783733148203	0.1247072922525745	0.009803901333215376	-0.005998791269415903	0.01664461568536746
151.49888	-0.09605143031713467	-0.03639554899401748	1.479864512124837	0.8201287605739176	0.9929694237440652	-1.002276163777894	0.4173057389874956	-0.0860486012621577	-0.003418150715091325	-0.150825103694433	0.06855869283264925	0.02433471965416812	0.687520488879417	0.687520488879417	1.109399840305546	1.109399840305546	-0.6407453531659546	-0.4303531691889594	-0.6032143112351304	-0.1758181040267799	-0.7851040455711445	1.989213906361273	1.756315378461992	-0.00178434046321979	-0.6835586826118406	0.0729383606124662	-3.472373230149239	-1.403038594985657	-1.908372789450316	2.827740450000523	0.07490176325936389	-0.3348826387315855	4.443635081672482	4.443635081672482	9.677007983669618	9.677007983669618	-4.360449503553258	0.4689295375751629	-1.292124061390278	-2.498122167964387	0.01729080527775585	0.05594613670741692	0.0108342903186278	0.006861132543591971	0.01305869852737531	0.05075546276598544	0.06702625286306506	0.08828473407019637	0.5870654101446591	0.04809543000946937	0.07886840894840484	0.1065021767659471	0.01780244784544781	0.04755496545519376	0.04852623085037869	0.05584028797962396	0.01189488479968815	0.0001746998207194927	0.03185051188932743	0.04915926157814075	0.005333693922895458	0.01249187764848206	0.02314441274712558	0.05551974465493499	0.01016170157731127	0.07790331645752402	0.09883956421000693	0.05795356866518682	0.05168066877984214	0.1782330623247378	0.08520099840370841	0.1304942555768641	0.04726679899239743	0.2832401471696125	0.02362147344979604	0.0516739527811042	0.276113215544561	0.02779963496379132	0.02101608321971669	0.04584562138820049
151.51424	-0.1085057447026645	-0.01245760815705127	1.506020103938544	0.8200714770159151	0.9813028875961251	-1.001170785947546	0.3649296516890345	-0.1075872391682023	-0.03979708682872962	-0.1016585740695133	0.06976732266725751	0.01576931761369206	0.7406365451200737	0.7406365451200737	1.252768880575438	1.252768880575438	-0.6859193492883339	-0.4148157197912494	-0.6185353741438708	-0.2113468899320181	-0.8009972001726624	1.122781956654245	1.615044057316616	-0.003210482075314687	-0.8221846808906927	0.07109224598047284	-3.343942917949326	-1.307942066326328	-2.670519072389895	3.545451749902821	0.04642566940581844	-0.7741493439571909	2.35168300487648	2.35168300487648	8.916532148207182	8.916532148207182	-1.486207299428905	1.557190221002455	-0.2823290442991282	-2.065281570980845	0.01662243122756024	0.04598937536485018	0.01071380775525452	0.007472520290276835	0.01214026116338222	0.03924360741609811	0.02152014700467343	0.04261926905098237	0.5230276934374164	0.03498029751921852	0.1042593295775138	0.1731309162660384	0.05411427518069382	0.07437258361274085	0.06141118628893529	0.07107701486025443	0.0121526556487384	0.0679389835737572	0.05780351303905099	0.06003387707721439	0.03964914159948454	0.02754392865910024	0.02624127661455061	0.03233583216197234	0.04119417205725609	0.04413390972817089	0.04559289271089497	0.05445432316392459	0.02919469170326645	0.2720659211240766	0.04402761580872758	0.03618383464745185	0.01545957456349893	0.415747380211746	0.06284648399109698	0.02617942078200543	0.4150144913321557	0.06021242870477761	0.09376887569454248	0.09190214944703334
151.5296	-0.1208698077033866	-0.002563227804512425	1.529002754780791	0.8200081156130062	0.9681810449567221	-1.000077732438718	0.3154333919752567	-0.1267423841244034	-0.08372815650572241	-0.04164274421454875	0.07071837269322152	0.001703845791267465	0.7573692188002816	0.7573692188002816	1.381337403712328	1.381337403712328	-0.676071276184367	-0.3827177628809139	-0.619420593782281	-0.2383480446850216	-0.7800357017688077	0.1674695658200456	1.358067785457148	-0.005282458638651335	-0.868729114507638	0.07209589968889708	-3.066442098561344	-1.157441967762909	-2.989362898357855	4.257740863604527	0.06646053700377189	-1.01100075087865	-0.1750836017020796	-0.1750836017020796	7.751965380530049	7.751965380530049	2.595791909518121	2.571927920079	0.6489309044197162	-1.438596157528105	0.01639407988938263	0.03180322441109342	0.01050531262800389	0.01445553620444992	0.01096689804794581	0.02324896415925233	0.00233967211139176	0.01441704440809941	0.3867330129920355	0.02212854622082689	0.101078272332959	0.2130165331749549	0.1059095692122057	0.1520322215844813	0.05892705272606873	0.06905448280648295	0.01186688509644227	0.1904262576984935	0.08975009319039774	0.0545653929162321	0.0999982869153123	0.05258038922945307	0.02597220483616187	0.01558699312196998	0.09851087158367175	0.01987482960244282	0.03258911024049521	0.04803065473983315	0.01589637221289524	0.3144285763011601	0.01682250553579061	-0.006766744535704894	0.003117712655019377	0.4983457532673755	0.1193418033251353	0.02805068317560986	0.4940640965379186	0.09976591579480143	0.2071052919106138	0.1449443044066643
151.54496	-0.1316840265693682	-0.006198407047442595	1.546586808899544	0.8199695974159606	0.955268494299697	-0.9989106858596865	0.2705862592002276	-0.1418966734767925	-0.1268128997339058	0.02770123729797407	0.07150464610337851	-0.01483707582105643	0.7374274080151749	0.7374274080151749	1.488570515459131	1.488570515459131	-0.6013980590744715	-0.3369342774658654	-0.6069436859490788	-0.2556479422416794	-0.6141377810807094	-0.6353154719882117	0.9393300955885586	-0.003129375588366655	-0.794815914793855	0.08049047633835918	-2.7341482432318	-0.8569555998908274	-2.669146583266178	4.777348713783486	0.05224570365332779	-1.063616695777355	-2.344613561244764	-2.344613561244764	6.153002762436618	6.153002762436618	6.789883726258853	3.305324506868531	1.385205754205682	-0.8576425161126872	0.01773912579097106	0.02213386596819549	0.01035413652816877	0.02915347037146306	0.01020804714846671	0.01115241981097132	0.001421709908328506	0.004170827000648404	0.2285720366884298	0.01470597045520654	0.07382287410119863	0.2106502900875501	0.1492338205969523	0.2430358419368412	0.04327964194865051	0.05124129443446363	0.011192474677278	0.3371494687368938	0.1229735291815459	0.03721716562166962	0.1690948942476957	0.08227995622557839	0.02338959496543161	0.007782948360281434	0.1601428458897995	0.03749625689357564	0.1097704082674991	0.03617006164313426	0.01234781521007172	0.2909526640951842	0.005460698394285689	-0.01147777134923639	0.003815006410496639	0.5139137305286027	0.1769987019838296	0.0760237865466562	0.5208595371563357	0.1320622354898234	0.3264815735192374	0.1889840550794296
151.56032	-0.1383151255603371	-0.02004893262057881	1.556655477125214	0.8200133749308656	0.9443974794248913	-0.997576026404475	0.23030897018052	-0.1503914478543982	-0.159194592965268	0.1028633575066874	0.07112938743125931	-0.03097993190643141	0.689744934461603	0.689744934461603	1.568210798235044	1.568210798235044	-0.470164428192539	-0.2828176263524638	-0.5835439865243168	-0.2659366413654416	-0.257772752168752	-1.160760449760022	0.409296258551591	0.003203307523075334	-0.6071011150415988	0.0927161378858543	-2.494106665558065	-0.3432075966178024	-1.665704507717948	5.02350947144223	-0.06413118268872421	-0.9531574360514886	-3.762008174705787	-3.762008174705787	4.184937202585474	4.184937202585474	9.918451616253742	3.648214360360726	1.846334885958658	-0.5629653047612014	0.01949660715187165	0.01934604560945042	0.01032481328168991	0.04716504523834517	0.01003158153138091	0.006395649133504334	0.007125464496056355	0.005197401082462414	0.09796916227970139	0.01295367797545357	0.04818362969589447	0.1794143790066058	0.1654098249011586	0.2938593930416666	0.02748894172115162	0.02981268164376795	0.01049959913574493	0.4569138875687363	0.1531579777600276	0.02653725423500556	0.2195448068997663	0.1079081572597136	0.02372894130584979	0.006949208250052758	0.1966481459562008	0.1134381629576562	0.2837410460867457	0.02370891160773387	0.01405482677598485	0.2267212576001157	0.005032224687602187	0.0009875264870093702	0.008857075408270125	0.4818056257391077	0.2152278584860012	0.1558231083983687	0.5399183763689724	0.1439730508522882	0.4037933912626583	0.2094481724505466
151.57568	-0.1381075100754351	-0.03993578707720723	1.558987455387837	0.820120137391135	0.9370623321382751	-0.9960846388765905	0.192178847439664	-0.1492859169111509	-0.1723630094223148	0.1800278869920463	0.06797073187825983	-0.04398649539319984	0.6256438873507926	0.6256438873507926	1.615862802781826	1.615862802781826	-0.3038443371320348	-0.2265228516115911	-0.5533378175549666	-0.2749106215976987	0.2515039600941285	-1.419204105048307	-0.05459274941928915	0.005097730016046142	-0.3412324102073723	0.099528269691255	-2.482354306572686	0.3666064456244433	-0.1761840936263414	5.032999673848871	-0.3001139155548989	-0.6877145479296257	-4.490384446261483	-4.490384446261483	2.015789567027703	2.015789567027703	11.42494460146082	3.602993335578014	1.960170749546704	-0.6899216568901161	0.01972661777568614	0.01999083553352773	0.01036916170670118	0.05923724793146053	0.0101943828805638	0.007161853864029129	0.01171521800132134	0.009870326640601466	0.01803830671956892	0.01365099729815657	0.0495405397277995	0.1506700167635591	0.159070634921759	0.2752137987816818	0.02442973403519055	0.01730495381449583	0.01008784401372127	0.5111695151030785	0.1774151111616014	0.04106756515543393	0.232300458625777	0.1227668311267581	0.03256891724376322	0.009163255032703148	0.1915617564332207	0.2312133397916826	0.4976892414072849	0.01792673159778967	0.01591968441909654	0.1609165400280111	0.008809037933298807	0.01704426000242273	0.01268055271531725	0.4363304257278134	0.2221075930705217	0.2204537489803806	0.5692641595011159	0.1323797209260247	0.407194569984463	0.2003864062418496
151.59104	-0.1295934419738914	-0.0623628095241454	1.556252171962433	0.8201216214595528	0.9340980502738487	-0.9945883485371226	0.1522391282470665	-0.1368538635485229	-0.1624293012368475	0.2562451347533921	0.06067371587061886	-0.05166726989551899	0.5536977112849799	0.5536977112849799	1.630176210953445	1.630176210953445	-0.126676319386312	-0.1735032752584393	-0.5206978644742926	-0.2890567167969483	0.8054717436142407	-1.491301731084252	-0.2615185266264725	-0.00825768092459395	-0.04497437341559375	0.09261107938779353	-2.739010500019865	1.132280116158935	1.39096738145974	4.887247459454994	-0.6028771990201647	-0.3149597448244545	-4.800911905717841	-4.800911905717841	-0.1400278266412461	-0.1400278266412461	11.42562836860653	3.252486325097207	1.884002386886285	-1.20536206076236	0.01754218945995527	0.01946686141954602	0.01039248706803122	0.05777552466090228	0.01035482842589714	0.009717197024552232	0.01303871872005897	0.01374437560220788	-0.01635994484134001	0.01403657805786828	0.0794991811654643	0.1451028261871702	0.152673507160328	0.2021906290564492	0.03566696286146304	0.01700517000158933	0.01000535685841323	0.4983544037202706	0.1944841403667999	0.08192149432094709	0.2101990859087601	0.1263984233925041	0.05053732002285903	0.01125095791156375	0.1527814525246782	0.3438040757962748	0.6628941633501116	0.02091126060142588	0.01531241478894286	0.1159544626988192	0.01229791755539169	0.03303450898634479	0.01376058355442518	0.399767585349358	0.2025446711106719	0.2250445589082861	0.5736218054391006	0.1049911123217782	0.339810008963658	0.1666141021804321
151.6064	-0.1132449875779039	-0.08506100431695875	1.552933142936524	0.8197544528963584	0.9356150082985738	-0.9933219597377287	0.106948046260042	-0.1141823521233648	-0.1318083612036406	0.3295394651295835	0.04905372772378717	-0.0533661026846589	0.4788820627557825	0.4788820627557825	1.612863639128697	1.612863639128697	0.04054044975932352	-0.1275332892635995	-0.4863597620155635	-0.3130219278422491	1.267248069364412	-1.459998998440358	-0.1550487896105581	-0.03996073696404957	0.237038956916417	0.06968389960542763	-3.165337828766326	1.723630536012987	2.596145031164026	4.642313220600343	-0.8694010076093366	0.04856638965660617	-4.886504300637947	-4.886504300637947	-2.106389923892888	-2.106389923892888	10.18744808346275	2.724197462279637	2.041107443257577	-1.918299461194191	0.01351910809902483	0.01543594499257142	0.01034071569112374	0.0435324185377579	0.0103112721543911	0.0113023254499988	0.01225463760655442	0.0157715274654111	-0.01946946524929288	0.01485934054128361	0.1134806191885813	0.1538101280269173	0.1609961106026679	0.1230739611976715	0.05067649509471107	0.02269045238613244	0.01010084595314207	0.4487239134206552	0.2035811681334779	0.1284649892900836	0.1744683513849966	0.1234211895424546	0.07118280120761009	0.01177666688982022	0.1055863137017625	0.3985199710303811	0.7185900340563295	0.02773038005208835	0.01224979048439719	0.08955574990035235	0.01406054367793342	0.04892740853335236	0.01288127747777222	0.3729753503811963	0.1739263814974883	0.1691829933048559	0.5070545611505649	0.07337496953249836	0.2338284024827169	0.1203654929871855
151.62176	-0.09143447732540692	-0.1068963561798565	1.552852183991619	0.818811922777169	0.9411139218617117	-0.9925047062953504	0.05514275520725174	-0.08559798916306761	-0.08801038597911243	0.398442390529218	0.03443179232197825	-0.05054922478146784	0.4044712936223537	0.4044712936223537	1.567488742893919	1.567488742893919	0.179066422333932	-0.09020434943959685	-0.4457809508129936	-0.3476890209601207	1.526834699155049	-1.388211502439666	0.1394264197886306	-0.0811789815616058	0.470615178635802	0.03485380514729413	-3.565529577750428	1.93855750771598	3.168118215866349	4.314044501579934	-1.002960353497257	0.266529218141372	-4.779977633167728	-4.779977633167728	-3.806669872814637	-3.806669872814637	7.71722249758521	2.163015791876276	2.734813123481014	-2.554415251282272	0.009172513367672256	0.008742476208592498	0.01024005036077611	0.02512666839526997	0.01007882089770406	0.01097690177856677	0.01105038846876608	0.01647878694023833	0.004653152104036197	0.02068506363828762	0.1223852189141994	0.1498771020763299	0.1752274883255303	0.09191555491363014	0.05654621586246835	0.02597730610883678	0.0101964442036208	0.3965337114231382	0.2021273006538534	0.1526778047449654	0.1472545982756499	0.1177781888347875	0.08414948990764747	0.01067227981483871	0.07468595801824399	0.3704273869529487	0.6663714888878662	0.03127905402475083	0.008418257343145354	0.06889789093545055	0.01433464978914054	0.06278773827801992	0.01147141400287626	0.3435699343005782	0.1523214654715081	0.1033828888306526	0.3677383742323063	0.04617074908194255	0.1291316896225725	0.07575101796453734
151.63712	-0.06763914059653656	-0.1276244607776186	1.557105211114749	0.817281339636362	0.9496737042286143	-0.9922667977316768	-0.001295840314936968	-0.05730563340129196	-0.04054380438085425	0.4615507758282363	0.01915894226050175	-0.04620595372629368	0.3335840564259421	0.3335840564259421	1.497693335426469	1.497693335426469	0.269554122082735	-0.0608295085849332	-0.3929773462784886	-0.3896807278420933	1.545749814358905	-1.318004511161954	0.3993032146238851	-0.1159363098026129	0.6338225801881484	-0.004505564665002976	-3.757143570308497	1.721275020222863	3.077524462196124	3.891107823326022	-0.9670806433831767	0.269275241710229	-4.455866446999553	-4.455866446999553	-5.271792834833947	-5.271792834833947	3.982756442237783	1.704291272731809	3.796377888046929	-2.85419753043977	0.00665557051664814	0.003373567383573257	0.01017576118014869	0.01173116277488731	0.009871730715324406	0.009300309271882832	0.01026683022815454	0.01669136009726395	0.06176602539469713	0.03600662996509355	0.0975066078959493	0.1179190995657553	0.1738559354672175	0.1387710102292699	0.04856568631664336	0.02330621076444976	0.01020984894719101	0.3548230066317975	0.1854514367843341	0.1401508094646623	0.1354988066174079	0.1084488090633495	0.08175103072417333	0.008792880721959492	0.0700048858091669	0.2795969833894252	0.5535967305160516	0.02825453680519875	0.0068254323718608	0.04688090030184107	0.01369429231461463	0.07110582956096261	0.01106931971804311	0.2991507134161143	0.1409003134391354	0.08833972470083179	0.2031216420369013	0.02737696943986936	0.05362695694530367	0.04359857856615348
151.65248	-0.04522019350469264	-0.1474967821496275	1.563775612369512	0.815368227657954	0.9601527371687237	-0.99262705607061	-0.05854419732415249	-0.03494170871791328	0.002052988095569233	0.5172157772751983	0.005596219508116325	-0.04328241166443077	0.2691110489812255	0.2691110489812255	1.405916200172452	1.405916200172452	0.2958692928301272	-0.03687220906866057	-0.3261975101079447	-0.432346892886642	1.374241855955133	-1.258842905651601	0.4491887886677187	-0.1310397756999787	0.7177559207697857	-0.04117760790388821	-3.674314967488674	1.19508717664648	2.483839770138854	3.341808031567813	-0.8041040376654283	0.1067875468796456	-3.93393571955699	-3.93393571955699	-6.59317219755859	-6.59317219755859	-0.5286607794627929	1.438814904788273	4.726427854119905	-2.652622564854722	0.008634346186996452	0.005883468154741108	0.01023342456953424	0.006743259049162663	0.01003561432300433	0.007973869770740693	0.009919283100612662	0.01758811439706877	0.1486644738710024	0.05867646526825071	0.05503622243742874	0.06856956339643853	0.1458828326318449	0.2455695554265634	0.03229909864209794	0.01697450693738659	0.01016080379910235	0.3132417086715741	0.1511691012461873	0.09921375896023092	0.1297692522916849	0.09182959291331247	0.06435290662004908	0.007931657037196917	0.08511371196047583	0.1757891484497471	0.4306691829665424	0.02094465368216298	0.01167174858947645	0.02607374382170899	0.01284450689970314	0.07283383855086764	0.01319507619887188	0.2367236862168579	0.1305760654731119	0.1434146481259405	0.07084109832664463	0.01741179520861447	0.0150923714672465	0.02757320046045093
151.66784	-0.02621848410828676	-0.166587072589894	1.569367392626269	0.8133978515068292	0.9713779743057271	-0.9935062638933837	-0.1128453863595994	-0.02141846414976843	0.03407961066884133	0.563325249303997	-0.004977324664945167	-0.04315054100204926	0.2132213763226986	0.2132213763226986	1.2935386028934	1.2935386028934	0.2539921403813871	-0.01504490662829129	-0.2499561280547201	-0.4677315523670613	1.131754175102427	-1.17646000105515	0.2517338362682738	-0.1231760134608504	0.7267579608809815	-0.06989214305835001	-3.384095362791306	0.5943324382808246	1.643804451492564	2.625686515040788	-0.6155423482942592	-0.07983411812276923	-3.266325085752241	-3.266325085752241	-7.838888589340053	-7.838888589340053	-4.741458123207381	1.377582851211642	5.112833989972315	-1.919697162212183	0.01727764341632933	0.02275783476051886	0.01043004951252028	0.007699796036799772	0.01089876026503129	0.009499305124517753	0.009806777304530136	0.02099318509978551	0.2386049332622353	0.0778643870352821	0.01904722941883658	0.02540727619793838	0.1015224642280428	0.3471100704803312	0.01707223009898233	0.0112621386108384	0.01010712225360167	0.2565366809693415	0.1046923699755566	0.05204306479753494	0.1167231563128706	0.06809734201865499	0.04047471854690415	0.01068753642705532	0.1061283579640344	0.1025587974337513	0.3231220173550194	0.0142941538070662	0.02685634386455611	0.01207703241269649	0.01303450421935044	0.07143052219380054	0.01858202679671586	0.1649498020373329	0.1111032179528384	0.2315387434642648	0.001062673693460242	0.0140359693112081	0.00482675581644224	0.0234163884071737
151.6832	-0.01063726606179785	-0.1840649198919771	1.570681960751888	0.8116751807166303	0.9822936913518304	-0.994750563562408	-0.1619589735038691	-0.01615853857438802	0.05357017747810524	0.5973873341232994	-0.01310469528260696	-0.04515169326965609	0.1680193677275739	0.1680193677275739	1.162662522259554	1.162662522259554	0.1561877698988252	0.007088005087922861	-0.1726961653905905	-0.4887982016848215	0.9531374355044272	-1.009599740762021	-0.1122672021484265	-0.09834836271916055	0.6759581659567258	-0.0875630884578964	-3.012844631670151	0.1409602009371192	0.8266146146007863	1.731073489004951	-0.517620000793617	-0.1559953601677677	-2.457180135012002	-2.457180135012002	-8.967019491619766	-8.967019491619766	-7.660990702304325	1.438696050454286	4.866087370240789	-0.7671501958610135	0.03226416724201737	0.05545639857208202	0.01067738734116015	0.01028976420502197	0.01257914451421092	0.01616246777976694	0.01005300645331444	0.02860844733158016	0.2914457652078151	0.08190191565625546	0.002847007545389812	0.003666606165586394	0.06207628372011913	0.3728931437294791	0.008608669537564784	0.008553601284055933	0.01008507695079244	0.1829752044187425	0.05864812913898384	0.0181366396262424	0.09155728740190046	0.04355795534677407	0.02115525175191355	0.01934414593427108	0.1220784292800702	0.07272073916547758	0.2347160594406456	0.01171682744461736	0.05290198673310997	0.006707454071887815	0.01589331578013174	0.07204558646329029	0.02614891109552318	0.09869044934463128	0.08113042335443668	0.2922821019728084	-0.01149374037974488	0.01362183211823354	0.007815394096651124	0.0230120057659359
151.69856	0.00344710822335112	-0.1979380399778245	1.565882622768417	0.8103939987518317	0.9920494926367898	-0.9961561993285848	-0.2052991178780092	-0.01596752586898718	0.06235213688062035	0.6171611937527729	-0.02119980693214925	-0.04744652807813322	0.1370530157500713	0.1370530157500713	1.018499086476824	1.018499086476824	0.02472637482643878	0.02969296428814306	-0.103015833892582	-0.4912726873258743	0.9281556264511388	-0.7135746067297681	-0.5286243768310035	-0.06625887132191682	0.5853937626735535	-0.09295204648195775	-2.657506308362745	-0.05794442855481176	0.2432511574915375	0.7250050353742052	-0.5923783395117854	-0.08495640292641292	-1.445488398305516	-1.445488398305516	-9.780744865795683	-9.780744865795683	-9.040861368306032	1.475829750701386	4.1647665098325	0.567484665524064	0.04983017260123629	0.0969048212884526	0.01083878591513787	0.01176597931050104	0.01494550366261332	0.02816557035425486	0.0112771129924712	0.04036354044013175	0.2822376570669197	0.06907841524251435	0.004307105845680847	0.00224573908296807	0.04170519826098185	0.3029921980971342	0.006865637062833019	0.008518588696339768	0.0100931351528812	0.1067111331218	0.02519452252979127	0.00399228212057083	0.0602936958175263	0.02595973338275176	0.01269412591155442	0.03392697876599677	0.1294596441198978	0.07199700958999453	0.1648468976408141	0.0130925608500169	0.08463616304420714	0.007210188315680568	0.02212881395188706	0.0772025676029888	0.03358730235290248	0.04987913986646633	0.04861916793485714	0.2899252918713981	0.007979486364838199	0.0132628316450174	0.01229422605005305	0.02064232365146415
151.71392	0.01894330945520917	-0.2056397906378704	1.554522869943592	0.8096207532265256	1.000051691592385	-0.9975060760478358	-0.2432277608139389	-0.01687705845170854	0.06506328479526707	0.6216946027419676	-0.03271743517843182	-0.04839614120377667	0.1255526524033622	0.1255526524033622	0.870234181961779	0.870234181961779	-0.1193294095200276	0.05043587011191293	-0.04689572516296305	-0.4746198905972187	1.070222725947117	-0.2977502930546901	-0.918589035852911	-0.03505357140596808	0.4730620043688237	-0.08636941866602038	-2.349318986542538	-0.03247315083601493	-0.001736069582268254	-0.2328792588103392	-0.8579936451372399	0.05428330505446163	-0.1894240351033847	-0.1894240351033847	-9.972431939549551	-9.972431939549551	-9.344677482355429	1.343782204456309	3.265465927727212	1.769198989151854	0.06474410126667537	0.1339599755283964	0.01087160057336934	0.01173198150017552	0.01784556030054247	0.04218098489192365	0.01434832045524329	0.05349721208253164	0.220621880650054	0.04869479671247986	0.01296539073427023	0.01016720154222112	0.0390138463196928	0.1835976748489872	0.008524886976846533	0.009561404107974989	0.01011033609532832	0.04655924884279211	0.008620821041914285	0.004072672522083321	0.03358926949532078	0.0181769694102214	0.01340710901293239	0.05098168124796097	0.1302198757685862	0.07792920670831725	0.1155118604441062	0.01570961980237332	0.1124838495946997	0.009510995473346969	0.03003545490965774	0.08619182902256589	0.04011398223278397	0.02197077927141432	0.02353224535407873	0.2333075813159125	0.03295776186774151	0.01210919074327996	0.01364874386095269	0.0159148983634455
151.72928	0.03832376481230718	-0.2053376176887853	1.537155594136032	0.8093200515029717	1.006040918871806	-0.9986284684391185	-0.2764575729015022	-0.01590977379201637	0.06702353265398482	0.6121739752579287	-0.05057642003569376	-0.04743583267822917	0.1378355501466106	0.1378355501466106	0.7284035536213073	0.7284035536213073	-0.2631723041944803	0.066017383521528	-0.006491324269556314	-0.4418227010451914	1.329780491412765	0.177924513270226	-1.256896202626125	-0.008990346069910652	0.3506799774307494	-0.06943763484727497	-2.072516148737671	0.1071297715744758	0.07531738919828534	-0.9541987095326677	-1.273357789423857	0.1284103801393685	1.256440172559397	1.256440172559397	-9.275025361582758	-9.275025361582758	-9.214095819734354	0.9655035575922265	2.344093868952831	2.550552640179882	0.07376410273846001	0.1549865934119788	0.01090602333442281	0.01110861036725017	0.02133501008914317	0.05242168643137681	0.01988950786366384	0.06376899178683214	0.1421293530356116	0.03159543721082689	0.01885902194111803	0.01649154597789996	0.04324770069913789	0.08619818506574542	0.01033216270656089	0.0103663457278878	0.01011993108193437	0.01379753114854048	0.004881408577444278	0.008624697501832338	0.01939210978042393	0.01683532080641029	0.01651947752475295	0.06488226830346436	0.1274049706262987	0.07430754963671996	0.08495138232059027	0.01663451039979807	0.1274039871370869	0.01098511219819055	0.03577643752562391	0.09791447080423463	0.04830211728591435	0.01122958252867198	0.01076464199325485	0.1569957850089793	0.045627892931578	0.01081598142497423	0.01255575703997434	0.01158191632497126
151.74464	0.0623210451299625	-0.1973047092436589	1.515111302312332	0.8093823704485092	1.010215693998555	-0.9994648222670903	-0.3060219598910833	-0.01203137859866734	0.0716435145528644	0.5920100519777494	-0.07545188425758473	-0.04499414794705145	0.1730393233517384	0.1730393233517384	0.5992485373731145	0.5992485373731145	-0.4025011729318259	0.07481812146347992	0.02010759804622819	-0.398030806896863	1.639759053610688	0.6489386008156545	-1.55381354772729	0.01146780879091821	0.2239229030653026	-0.04485343269613602	-1.801124427842049	0.2579199468714436	0.3727648004668419	-1.344373681142835	-1.772488934750188	0.04894869897900408	2.777082487806624	2.777082487806624	-7.661633883184582	-7.661633883184582	-9.058418954330882	0.3597176528957367	1.458454112737628	2.799114609877996	0.07716147917538591	0.1566613814418132	0.01112211630768021	0.01079363315632758	0.02554318373141532	0.0546971129841376	0.02782586558603828	0.06841344045040021	0.07911803419520261	0.02194014470406423	0.01746212078022267	0.01607151265431733	0.04536760270121323	0.05204054232031149	0.01079338923859229	0.01046950214999721	0.0101183207043071	0.007452950893902481	0.007007954125284671	0.01099152007850026	0.01910464133235899	0.01654606141928569	0.0162238510990637	0.0716781883861686	0.1227999943617258	0.0557545063467654	0.06470670772811223	0.01458042965650836	0.1262932164220782	0.0109829455980218	0.0362294011126813	0.1123258542236083	0.0616308510681608	0.01131430406397328	0.00872173024101288	0.0892538944214564	0.03988654395852328	0.01012592924428524	0.01105548192193414	0.009738565773069509
151.76	0.08941623778073349	-0.184476110858668	1.490463012450487	0.8096427824152161	1.013297527715404	-1.000104419535404	-0.3335074504506361	-0.006124345617093001	0.0789144677396889	0.5661752550753663	-0.1049496784034692	-0.04185075772512731	0.2225911805068998	0.2225911805068998	0.4801536276290778	0.4801536276290778	-0.5384133741348952	0.07877009180827189	0.03857361605758834	-0.3488952648470015	1.95888672287637	1.094409361595701	-1.830586201708417	0.02848495119531887	0.09534210567949611	-0.01617331961639115	-1.524004417372961	0.3837530296612875	0.7710970497249949	-1.493360433827031	-2.302287772219482	-0.1568582851599724	4.298399954974768	4.298399954974768	-5.458314779538938	-5.458314779538938	-8.981533027148556	-0.3783832192930562	0.5993095166980659	2.675188825180697	0.07746664693273256	0.1455281620900784	0.0115328287762173	0.01094808664746007	0.03030128841716985	0.05039821393409327	0.0372423690927031	0.06855366626219678	0.0366562323299987	0.01730875075990962	0.01044365931409727	0.01027778816497801	0.04364468568824043	0.06836276894730196	0.01013022506422255	0.01007433434570575	0.01011020003769121	0.01672049518239042	0.01044137331735721	0.0102697167798198	0.02767622637014782	0.01490614447124819	0.0119241248215399	0.07258600641993668	0.1172966545824371	0.02674077414032703	0.04687212611239551	0.01036269756162523	0.1142612983636922	0.01004407320001082	0.03214072662087657	0.1288705924228183	0.07983447612657567	0.01636231935604848	0.0123489763023728	0.03494952140142293	0.02111375271016989	0.01004694794405069	0.01001697946343087	0.01003508994528654
