PassiveFiberForce
version=1
nRows=51
nColumns=5
inDegrees=no

This analysis gathers basic information about muscles during a simulation (e.g., forces, tendon lengths, moment arms, etc).
Units are S.I. units (second, meters, Newtons, ...)
If the header above contains a line with 'inDegrees', this indicates whether rotational values are in degrees (yes) or radians (no).

endheader
time	recfem_r	vaslat_r	vasint_r	vasmed_r
    150.99200000	     83.08564641	     75.61624676	     27.42099016	     48.31837424
    151.00736000	     84.67816799	     75.19353028	     27.16902924	     47.84770647
    151.02272000	     87.84896390	     77.02628028	     27.84177043	     48.83464411
    151.03808000	     95.19150673	     82.72991641	     30.07682382	     52.29944366
    151.05344000	    109.35735568	     93.43741345	     34.28925674	     58.90415271
    151.06880000	    133.22716302	    109.93108577	     40.76887997	     69.05781878
    151.08416000	    169.86298110	    132.48783905	     49.69217712	     82.87799925
    151.09952000	    222.90937875	    161.38981881	     61.35864714	    100.58351339
    151.11488000	    295.12142858	    196.24950466	     75.90363839	    122.12335240
    151.13024000	    385.04539226	    235.58136230	     92.96380010	    146.68304388
    151.14560000	    493.17035242	    280.53798148	    113.28683015	    175.26191806
    151.16096000	    610.00305328	    328.70577094	    136.30050367	    206.85962463
    151.17632000	    708.08507538	    374.42531425	    159.71017042	    238.20352330
    151.19168000	    762.24817493	    417.49443130	    181.96715625	    267.45108732
    151.20704000	    757.96220760	    464.29611292	    202.51392565	    295.05452702
    151.22240000	    705.45126063	    508.02367708	    221.89201989	    321.48306739
    151.23776000	    616.62555098	    540.55590042	    236.63341442	    341.57902192
    151.25312000	    507.81657701	    554.27464917	    243.03838706	    350.25651818
    151.26848000	    398.75358598	    546.23862110	    239.58110433	    345.45217548
    151.28384000	    303.55681800	    520.13726628	    227.97237194	    329.52242724
    151.29920000	    227.40047532	    482.99868533	    211.57287536	    307.08233278
    151.31456000	    168.49558013	    440.86745314	    193.25742800	    282.10188187
    151.32992000	    121.76474617	    398.73725918	    173.87642998	    256.51008062
    151.34528000	     86.00359510	    356.85834118	    151.76200811	    227.26371087
    151.36064000	     59.33181387	    307.31324322	    127.26692604	    194.21272639
    151.37600000	     40.58538773	    254.28346090	    102.64181554	    160.13658477
    151.39136000	     29.08349158	    207.34264930	     81.86000623	    130.70911583
    151.40672000	     22.66049140	    169.67051115	     65.83216366	    107.35726544
    151.42208000	     20.82687151	    145.72225780	     55.81873055	     92.39312105
    151.43744000	     22.96033955	    136.89000890	     52.02173276	     86.59712417
    151.45280000	     28.68905212	    141.38038955	     53.61457842	     88.96593132
    151.46816000	     38.18431408	    156.05822871	     59.42502735	     97.71723873
    151.48352000	     51.80327869	    176.40302325	     67.78003995	    110.18099029
    151.49888000	     68.77907194	    196.17355111	     76.17325085	    122.51586097
    151.51424000	     85.97665726	    209.14167861	     81.86983384	    130.76922579
    151.52960000	     98.83836147	    211.85798482	     83.20617840	    132.68357225
    151.54496000	    104.35125456	    204.48723012	     80.16818765	    128.29916642
    151.56032000	    103.14646117	    189.87640877	     74.03268051	    119.39213551
    151.57568000	     98.34471126	    171.48436978	     66.36796290	    108.13492314
    151.59104000	     93.07318131	    152.07391835	     58.39120167	     96.25804560
    151.60640000	     88.88740524	    133.30106715	     50.79342823	     84.78227010
    151.62176000	     85.84076650	    116.16325148	     43.92477774	     74.25498382
    151.63712000	     83.27739618	    101.34316437	     37.98796238	     65.03357766
    151.65248000	     80.71210747	     89.32590501	     33.13026270	     57.40842322
    151.66784000	     78.17774821	     80.20399756	     29.38503204	     51.48447983
    151.68320000	     76.24398676	     73.86042114	     26.72908927	     47.25289730
    151.69856000	     76.10368292	     70.40019656	     25.23738859	     44.84019065
    151.71392000	     79.40414997	     70.18447613	     25.08373863	     44.52506827
    151.72928000	     87.88510001	     73.58107595	     26.41780773	     46.55910910
    151.74464000	    102.86576119	     80.60072286	     29.20875859	     50.91293623
    151.76000000	    124.24386937	     90.39525361	     33.07413866	     56.97923126
