PassiveFiberForce
version=1
nRows=51
nColumns=5
inDegrees=no

This analysis gathers basic information about muscles during a simulation (e.g., forces, tendon lengths, moment arms, etc).
Units are S.I. units (second, meters, Newtons, ...)
If the header above contains a line with 'inDegrees', this indicates whether rotational values are in degrees (yes) or radians (no).

endheader
time	recfem_r	vaslat_r	vasint_r	vasmed_r
     15.81332731	    139.34265221	     76.16150232	     28.15159068	     48.36263524
     15.82599396	    129.93716008	     71.64096591	     26.34313790	     45.51443080
     15.83866062	    123.48114965	     69.45474641	     25.43209187	     44.05297241
     15.85132727	    123.35459102	     71.21331954	     26.05398692	     44.97695993
     15.86399393	    133.11201290	     78.17278983	     28.69536882	     49.06199507
     15.87666058	    157.14493783	     91.42483169	     33.77526462	     56.94999086
     15.88932723	    201.44128500	    111.86761921	     41.72258576	     69.17227622
     15.90199389	    274.40065737	    140.33506355	     53.13520217	     86.35977067
     15.91466054	    382.04525443	    175.94497427	     68.05774806	    108.18628588
     15.92732720	    525.05742704	    217.74277854	     86.43566922	    134.25278605
     15.93999385	    698.24324042	    263.81669450	    107.95579980	    163.93292207
     15.95266050	    862.21460830	    306.96232528	    129.70629833	    193.03331298
     15.96532716	    981.59977856	    346.46883997	    150.12171481	    219.71902849
     15.97799381	   1038.09858299	    389.59106645	    169.13061158	    245.01936998
     15.99066047	   1047.63162857	    433.89810926	    188.76085968	    271.54884362
     16.00332712	   1016.79480286	    476.98009741	    208.28456289	    297.92659438
     16.01599377	    947.04340945	    513.86226482	    225.37610443	    320.91743062
     16.02866043	    841.99398214	    537.04714421	    236.36189445	    335.58449712
     16.04132708	    711.73289420	    540.17026853	    238.02438591	    337.71959910
     16.05399374	    573.02606538	    522.24377158	    229.81929438	    326.63834763
     16.06666039	    442.93860821	    488.35621289	    214.27296303	    305.65875926
     16.07932704	    332.32851522	    446.14203136	    195.16483575	    279.81344963
     16.09199370	    244.40306316	    401.41514649	    175.30986568	    252.95763950
     16.10466035	    176.34454171	    357.01028779	    156.01521314	    226.93097326
     16.11732701	    122.37445030	    315.96202761	    135.75214088	    200.56720038
     16.12999366	     82.47814436	    272.60952099	    113.66516150	    171.22943901
     16.14266031	     54.80109244	    224.75954073	     91.08400934	    140.40871562
     16.15532697	     37.90988478	    180.54520849	     71.36079106	    112.77106504
     16.16799362	     28.38095465	    144.43766852	     55.99492413	     90.63593143
     16.18066028	     23.63379974	    117.84017793	     45.01932963	     74.35749166
     16.19332693	     22.41523798	    102.27381236	     38.65233998	     64.68965186
     16.20599358	     23.67706341	     96.46533756	     36.18466806	     60.85506132
     16.21866024	     26.90758458	     98.45955828	     36.81611208	     61.77276915
     16.23132689	     31.97687793	    106.42295167	     39.84803278	     66.38824168
     16.24399355	     39.04873229	    118.64151024	     44.65206473	     73.67977463
     16.25666020	     48.50412468	    133.14148851	     50.50673243	     82.47479455
     16.26932685	     60.88346366	    147.42860334	     56.42621975	     91.25163593
     16.28199351	     76.87772457	    158.77500580	     61.25013266	     98.31231392
     16.29466016	     97.10727758	    164.89191860	     63.94239331	    102.21306332
     16.30732682	    121.20538719	    164.33848030	     63.82743925	    102.04058020
     16.31999347	    146.24727458	    156.71436475	     60.72698242	     97.54286495
     16.33266012	    165.96816235	    142.84863659	     55.04815975	     89.24053803
     16.34532678	    173.55817848	    125.03682703	     47.82115718	     78.53697160
     16.35799343	    167.49213177	    106.73859107	     40.49218419	     67.50753475
     16.37066009	    153.57421504	     91.41107139	     34.38509772	     58.15239410
     16.38332674	    140.68876978	     81.48927033	     30.37760574	     51.90280647
     16.39599339	    136.33681871	     78.21801143	     28.95361512	     49.61257133
     16.40866005	    145.67093855	     81.92441902	     30.27168646	     51.59671357
     16.42132670	    173.25734619	     92.64633968	     34.35159077	     57.89227706
     16.43399336	    223.98793525	    110.09110235	     41.11581980	     68.27283722
     16.44666001	    300.48436192	    132.92233560	     50.18157863	     81.96054756
