FiberPassivePower
version=1
nRows=51
nColumns=5
inDegrees=no

This analysis gathers basic information about muscles during a simulation (e.g., forces, tendon lengths, moment arms, etc).
Units are S.I. units (second, meters, Newtons, ...)
If the header above contains a line with 'inDegrees', this indicates whether rotational values are in degrees (yes) or radians (no).

endheader
time	recfem_r	vaslat_r	vasint_r	vasmed_r
     14.80666129	     -1.12970676	     14.94862613	      5.52724180	      8.32374001
     14.82012794	      4.19059355	     12.74555145	      4.70169930	      7.14204029
     14.83359460	      4.55404339	      8.86826427	      3.27352440	      5.00451887
     14.84706125	     -1.61154297	      2.52114400	      0.93175350	      1.42870404
     14.86052790	    -14.24913123	     -6.32653728	     -2.33688994	     -3.57937176
     14.87399456	    -33.50174791	    -17.57092709	     -6.48147169	     -9.86459201
     14.88746121	    -60.74853003	    -31.13324940	    -11.52588417	    -17.31446269
     14.90092786	    -97.53945689	    -46.40573688	    -17.48125736	    -25.75427408
     14.91439452	   -140.24176951	    -60.75305248	    -23.55783205	    -33.85187405
     14.92786117	   -179.89490953	    -71.48047393	    -28.77820560	    -40.21362748
     14.94132782	   -216.62665953	    -81.79014706	    -34.38694998	    -46.95679117
     14.95479448	   -212.46113187	    -81.49980171	    -36.11088428	    -48.02402760
     14.96826113	   -162.24434056	    -73.13138587	    -34.38152809	    -44.59218414
     14.98172778	    -84.34638384	    -62.37229063	    -31.13522697	    -39.56217119
     14.99519443	      2.32796996	    -58.39224344	    -27.15619306	    -33.91217727
     15.00866109	     84.83332630	    -53.27256703	    -22.06004764	    -28.40539805
     15.02212774	    144.82838824	    -43.82558639	    -18.24416373	    -23.53342523
     15.03559439	    177.55718888	    -29.60199439	    -12.40544696	    -16.00205663
     15.04906105	    187.52993859	     -9.75980648	     -4.10597322	     -5.29663190
     15.06252770	    175.11161608	     13.64422025	      5.73805269	      7.40195972
     15.07599435	    147.36781658	     36.22111753	     15.15939502	     19.55411737
     15.08946101	    116.58062637	     54.33722531	     22.56244995	     29.10687452
     15.10292766	     91.93690268	     66.57501167	     29.22332703	     36.19490654
     15.11639431	     70.99433957	     70.50761834	     35.58159934	     44.95983804
     15.12986097	     54.07456204	     83.45920840	     39.56116361	     51.15481131
     15.14332762	     40.44069238	     92.06224480	     40.76319634	     54.22868584
     15.15679427	     28.29950482	     88.36152575	     36.93549234	     50.58525751
     15.17026093	     18.21076060	     73.11109315	     29.19994141	     41.01605358
     15.18372758	     11.66516942	     57.87040367	     22.27174039	     32.20676615
     15.19719423	      6.65141394	     39.08628847	     14.65803129	     21.68343444
     15.21066089	      2.95415392	     20.62536843	      7.63698053	     11.46914174
     15.22412754	      0.03973424	      3.81585915	      1.40895397	      2.12958589
     15.23759419	     -2.64279645	    -11.70956947	     -4.32687252	     -6.52572850
     15.25106085	     -5.43242882	    -25.96631319	     -9.65196081	    -14.41194665
     15.26452750	     -8.38640387	    -37.26892888	    -14.07439946	    -20.68882764
     15.27799415	    -11.21624805	    -42.11166911	    -16.25131387	    -23.44658875
     15.29146081	    -13.72464727	    -37.88321871	    -14.95710916	    -21.18327240
     15.30492746	    -16.47679927	    -26.19000194	    -10.53468207	    -14.72908200
     15.31839411	    -19.79466624	     -9.44686835	     -3.83909737	     -5.33495061
     15.33186076	    -23.51359086	      8.51094817	      3.45964874	      4.80695548
     15.34532742	    -26.54762967	     23.57213035	      9.49417236	     13.26335446
     15.35879407	    -26.33925524	     33.55797220	     13.29468849	     18.78127207
     15.37226072	    -20.08280853	     38.18975447	     14.82146658	     21.28255818
     15.38572738	     -9.19302297	     37.10642543	     14.10335347	     20.61422512
     15.39919403	      0.98954211	     31.52208612	     11.76250632	     17.48472102
     15.41266068	      5.82402483	     23.59098082	      8.71641532	     13.14918421
     15.42612734	      3.88301962	     14.90456798	      5.49840196	      8.37964620
     15.43959399	     -4.16603740	      6.09468029	      2.25101634	      3.44701673
     15.45306064	    -17.73741757	     -2.94702436	     -1.08832452	     -1.66606591
     15.46652730	    -37.50365790	    -12.76707876	     -4.70969154	     -7.17469145
     15.47999395	    -64.70138634	    -23.91876105	     -8.83280236	    -13.34500317
