TendonForce
version=1
nRows=51
nColumns=5
inDegrees=no

This analysis gathers basic information about muscles during a simulation (e.g., forces, tendon lengths, moment arms, etc).
Units are S.I. units (second, meters, Newtons, ...)
If the header above contains a line with 'inDegrees', this indicates whether rotational values are in degrees (yes) or radians (no).

endheader
time	recfem_r	vaslat_r	vasint_r	vasmed_r
    143.85600000	    432.30700557	    107.27046055	     42.38988392	     62.21596935
    143.87208000	    309.58822651	    104.72983963	     40.26747393	     59.65541645
    143.88816000	    200.17898247	    105.01050475	     39.41701226	     58.84890460
    143.90424000	    122.78801692	    109.82517182	     40.63495868	     60.90995848
    143.92032000	    103.89606066	    119.83719422	     44.17654139	     66.26593422
    143.93640000	    159.66021952	    134.85933014	     49.88744571	     74.77260346
    143.95248000	    269.03102369	    153.85059758	     57.34278496	     85.80100059
    143.96856000	    379.32901404	    176.26154250	     66.45039210	     99.10104625
    143.98464000	    444.48614165	    200.72044842	     76.90017878	    114.04712616
    144.00072000	    460.13645384	    226.45187398	     88.53987976	    130.19160329
    144.01680000	    449.79403958	    254.14652763	    101.89280010	    148.23253872
    144.03288000	    422.98642110	    278.88991873	    114.98372642	    165.36844122
    144.04896000	    381.70222222	    299.24146175	    126.56371443	    180.21833974
    144.06504000	    333.59287787	    319.38097095	    135.94338942	    192.25760455
    144.08112000	    296.15204272	    335.81367259	    143.33599766	    202.14655138
    144.09720000	    286.09992149	    344.77902867	    147.62498014	    207.83202999
    144.11328000	    302.20274759	    344.18278891	    147.76490921	    207.91407104
    144.12936000	    329.75636471	    334.14543626	    143.75242504	    202.43148199
    144.14544000	    347.65757546	    316.93647140	    136.57972757	    192.79792706
    144.16152000	    334.38909053	    296.37592824	    127.28909103	    180.86009114
    144.17760000	    285.66053766	    274.03761779	    114.93749179	    165.03639819
    144.19368000	    211.00624825	    242.63427888	     99.42130332	    144.66734324
    144.20976000	    136.22281562	    204.54444030	     82.39249960	    121.55327596
    144.22584000	     79.51368458	    167.34272990	     67.04280586	    100.08211377
    144.24192000	     42.98038834	    134.51473021	     53.57759633	     80.89433894
    144.25800000	     24.96546798	    116.84307139	     44.29177110	     68.10633743
    144.27408000	     17.90389371	    117.52768641	     39.35210577	     62.40206795
    144.29016000	     17.62773651	    127.83512673	     38.27628603	     61.89857817
    144.30624000	     21.89652555	    117.93928777	     38.48846332	     59.50835736
    144.32232000	     28.55034244	     57.91824064	     37.09774072	     48.31000960
    144.33840000	     32.46152762	    -20.16817008	     36.04465790	     35.87355399
    144.35448000	     26.99235737	     42.88632529	     48.04941329	     58.67804183
    144.37056000	     15.29379642	    492.11215528	     95.05822217	    171.67718198
    144.38664000	     24.07734562	   1435.84206650	    192.37965605	    399.77240525
    144.40272000	     96.22707791	   2629.78451586	    325.68596125	    690.64041688
    144.41880000	    256.82112197	   3585.15162515	    449.17473705	    935.28806798
    144.43488000	    483.40706933	   3927.74724934	    514.12111555	   1043.87161417
    144.45096000	    707.47123143	   3591.07834262	    496.26150905	    986.73195269
    144.46704000	    847.27364312	   2798.57021839	    408.18962981	    798.29294889
    144.48312000	    851.86007813	   1874.22804330	    285.72206465	    547.79130569
    144.49920000	    729.73667874	   1082.89251248	    169.14681774	    312.96358018
    144.51528000	    535.06101793	    553.42138674	     87.17543895	    154.83481794
    144.53136000	    336.94266025	    293.23377603	     49.23007772	     97.35125193
    144.54744000	    187.22850101	    223.54544066	     44.50095099	    114.79360589
    144.56352000	    103.67205834	    233.42259138	     52.26258067	    151.17452211
    144.57960000	     74.32007722	    237.27368561	     56.54878837	    161.34879703
    144.59568000	     76.17749834	    204.15372397	     52.78693497	    135.10594317
    144.61176000	     90.39376021	    149.74116609	     44.95401350	     91.34588252
    144.62784000	    107.34035055	    108.86311781	     39.82092355	     58.38027888
    144.64392000	    125.67407041	    105.68269294	     41.93416318	     54.31385373
    144.66000000	    148.21723735	    135.76193107	     50.36077201	     75.31435311
