ActiveFiberForceAlongTendon
version=1
nRows=51
nColumns=5
inDegrees=no

This analysis gathers basic information about muscles during a simulation (e.g., forces, tendon lengths, moment arms, etc).
Units are S.I. units (second, meters, Newtons, ...)
If the header above contains a line with 'inDegrees', this indicates whether rotational values are in degrees (yes) or radians (no).

endheader
time	recfem_r	vaslat_r	vasint_r	vasmed_r
    143.85600000	    371.44786233	     51.71834468	     21.10731406	     28.80071796
    143.87208000	    249.05049442	     51.83011633	     20.13774312	     28.00792022
    143.88816000	    138.58147700	     52.87050632	     19.65147298	     27.81545893
    143.90424000	     56.57882907	     55.34340283	     19.93787502	     28.57790434
    143.92032000	     27.25143846	     59.03054306	     20.91345499	     30.18705735
    143.93640000	     64.11802485	     63.04267030	     22.17075529	     32.10414317
    143.95248000	    143.26398897	     66.07952070	     23.13739032	     33.56685471
    143.96856000	    209.23132860	     67.52231808	     23.52015964	     34.23855018
    143.98464000	    216.11317454	     66.87955941	     23.10152869	     33.84588014
    144.00072000	    167.48606618	     65.13271827	     22.29429769	     32.93016516
    144.01680000	     96.52932398	     62.85352785	     21.38064796	     31.83395764
    144.03288000	     37.07511254	     59.66100691	     20.25597330	     30.34550870
    144.04896000	      6.28990439	     57.00303686	     19.27518690	     29.03896337
    144.06504000	      2.38308544	     55.64037349	     18.41172394	     27.97369081
    144.08112000	     21.63147223	     53.56806863	     17.70639385	     27.06390640
    144.09720000	     63.39491333	     51.21383676	     16.90271971	     25.95570970
    144.11328000	    121.92009745	     49.02071841	     16.22792792	     24.97492356
    144.12936000	    182.76226026	     47.43541889	     15.85763994	     24.39812277
    144.14544000	    226.14043632	     46.91540880	     15.90212833	     24.42742948
    144.16152000	    233.30777537	     47.75400090	     16.13106431	     24.86587819
    144.17760000	    202.03822388	     48.45613600	     16.07406197	     24.80055792
    144.19368000	    143.99861463	     46.29445590	     15.52931298	     23.89936881
    144.20976000	     85.69707140	     42.27180348	     14.79631313	     22.45922681
    144.22584000	     43.80043284	     37.63236365	     14.20437803	     21.05792657
    144.24192000	     20.38376177	     34.72951193	     13.63209790	     19.96757477
    144.25800000	     11.95652948	     40.44161518	     14.11472208	     21.31260139
    144.27408000	     10.71543005	     56.66603300	     15.68374663	     25.26301123
    144.29016000	     12.97142567	     75.03345466	     18.10042887	     30.05989653
    144.30624000	     17.49100453	     67.33212320	     19.34429117	     29.35314795
    144.32232000	     22.95458272	      4.83372073	     16.98813375	     16.86197239
    144.33840000	     24.70093923	    -80.13816098	     13.13926042	      0.35294130
    144.35448000	     16.27593820	    -28.55583113	     20.49598043	     16.26534183
    144.37056000	      0.89232872	    405.06160554	     61.13877213	    119.85504414
    144.38664000	      5.15672637	   1330.58252790	    150.86171573	    336.90942751
    144.40272000	     72.11609981	   2507.01297948	    276.59878415	    616.99510872
    144.41880000	    227.21410299	   3449.88260089	    394.48559948	    853.80635960
    144.43488000	    448.20727462	   3787.62238988	    457.14026956	    959.21261642
    144.45096000	    666.73472260	   3453.99655125	    440.52745921	    903.77238157
    144.46704000	    801.22838874	   2670.57234798	    356.39551846	    720.76719980
    144.48312000	    801.06474021	   1758.59709601	    239.26361571	    477.71731645
    144.49920000	    675.06885630	    980.35577123	    128.26071674	    250.78434737
    144.51528000	    477.62616808	    463.24452735	     51.46632895	    100.09415599
    144.53136000	    277.95650292	    214.30357492	     18.17599932	     49.38842391
    144.54744000	    127.86449266	    154.77913517	     17.64105035	     73.00728042
    144.56352000	     44.76510293	    173.45680285	     29.06518721	    114.83166394
    144.57960000	     15.84127801	    184.01188683	     36.19832490	    129.27697913
    144.59568000	     16.64646595	    154.69628069	     34.10451643	    105.59027535
    144.61176000	     26.34141956	    100.55597390	     26.44634549	     62.19907135
    144.62784000	     32.99247866	     55.98132475	     19.80849030	     27.10268914
    144.64392000	     32.98991487	     44.96671246	     18.72437585	     18.34111432
    144.66000000	     28.31097727	     63.85121214	     22.62330569	     32.63525426
