Coordinates

Units are S.I. units (second, meters, Newtons, ...)
If the header above contains a line with 'inDegrees', this indicates whether rotational values are in degrees (yes) or radians (no).

inDegrees=no
nColumns=21
nRows=1022
DataType=double
version=3
OpenSimVersion=4.5.2-2025-05-03-6a4c6ec41
endheader
time	/jointset/ground_pelvis/pelvis_tilt/value	/jointset/ground_pelvis/pelvis_list/value	/jointset/ground_pelvis/pelvis_rotation/value	/jointset/ground_pelvis/pelvis_tx/value	/jointset/ground_pelvis/pelvis_ty/value	/jointset/ground_pelvis/pelvis_tz/value	/jointset/hip_r/hip_flexion_r/value	/jointset/hip_r/hip_adduction_r/value	/jointset/hip_r/hip_rotation_r/value	/jointset/walker_knee_r/knee_angle_r/value	/jointset/patellofemoral_r/knee_angle_r_beta/value	/jointset/ankle_r/ankle_angle_r/value	/jointset/subtalar_r/subtalar_angle_r/value	/jointset/hip_l/hip_flexion_l/value	/jointset/hip_l/hip_adduction_l/value	/jointset/hip_l/hip_rotation_l/value	/jointset/walker_knee_l/knee_angle_l/value	/jointset/patellofemoral_l/knee_angle_l_beta/value	/jointset/ankle_l/ankle_angle_l/value	/jointset/subtalar_l/subtalar_angle_l/value	/jointset/ground_pelvis/pelvis_tilt/speed	/jointset/ground_pelvis/pelvis_list/speed	/jointset/ground_pelvis/pelvis_rotation/speed	/jointset/ground_pelvis/pelvis_tx/speed	/jointset/ground_pelvis/pelvis_ty/speed	/jointset/ground_pelvis/pelvis_tz/speed	/jointset/hip_r/hip_flexion_r/speed	/jointset/hip_r/hip_adduction_r/speed	/jointset/hip_r/hip_rotation_r/speed	/jointset/walker_knee_r/knee_angle_r/speed	/jointset/patellofemoral_r/knee_angle_r_beta/speed	/jointset/ankle_r/ankle_angle_r/speed	/jointset/subtalar_r/subtalar_angle_r/speed	/jointset/hip_l/hip_flexion_l/speed	/jointset/hip_l/hip_adduction_l/speed	/jointset/hip_l/hip_rotation_l/speed	/jointset/walker_knee_l/knee_angle_l/speed	/jointset/patellofemoral_l/knee_angle_l_beta/speed	/jointset/ankle_l/ankle_angle_l/speed	/jointset/subtalar_l/subtalar_angle_l/speed
13.01999578999806	0.02629854895621305	-0.07228106915198215	-0.07759703062588305	2.23692353764425	1.004781954111669	1.036164813634157	-0.1724387880352302	0.1540113864227917	-0.01169493711916753	0.5047313980422314	0.5047313996253484	0.2926246884321961	-0.03445993488556081	0.7326257930984698	-0.1663278310664848	-0.001113230994525051	1.971731610648376	1.97173161250002	-0.1940573591800994	-0.4180538503122729	-2.388318084290056	2.606138882767318	3.362225708226831	0.3443836592709218	0.3896801800197096	-0.06494568151340246	-4.881883994225452	-2.007335202530719	-2.848504278881844	-6.910911845997342	-6.910911833693284	-8.81237001282601	-0.8023930703974853	7.184762141181697	3.911751981924452	1.238733506286643	-6.195953901630256	-6.195953910443578	1.240277106266717	-2.325934116361147
13.02666244999806	0.01107954894481149	-0.05451486934371336	-0.05566975161384874	2.239492529625188	1.007587251629452	1.035718070508988	-0.205516114812928	0.1403906895367095	-0.03252029275057147	0.4588472842656717	0.4588472859240817	0.2296514460852922	-0.03963584475944006	0.7765114246946292	-0.139291980951328	0.004603467244714091	1.927279217202497	1.927279218948003	-0.1861412055015894	-0.4334893000378749	-2.176108980079512	2.712494349764596	3.210009420752353	0.4237516733192614	0.450999532291739	-0.06945674177037486	-5.021078120129424	-2.072506142320851	-3.395986883527997	-6.812643653749473	-6.812643643505876	-10.03782168183436	-0.7433022823911357	5.98719582652259	4.176830886898831	0.4917705210649528	-7.128425194268646	-7.128425217485946	1.141463808959513	-2.272734392655769
13.03332910999806	-0.002746400550096641	-0.03628516956692506	-0.03485467664172972	2.242533941005514	1.010777090033525	1.035232258575452	-0.2390537445609163	0.1264898486723747	-0.05688894777729506	0.4144737476821373	0.4144737493997649	0.1594224299009583	-0.04432671027336121	0.8126356983334059	-0.1109461334780788	0.005712986124601776	1.876867519159818	1.876867520700207	-0.1787343879520821	-0.447907907458973	-1.976739569212551	2.742440078962272	3.031599287751863	0.4853705235294945	0.5042135712292523	-0.07686831564772745	-5.011728432846509	-2.087855074906773	-3.904461029731634	-6.4549935572362	-6.454993549964476	-10.9776975712589	-0.6642335634450105	4.869468211482268	4.303287665798031	-0.1349750075143954	-7.979769908208887	-7.979769946549351	1.088972140008415	-2.018043456073458
13.03999576999805	-0.01536700232148979	-0.01814303307390588	-0.01527293179907826	2.245917246244654	1.014283446260514	1.034684345460315	-0.2719350668910633	0.1126941177031578	-0.08438900359790942	0.3733776709627035	0.3733776727139481	0.08405785781402618	-0.04853653700675642	0.8417442487616695	-0.0822249122877993	0.003153724063073882	1.82109917828121	1.821099179517474	-0.1715063597062413	-0.4599288886201884	-1.817229389512691	2.685488102246561	2.841979527743326	0.525966941599277	0.5455077716857055	-0.0882339502099546	-4.821631862922739	-2.040037961426168	-4.326977588050108	-5.829287733591929	-5.829287731126498	-11.56909683398372	-0.604631614769607	3.888392811084208	4.290732297201323	-0.6051541122628026	-8.734035119135299	-8.734035171686966	1.088083242202707	-1.553475079232139
13.04666242999805	-0.02708214561650585	-0.0006696265409295413	0.0030338486648326	2.249497664742476	1.018020106549089	1.034045496208559	-0.302937247592771	0.09942788401511818	-0.1142773251670814	0.3373303397276473	0.3373303414733206	0.006048657760923732	-0.05249144043247098	0.8648249047955933	-0.05401364033955371	-0.001984638094061529	1.760634542411895	1.760634543259004	-0.1641163229205267	-0.4681715882478372	-1.704966550126347	2.542952633177539	2.650180167983069	0.5445053856301195	0.5731684266432278	-0.1042227709377376	-4.450161149695636	-1.930247375923247	-4.612579841697051	-4.942957387886015	-4.942957392381439	-11.76495079692991	-0.5908117100586965	3.061133995294699	4.153789549983073	-0.9090503528265943	-9.389311769826936	-9.389311833270815	1.136591200090148	-0.8872052183230241
13.05332908999805	-0.03819043140589565	0.01559725891915323	0.02006786653816461	2.253130179119102	1.021894993738266	1.03328401866732	-0.3309188204208642	0.08706940586760462	-0.1454817205016382	0.308000006768283	0.308000008455256	-0.07187328359406676	-0.05653880197597681	0.8828746770885693	-0.02706170807567095	-0.008621682265607562	1.696111177943574	1.696111178345823	-0.1562623452936931	-0.4713594673638522	-1.633184941340516	2.326068979687559	2.460570280076681	0.5418841468999548	0.5870510936538923	-0.1250016523760542	-3.920964905073668	-1.770265319359087	-4.714846019521258	-3.819350850008956	-3.819350863389573	-11.54114446138711	-0.6326020502712597	2.375180219943559	3.917744250504899	-1.058051166719594	-9.953533492677403	-9.953533561703187	1.225160300553572	-0.04185663525921791
13.05999574999804	-0.04891474632502729	0.03021878107254164	0.03584913297135176	2.256680979117939	1.025818674010177	1.032369132128388	-0.3549533186220193	0.07589892715089942	-0.1766558664077431	0.2868495831031641	0.2868495846682553	-0.1469081038536353	-0.06103691975553471	0.896740392125013	-0.001929872494665818	-0.01580379783284446	1.628094937581048	1.628094937521243	-0.1477258184637183	-0.4684071315052696	-1.586878786729345	2.052657859087486	2.274377445400458	0.5204855739361838	0.5880022049923473	-0.1501115677940207	-3.273481042127802	-1.576692850299829	-4.598969393417638	-2.496406612348934	-2.496406635567403	-10.90213626147378	-0.7238352121326503	1.799893644980775	3.612934610292324	-1.077604338837486	-10.43943208319271	-10.4394321518037	1.338349339460891	0.9483527260853273
13.06666240999804	-0.05936544341327617	0.04288605918567102	0.05039958948510075	2.260035704012514	1.02970924986254	1.031275434570566	-0.3744065420331752	0.06608656504308374	-0.2062747546897195	0.2750472012491716	0.275047202628205	-0.2163894169007512	-0.06625931292652128	0.9070349269648831	0.02102472699587273	-0.0227741595368251	1.557064442777563	1.557064442276932	-0.1384072172088661	-0.4584874731212326	-1.548118600177604	1.743240170528101	2.091202670759141	0.4836800199573152	0.577362343037282	-0.1783930839768456	-2.554593465642284	-1.365057478955536	-4.246836888693766	-1.024071482703161	-1.02407151501247	-9.883645854689115	-0.84606733646307	1.297445983150519	3.269275367985001	-1.000180731595586	-10.85969411983734	-10.8596941826895	1.456170945421069	2.040664312525503
13.07332906999804	-0.0695361789436247	0.05342588779981017	0.0637370761420154	2.263104440499816	1.033494323730293	1.029987543689483	-0.3889600751288497	0.05771567241108803	-0.2327576118069213	0.2733986106109685	0.2733986117513313	-0.2779907468015108	-0.07233088752721249	0.9141214146475076	0.04163081040767755	-0.02899865308246471	1.483425240564465	1.483425239675402	-0.1283500696835932	-0.4410785831890507	-1.500447150392131	1.417473753940007	1.910427439568863	0.4353589115058166	0.5565907205491646	-0.2080138323181788	-1.810995851364158	-1.145285290825757	-3.660200778527841	0.5396411271822494	0.539641088501556	-8.551357852531046	-0.9741654677902279	0.8320787914622251	2.91204956932347	-0.8592511074419641	-11.22299370426761	-11.2229937574124	1.556051302464119	3.186753161353423
13.07999572999804	-0.07932399383480226	0.06178591114585203	0.07587758642110894	2.265823841710528	1.037110987677779	1.028504183618761	-0.3985895292179372	0.05082871995439187	-0.2546054009900864	0.2823092672916798	0.2823092681649004	-0.3299095151959166	-0.07920349186565616	0.9181499270126119	0.0598628876149477	-0.03415739642140186	1.407546214538359	1.407546213334841	-0.117750793404739	-0.4159917868940895	-1.431615054042869	1.091656146283669	1.73224114992109	0.3795429183350317	0.527055536748767	-0.2366054272556652	-1.083478334797546	-0.9195979388970809	-2.861848322638844	2.133502873345997	2.133502832738341	-6.995554623646489	-1.082313473390533	0.3763647206155896	2.559453226979657	-0.6850970470226314	-11.53133575012641	-11.53133579097832	1.615094581212844	4.335378149241045
13.08666238999803	-0.08856056868508458	0.06800792730628927	0.08684249239299742	2.268156933314631	1.040505007742974	1.026841031716776	-0.4035139773566158	0.04547786823440225	-0.2705391180228175	0.3017798631221723	0.3017798637332987	-0.3710036362390883	-0.0866695197074253	0.9191234793405854	0.07579083948204815	-0.03811551079077721	1.32980877582275	1.329808774392638	-0.1069527485629354	-0.3833834986336355	-1.334208632838108	0.7776896113648379	1.558098121910264	0.3200802717615754	0.489995806075108	-0.2614965848933332	-0.404041686189166	-0.6832066933734304	-1.894682585902641	3.698147057985692	3.698147020896958	-5.32243901106294	-1.149251170871018	-0.08625625984328963	2.221938547992717	-0.5027637868651534	-11.77888503166401	-11.77888505857965	1.612527465152848	5.434588461774238
13.09332904999803	-0.09704197714610292	0.07219917782229238	0.09666713485156686	2.270091196391906	1.043630138383997	1.025031721969626	-0.4041348039094513	0.041762418523804	-0.2796255349909784	0.3314349321197076	0.3314349325100064	-0.4008625197162887	-0.09440553713709376	0.9169701140175734	0.08953086309079564	-0.04088646787187316	1.250659051285842	1.250659049725286	-0.09642387295843655	-0.3437534886129676	-1.204731770182245	0.4834733032256223	1.390705734828113	0.2604294360320805	0.4465820464149608	-0.2800303973294094	0.204544972556831	-0.4274382060777915	-0.8189265620306185	5.180836165109564	5.180836136700765	-3.643364377517763	-1.161948973723029	-0.5619829113371804	1.903248310429289	-0.331772937349734	-11.95221034909719	-11.95221036126485	1.532147296984488	6.433636947590187
13.09999570999803	-0.1045499525750807	0.07451002460642346	0.105408375546132	2.271635440787032	1.046447902676627	1.023126528993522	-0.4009769612708305	0.03983986169481481	-0.281378745393136	0.3705807794304146	0.3705807796700747	-0.4198034991533048	-0.1020342407080894	0.9116051904509753	0.1012080480548807	-0.04259740329211312	1.170654321869025	1.170654320275782	-0.08671859220111985	-0.2979306447193747	-1.042129856262055	0.2143427997724445	1.233752467803025	0.2035106679036074	0.3979820315326147	-0.2899347052677914	0.7277391629351202	-0.1443333480591651	0.2923191358882037	6.539392200502992	6.539392184023231	-2.063510061908592	-1.117424344290576	-1.048869028998061	1.602777787989204	-0.1868785687538821	-12.03172027581673	-12.0317202736546	1.36454979927379	7.284855953843263
13.10666236999802	-0.1108635238490351	0.07512316240829046	0.1131496974972477	2.272815872434508	1.048927662692653	1.0211885832587	-0.3946394788709994	0.03990481278873777	-0.2758268019780881	0.4182851647920301	0.4182851649628215	-0.4287955428134349	-0.109192461659305	0.9029763273339489	0.1109371546513678	-0.0434611575651753	1.09049672641985	1.09049672488355	-0.07842632399546449	-0.2470458140585915	-0.8464576581654438	-0.02500988216955579	1.091439172895321	0.1516102911067449	0.3453773198963915	-0.2896788447720335	1.157556144425051	0.168530718092644	1.359097885268526	7.744702935304765	7.744702930851101	-0.6716532967039948	-1.022763444200759	-1.539669261002039	1.318527057751497	-0.07924305171296324	-11.99399540397237	-11.99399538953438	1.108880963027032	7.945680094105185
13.11332902999802	-0.1157632422004616	0.07425553130896179	0.1200024201713615	2.273671664017221	1.051046599363468	1.019287978460231	-0.3857578329690232	0.04213852238036804	-0.2635333646345449	0.4734677987055629	0.4734677988787755	-0.4293223569755168	-0.1155939224382447	0.8910892532000284	0.1188226394810901	-0.04375617709183078	1.011049322322918	1.011049320914173	-0.07211054992666355	-0.1924905053626356	-0.618025189154487	-0.228749331195051	0.9677855680664065	0.1063256586095807	0.2899202566737197	-0.2787373355364056	1.49075850223696	0.5042335128047664	2.302011595901621	8.781427972072155	8.7814279765068	0.4675956088183647	-0.8935878000857145	-2.024627057369529	1.049797396936086	-0.01753092600979115	-11.81469409387129	-11.814694070739	0.7738783354969823	8.380848090355666
13.11999568999802	-0.1190318664805508	0.07216996198112359	0.1261019209881012	2.274250262683918	1.052789228998149	1.0174945836409	-0.3749774637755712	0.04663955925565453	-0.2455668014474985	0.5349894710307197	0.534989471248969	-0.4232045788504299	-0.1210782380905162	0.8760167842759848	0.1249741689747665	-0.04381171462078797	0.9333317890225729	0.9333317877846894	-0.06824393504408231	-0.1358610747147055	-0.357221393528656	-0.3888648054898148	0.8658757447470039	0.06853919801435675	0.2326398185943476	-0.2577099750767337	1.727413576553601	0.8448381169427457	3.050432339433247	9.64691868471831	9.646918692848402	1.318191574942515	-0.7516083488219284	-2.493658890071684	0.7990848716558296	-0.008288230068480944	-11.4716977054242	-11.47169767807551	0.3779788288831185	8.564474013434833
13.12666234999801	-0.1204565600079354	0.06918976777553858	0.1315994987283872	2.274602589777952	1.054146162743961	1.015870580715549	-0.3629342367292381	0.05335260634166109	-0.2234146360910904	0.6017290769480207	0.6017290772171733	-0.4124050267651322	-0.1256429791811078	0.8578965856519349	0.1295314312819667	-0.04399160131196782	0.8584952963482817	0.8584952952940208	-0.06714631770397153	-0.07889089183320404	-0.06515081910627873	-0.4953670278932503	0.7873475343489954	0.0384107437804822	0.1743125044418224	-0.2282833222343922	1.870319563227748	1.162549424256125	3.550486071683196	10.34876809513963	10.34876810139912	1.873336140489547	-0.622098170300258	-2.937482268991789	0.5729552157226367	-0.05509709509987707	-10.94816116229678	-10.94816113527991	-0.05166047629275869	8.481521196827451
13.13332900999801	-0.1198377236438121	0.06570774355561983	0.1366520054226525	2.274778246272966	1.055111976977013	1.014463791395673	-0.3502352735570765	0.06201408215787269	-0.1988491499191717	0.672641714302305	0.6726417145934934	-0.3988410614899174	-0.1294594243687091	0.8369252150005142	0.1326911284466125	-0.04466866732230984	0.7877782335674742	0.7877782326812084	-0.0689327112537912	-0.02337516119637603	0.25507051311192	-0.5377233142576875	0.7322257377375354	0.01538821586165348	0.1153318158449714	-0.1930333546342992	1.925448365264811	1.423479624420603	3.7714900993673	10.90171780588867	10.90171780555678	2.152770785143744	-0.5314884753340146	-3.347640853514522	0.3818189684116849	-0.1567218551135013	-10.23515502304808	-10.23515500021856	-0.481152430174991	8.128544421632874
13.13999566999801	-0.1170074577031978	0.06218268837271437	0.1414112944117641	2.274820884637707	1.055682325714118	1.013302796871715	-0.3374342270227321	0.07212872806462557	-0.1737589744092853	0.7467961929885943	0.7467961932457087	-0.3842240907781719	-0.1328717172463651	0.8133546693530516	0.1347290315271358	-0.04618565954348067	0.7224464400371728	0.7224464392814018	-0.07347725365679365	0.02890703517367381	0.5968048123757829	-0.5070636292494937	0.6990227421995761	-0.001750303869374973	0.05561745665438444	-0.1550920749744758	1.903092745404958	1.592957042482535	3.709521109500042	11.32468663239207	11.3246866220481	2.197494158933258	-0.5047345419624921	-3.71580879550907	0.2387184041167577	-0.3050639320859695	-9.333633987998724	-9.333633972010952	-0.8726288278417204	7.513790091293618
13.146662329998	-0.1118575188201386	0.05912039296668248	0.1460151759846358	2.274764013986549	1.055850662253406	1.012394570797613	-0.3249979529329741	0.08298312035700037	-0.1499690356827824	0.8233946015433179	0.8233946016922845	-0.3699402978097792	-0.1363771886643455	0.7874946641115601	0.1360116197813097	-0.04880430381612384	0.6637231445972041	0.6637231439210663	-0.08039728941529939	0.07626924964707568	0.9486229830384008	-0.3985339901482454	0.6850957705550008	-0.01480593490127262	-0.005407617929943412	-0.1177398362651494	1.819208957235543	1.641090363114	3.387265444941526	11.6384057083101	11.6384056860321	2.062830808789157	-0.5623158699312647	-4.032839922322889	0.1574863011727424	-0.4837814583590205	-8.255525092415622	-8.255525084646973	-1.18748855151389	6.656664073905785
13.153328989998	-0.1043737746448662	0.05704001434545137	0.1505816409998502	2.274627611133668	1.055605090338499	1.011724858433571	-0.3132652529249065	0.09369402617113672	-0.1290741120255987	0.9017784331593385	0.9017784331193186	-0.3569805303756732	-0.1405860385661365	0.7597208403458352	0.1369944045311617	-0.05264948084551235	0.6127150739482204	0.6127150732953393	-0.08905995859947634	0.1171889215681106	1.29369941601212	-0.2132465342208229	0.6872626438708169	-0.02600621268679498	-0.06875188622591522	-0.08400159147369388	1.69633792107082	1.547504985732613	2.850163728295611	11.86372994985641	11.86372991561286	1.810766145319851	-0.7170989299545787	-4.288022064067133	0.1506385514615205	-0.6683181014582154	-7.023761454950302	-7.023761455715201	-1.389840664939572	5.586747665062584
13.159995649998	-0.09467121332273835	0.05642990029035487	0.1552078536865659	2.274415970587862	1.054925999687127	1.011261048039306	-0.3024028581150076	0.1032835506511409	-0.1123083198362766	0.9814250397318348	0.9814250394290094	-0.3459212432315694	-0.1461607898610867	0.7304858621043772	0.1382058890410046	-0.05765978921072046	0.5703422483840107	0.5703422476991501	-0.09861124470937395	0.1503718054810043	1.610321974236306	0.04054773232707037	0.7026016710060596	-0.03778684729966915	-0.1356828669102436	-0.05631216419058897	1.563397586046963	1.304573537405576	2.159675234405511	12.02036361650728	12.02036357244426	1.502438653675363	-0.9714982404715882	-4.469036234436422	0.227193411545169	-0.827828424675885	-5.671127979519817	-5.671127988146578	-1.449722648807143	4.342810427376482
13.166662309998	-0.08302091736337458	0.05769861215136396	0.1599748544842699	2.274117201432316	1.053785225329395	1.010956911774244	-0.2923681354969625	0.110770183717918	-0.1004656081769025	1.06193589085902	1.061935890240609	-0.3369527266385038	-0.1537396594043303	0.7003272980198543	0.1402170858429337	-0.06355707687727807	0.5372794113530122	0.5372794105892262	-0.1080245233822028	0.1748106702203237	1.873815714398557	0.3472018109267611	0.7293449684300647	-0.052518353868012	-0.2074432533388678	-0.03629564716378467	1.453817380637133	0.9189526661803356	1.384946108784904	12.12561563301316	12.12561558320834	1.19158226385518	-1.315623832647564	-4.563010791143672	0.3905454263983665	-0.9288673173679183	-4.23796245988043	-4.237962474507108	-1.345675592692625	2.972087218263387
13.17332896999799	-0.06985956833121978	0.06112768731252296	0.1649578314199287	2.273704697107758	1.052147448533237	1.010758391488159	-0.2828901974254396	0.1152642018124587	-0.09387700189918309	1.143015875724679	1.143015874769644	-0.3299460128498567	-0.1638530523482282	0.669864131134929	0.1435976593058052	-0.06984505244034832	0.5139152755595102	0.5139152746869253	-0.1161635730566787	0.1898398513247693	2.059817449676494	0.6845072109002823	0.7675733890270808	-0.07218845469644883	-0.284863822138435	-0.02467053636771672	1.401898168894123	0.4113021929884693	0.5943741561954192	12.19293972972843	12.19293967948432	0.9195813632350308	-1.727181739848137	-4.558915221787951	0.6366344538265452	-0.940350917607204	-2.769255840105804	-2.769255857448977	-1.066511589395249	1.529724244251295
13.17999562999799	-0.05577359063892835	0.06683483537272722	0.1702386506619858	2.273140862060687	1.049974495203683	1.010609678573387	-0.2734806314785649	0.1160538974341142	-0.09244031064722558	1.224442193935202	1.224442192659355	-0.3245458523336522	-0.1768464806870884	0.6397722678737228	0.1488619092946784	-0.07584424893405883	0.5003301869057902	0.5003301859211583	-0.1218550512143508	0.1951861244156962	2.148536390675697	1.026059505469337	0.8190959934543349	-0.09804393526168097	-0.3678845455567781	-0.02124911625649002	1.437622768656794	-0.1862561618045198	-0.1514897912462665	12.23029572906133	12.2302956839621	0.712664535408246	-2.173508758869821	-4.451484108945643	0.9527937042255965	-0.8394351272656353	-1.312205840052314	-1.312205855455807	-0.6124183290806715	0.07819493997475342
13.18666228999799	-0.04145282826310475	0.07475800219210901	0.1759141401303964	2.272383279431138	1.047233004808422	1.010459067954594	-0.263482781236237	0.1126676556960849	-0.09569038689621352	1.306022128549476	1.306022127004006	-0.3202746027564697	-0.1928234365891397	0.6107292844306424	0.1564100434192503	-0.08076672454842555	0.4962867561554219	0.4962867550894585	-0.1239662161234319	0.1910147588132477	2.129555112396737	1.34501497636501	0.8863683182926242	-0.130228127200688	-0.4550385528072207	-0.02500586231292436	1.580388028981216	-0.8346490671947858	-0.8049799683385821	12.23847073960748	12.23847070452688	0.5814245214126746	-2.615412515293553	-4.246395057594658	1.317485400856389	-0.6172488660890373	0.08525403770986172	0.08525402959585253	0.00461946793138223	-1.313641899169252
13.19332894999798	-0.02761209699793692	0.0846652421828723	0.1820963618445166	2.271393041882254	1.043905283925616	1.010264067430743	-0.2521638235266173	0.1049045546592084	-0.1028966286250015	1.387539783547999	1.387539781812017	-0.3166323885033444	-0.2116177074441399	0.5833240262974191	0.1664700555889898	-0.08382181931620734	0.5012290407653961	0.50122903968287	-0.1214818844296113	0.177966426146835	2.006516279475822	1.61775053218947	0.9713796855149436	-0.1675149804996733	-0.5430432486051819	-0.03423883813890861	1.832669849077952	-1.492368797897494	-1.334537008278867	12.20947650028642	12.20947647863614	0.5223224760564477	-3.01202597164785	-3.965306092837276	1.700677816068035	-0.2820146579720579	1.375762042409155	1.375762046158128	0.7615680709591227	-2.572459941622669
13.19999560999798	-0.01488510655558687	0.09618395682177877	0.1889080775032562	2.270144223369579	1.040002027122615	1.00999506436369	-0.2388445219635952	0.09284055426201526	-0.1131769281734216	1.468693374033154	1.468693372202599	-0.3131822917261475	-0.2327994125810711	0.5579389851001874	0.1790433190396473	-0.08432810723500815	0.5142928742135459	0.5142928732024024	-0.1135715016861051	0.1571764725072765	1.800476789824544	1.825856598445066	1.075375277634736	-0.2072457611788263	-0.6266743160887438	-0.04683781446399191	2.175393003878183	-2.118121718514053	-1.726421894710351	12.12542681295169	12.1254268063443	0.5205794194200476	-3.325972604348841	-3.648644385442807	2.064570215359444	0.1423308393824453	2.5146380522349	2.514638069995434	1.626542573408073	-3.623893631411298
13.20666226999798	-0.003704542532150906	0.1088372361194044	0.1964785968333116	2.268632966227969	1.035574636193436	1.009636979800604	-0.2230488721193506	0.07682315749563914	-0.1256174333506858	1.549028838631477	1.549028836806897	-0.3096130046316319	-0.2557148707215115	0.534626069449831	0.1938568010189643	-0.08180217819333668	0.534332551872398	0.5343325510243482	-0.09963808343446746	0.1302657216443397	1.550496902740135	1.956396904264282	1.199118328071357	-0.2455087640010651	-0.6990183887745884	-0.06060719130091415	2.566847013198425	-2.671856584490568	-1.984676861872105	11.95870701205952	11.95870702027358	0.5539824792244689	-3.528235438666658	-3.3546568288551	2.364963855921072	0.6214229750757274	3.462536411236427	3.46253644198422	2.561891309016491	-4.397666848983176
13.21332892999797	0.005809999255027711	0.1220788271995482	0.2049409647032713	2.266884573273019	1.0307245875053	1.009188789446693	-0.2046460959459322	0.05746025000642783	-0.1393853094271295	1.62788113157291	1.627881129847539	-0.3057740817856708	-0.2795556309311737	0.513002276962777	0.2103287516834628	-0.07600469804424022	0.5599643763781144	0.5599643757690194	-0.07934641865006106	0.09929115162435707	1.310627907591159	2.001406238860139	1.342925487223471	-0.2775561283306201	-0.7520998434127444	-0.0735733804692221	2.946147308062028	-3.11574257913102	-2.129044875136999	11.67420624211532	11.67420626321166	0.5972382463483742	-3.601865044651554	-3.154410027432008	2.554064676582309	1.117644240675337	4.187719224434	4.187719264661498	3.52717966997041	-4.834497580805487
13.21999558999797	0.013931574126389	0.1353243899190981	0.2144274154282734	2.264957066400151	1.025607494336948	1.00866117852627	-0.1839537682330563	0.03559927235198669	-0.1538207270310983	1.70433838653114	1.70433838498052	-0.3016812884400863	-0.3034453720897024	0.4921916110245089	0.2275592807169091	-0.06693828838535339	0.5896229044968896	0.5896229041753839	-0.05263363009467398	0.06664587549829951	1.143199301069453	1.957340858153433	1.506079458583572	-0.2984440783678969	-0.7778375708776751	-0.08423127280706261	3.241423418288689	-3.416185866068658	-2.190822055846732	11.2339665670891	11.23396659780163	0.6265409611810739	-3.543461855377611	-3.122956328529631	2.585144635354139	1.597038438732407	4.6676184878603	4.667618533200399	4.481449052509165	-4.894193747358827
13.22666224999797	0.0213491919206716	0.1479793759773711	0.225058482854169	2.262939818246167	1.020429838841213	1.008072854220893	-0.1617711984625	0.01228885480228343	-0.1684943374767883	1.777244952593397	1.77724495126918	-0.2974915935337854	-0.3265270284928233	0.470837955954023	0.2443571466260636	-0.05480637889929443	0.6216263680568705	0.6216263680440486	-0.01970733541507702	0.0349060629659255	1.108738253225291	1.824605178937034	1.685505317193279	-0.3038613912110232	-0.7692756352778823	-0.09169493254464813	3.382476237237853	-3.5470471100087	-2.206657079355716	10.60413755486182	10.60413759147654	0.624053207919721	-3.36170527393171	-3.326945346435282	2.41861053591997	2.033755949368649	4.890126003357173	4.890126050122856	5.384697492795089	-4.563112634446566
13.23332890999797	0.02911457565958509	0.1594638225321885	0.2369210014922647	2.26094624792663	1.015436853456426	1.0074462411331	-0.1393155704105856	-0.01128425690033964	-0.1832171284010864	1.845256902205378	1.8452569011363	-0.2934499387834682	-0.3480306462339156	0.4472104802518888	0.2593094669570398	-0.03995486536355305	0.6542509698405072	0.6542509701378809	0.01896363573968145	0.006635047435297034	1.25325384002181	1.607097462455537	1.873807329910879	-0.291063333770389	-0.7219838348061374	-0.09573087178162881	3.31708697139336	-3.493774031878606	-2.21055981344327	9.763608573928423	9.763608613481079	0.5817717881603564	-3.073188692701266	-3.809467026273081	2.028700511506401	2.410703709951639	4.854970938518141	4.854970984621753	6.198614881453702	-3.85942643560596
13.23999556999796	0.03849908313631343	0.1692343230150398	0.2500321761686831	2.259100309867508	1.010891005725695	1.006803326701458	-0.118042037583294	-0.03388756235409908	-0.1979935348568579	1.906957313041491	1.906957312241577	-0.2898145706027559	-0.3673079584975248	0.4194142512313355	0.2708966581187354	-0.02282068626764139	0.6858139105195805	0.6858139111210857	0.06266040832921564	-0.01584030124190961	1.594328510568216	1.31183848784	2.057173676668062	-0.2597713610549559	-0.6354357741685204	-0.0966837211171182	3.029078082941771	-3.257939614257308	-2.225103062497777	8.713031326034969	8.713031367138694	0.5039480647235057	-2.696874586367168	-4.574097526118113	1.41027631436634	2.71709099508904	4.574859249606074	4.574859294858131	6.886380999911398	-2.836280341183317
13.24666222999796	0.05076099969863949	0.176804151639257	0.2642915144180426	2.257517653563235	1.00704215094142	1.006162292703155	-0.09934721984046796	-0.05436410930156455	-0.2129178403959474	1.961027474449488	1.961027473928478	-0.2867731030991044	-0.383829979658624	0.3857005032549617	0.2776509740084411	-0.003901938936072093	0.7147615038056497	0.7147615047092284	0.1104209489644228	-0.03066774873848652	2.10872094188492	0.9488058784402199	2.213981729243521	-0.2128311774255995	-0.5140740647364257	-0.09531835313674386	2.554433457825484	-2.86115190840513	-2.253547510121733	7.48216131119007	7.48216135381289	0.4073676788910441	-2.248804916542764	-5.571687045294135	0.584906276942006	2.944740143370435	4.0757762062593	4.075776251893156	7.411680387976895	-1.582847456283194
13.25332888999796	0.06684674866031112	0.1817631827048261	0.2794284088519889	2.256283970651868	1.004092671499549	1.005535421271897	-0.08418756387174153	-0.07177306245589558	-0.2280275329800124	2.006453690958326	2.00645369072723	-0.2843647918340437	-0.3971543864468131	0.3448418241064416	0.2783487344583641	0.0162481909285032	0.7397554267121141	0.7397554279250975	0.1610404139708569	-0.03670292745754965	2.725780038987593	0.5310464995384669	2.315053983093214	-0.1563456156528407	-0.3676774635608255	-0.0925990948905227	1.98955229884095	-2.346581000446495	-2.27525437765855	6.132663705913424	6.132663750243083	0.3191772060010448	-1.738578802372827	-6.69509425446888	-0.3954669687179446	3.084897453739647	3.3960789151554	3.396078962477076	7.737962224871568	-0.2213112576509885
13.25999554999795	0.08708252075340303	0.1837996229773964	0.2949597922070973	2.2554351054262	1.002163744818545	1.004928599937528	-0.07268976406806495	-0.08552654877250743	-0.2431452384638211	2.04272854192462	2.042728541992846	-0.2824259130858809	-0.4068797278923543	0.2964983184361876	0.2722126134421733	0.0370124986898193	0.7597480254196525	0.7597480269537682	0.2130716040159457	-0.03370052789494474	3.332048041228359	0.07511511437885535	2.326581548291236	-0.09896381029265662	-0.2105828285402386	-0.08943762091766692	1.484126357568516	-1.775973522048313	-2.247349746556002	4.753132550167869	4.753132595356191	0.2721135461422789	-1.169187557059132	-7.78819881566386	-1.449559797473521	3.127199911683937	2.584053977655197	2.584054026448808	7.829457619284103	1.103175283422164
13.26666220999795	0.1109455424235276	0.182725752223417	0.310177677079765	2.254945251175296	1.001271506344577	1.004342496359578	-0.06387615825879016	-0.09548724974097142	-0.257759045607736	2.069986965074643	2.069986965440159	-0.2805750964204907	-0.4126130042305191	0.2414629755689533	0.2590857983419583	0.05770467872557559	0.7740350990070086	0.7740351008649193	0.2648412126854451	-0.02241016516277692	3.790774478305161	-0.3981837436465329	2.216102446201202	-0.05017210753721256	-0.0594866657654291	-0.08645028764420158	1.21348333544258	-1.220794655246876	-2.114669440731907	3.444503808224849	3.444503851618639	0.2974147578138888	-0.5412230483418724	-8.673294662941952	-2.474363570735532	3.06190881874424	1.693554604444239	1.693554652185947	7.65496164054314	2.24103055321795
13.27332886999795	0.1370094644839096	0.1785087021630764	0.3241829691672788	2.254729081230562	1.001321848645527	1.003775238983727	-0.05563402518068084	-0.1019897805659907	-0.2709924012228914	2.089019211847564	2.089019212484517	-0.2782498860063372	-0.41397735427231	0.1816726431852102	0.2395325089225759	0.07758748931518304	0.7822732104650381	0.782273212626115	0.3144991491821059	-0.004526042298326379	3.973388128441108	-0.8631423006138367	1.959947230695268	-0.01793399595808473	0.06981727764910858	-0.08375258960307559	1.33492366402414	-0.7487002508133751	-1.825881809880661	2.298666425463224	2.29866646266835	0.416910452939533	0.1397289125387324	-9.192266715440416	-3.3594083664422	2.884204308745581	0.7778196970430923	0.7778197394676154	7.193668327364668	3.062700908736304
13.27999552999794	0.1631102847627497	0.1713025794424367	0.3359650313304838	2.254659414848087	1.002127609996808	1.003226260265517	-0.04498675867233895	-0.1057671408110982	-0.2816845933748038	2.101139367899318	2.101139368749782	-0.2747917813087458	-0.4106704537402759	0.1199381840734394	0.2148279832531375	0.09591726335471946	0.7844527180814159	0.7844527204947973	0.3601066067471035	0.0175269963491418	3.791940687291354	-1.289618658358527	1.548991950778597	-0.006557158097612177	0.1656765145308784	-0.08082473743500733	1.944049874292929	-0.4093998463392402	-1.349307152579373	1.378011907386175	1.378011933468537	0.6368242927099171	0.8559130613875743	-9.24667846111201	-4.005005143483432	2.597208852480715	-0.1173395211926082	-0.1173394886239048	6.440438221991016	3.481858060155491
13.28666218999794	0.1866966341019041	0.1614701544278423	0.3445076319388163	2.254595882262017	1.00344396811	1.002700594337214	-0.02860645378182911	-0.1077936096324143	-0.2885580819684548	2.107942767718569	2.107942768695407	-0.2695608021780575	-0.4025605305931968	0.05945689034579274	0.1868257837395406	0.1119971013970762	0.780828637004033	0.7808286395916031	0.399749668555832	0.0409356571966781	3.220359678620639	-1.645860512343307	0.9907141499291114	-0.01562415036690983	0.2226586770834429	-0.07652576170389376	3.048202710059322	-0.224325353522167	-0.6825137582875953	0.7034478479975435	0.7034478594654703	0.945330788976174	1.573683450099876	-8.820993242851236	-4.340032865214932	2.211435841675011	-0.9590504579911285	-0.9590504387496703	5.40789471650452	3.469666456857276
13.29332884999794	0.205267284011621	0.1495767536687042	0.3488973266704865	2.254416347111991	1.005012389202746	1.002212348579215	-0.003424709070520345	-0.1090785925133581	-0.2904242128056899	2.111019781801519	2.11101978280375	-0.2620522176425648	-0.3897918413008702	0.00324615390143016	0.1577199785766248	0.1252158055201905	0.7718236167092798	0.7718236193751689	0.4316540513793373	0.06289498297412893	2.299218898730114	-1.903921249188333	0.3081223607860874	-0.04021536081448124	0.2420387324406264	-0.06933524924508933	4.563559663383543	-0.1824285734327393	0.1455890513821554	0.253193473610102	0.2531934699542033	1.314276489471391	2.244392100929282	-7.983025816961606	-4.335099958606047	1.741407422722301	-1.730071594807594	-1.730071590715143	4.124765380663709	3.056798228576783
13.29999550999793	0.2167902992061888	0.1363428812756507	0.3484187857615937	2.254043331839511	1.006603155595106	1.001785804714368	0.03280601048665167	-0.1104540279986862	-0.2863831799801186	2.111691783069554	2.111691784003459	-0.251990415705603	-0.3728703991341253	-0.04636062476982033	0.1297430006568386	0.1350615076004648	0.7579237415668783	0.7579237442086377	0.454279499758787	0.08098060600305672	1.126220267834	-2.046279825362697	-0.4628605617364342	-0.07210898944667986	0.2309634671579579	-0.05780992996730726	6.331626302476469	-0.2423920282347386	1.078153598112001	-0.02994050856927511	-0.02994052477610223	1.704082601298103	2.809226229849094	-6.866091499206185	-4.008366800959053	1.201849785304289	-2.428275398766647	-2.428275409997105	2.631725830419007	2.324539735439314
13.30666216999793	0.2200252000542176	0.1225550083345806	0.3426301825124592	2.253460493789125	1.008049286167227	1.001453093095076	0.0811035623072716	-0.1123960802675884	-0.275989087017147	2.110814076960788	2.110814077756939	-0.2393836761556719	-0.3527080068886111	-0.08806087077612197	0.1048525490886612	0.1411140520189326	0.7395874653810075	0.7395874679001768	0.4663831275541503	0.09343493092880303	-0.162523471454081	-2.071382102822363	-1.276709665810355	-0.1014913993335036	0.2007827954348828	-0.04112656892459372	8.147235927058601	-0.3405296457137172	2.037209190155212	-0.2262896886049333	-0.2262897129152697	2.070314997536937	3.206643828714833	-5.641018462503354	-3.422965614970215	0.6053198509452226	-3.063323685824351	-3.063323711019728	0.9765257435774832	1.388522105332601
13.31332882999793	0.2147029366746911	0.1089489014679878	0.3314142178767788	2.252717126179652	1.00926769860426	1.001248471851627	0.1410534036708837	-0.1149148693766018	-0.2593610581555172	2.108669106204534	2.108669106824764	-0.2245335973993089	-0.330611824220846	-0.1217293855797646	0.08446282341982454	0.1430280173005685	0.7171842734549587	0.7171842757671136	0.4670521795381595	0.09933138713974356	-1.415749526389332	-1.996055641688885	-2.082345700118484	-0.118782343550729	0.1649450146011378	-0.01952636679413907	9.791465606071124	-0.4030202721933023	2.93296343807506	-0.424906131589728	-0.4249061593425781	2.370507383674687	3.381071171135844	-4.485029263090378	-2.676468036778334	-0.03825260862307611	-3.651193055683929	-3.651193091997706	-0.7901032610245109	0.3790622867704615
13.31999548999793	0.2015457111562366	0.09609099063769638	0.3149988056026834	2.251920945793881	1.010265658821444	1.001200443488841	0.2108286979107464	-0.1175350191516273	-0.2372246463108565	2.104957422215905	2.10495742264985	-0.2080013434008264	-0.308215009307824	-0.148360913193102	0.06926820210924968	0.1405179457812369	0.6909748150716947	0.6909748171160575	0.4557148272747018	0.09860630266844302	-2.491326134492593	-1.853554221336098	-2.828224504328957	-0.1162828808713452	0.136724949846547	0.005502436798289202	11.0649561926462	-0.3605651100703293	3.67539257896212	-0.7089347752806731	-0.708934802971728	2.570133506840132	3.291696744968069	-3.552301205285411	-1.884031240896682	-0.7205450067489755	-4.207363575623268	-4.207363618851895	-2.616857153400613	-0.5783970475718613
13.32666214999792	0.1821291679221402	0.08428833000424037	0.2939404500955711	2.25122107489654	1.01113210778444	1.001323778370522	0.2874247718789378	-0.1193757629613586	-0.2108692565054218	2.098882556805042	2.098882557059965	-0.190539263731402	-0.287351587033549	-0.1698310314812972	0.05919377805351196	0.1333539550820839	0.6611379745619488	0.6611379763090648	0.4321410848064871	0.0919674195710885	-3.278841561611428	-1.686987096520185	-3.46836147399175	-0.08944138574880109	0.1269932600076619	0.0313835276263945	11.81840055854044	-0.1631944423049282	4.187708764186889	-1.142302562375497	-1.142302588229733	2.646910060501886	2.920210327748481	-2.949333788931203	-1.157663612038787	-1.432790488263562	-4.73975388664222	-4.739753931714825	-4.45245387367314	-1.380456915313351
13.33332880999792	0.158607047637619	0.07355546874190456	0.2690664898237598	2.250784254048127	1.012014893207578	1.001613688206978	0.3670784297746106	-0.1193231187352776	-0.1820132706582729	2.089316200623053	2.089316200713361	-0.1730008393536756	-0.2698865755367746	-0.188515842927994	0.05348809117833748	0.1213738401360947	0.6278422204684199	0.6278422219229399	0.3964446211327093	0.08070004610383427	-3.717753688015178	-1.539090472474484	-3.968450623823564	-0.03759915804496888	0.142266463777333	0.05492546948451189	11.97685950796631	0.2073900988263523	4.420212155542476	-1.759206371960569	-1.759206395447217	2.592954858370379	2.276291019493114	-2.717672115752826	-0.5849613382122644	-2.162941798033085	-5.242739361623332	-5.24273940357629	-6.244872708338754	-1.959041788193234
13.33999546999792	0.1333398513831711	0.06365542019561819	0.2413800104618725	2.250768112820586	1.013086905826595	1.002043886101071	0.4458156987832922	-0.1162677394795654	-0.1525835485242273	2.075019100816904	2.075019100759625	-0.1562434662181802	-0.2575201012001815	-0.2068297207703907	0.05094661757978419	0.1045147618688702	0.5913492079622894	0.591349209158174	0.3490924101786471	0.06640331138723793	-3.807305443276363	-1.44076210851353	-4.310679606301624	0.03588871536439688	0.1834023671203747	0.07298774910847418	11.55300007481367	0.7309898766225799	4.361478815631951	-2.558263457362786	-2.558263478022468	2.414823589144018	1.399753152524457	-2.827223713003827	-0.2120563619701762	-2.892824619997836	-5.693700573329771	-5.693700608531421	-7.939870753146286	-2.288636188377903
13.34666212999791	0.1084970018064732	0.05421065979553332	0.2119417781050765	2.251295965044896	1.01450702804712	1.002569192106148	0.5200340393431564	-0.1093614242344408	-0.1244415898913636	2.05487914492765	2.05487914474526	-0.1410369843843468	-0.2515911498894047	-0.2267641390736753	0.05021905347394909	0.08286087943746837	0.5521280242031844	0.5521280251914611	0.2909246467441854	0.05070556229594422	-3.603950090925681	-1.402253118053672	-4.495505608251097	0.1242417444840166	0.2454322129751412	0.08313925159188654	10.64327750896199	1.350539037016873	4.042351984234908	-3.503572574235861	-3.503572590829893	2.131829003557294	0.3583499998160655	-3.183769476341969	-0.03644228295745337	-3.596311902249036	-6.053492798371537	-6.053492825422138	-9.479545364183554	-2.385018550582351
13.35332878999791	0.08572346150415248	0.04485222759746715	0.1817549823660161	2.252437899247009	1.016384866533516	1.003131834970096	0.5869924086152363	-0.09823083025642379	-0.09911924262629299	2.028114856109289	2.02811485583504	-0.1279878826640529	-0.25291248520341	-0.2495277541781619	0.05011975407089508	0.05669979116874144	0.5109505599843925	0.5109505608176816	0.2231808107529116	0.03501682569334604	-3.204772607141149	-1.411098954150664	-4.538873738759905	0.218534413373475	0.3188879034752621	0.08407249902015412	9.404203224999874	1.983203909855927	3.528653532028124	-4.53406124216562	-4.53406125279176	1.773087359267127	-0.7594031232796495	-3.651529508962983	-0.01345444073035246	-4.238362897691568	-6.271685534348994	-6.271685554075397	-10.80216810888278	-2.295827483095454
13.35999544999791	0.06595316713655802	0.0353552175457236	0.1516835789659337	2.254202042799457	1.018758881969195	1.003669298154205	0.6450890455349771	-0.0830921409719079	-0.07764077203148903	1.99439297397865	1.994392973658776	-0.117486211991348	-0.2616680748622346	-0.275374489001789	0.04985282855311343	0.02658438993460396	0.4689374738692193	0.4689374745899825	0.1475188698647271	0.02036108681964639	-2.721272082531163	-1.438118664397181	-4.465221348074523	0.3093975233464438	0.3923871102404383	0.07565115355391377	8.014092000696465	2.538209955996196	2.903263312874986	-5.579239806047783	-5.579239808838802	1.373746979144932	-1.85545556490542	-4.085579168021256	-0.07449932990965791	-4.774394800735581	-6.29583909943732	-6.295839113802868	-11.84456301990619	-2.086821235724434
13.3666621099979	0.04940431600445992	0.02571490395802547	0.1224232271283415	2.256537186455485	1.021593418054272	1.004121513036242	0.6938715211904875	-0.06474012069767404	-0.06048113488139545	1.953834608264744	1.953834607955953	-0.1096787118914963	-0.2773908133456353	-0.3036522055428509	0.04909706916414078	-0.006606017912824167	0.4275363010883992	0.4275363017269265	0.06600927286643291	0.007303650954683881	-2.252719564741716	-1.448414496972327	-4.299374969449869	0.3886335461919451	0.4555204550589016	0.05870215260416734	6.633517023727363	2.935652475548417	2.244754610224698	-6.575768739179965	-6.575768732948461	0.9710053960538352	-2.834464209125928	-4.363689177144695	-0.149320967136009	-5.151611377301876	-6.08197926635772	-6.081979276764243	-12.5471835113931	-1.827498788591938
13.3733287699979	0.0357281137132802	0.01614716932050253	0.09451921090959037	2.259344565236967	1.024792855576522	1.004436433929751	0.7338174053641813	-0.04442420303931281	-0.04765280058721138	1.906925215851481	1.906925215614831	-0.1044675516687335	-0.2990154881154891	-0.3330327017068472	0.04795341833394774	-0.04162778749455701	0.3884356770128234	0.3884356775959664	-0.01891084679630836	-0.004028187240806211	-1.867880281425959	-1.412282532452471	-4.061041740519193	0.4502957547435769	0.5009550205792977	0.03476935844554374	5.377754740705908	3.120875317452887	1.611405110230962	-7.478994421310208	-7.478994406009591	0.6004788115237425	-3.613665965901748	-4.407612441135729	-0.1838138635206555	-5.314936571171538	-5.602792310553864	-5.602792316486154	-12.86071866434141	-1.577668419785142
13.3799954299979	0.02423984220430705	0.007027114145283528	0.06840760483772738	2.262494569067414	1.028225578846927	1.004574170963554	0.7659891708184554	-0.02365162370299634	-0.03886778614516487	1.854372176135353	1.854372176027179	-0.1015313423562793	-0.3249845106911012	-0.3618354382485507	0.04680220493150394	-0.07689055558257277	0.35343816349403	0.3534381640592537	-0.1045286198675086	-0.01384220750576456	-1.598662607580321	-1.312482335366211	-3.76334528706686	0.4910930657356458	0.5252570867568647	0.005929264086677141	4.306728015650661	3.071800948310201	1.034811484178106	-8.267094311334439	-8.267094288498026	0.2931610768064385	-4.128751948733107	-4.189877970346884	-0.1489739311545888	-5.217373098092983	-4.851761916012317	-4.851761914913133	-12.75283827923655	-1.376571343525491
13.38666208999789	0.01415670307798988	-0.001205200380265756	0.04445481659494511	2.265844224803173	1.031749516359147	1.004510018680573	0.7916743965023803	-0.003965544602112701	-0.03371207205003232	1.796956768846566	1.796956768907053	-0.1003645143125173	-0.3533799700150378	-0.388353809701757	0.04613086812139404	-0.1105496837118898	0.3243183800524399	0.3243183806574438	-0.187989060299833	-0.02252098844033981	-1.443821989225065	-1.146821171927692	-3.414521605380485	0.5102502577755379	0.5286066659405776	-0.02536676982810871	3.429760346343728	2.799272318323671	0.5221165120974037	-8.938977940060333	-8.938977912973199	0.07294188580194165	-4.336047773995936	-3.728510809309476	-0.04109039371185247	-4.831412884988965	-3.843614183867385	-3.843614172577297	-12.21411237211552	-1.236925277475186
13.39332874999789	0.004789066393627348	-0.008141981693362011	0.02297982837167012	2.269252525641683	1.035233318409749	1.004236363569972	0.8120902768793132	0.01325990180899393	-0.03178524946945423	1.735414152484949	1.735414152728078	-0.1003314945015064	-0.3820611204652121	-0.4111198417767852	0.04638275337672194	-0.140667823727893	0.302687342116739	0.302687342835768	-0.2664630658459431	-0.03044263854299486	-1.378501518186457	-0.9266475849852729	-3.021145584383022	0.5090372100137217	0.5138515107610309	-0.05647671688839395	2.719064575536451	2.341963505385048	0.06362941885959639	-9.508408269305445	-9.508408242356062	-0.04534359838511712	-4.212180760678604	-3.074692915568062	0.1242319717781638	-4.157871741354803	-2.612186370931174	-2.612186348040887	-11.26225586538102	-1.145249535733624
13.39999540999789	-0.004339843305922509	-0.01348505269551526	0.00425397434020523	2.272592063302485	1.038570235577257	1.003763227654128	0.8281907807414278	0.0269783496551311	-0.03278090113867326	1.670358487313354	1.67035848772386	-0.1007317802442368	-0.4087947587993889	-0.4290763160757353	0.04785698866324797	-0.1654204365444049	0.2898770443406337	0.289877045246138	-0.3373356489779008	-0.03782382655297463	-1.365563436368579	-0.672663485659859	-2.591428977094044	0.4901585391496124	0.4853261047840609	-0.08479197398914143	2.126198558176966	1.757962126798191	-0.3575444603233363	-9.996687831669565	-9.996687809009581	-0.05719843352135594	-3.752467234298489	-2.298010015583434	0.3208586601776042	-3.230016246185667	-1.206605478450391	-1.206605446077889	-9.943816819849157	-1.068032519687465
13.40666206999789	-0.01344717894942376	-0.01709088284957135	-0.01151841870947932	2.275756533168678	1.041684250954971	1.00311723271256	0.8405810971868036	0.0365684468287592	-0.03650407007884731	1.602256439521317	1.602256440060121	-0.1008707682919701	-0.4313733995291119	-0.4416523498141125	0.0506676563100182	-0.183310811727616	0.2868543536578098	0.2868543547956767	-0.3983950293175764	-0.04461899806056626	-1.365746860852587	-0.4096762563449683	-2.137527021472035	0.4571447294075658	0.4477506304911538	-0.1079816904328412	1.597234867689372	1.115049195796018	-0.7566488335225992	-10.42570238419893	-10.42570236873511	0.03112045858784775	-2.969005545043665	-1.472694915808613	0.5206973084830957	-2.112264260933002	0.3135901538212852	0.3135901899741081	-8.332678288169529	-0.9620731867072834
13.41332872999788	-0.02250261470078298	-0.01898097731714732	-0.02422981989350388	2.27866443772593	1.044529684902783	1.002338976947666	0.8495216767369899	0.04186658702804223	-0.04283755189376952	1.531442569982218	1.531442570595333	-0.1001302109986631	-0.4477218119862643	-0.4487565118419755	0.05475353811330129	-0.1933590878680738	0.2941695336897392	0.2941695350600095	-0.4480005688577904	-0.05049603533932805	-1.345026028906245	-0.1616407228413956	-1.676318879802392	0.4138302732057397	0.4053932098297052	-0.1242171085814648	1.084218839124722	0.4812926415480484	-1.14098403808968	-10.81244237396309	-10.81244236731685	0.2031265494207965	-1.889185870138855	-0.6668557276319971	0.700070632670836	-0.893823852197606	1.883887833282486	1.883887865524059	-6.525231480876508	-0.7866464998352206
13.41999538999788	-0.03127888914756658	-0.01932274904559786	-0.03389925850354115	2.281259714074102	1.04708628874645	1.001479103709907	0.8549938530873913	0.04314123971310915	-0.05167709353835152	1.458164787486751	1.458164788112744	-0.09803220269411261	-0.455996118442457	-0.4507101887235122	0.05992053971107564	-0.1952351340550655	0.3119417025276118	0.3119417040788493	-0.4852084143647227	-0.05489196856863012	-1.278794957771144	0.05213014328524145	-1.22865491656487	0.3639555762970585	0.361555976522825	-0.1323335110668808	0.5521761095992574	-0.08291660702123188	-1.506919506454107	-11.16550256778843	-11.16550257059718	0.4335067518027769	-0.5549673402638319	0.06466093119674821	0.8431065580147865	0.3215373822589833	3.440374554101704	3.440374575064882	-4.632625832328046	-0.5149424296213074
13.42666204999788	-0.03942079426088852	-0.01839039038693657	-0.04069284160942237	2.283510135383949	1.049351941039968	1.000593576419316	0.8567982217787634	0.04102106827122536	-0.0628577350705318	1.382646298464029	1.38264629904071	-0.09429106924369633	-0.4546803390712018	-0.4481449656469603	0.06589699809881375	-0.1893148772092569	0.3398806833114434	0.3398806849497229	-0.509838050104154	-0.05713625687063303	-1.153331122706731	0.2191299759377661	-0.817406551437036	0.3108957952205854	0.3183613988618908	-0.1319042298792787	-0.01794776601799041	-0.530678354310776	-1.84016993705411	-11.48361510501978	-11.48361511681508	0.6903400557397877	0.9772335425193535	0.6840104048425086	0.9422945659726734	1.427934028768834	4.924997485594242	4.924997490126301	-2.770967486214228	-0.1425855471308235
13.43332870999787	-0.04651685554042634	-0.01651713141850815	-0.04492849474033608	2.285404286866535	1.051334756696598	0.9997387568239084	0.8546613038207589	0.0363924160830132	-0.07609156265081907	1.305151135349541	1.305151135822398	-0.08884789260899396	-0.4426826948979392	-0.4418849280338707	0.07238510130652963	-0.1766511795524511	0.3773413483204905	0.3773413499271615	-0.5224698631485344	-0.05661676397863381	-0.9652558171392446	0.3340866286106182	-0.4647556959498554	0.2575007430343675	0.2767788329794394	-0.1232282826676986	-0.6295980789256977	-0.8319448094157568	-2.118833483664632	-11.75598700603944	-11.75598702496783	0.9380749235169685	2.636625185910653	1.171219059307082	0.9969082006857142	2.330271839824522	6.289949843801704	6.289949829638387	-1.050635192665053	0.3082620394376602
13.43999536999787	-0.05216255409382517	-0.01404993081702133	-0.04706132435795297	2.286947778190513	1.053045985091708	0.9989667871825445	0.8483316936149441	0.03028235970925379	-0.09093280105600625	1.226042533788027	1.226042534119115	-0.08188297128946724	-0.4194292007584332	-0.4328313682639887	0.07909729838876278	-0.1588618007300386	0.4234026396479251	0.4234026410978374	-0.5243721556425837	-0.05295610385287943	-0.7196387459324924	0.3978680603897763	-0.1891727673161763	0.2060215281680521	0.2368224368281639	-0.1072566328851111	-1.273305307367884	-0.9745314489531773	-2.318396768773547	-11.96402660465485	-11.96402662769034	1.141144201632837	4.338924152218031	1.522680244200136	1.0102482016439	2.95592755537095	7.500604110467084	7.500604077795719	0.433979513626606	0.7899510140319035
13.44666202999787	-0.05600822975864352	-0.01131514479949478	-0.04764937450194632	2.288159180083	1.054494569681298	0.9983215980716106	0.8376531021152026	0.02374206166936101	-0.106779699327833	1.145826646304796	1.145826646478163	-0.07380257847055441	-0.3849461251972017	-0.4218636211720421	0.08577320155966425	-0.1379485481481651	0.4769603281617801	0.4769603293370345	-0.5173648242656969	-0.04616379473221066	-0.4274228421572192	0.4153919420492633	-0.002672552264371933	0.1580964882081163	0.1978356696766096	-0.08548047457171673	-1.930723954874473	-0.9630639241193808	-2.417537343685681	-12.083920322715	-12.08392034645174	1.268021661901483	5.988954958164287	1.747966802428343	0.9867071917001229	3.263404389426163	8.536686186450558	8.536686137145429	1.613003748143481	1.235461595089652
13.45332868999786	-0.05778969939768324	-0.008599513472563177	-0.04730401791919474	2.289065989369062	1.055683618257454	0.9978357760960653	0.8226094438371263	0.01774328649973046	-0.1229136564572961	1.065177815088601	1.065177815109324	-0.0651980221527789	-0.339917565572265	-0.4097639993031387	0.09217870884037399	-0.116073624418595	0.5368219930799717	0.5368219938793279	-0.5036351177841729	-0.0367333194481876	-0.1029369553401987	0.3932388876658572	0.09093783845928166	0.1147697743209234	0.1587644471719921	-0.05978389320521253	-2.578778520056046	-0.8161257099886978	-2.403243133716849	-12.08950184385125	-12.0895018655639	1.295407431880449	7.485560641777498	1.865966240121645	0.9294790003394882	3.246285682406548	9.391820422362226	9.39182035950064	2.446770945715697	1.568570237893617
13.45999534999786	-0.05734424481165461	-0.006146282304497646	-0.04663343886966648	2.289700772335216	1.056608450074578	0.9975285489283553	0.8033447482312656	0.01309902205312708	-0.1385665216495341	0.9849449678512825	0.9849449677377715	-0.056777758438062	-0.2857027366979029	-0.3971681181959307	0.09809322463757071	-0.09532783779497189	0.6017946108059572	0.6017946111523274	-0.4855270156566936	-0.0256627133572199	0.2379495760500295	0.3375801219839356	0.09633939046014195	0.07652422012264137	0.1183504984974565	-0.03225592776613698	-3.192962816803703	-0.5619561733334049	-2.273985840157305	-11.95499454543871	-11.95499456395081	1.21202126297495	8.728689551166127	1.901244516115537	0.8392981727679744	2.931704834247636	10.0718405882015	10.07184051595799	2.927978664540898	1.716286022517109
13.46666200999786	-0.05461689595778544	-0.004163046910620581	-0.04618924325158639	2.290097551923911	1.057255624752665	0.997405141691498	0.7801649664714539	0.01041601401045448	-0.1530007547755206	0.9061407648636103	0.9061407646363746	-0.04927742173874294	-0.2243009252050246	-0.3845372899524345	0.10329174233016	-0.07752602584873512	0.6707579846226798	0.6707579844706599	-0.4653284996003033	-0.01439055398281036	0.578901560713969	0.2527695127956403	0.02552398137915909	0.04332106601861459	0.07523538398020985	-0.004969766604303008	-3.749464230668175	-0.2333002766098431	-2.040371281035589	-11.65742676532762	-11.65742678111773	1.021313794792576	9.627827330823209	1.881106117354946	0.7141148863322716	2.373917058052992	10.59230221066233	10.59230213437328	3.080185005365022	1.621430624785535
13.47332866999785	-0.04966180230107158	-0.002836348969645506	-0.0464247580208428	2.290288478724686	1.057602445030003	0.9974576565079321	0.7535293326932752	0.01008226110298453	-0.165585584022655	0.8299158813421839	0.8299158810151959	-0.04335731664570061	-0.1582591266113824	-0.3721476682303776	0.1075270487023175	-0.06405719544786169	0.7427200987370477	0.7427200980803175	-0.4450802165274798	-0.004653622388967898	0.9035460314269177	0.1407373146114362	-0.1044528867321284	0.01464561120443627	0.02800516611635314	0.02024877745185886	-4.226207353090564	0.1377877218616669	-1.723343088138391	-11.1786759617076	-11.17867597605726	0.7424148007798648	10.11053621218105	1.833525163636626	0.5494085457874384	1.644653623368682	10.97561487655216	10.97561480252887	2.952983360229719	1.253207440484613
13.47999532999785	-0.04264230029984314	-0.00234759023950233	-0.04767041073327172	2.290300837491997	1.057616678979736	0.9976674432419707	0.7240375685630619	0.01228697348574465	-0.1758544039612606	0.7575208584402932	0.7575208580197009	-0.03950085624514625	-0.09052610143140619	-0.3600902454957027	0.1105154994183478	-0.05580365581169757	0.8168530895461537	0.8168530884216549	-0.4264255177425761	0.001713750510227819	1.195485285570722	0.00119186601591196	-0.2742566604831856	-0.01043639888648151	-0.02478045765533114	0.0420309455742579	-4.603128374367364	0.5243550999760528	-1.35047095754609	-10.50715822636726	-10.50715824016744	0.4088522539960783	10.12978230403396	1.785933347185311	0.3389217447787504	0.8224423793009794	11.24814038976579	11.24814032448896	2.614560815256848	0.613849622704842
13.48666198999785	-0.03383124164750474	-0.00288520454944311	-0.05012795977313859	2.290154493992203	1.057256563640574	0.9980086879755244	0.6924163544759857	0.01706532335017117	-0.1835333782234159	0.690257809897682	0.6902578093869993	-0.03792925816954069	-0.02426466795484333	-0.3482768976204295	0.1119288257041635	-0.05312894828322139	0.8925102895567477	0.8925102880417738	-0.4105160375845016	0.003007878531886571	1.438281598433031	-0.1674893239943724	-0.4650597293400942	-0.03320103672931688	-0.08452447509314628	0.05961420401566661	-4.862227930291089	0.9074801673311705	-0.9511885909172275	-9.639184504786893	-9.639184517904932	0.06498848119362838	9.668999189742532	1.764537484551435	0.07572891272398834	-0.01705236888155187	11.43742968958134	11.43742963846675	2.142673742416832	-0.25989362914187
13.49332864999785	-0.02361031811778204	-0.004649178982861504	-0.05388200222868474	2.289859963061021	1.05647146995148	0.9984526972811729	0.659504469259808	0.02435648924857645	-0.1885376534538456	0.6294241789159987	0.6294241783228236	-0.03854653492499763	0.03736047764242137	-0.3364506077045278	0.1113940985947455	-0.05592266676188525	0.9692254294951301	0.9692254276965425	-0.3979792817798994	-0.002124309861387991	1.615831481290735	-0.36689705956736	-0.6608722902673968	-0.055155999733807	-0.1524528491685325	0.07289745815257896	-4.98800407482427	1.277284670049655	-0.5520136412234784	-8.579988434292172	-8.579988445695856	-0.2393954496798068	8.744313418244758	1.793670472073189	-0.2463901606065623	-0.8082754941623058	11.56963542577539	11.56963539215944	1.615281700082035	-1.300658159728229
13.49999530999784	-0.01246486802926234	-0.007845658282323399	-0.05892455444276382	2.289417339783155	1.055203802820946	0.998972190030321	0.6262326456380238	0.03406168107306384	-0.190938444383238	0.5762507782374837	0.5762507775782088	-0.04092455916669745	0.09140001204756462	-0.3242010013587219	0.1085037253756481	-0.06368379101311561	1.046695225722878	1.046695223761716	-0.3889463644565211	-0.01450731177709551	1.713370240671999	-0.5970254772729739	-0.8500917511952811	-0.07789122133118143	-0.2293835893282925	0.08238772173672257	-4.968645105968052	1.631928918473428	-0.172740947274888	-7.344408281130232	-7.344408289277808	-0.4555444794342074	7.403871928437483	1.894798400323827	-0.6313293240649727	-1.500065703687528	11.66712003913041	11.66712002393188	1.102058462175685	-2.418961958510981
13.50666196999784	-0.0009696238450799945	-0.0126712576790239	-0.06518686020506348	2.288816360563148	1.053392719891995	0.9995448931078783	0.5935924849713945	0.04608936205929803	-0.1909102022262762	0.5318365684547214	0.5318365677565539	-0.04433159832156772	0.1353240972661687	-0.31098836094882	0.1028367303858459	-0.07562307459924562	1.124746762203283	1.124746760199145	-0.3831305397328915	-0.03432692712345846	1.719190113058027	-0.8547996241052083	-1.026109925928724	-0.1028898156280289	-0.3154158489894816	0.08904819156811851	-4.79812693564867	1.974847622449985	0.1756275439163006	-5.957171934900255	-5.957171938176494	-0.5421367447389637	5.724668934923518	2.084935258220845	-1.078921135521818	-2.057168468746668	11.74629161113213	11.74629161305604	0.6577858711451734	-3.514759739062895
13.51332862999784	0.01023927261880451	-0.01928868037984258	-0.07257211044053566	2.288037838663648	1.050980099303459	1.00015587414475	0.5625885303644562	0.06037771696232358	-0.1886708689531025	0.4970830692020575	0.4970830685013491	-0.04780033313960436	0.1671987572047889	-0.2961805644887726	0.09399141038917026	-0.09076809235049998	1.203291321682862	1.203291319740289	-0.3799415041211881	-0.06110208436694835	1.627016667573912	-1.132984962824562	-1.186996513768209	-0.1313068009870177	-0.4095739741154357	0.09407739770919731	-4.479130762012801	2.310808379106844	0.4908741532615811	-4.452710112584553	-4.452710110011075	-0.4705482768304441	3.807506725107983	2.374349662457267	-1.583300511518672	-2.459660965447418	11.81571367205271	11.81571368793429	0.3183106488400181	-4.490142982742584
13.51999528999783	0.02050964373321973	-0.02779705478869871	-0.08098341365051162	2.287056636581214	1.047918877391552	1.000798284081407	0.5341690806566435	0.07688917554450397	-0.1844287005700608	0.4726317246841438	0.4726317240189447	-0.05022461952893886	0.1858240728372614	-0.2791074012755534	0.08162781781044902	-0.1080599427092712	1.282266791124292	1.282266789321625	-0.3786171973202239	-0.09373973554513582	1.438791062478186	-1.419732076407076	-1.33442894190322	-0.1637332934679997	-0.5094633613492034	0.09866038798373222	-4.026422941999572	2.641623172592489	0.7776828644993766	-2.87445541820444	-2.874455410411461	-0.2280963113542683	1.770656798933625	2.763687360345073	-2.131643323798109	-2.701171397441661	11.87459192372634	11.87459194896668	0.09935183578690748	-5.261252449039535
13.52666194999783	0.02923741775751958	-0.03820190986072998	-0.09034283550893622	2.285846176281717	1.04418344806828	1.001472473525863	0.5091344834815866	0.09557781393061104	-0.1783460870275013	0.4588076203224867	0.4588076197191618	-0.05046975077041299	0.1908267648874236	-0.2591350451152797	0.06551652842120025	-0.1264363514072566	1.361571751998323	1.3615717503807	-0.3783542668344567	-0.1306617808864132	1.167432684376557	-1.698945980260542	-1.472131455068352	-0.1999774439416191	-0.6110087872416918	0.1037371598934125	-3.470115260313874	2.962455307753809	1.044564707263722	-1.273641942645195	-1.273641932557307	0.1811860939657469	-0.2574501322311753	3.240888434023574	-2.703594312284065	-2.786695518115487	11.9118348731895	11.91183490262216	-0.001958560101109387	-5.767731997231702
13.53332860999783	0.03594736099648026	-0.05039051150408701	-0.1005992194209912	2.284384229885774	1.039781301131915	1.002183738095824	0.4880264711613165	0.1163364599156032	-0.1705253462507358	0.4555728934842309	0.4555728929425747	-0.04747970769524888	0.1827012561284332	-0.2357598037800449	0.04558818277876319	-0.1449004404759036	1.440996053185124	1.440996051765124	-0.3784204676860337	-0.1699834721362647	0.8389139583266045	-1.951510427199171	-1.604119983625564	-0.2389080814542998	-0.7083600241283574	0.1098286567923218	-2.857904371658025	3.259534469016823	1.300492173779375	0.2924158834380535	0.2924158909433349	0.7381734055076473	-2.14634956949609	3.778655891629704	-3.271636038444304	-2.73053753113023	11.9059991415417	11.90599917081674	-0.003312217796460322	-5.978585241730982
13.53999526999782	0.04038267177416133	-0.06411768080976998	-0.1117244610965178	2.282659390542808	1.034764459716502	1.002939172817221	0.4710095421134579	0.1389346878018644	-0.161015536113712	0.4624937165199597	0.4624937160049062	-0.04036701049799203	0.1627941895529419	-0.2087135578938766	0.0219771861695255	-0.1625766973063081	1.520155061006363	1.520155059774073	-0.3782367629383763	-0.2097174228650969	0.4926628542082634	-2.157154006989709	-1.733038141569307	-0.2784165342301425	-0.7940628766490909	0.1169464760244138	-2.254979059667837	3.509758312977244	1.552086213370914	1.76270383675472	1.762703836440077	1.412118522854539	-3.772363742915998	4.333716010826023	-3.802466670121779	-2.554519823231479	11.82651506827859	11.82651509515868	0.06795514764958527	-5.893976837334815
13.54666192999782	0.04258882698008582	-0.07900518552301961	-0.1236996729813671	2.280677252042358	1.029238652302418	1.003744239119436	0.4577644736167414	0.1629609981606822	-0.1498342792585521	0.4787257729298441	0.4787257723760274	-0.02847567059575101	0.1332279489777935	-0.1780643373073982	-0.004946910469844455	-0.1787553640813831	1.598437372206807	1.598437371145811	-0.3774225279445552	-0.2479761481447319	0.1792963936703237	-2.296593003259983	-1.858821430946689	-0.31555002952007	-0.8595778929281762	0.1245979032994602	-1.74029499100302	3.682358460906538	1.802013491830191	3.075687746138813	3.075687734465869	2.16508733600992	-5.028082053472471	4.849214306875076	-4.259297170894677	-2.286237019610758	11.63654613367358	11.63654615840215	0.1806262921576142	-5.543024783623731
13.55332858999782	0.0429717314193296	-0.09455538652199975	-0.1364939604941811	2.278465028052508	1.023367769873154	1.004599685839944	0.44742085924839	0.1877829695574369	-0.1369953271171703	0.5030235763787358	0.503023575706919	-0.01141416029765892	0.09675906760708328	-0.1442879222035688	-0.03456608547739261	-0.1929240927453627	1.674977517519121	1.674977516620949	-0.3758023360994523	-0.2831474472265308	-0.04485997880002945	-2.353619880013116	-1.977827731319173	-0.3468487473181672	-0.8961750598037748	0.1318858219457579	-1.39855638230989	3.742602254548155	2.048856474907063	4.173264040976782	4.173264017442364	2.956355041207972	-5.832338829446313	5.261089271155858	-4.604955881267169	-1.956894652266244	11.29762613463191	11.29762615914231	0.3052583926888541	-4.977955208538507
13.55999524999782	0.0423087081201528	-0.1101780333337227	-0.1500389391027513	2.276073260551867	1.017371204714908	1.005499408799554	0.4385569979958244	0.2125381050691216	-0.1225332859116562	0.533778107686056	0.5337781068243779	0.01093829758526302	0.05657102163849582	-0.1082833097065368	-0.06602371372784131	-0.2047823574450154	1.748665116983456	1.748665116254326	-0.3733772720039609	-0.3140209554001681	-0.1263688306751512	-2.316937633251696	-2.082410973865625	-0.3688760186353549	-0.8961611155624282	0.1376856170556206	-1.308145110323601	3.657217901251697	2.287936344419368	5.005250270804061	5.005250238045965	3.745891175247587	-6.139648343010764	5.508479555793016	-4.80573186224489	-1.598218848572268	10.77589837652668	10.77589840305473	0.4190449806997872	-4.265499759108645
13.56666190999781	0.04169371433038489	-0.125228185700196	-0.1642014921174115	2.273573503249873	1.011512210828354	1.006429647538825	0.4292907903032956	0.2361648841273326	-0.1065227307524112	0.569085051134291	0.5690850500366746	0.038444009842375	0.01601114801803847	-0.07130732079254798	-0.09826225795995142	-0.21423116527415	1.818199544908688	1.818199544367202	-0.3702685651446735	-0.3398520861003548	-0.02563154122125495	-2.181654240450758	-2.160795144805356	-0.3788818835043174	-0.8543189731311671	0.1408621700579494	-1.526163433194025	3.400901279520915	2.511990450272795	5.533985487116646	5.533985450023432	4.49638879099672	-5.947204415897644	5.547362908989451	-4.835846092859965	-1.238115701093794	10.04940177521941	10.04940180508393	0.5091420559332916	-3.47698606793537
13.57332856999781	0.04240566297436039	-0.1390527913562083	-0.1787564668296137	2.271051410549103	1.006076500542421	1.007369639242007	0.4174742721030588	0.2574784243087805	-0.08909548332128701	0.6068423959172645	0.6068423945737499	0.07072731897730823	-0.02170643391564049	-0.03481227712342821	-0.1300919142121898	-0.2213300350037098	1.882193992396274	1.882193992064788	-0.3666456845855006	-0.3603599860506481	0.2713150575447142	-1.950369363582004	-2.197191174598965	-0.375497384751936	-0.7693565681217132	0.1404828562603002	-2.072746941450257	2.963030809118719	2.711011509494071	5.738426107142751	5.738426071394952	5.173722029679597	-5.297908828175465	5.365588842293897	-4.682166600590189	-0.8952886792547272	9.115392908059587	9.115392941011438	0.5739575836150153	-2.678697483478134
13.57999522999781	0.04570165104611258	-0.1510427916823274	-0.1933614230383457	2.268595488782993	1.001341928464553	1.008293567865722	0.4009864819857099	0.2752886368767215	-0.07046122914166721	0.6448717394770548	0.6448717379138873	0.107193764981626	-0.0538029065892558	-0.0001871633053149913	-0.1602892856670363	-0.22621719710267	1.939324341985556	1.939324341879219	-0.3626528992284253	-0.3756659584036353	0.7425437020323112	-1.633716298129834	-2.172349743522762	-0.3593129923016907	-0.6450765176884797	0.1359872829146149	-2.917883770043753	2.35349429668181	2.871523199319957	5.61704640987063	5.617046380420545	5.746183199170708	-4.278780577336195	4.996153041705599	-4.348320535977875	-0.5738323879059495	7.9961669763358	7.996167010497572	0.6223428843323308	-1.923866194249469
13.5866618899978	0.05255593134216915	-0.160686472910633	-0.2075376253450399	2.266282913832451	0.9975423200872349	1.009173415671934	0.3780941137011519	0.2885504553316513	-0.05093239119587598	0.6810531147835676	0.6810531130544261	0.1470422168076599	-0.07820963497672549	0.03157138848184405	-0.1877180167518415	-0.2289987402493352	1.988506312039174	1.988506312156391	-0.3583477213625753	-0.3861875011597698	1.324839381100547	-1.250156407052532	-2.064962818599076	-0.3331430358694364	-0.4908949752436361	0.1272844334156791	-3.975062702466888	1.606222470770135	2.976206419292847	5.188894087179879	5.188894067183748	6.183303784562386	-3.014285881077275	4.52408522322467	-3.856931694242384	-0.2597118814121699	6.741344837546979	6.741344869897146	0.6708717964420609	-1.247581838160314
13.5933285499978	0.06339012731180856	-0.1676182892785094	-0.2206646455732568	2.264165286016052	0.9948311929508791	1.009982175033857	0.3478177105440772	0.2965253554242559	-0.03094716727099001	0.7134591456839543	0.7134591438563659	0.1892708091913822	-0.09377976779914314	0.06019673994019769	-0.2114539243836287	-0.2296278101035387	2.029069635198763	2.029069635516508	-0.3536632943253022	-0.3925116806537834	1.917146696455122	-0.8247834339233087	-1.854430123635865	-0.301740808642535	-0.3212840711797292	0.1147626644771803	-5.106811292460344	0.7787543176464411	3.005018703279903	4.492253680693375	4.492253671149344	6.455367615916425	-1.653915978414224	4.081144730641412	-3.24847882252319	0.07822585311111803	5.424316936771845	5.424316964077141	0.7394156719286165	-0.6658751839268449
13.5999952099978	0.0778658355789576	-0.1716557410023626	-0.2319990136536105	2.262258662461209	0.9932538027983139	1.010696840207099	0.3102090810078875	0.2989222785012067	-0.01107724090100819	0.7404712585630628	0.7404712567047231	0.2326848022240016	-0.1003969791130787	0.08639897135640291	-0.2308875374249203	-0.2278129586758995	2.060883782023933	2.060883782499479	-0.3484050074525875	-0.3952786806760243	2.396196134247933	-0.3869077122660507	-1.525310088066031	-0.2707850624390321	-0.1537978635056196	0.09921555093110418	-6.146201419669227	-0.0537077430116345	2.938776064605139	3.580569948671643	3.580569948732497	6.534588052285964	-0.3538393884891377	3.823298833719046	-2.575525374682904	0.4802220546062034	4.131114501306492	4.131114520987035	0.8454071142086382	-0.1797157427274907
13.60666186999779	0.09482211074343562	-0.1728160313183857	-0.2407267684487601	2.260542616041916	0.9927369924001127	1.011300669704934	0.2664330417303095	0.2959790586706436	0.007996446958458954	0.7608597629518205	0.7608597611207912	0.2759184431198854	-0.09894655473127686	0.1119037178342047	-0.2457727018857498	-0.2230043511138569	2.084385642593841	2.084385643170052	-0.3422869175086578	-0.3951066251323813	2.643704146639024	0.03355102479115199	-1.07280687995875	-0.2452391429720097	-0.005781309828747625	0.08170134274599021	-6.933139196537773	-0.8100787593718937	2.764939846723265	2.515774312171557	2.515774319960861	6.398034482255303	0.7454747692062859	3.891836944816951	-1.892548481936693	0.9806691749145349	2.942624356133434	2.942624366398721	0.9979015511321471	0.2169362536001233
13.61332852999779	0.1124136607859432	-0.1713059879467328	-0.2460505879332746	2.258970888958859	0.9931031789526107	1.011784381212708	0.2185842353424872	0.2884510342080288	0.02554779126826586	0.773813505477254	0.7738135037186329	0.3174790116305208	-0.09113702824487779	0.1392062247942486	-0.2561998034307969	-0.2144902605192998	2.100479929647729	2.10047993025699	-0.3350031230128555	-0.3925755319892466	2.577547291782352	0.4103595301448587	-0.5072321339552754	-0.2276402164847417	0.1093748552364777	0.0633710529422707	-7.355085776357181	-1.418871613791086	2.483244023477452	1.360109090840857	1.360109104527548	6.031058479160776	1.540661572188788	4.369598157986402	-1.244163688500829	1.59114832630066	1.915391981219031	1.915391980648207	1.193388584782984	0.5281020819550258
13.61999518999779	0.1284365070220943	-0.1674830686616927	-0.2472967403984218	2.257491492632558	0.9941070966447856	1.012146255394205	0.1692623936687591	0.2774958344531956	0.04089745125416652	0.7789157205068516	0.7789157188562985	0.3558101320122285	-0.07920021979619438	0.1710676548652561	-0.2624971441971098	-0.201592346464365	2.110327921075551	2.110327921641767	-0.3263159899203085	-0.3882637300076566	2.17483227767393	0.7252346372426921	0.1447783959986919	-0.2170944721314805	0.1850959897692512	0.04532460554293224	-7.376185890525275	-1.833058655954174	2.107962858026452	0.1685688221047231	0.1685688407850928	5.429370264494922	1.979577332707919	5.250361313105297	-0.6560437558877652	2.28893354983611	1.068486514286261	1.068486501841576	1.415126406107884	0.749639221431162
13.62666184999778	0.1407540173726971	-0.1617898865379668	-0.2440172950860706	2.256069753252165	0.9954857620314355	1.012391555349213	0.1210261454338627	0.264473808490683	0.05350401346523048	0.7760779927620763	0.7760779912527652	0.3893613382999164	-0.06553318576302733	0.2098892917694144	-0.265090030258936	-0.1839047832835797	2.115083319510096	2.115083319954039	-0.3161356578516512	-0.3828088557523465	1.478143285678408	0.9714096799885058	0.8428125267055815	-0.2094216589879705	0.2226389490967695	0.02855693842138221	-7.043617887350353	-2.039891547781959	1.665416248693269	-1.015796998444926	-1.01579697469618	4.598814353012662	2.064352245478667	6.433872423759607	-0.1316110468991126	3.015677502865646	0.3811090517772078	0.3811090277773761	1.636332499337938	0.8681587852309293
13.63332850999778	0.1477049403933098	-0.1546696180470839	-0.2360656140413132	2.254706821192832	0.9970085785152056	1.012531921192212	0.07588322799171446	0.2507079013130328	0.06302508648013935	0.765455941766229	0.7654559404327297	0.4166498149427463	-0.05235599686041296	0.2571419731857656	-0.264359116986203	-0.1615077048279186	2.11564787819473	2.115647878447314	-0.3045683905588176	-0.3769591986187658	0.5844593661866926	1.155618953679871	1.537923437777202	-0.1983070064826468	0.2301708230042172	0.01399703246576586	-6.471205990617106	-2.062982428012732	1.187741509163003	-2.162621795629887	-2.16262176666929	3.553457979282479	1.844026001900528	7.746414145126632	0.3449863379130962	3.686084474018998	-0.1995275162041586	-0.1995275488878054	1.826061175211908	0.8648211078751761
13.63999516999778	0.1483941145096113	-0.1464767878126018	-0.2236312309853501	2.253448452919578	0.9985162094852389	1.012585111466656	0.03494460572376057	0.2372574893385238	0.06932958872884445	0.7473724695539185	0.7473724684288613	0.4363079035954216	-0.04144354240411681	0.3129948759970756	-0.2605360483470903	-0.1350969429511978	2.112504151799514	2.112504151820199	-0.2919218595751513	-0.3715876885314597	-0.3778248111425941	1.297302659751453	2.179424130566755	-0.1769797006517423	0.2204301208171249	0.002553091578966623	-5.808247615589872	-1.956114557862395	0.7047811000414178	-3.251368158248588	-3.251368124937812	2.313496256606327	1.400428527522821	8.978311665891104	0.8009888287292064	4.203828494121796	-0.7436294230056893	-0.7436294587844661	1.95592755231585	0.7224180658935264
13.64666182999778	0.1428093961902756	-0.1374051304675622	-0.2072266573613054	2.252382226942474	0.9999409871440641	1.012574753334363	-0.00169089957206792	0.2247577884769406	0.07245489494612772	0.722268899978125	0.722268899083762	0.4471198380772768	-0.03396220137197763	0.3762220397482648	-0.2536618326689891	-0.1059925783167927	2.105656349125521	2.105656348916701	-0.2786678295923419	-0.3676536535145891	-1.276967300459471	1.424225079309828	2.722347603081377	-0.1399330030783228	0.2076347559749048	-0.004943419306989019	-5.203007235979564	-1.790114148006781	0.2360060762344887	-4.266033471010198	-4.266033435586685	0.9042670997938956	0.8314600548641089	9.928116305907679	1.26451189235574	4.481401605833791	-1.321600432210271	-1.321600464117086	2.005899346452074	0.4335806724339736
13.65332848999777	0.131751562039759	-0.127456081914662	-0.1876257211602071	2.251624199557585	1.001305969315927	1.012529277921001	-0.03481354674118484	0.2133625429466764	0.07251690399880434	0.6906955752682383	0.6906955746083614	0.4480570127470013	-0.03041802271037849	0.4443998197512528	-0.2436168447110032	-0.07601277313659746	2.094684649695998	2.094684649305268	-0.2653729818123444	-0.3661122382354352	-2.004965950113268	1.564835466741022	3.134261924140873	-0.08432076667346039	0.2042745615692725	-0.007921505251942264	-4.768920138270145	-1.635565045013061	-0.2150896933591691	-5.188882095690809	-5.188882061333652	-0.643217453544386	0.2347302048795993	10.44423009012747	1.754012238459097	4.459957535557327	-1.987801089831549	-1.98780111162068	1.967922089045752	0.007936310895494177
13.65999514999777	0.1166028783020222	-0.1164647176201846	-0.1657630482801271	2.251298100821207	1.002704079343896	1.012479374586885	-0.0657834131313307	0.2028047633907744	0.0695975719128329	0.6533422748347326	0.6533422743912076	0.4383208544030931	-0.03070729330875956	0.5143486104857107	-0.2302138147761126	-0.04722801901202115	2.078895088759512	2.078895088268706	-0.2526142150398445	-0.3677847475116572	-2.497895981551984	1.739075387052884	3.399868114730169	-0.01075937202492748	0.2184630871501914	-0.006314607279433889	-4.560708600890681	-1.545480649128848	-0.6618616809070481	-5.995129019358743	-5.995128989300476	-2.290632841491188	-0.306492370559187	10.45505858383968	2.270357451218162	4.124539582650582	-2.768669688096125	-2.76866969595405	1.846944226444975	-0.5235957877398886
13.66666180999777	0.0989981811059283	-0.1041838256258126	-0.1426138810523272	2.251511737181501	1.004263465943039	1.012453936367049	-0.09610332150660832	0.1925585121755868	0.06364532082684413	0.6110948326812943	0.6110948324169587	0.4173981906853929	-0.03424778390495978	0.5827132358465523	-0.2133280159704149	-0.0216427273106682	2.057525336296056	2.057525335801782	-0.2408952644685141	-0.3732141492842657	-2.744044959972793	1.950751178481736	3.522132512369662	0.07665975721860246	0.2525637701253611	-0.0007477982189603254	-4.566787598041774	-1.543246936477571	-1.129764986211	-6.650724165459576	-6.650724142038827	-3.990377452179998	-0.7331226842936699	9.979243910466142	2.793970245641816	3.509885600489603	-3.658281836771156	-3.658281830146528	1.659570821525916	-1.108874332688969
13.67332846999776	0.08049040155506071	-0.09040318423911056	-0.1190800257561775	2.252336114085614	1.006109372838562	1.012475294015136	-0.1270036125423809	0.1820497440661136	0.0544246266125574	0.5650921700956055	0.5650921699622491	0.3851281056494773	-0.04015778441371731	0.6465321069444446	-0.1930249168829485	-0.0008798624912364539	2.029950034174401	2.029950033765785	-0.2305787193061031	-0.3825384747805028	-2.77750962495382	2.185138230746079	3.519279687645698	0.1711844612255971	0.3035456498106904	0.007452606278996977	-4.720223088041237	-1.620503643513239	-1.646568567090266	-7.114520164324578	-7.114520148501018	-5.684273230730995	-1.01468874378555	9.112104341750886	3.288526778784346	2.693431576098751	-4.622966249655569	-4.622966231279403	1.430898476694825	-1.679883358655868
13.67999512999776	0.06229912916230354	-0.07506190367458596	-0.09590822151150115	2.253792157822057	1.008333717766439	1.012555114165307	-0.1591500931936618	0.1708450345500886	0.04154160828394463	0.5167552263041406	0.5167552262511131	0.3417722333492649	-0.04744750341644049	0.7036489229589825	-0.1696432818599148	0.01404721274394143	1.995828878588304	1.995828878327622	-0.2218431136586267	-0.3954157693613328	-2.660744116282252	2.41340148634083	3.418361975337532	0.2648020635268912	0.364832807619931	0.01646109760157261	-4.923332305809152	-1.745509322260624	-2.229933335810312	-7.344283807137541	-7.344283798788158	-7.303991685305217	-1.148801536216675	7.993672415054335	3.71020230365386	1.776921177757155	-5.613242251349736	-5.613242226296665	1.190310440896756	-2.162508038753591
13.68666178999776	0.04519156167788965	-0.05831399808267083	-0.07365600791315427	2.255847431081227	1.010979537820913	1.01269207712999	-0.1925344158342763	0.1587614998680156	0.02454917162070641	0.4677686980388784	0.4677686980180752	0.2880745723455694	-0.05519365533178335	0.752884933049403	-0.1438076927794917	0.02282119474775221	1.955164287341781	1.955164287254763	-0.2146687832728304	-0.4110210949222313	-2.463658636076804	2.601548413530965	3.247962025118519	0.3497506061212635	0.4287322707710385	0.02425812154373135	-5.076057683345303	-1.877341868958636	-2.876800373868297	-7.304410001855674	-7.304410000438233	-8.773807800183199	-1.156806022551981	6.77121158481909	4.018878634268565	0.8637811018581627	-6.578020937334331	-6.578020911141374	0.9672197386251087	-2.487770959114089
13.69332844999775	0.02949386469697001	-0.04053103814778862	-0.05270119529465155	2.258421995633369	1.014040701538051	1.012871513535776	-0.2265399275917375	0.1458807287489057	0.003104624624677836	0.4200127213698691	0.4200127213372041	0.2252953641755055	-0.06267468207157595	0.7939791104056758	-0.1163712738749005	0.02576600499168929	1.908272003861971	1.908272003941064	-0.2088498717239357	-0.4281137937788886	-2.246321833974402	2.719673162427988	3.032748839493666	0.4196951225925138	0.488452914937897	0.02889461013369082	-5.099048724669445	-1.9795331961897	-3.558746447614339	-6.97285739034153	-6.972857395185008	-10.01555615517213	-1.076451600432351	5.568720408272339	4.187316168592917	0.04047887454611682	-7.475836116437008	-7.475836093348139	0.7875746476662442	-2.601222076137115
13.69999510999775	0.0151945510925285	-0.02225128646454273	-0.03327802179573339	2.261400382035834	1.017472155621054	1.013066501345087	-0.2601293485378918	0.1324862816781455	-0.02286577872459085	0.3754558571936343	0.3754558571107512	0.1552061448428136	-0.06944999457477039	0.8273679132116819	-0.08831088865721785	0.02369399010098031	1.855694436463984	1.855694436679336	-0.2040262482720803	-0.445155835082857	-2.048972036054495	2.748450486065233	2.790933470460111	0.4703747652233828	0.5392123913106202	0.02866656310432714	-4.946728269996673	-2.028942230625532	-4.224460081714483	-6.34563805971435	-6.345638069670033	-10.95520353275939	-0.9526659224369309	4.469791308868672	4.206062214368086	-0.6339480348906421	-8.280660423750902	-8.280660406257605	0.6713716209609848	-2.468745909792802
13.70666176999775	0.002087942383133249	-0.004097821541685692	-0.01552149976556971	2.264646185431438	1.021204426505942	1.01323990487902	-0.2920835748287661	0.1189618206180975	-0.0530386720973464	0.3360282314422672	0.3360282312818967	0.08003781675780872	-0.07537589455212187	0.8538975472632047	-0.06060470472154597	0.01771116507531656	1.798092910694475	1.798092911003808	-0.1997291222776331	-0.4604563340026865	-1.889856977011127	2.681920833483149	2.534232048697065	0.4997628447253061	0.5784369957975465	0.0222308030165411	-4.60973024568465	-2.01869598998747	-4.807793700204855	-5.438259208199232	-5.438259220991601	-11.53021894704558	-0.8280878087573761	3.514196158345575	4.083930281283409	-1.130247947232542	-8.982610506752589	-8.982610496226402	0.6309899099378556	-2.078675821811897
13.71332842999774	-0.01008972917409159	0.01331019825032693	0.0004939792219361684	2.268016489323641	1.025157161537604	1.013347119143763	-0.3212269266312895	0.105687655017094	-0.08663047403391244	0.3034946869763953	0.3034946867310389	0.002379512850461883	-0.08056265903471024	0.8745507469864922	-0.03411891506881605	0.009028269066713262	1.736148177564337	1.736148177918285	-0.1954356225805206	-0.4723196193831261	-1.76917039714099	2.526874375650654	2.269467111586471	0.5078807144843285	0.6053316315352116	0.008707810541973107	-4.108948740568642	-1.955948385881909	-5.238754505882479	-4.28438233887558	-4.28438235089232	-11.69681033853336	-0.7351791249474344	2.704908820333511	3.84495997025942	-1.445279298882428	-9.585050587936419	-9.585050585155631	0.6701489773358115	-1.440887215319907
13.71999508999774	-0.02156261055818346	0.02943316016765199	0.01472947701565702	2.271374305454089	1.029248712268868	1.013339551630056	-0.3465952538584104	0.09296494483370699	-0.1224094027202875	0.2793439187281631	0.279343918416832	-0.07496780055521754	-0.08528887514502313	0.8902415096867468	-0.009523238037024402	-0.001190970685240635	1.670487481629752	1.6704874819763	-0.1906283464300218	-0.4791797430154049	-1.676100786082301	2.299708706022861	2.000836542083705	0.4964110123751592	0.6201822343506286	-0.01219680758261723	-3.485031460223242	-1.856154006694524	-5.454597761759952	-2.93252832722761	-2.932528334355873	-11.43611757646575	-0.6915103500234777	2.020608622314692	3.523023834496416	-1.594973404690239	-10.09979249281457	-10.09979249769338	0.7834704938263387	-0.5837986390087985
13.72666174999774	-0.03246656067692247	0.04386042093232406	0.02717122785272819	2.274598099732878	1.03340106955003	1.013168981111661	-0.3675295559512754	0.08098388570329015	-0.1587752790325286	0.2647036027135857	0.264703602380064	-0.1491730114178286	-0.08989748427037435	0.9016980828805913	0.01275326191297947	-0.01193049679746829	1.60164582764319	1.601645827935578	-0.184855572762801	-0.4797106821019325	-1.596073924516961	2.021917128175657	1.731989119811934	0.4682265961520715	0.6237008911399958	-0.04005465824146816	-2.787088169835594	-1.735963355267388	-5.408791635596182	-1.441696066672724	-1.441696065860869	-10.75845238474912	-0.6990211043176013	1.428976008134067	3.155344709690562	-1.606414951545805	-10.54184496378123	-10.54184497474504	0.9567335000088188	0.4497689005261635
13.73332840999774	-0.04284353021446558	0.05632854592158208	0.03783190058959841	2.277588130252872	1.037541124968413	1.012792784423837	-0.383699432748213	0.06983792530340838	-0.1938887756949177	0.2602867063574674	0.2602867060586392	-0.2175758066909805	-0.09469924473295843	0.9094277195495735	0.03252318821566953	-0.02237215217767756	1.530060764465532	1.530060764672961	-0.1777872292835105	-0.4729075342192567	-1.516181022923265	1.71544562867453	1.467349249393399	0.4269160159164315	0.6165979694594302	-0.07360071590527906	-2.063263030585798	-1.606847759251084	-5.076816257246543	0.12354382516531	0.1235438346667669	-9.704699655143163	-0.7468095356968441	0.8975229021501412	2.776243417301477	-1.510876006599946	-10.92474449606362	-10.92474450995726	1.167902271939489	1.60702685610836
13.73999506999773	-0.05266334784888988	0.06671123778696747	0.04675759538029459	2.280269763427514	1.041600012365658	1.012179682216158	-0.3950738918316743	0.0595731685437311	-0.2258287383172092	0.2663713892827033	0.2663713890719729	-0.2778855828137902	-0.09990272217389987	0.9137406014180246	0.04980425363638158	-0.03190582158926161	1.456094556533429	1.456094556649695	-0.1692613414497243	-0.4581389206852843	-1.42792651611	1.398997035988416	1.212517291842133	0.3763585663783677	0.5994321471002497	-0.1107014746040804	-1.354474529942386	-1.47114362286243	-4.458869067425914	1.698182970695597	1.698182987168193	-8.344231772726733	-0.8160153081739487	0.4003930907130628	2.412292358464806	-1.338867950423568	-11.25707783834921	-11.25707785109402	1.388953498310052	2.829353807661212
13.74666172999773	-0.06185526118725451	0.07498990257534757	0.05403488873803836	2.282594219356576	1.045512235344618	1.0113152698923	-0.4018614606378354	0.05025326559644549	-0.2527591004674294	0.2828152743125614	0.2828152742261236	-0.3283542501151326	-0.1055790085802021	0.914805305694075	0.06475755550090012	-0.04011438599457123	1.380074773487448	1.3800747735343	-0.1593157141953327	-0.4351734979667315	-1.327513701930887	1.086000297798768	0.9739379205756042	0.3203818004772458	0.5726799009375625	-0.1484584462470339	-0.6914005469953584	-1.321443190450521	-3.580169591051561	3.221907430431507	3.221907450672857	-6.76919511534959	-0.8850881790684577	-0.07887195611399711	2.079713524095236	-1.117531136747032	-11.54045178780416	-11.54045179521195	1.588467067424962	4.055924927637609
13.75332838999773	-0.07033538616807893	0.08121701894665309	0.05979418558435784	2.284537345420641	1.049215684535629	1.010206329752105	-0.4044394079878794	0.04201691698108126	-0.2730916872168941	0.3091029287170907	0.3091029287693684	-0.3679002860990401	-0.1116591006832165	0.9127117167721902	0.07761697788054116	-0.04674845744428045	1.302343549168364	1.302343549194011	-0.1482001212945746	-0.4041838109142428	-1.214485570209629	0.784475800207544	0.758178601335147	0.262512340420623	0.5369134750747182	-0.1834706114944777	-0.09410193439785938	-1.143343297943363	-2.489487056371811	4.64384378512625	4.643843806089513	-5.085763160146156	-0.9341670558754039	-0.547674497447582	1.784311176292248	-0.8700978858060799	-11.76890489039302	-11.76890488881996	1.734850578793814	5.226898352120934
13.75999504999772	-0.07802219646706039	0.08548423965456232	0.06420776924116209	2.28609701881905	1.052652892164383	1.008882909700555	-0.403287060459725	0.03510806680896494	-0.2856337753200059	0.3444220573361529	0.3444220575257741	-0.3961678306407204	-0.1179559080738206	0.9075246621629928	0.08862575869549874	-0.05170270261120157	1.223306427456262	1.223306427529431	-0.1363656103458771	-0.365730106612017	-1.089646413167378	0.4985006331756066	0.5711003456239906	0.2058113374739647	0.4929775153213634	-0.2122348486575999	0.4265103177539361	-0.9206800402380895	-1.25602126243386	5.926312695404223	5.92631271554162	-3.403656134029442	-0.9480711214834269	-1.006594251156383	1.523582452457696	-0.6167722817503475	-11.92957775644195	-11.92957774350878	1.799919665746109	6.286250800669228
13.76666170999772	-0.08483809865002748	0.08790376112616383	0.06748259649843505	2.287289692090386	1.055773220762695	1.007397430738518	-0.3989327680733916	0.0298670275760073	-0.2897087893500258	0.3877594904964698	0.3877594908175525	-0.4135147240420794	-0.1242019255698746	0.8993196891890427	0.09799226061013763	-0.05500033293097507	1.143473338713093	1.143473338912093	-0.1244299247557381	-0.3207263443804972	-0.9530859402116698	0.2305911455516847	0.4171465513796899	0.1527793808340647	0.4420823061901068	-0.2316243749847573	0.8661787288680813	-0.6417272156827036	0.03558283911650736	7.046905619445745	7.046905638855613	-1.825587361541594	-0.9180769901565032	-1.452330945637434	1.290218958551657	-0.3761450698754777	-12.00435007533283	-12.0043500506404	1.76240037994805	7.184277291294723
13.77332836999772	-0.09069984262455719	0.08860635288072589	0.06984928877822404	2.288146492428875	1.058535277922545	1.005820574746934	-0.3919188846764202	0.02668193541823579	-0.2852369824695741	0.4380039410832893	0.4380039415332567	-0.420934426010562	-0.1300960920034309	0.8881995113022547	0.1058711779063982	-0.05678629280204226	1.063486334374068	1.063486334772222	-0.113121248070569	-0.2703908803177554	-0.8028738546626224	-0.01581823874576933	0.298936707379515	0.1053148077825455	0.3857763603121142	-0.2393610426208424	1.22450300551756	-0.3046177741322464	1.29225607323487	7.998389894230986	7.99838991356366	-0.43821451337746	-0.842984282739828	-1.880439009554069	1.076082034007038	-0.1662520689551044	-11.97212389799541	-11.97212386345238	1.610846623567087	7.879667258365693
13.77999502999771	-0.09550326043291986	0.08775408729568762	0.0715496300401042	2.28870916721274	1.060908762899577	1.004234298886631	-0.3827846177258999	0.0259108282582788	-0.2727631348851816	0.4940407633304023	0.4940407639090847	-0.4199258206734249	-0.1353564317919685	0.8742945389906207	0.11237029252308	-0.05732440703229564	0.9841307931806488	0.9841307938309702	-0.1032057082292043	-0.2161850702340277	-0.6346812504691001	-0.2345548851109074	0.2172166273232923	0.06470566556219878	0.3258083968410583	-0.234390214097687	1.502471997833181	0.07945545842955673	2.42127844324232	8.786462632837893	8.786462652003298	0.6943248810116553	-0.7297977121243944	-2.287306855421181	0.8757463806605412	-0.004629065325301362	-11.81144954129573	-11.81144950105382	1.345535765075311	8.341039648798589
