TendonForce
version=1
nRows=51
nColumns=5
inDegrees=no

This analysis gathers basic information about muscles during a simulation (e.g., forces, tendon lengths, moment arms, etc).
Units are S.I. units (second, meters, Newtons, ...)
If the header above contains a line with 'inDegrees', this indicates whether rotational values are in degrees (yes) or radians (no).

endheader
time	recfem_r	vaslat_r	vasint_r	vasmed_r
    142.82000000	    487.04314044	    156.59766250	     60.28187771	     89.07124719
    142.83704000	    454.62862476	    156.20388325	     59.56624166	     88.09639923
    142.85408000	    394.40231794	    159.94453898	     60.46033431	     89.49700293
    142.87112000	    307.29725480	    169.99896440	     63.76640979	     94.54216760
    142.88816000	    250.28775244	    186.76742903	     69.62428493	    103.53509213
    142.90520000	    311.60509694	    209.67583053	     77.97629632	    116.32772248
    142.92224000	    516.43631114	    238.36068709	     89.03556412	    132.95186042
    142.93928000	    779.30698176	    275.36012951	    104.10142258	    154.96224524
    142.95632000	    983.14576579	    322.41265903	    123.89237462	    183.19721478
    142.97336000	   1082.16840576	    377.84460389	    147.49968626	    216.26953616
    142.99040000	   1095.72565217	    436.42266106	    173.23963672	    251.79791787
    143.00744000	   1029.05832536	    481.60317324	    195.78992861	    281.71430358
    143.02448000	    891.80331818	    506.78566271	    213.26818178	    303.16831819
    143.04152000	    713.15325183	    522.70602928	    226.40104742	    317.87956302
    143.05856000	    539.48495050	    536.87731530	    237.19678097	    330.53328456
    143.07560000	    423.52838579	    562.91703541	    244.20101623	    341.16759385
    143.09264000	    404.84731652	    609.13054841	    245.62009924	    349.14871357
    143.10968000	    486.51058717	    662.05794011	    240.86842920	    352.02392770
    143.12672000	    590.83955579	    685.44590678	    230.03579085	    344.81156183
    143.14376000	    608.86791725	    647.90224130	    211.04556404	    320.33252904
    143.16080000	    494.87228936	    540.55076403	    183.71199269	    277.26415644
    143.17784000	    307.23995304	    406.64516328	    151.15493860	    225.05906226
    143.19488000	    146.77407144	    299.18455899	    120.36986051	    177.93876286
    143.21192000	     54.52774335	    231.02390127	     94.94741792	    141.45197126
    143.22896000	     27.26591600	    193.66603864	     76.12660225	    115.68537112
    143.24600000	     33.15568875	    177.54998895	     64.62740179	    100.18371551
    143.26304000	     45.51471630	    171.49961742	     59.05568863	     91.95966100
    143.28008000	     49.09668569	    160.34367167	     57.14616176	     86.70364385
    143.29712000	     43.62397349	    134.74017382	     56.73880160	     81.72118696
    143.31416000	     51.51136019	    123.48391997	     59.75954789	     84.58303203
    143.33120000	    105.92930108	    219.14143711	     74.99400285	    117.98606542
    143.34824000	    217.54165423	    558.40893607	    116.57787163	    212.96811449
    143.36528000	    345.82377986	   1233.02977121	    196.28362424	    388.65207154
    143.38232000	    427.42979767	   2186.32225555	    312.47961535	    632.31611744
    143.39936000	    440.46138651	   3191.60164152	    441.04917782	    891.82217091
    143.41640000	    420.96448243	   3961.82212686	    540.60279285	   1091.52155031
    143.43344000	    427.97926220	   4294.32280694	    574.86955154	   1168.28696764
    143.45048000	    514.37263982	   4131.50643462	    535.14206039	   1102.85575759
    143.46752000	    694.19720632	   3548.94634031	    445.13762103	    928.91659531
    143.48456000	    907.49891797	   2713.17038524	    342.40055702	    709.98330757
    143.50160000	   1043.46549900	   1828.73420802	    252.99795677	    502.01015637
    143.51864000	   1020.72101100	   1078.59400815	    182.92380725	    333.90067704
    143.53568000	    845.02195344	    564.96388108	    128.65804863	    212.74614624
    143.55272000	    592.96881996	    286.69834278	     88.72364685	    135.74978432
    143.56976000	    350.95935496	    173.84938170	     63.91549996	     95.20133848
    143.58680000	    180.92088600	    147.48753634	     53.34738000	     80.61718669
    143.60384000	    106.30130744	    152.91584124	     53.09558651	     81.01459450
    143.62088000	    111.53673778	    165.21848928	     58.36592357	     88.23033278
    143.63792000	    155.49115533	    180.07284819	     65.93407383	     98.54060444
    143.65496000	    203.62144271	    200.90130802	     74.79373547	    111.44106289
    143.67200000	    252.27764790	    227.97095828	     84.71370036	    126.50907038
