Length
version=1
nRows=51
nColumns=5
inDegrees=no

This analysis gathers basic information about muscles during a simulation (e.g., forces, tendon lengths, moment arms, etc).
Units are S.I. units (second, meters, Newtons, ...)
If the header above contains a line with 'inDegrees', this indicates whether rotational values are in degrees (yes) or radians (no).

endheader
time	recfem_r	vaslat_r	vasint_r	vasmed_r
     14.21332751	      0.62710241	      0.37136089	      0.35599683	      0.34175018
     14.22919416	      0.62568633	      0.36963466	      0.35430323	      0.34007432
     14.24506081	      0.62469186	      0.36849560	      0.35317320	      0.33895735
     14.26092746	      0.62471019	      0.36847827	      0.35315592	      0.33894028
     14.27679411	      0.62630622	      0.36999992	      0.35466337	      0.34043054
     14.29266076	      0.62982869	      0.37327545	      0.35785383	      0.34358865
     14.30852741	      0.63528396	      0.37823928	      0.36260582	      0.34828482
     14.32439407	      0.64235503	      0.38455049	      0.36862650	      0.35418874
     14.34026072	      0.65052517	      0.39175856	      0.37561815	      0.36096387
     14.35612737	      0.65895192	      0.39924297	      0.38306583	      0.36807829
     14.37199402	      0.66710666	      0.40680548	      0.39081721	      0.37539508
     14.38786067	      0.67398338	      0.41380561	      0.39825231	      0.38231683
     14.40372732	      0.67854985	      0.41950335	      0.40459674	      0.38811455
     14.41959397	      0.68065072	      0.42386194	      0.40962376	      0.39261244
     14.43546062	      0.68065395	      0.42737227	      0.41321346	      0.39580090
     14.45132727	      0.67998726	      0.43034655	      0.41612552	      0.39847247
     14.46719392	      0.67962672	      0.43289012	      0.41865796	      0.40080893
     14.48306057	      0.67914115	      0.43479577	      0.42058494	      0.40259023
     14.49892722	      0.67747298	      0.43580354	      0.42161378	      0.40354104
     14.51479388	      0.67369344	      0.43578939	      0.42159929	      0.40352765
     14.53066053	      0.66759199	      0.43479688	      0.42058607	      0.40259127
     14.54652718	      0.65986314	      0.43300974	      0.41877818	      0.40092003
     14.56239383	      0.65177500	      0.43069241	      0.41646724	      0.39878715
     14.57826048	      0.64443875	      0.42805005	      0.41387379	      0.39640524
     14.59412713	      0.63787616	      0.42504257	      0.41089326	      0.39372583
     14.60999378	      0.63141547	      0.42142062	      0.40681852	      0.39011619
     14.62586043	      0.62474706	      0.41665698	      0.40138564	      0.38519396
     14.64172708	      0.61772425	      0.41024347	      0.39443011	      0.37877403
     14.65759373	      0.61051905	      0.40215960	      0.38602700	      0.37088173
     14.67346038	      0.60405272	      0.39331337	      0.37714845	      0.36243465
     14.68932703	      0.59852885	      0.38427030	      0.36835790	      0.35392672
     14.70519368	      0.59475889	      0.37669132	      0.36112995	      0.34682874
     14.72106034	      0.59330784	      0.37215044	      0.35676502	      0.34251069
     14.73692699	      0.59457399	      0.37152991	      0.35616159	      0.34191327
     14.75279364	      0.59842814	      0.37467551	      0.35920108	      0.34492201
     14.76866029	      0.60409497	      0.38044277	      0.36470393	      0.35034930
     14.78452694	      0.61044457	      0.38701967	      0.37100324	      0.35650169
     14.80039359	      0.61638663	      0.39270570	      0.37654937	      0.36185942
     14.81626024	      0.62125698	      0.39649333	      0.38030521	      0.36545352
     14.83212689	      0.62508465	      0.39822057	      0.38203587	      0.36710049
     14.84799354	      0.62818179	      0.39811489	      0.38192965	      0.36699955
     14.86386019	      0.63080494	      0.39651725	      0.38032910	      0.36547629
     14.87972684	      0.63292467	      0.39372415	      0.37755417	      0.36282379
     14.89559349	      0.63421274	      0.38993863	      0.37383726	      0.35924654
     14.91146015	      0.63437777	      0.38543204	      0.36947296	      0.35501362
     14.92732680	      0.63350606	      0.38067119	      0.36492147	      0.35056294
     14.94319345	      0.63221235	      0.37636128	      0.36081480	      0.34651746
     14.95906010	      0.63149854	      0.37332912	      0.35790562	      0.34363992
     14.97492675	      0.63227892	      0.37219356	      0.35680687	      0.34255212
     14.99079340	      0.63477447	      0.37296996	      0.35755878	      0.34329655
     15.00666005	      0.63829534	      0.37495599	      0.35947013	      0.34518816
