FiberForce
version=1
nRows=51
nColumns=5
inDegrees=no

This analysis gathers basic information about muscles during a simulation (e.g., forces, tendon lengths, moment arms, etc).
Units are S.I. units (second, meters, Newtons, ...)
If the header above contains a line with 'inDegrees', this indicates whether rotational values are in degrees (yes) or radians (no).

endheader
time	recfem_r	vaslat_r	vasint_r	vasmed_r
     14.21332751	    739.24870749	    142.30219640	     54.58090995	     87.30277396
     14.22919416	    519.93579058	    135.72120179	     50.11307077	     81.92924188
     14.24506081	    334.30339260	    133.01289191	     47.36157199	     78.91131810
     14.26092746	    196.81548863	    136.27126086	     47.29393331	     79.60518716
     14.27679411	    121.42760297	    146.15176686	     50.17233708	     84.42975273
     14.29266076	    114.83227936	    162.63838683	     55.82502183	     93.24100411
     14.30852741	    159.62720001	    185.67516997	     64.02713521	    105.81575165
     14.32439407	    228.93766128	    216.01346921	     75.04359462	    122.55765181
     14.34026072	    316.77603842	    255.05403499	     89.69627691	    144.52366296
     14.35612737	    440.75153042	    303.92085618	    108.90335147	    172.57367838
     14.37199402	    626.24274895	    367.59429352	    135.36351134	    210.07441692
     14.38786067	    858.37416293	    441.18976982	    168.47713443	    255.02757328
     14.40372732	   1064.64108625	    516.22215538	    205.41938039	    302.92230432
     14.41959397	   1175.84887864	    586.11424400	    241.96646987	    348.07198803
     14.43546062	   1174.42311475	    652.48135275	    272.99993861	    385.64795130
     14.45132727	   1137.23198676	    716.76811636	    302.31170584	    421.83836662
     14.46719392	   1117.06060365	    777.57213863	    330.65397742	    456.67930939
     14.48306057	   1088.62564412	    826.08866340	    353.89213912	    484.99678719
     14.49892722	   1000.10348066	    851.56898249	    366.54413050	    500.18410821
     14.51479388	    829.62897719	    847.98601106	    365.35851454	    498.41318482
     14.53066053	    619.71345084	    816.97403136	    351.03657453	    480.52147221
     14.54652718	    442.02693531	    766.74453999	    327.67396773	    451.43564018
     14.56239383	    336.72216858	    708.00899127	    300.57574414	    417.80167592
     14.57826048	    293.51002265	    648.06969570	    273.35251277	    384.46554220
     14.59412713	    262.16338037	    587.00891548	    245.40113641	    351.60709407
     14.60999378	    211.63921476	    521.82855118	    211.98918833	    312.14817360
     14.62586043	    146.41278280	    447.06767499	    175.09022461	    266.46429371
     14.64172708	     85.86475704	    366.50083325	    137.04524627	    216.62257165
     14.65759373	     47.98034118	    292.75780911	    102.25361092	    168.75965433
     14.67346038	     33.03090602	    231.70355888	     75.11826994	    128.91754256
     14.68932703	     32.68616844	    171.08249024	     56.97176558	     97.47845476
     14.70519368	     39.98870466	    102.32700237	     51.76468947	     78.19136748
     14.72106034	     48.68977943	     37.42427314	     63.57262492	     78.15970411
     14.73692699	     53.32430149	     86.74233168	     94.87578775	    117.77478819
     14.75279364	     54.36755805	    475.40559298	    143.34602932	    228.35878696
     14.76866029	     66.40039911	   1347.28415698	    211.45740589	    428.26982419
     14.78452694	    115.88929928	   2537.02533288	    306.36299790	    693.90436466
     14.80039359	    218.79667435	   3617.92369464	    415.46169702	    952.59893996
     14.81626024	    360.57906194	   4253.11572002	    500.68347584	   1128.11754645
     14.83212689	    508.77126619	   4372.91604905	    528.38835286	   1184.03213617
     14.84799354	    631.89840010	   4055.25922853	    494.37451569	   1122.40333019
     14.86386019	    703.53274308	   3416.67638590	    419.29644558	    968.64460943
     14.87972684	    700.77617827	   2572.82669956	    325.30900915	    753.25252838
     14.89559349	    619.38886804	   1681.19956519	    228.84426464	    516.30910228
     14.91146015	    485.72866298	    918.07740877	    143.88462634	    304.94514651
     14.92732680	    342.59097729	    397.94458560	     81.91311608	    155.03858321
     14.94319345	    224.42935874	    136.22210015	     48.10989166	     77.81299136
     14.95906010	    148.71059763	     68.62969622	     38.53597684	     58.76056962
     14.97492675	    121.16336665	     98.19818170	     42.89165416	     69.73689058
     14.99079340	    137.72395874	    141.41187601	     50.73541935	     85.26635552
     15.00666005	    181.62655297	    165.53217413	     57.19668921	     95.22828943
