NormalizedFiberLength
version=1
nRows=51
nColumns=5
inDegrees=no

This analysis gathers basic information about muscles during a simulation (e.g., forces, tendon lengths, moment arms, etc).
Units are S.I. units (second, meters, Newtons, ...)
If the header above contains a line with 'inDegrees', this indicates whether rotational values are in degrees (yes) or radians (no).

endheader
time	recfem_r	vaslat_r	vasint_r	vasmed_r
     14.21332751	      1.09648773	      0.89313175	      0.91256793	      0.92770477
     14.22919416	      1.08102804	      0.87941165	      0.89858327	      0.91497938
     14.24506081	      1.07017671	      0.87036874	      0.88925278	      0.90652227
     14.26092746	      1.07037665	      0.87023123	      0.88911012	      0.90639319
     14.27679411	      1.08779445	      0.88231323	      0.90155699	      0.91768065
     14.29266076	      1.12627538	      0.90836956	      0.92790299	      0.94171374
     14.30852741	      1.18596789	      0.94797180	      0.96715016	      0.97771497
     14.32439407	      1.26349171	      0.99850140	      1.01688519	      1.02337578
     14.34026072	      1.35324189	      1.05642097	      1.07465292	      1.07625615
     14.35612737	      1.44597346	      1.11676150	      1.13620026	      1.13226312
     14.37199402	      1.53584119	      1.17790771	      1.20026834	      1.19030263
     14.38786067	      1.61170783	      1.23464158	      1.26173121	      1.24556291
     14.40372732	      1.66212329	      1.28090350	      1.31418393	      1.29208181
     14.41959397	      1.68532669	      1.31633761	      1.35574846	      1.32830213
     14.43546062	      1.68536237	      1.34490171	      1.38543052	      1.35404160
     14.45132727	      1.67799847	      1.36912103	      1.40951043	      1.37564650
     14.46719392	      1.67401630	      1.38984492	      1.43045195	      1.39456857
     14.48306057	      1.66865347	      1.40537810	      1.44638708	      1.40901100
     14.49892722	      1.65023185	      1.41359484	      1.45489524	      1.41672566
     14.51479388	      1.60850765	      1.41347946	      1.45477541	      1.41661702
     14.53066053	      1.54119319	      1.40538714	      1.44639641	      1.40901946
     14.54652718	      1.45600960	      1.39081980	      1.43144611	      1.39546894
     14.56239383	      1.36698588	      1.37193833	      1.41233623	      1.37819355
     14.57826048	      1.28636515	      1.35041949	      1.39089076	      1.35892589
     14.59412713	      1.21436916	      1.32594207	      1.36624539	      1.33728439
     14.60999378	      1.14362667	      1.29648574	      1.33255379	      1.30818709
     14.62586043	      1.07077892	      1.25778405	      1.28763545	      1.26862318
     14.64172708	      0.99428663	      1.20575656	      1.23013366	      1.21723868
     14.65759373	      0.91611009	      1.14032434	      1.16067426	      1.15445193
     14.67346038	      0.84628017	      1.06894035	      1.08729834	      1.08779680
     14.68932703	      0.78694004	      0.99625430	      1.01466621	      1.02134062
     14.70519368	      0.74664390	      0.93560783	      0.95496003	      0.96652057
     14.72106034	      0.73118478	      0.89941309	      0.91891148	      0.93349373
     14.73692699	      0.74467242	      0.89447609	      0.91392842	      0.92894553
     14.75279364	      0.78586133	      0.91952597	      0.93902933	      0.95190449
     14.76866029	      0.84673525	      0.96559241	      0.98448088	      0.99363349
     14.78452694	      0.91530387	      1.01831883	      1.03652145	      1.04137426
     14.80039359	      0.97974821	      1.06404633	      1.08234783	      1.08328076
     14.81626024	      1.03273275	      1.09457178	      1.11338531	      1.11154758
     14.83212689	      1.07446216	      1.10850788	      1.12768808	      1.12453916
     14.84799354	      1.10827735	      1.10765494	      1.12681020	      1.12374227
     14.86386019	      1.13694939	      1.09476472	      1.11358274	      1.11172704
     14.87972684	      1.16013861	      1.07224944	      1.09065099	      1.09085365
     14.89559349	      1.17423784	      1.04177799	      1.05993740	      1.06280750
     14.91146015	      1.17604466	      1.00557369	      1.02387835	      1.02978797
     14.92732680	      1.16650176	      0.96742037	      0.98627785	      0.99528385
     14.94319345	      1.15234417	      0.93297330	      0.95235711	      0.96413107
     14.95906010	      1.14453527	      0.90879704	      0.92833072	      0.94210515
     14.97492675	      1.15307252	      0.89975622	      0.91925706	      0.93380936
     14.99079340	      1.18038840	      0.90593674	      0.92546638	      0.93948467
     15.00666005	      1.21896403	      0.92176231	      0.94125136	      0.95394170
