NormalizedFiberLength
version=1
nRows=51
nColumns=5
inDegrees=no

This analysis gathers basic information about muscles during a simulation (e.g., forces, tendon lengths, moment arms, etc).
Units are S.I. units (second, meters, Newtons, ...)
If the header above contains a line with 'inDegrees', this indicates whether rotational values are in degrees (yes) or radians (no).

endheader
time	recfem_r	vaslat_r	vasint_r	vasmed_r
     14.74666078	      1.15875274	      1.00332895	      1.02653062	      1.03252371
     14.76132743	      1.16781250	      0.98582239	      1.00895058	      1.01641631
     14.77599408	      1.17232406	      0.96866382	      0.99175948	      1.00063978
     14.79066074	      1.17497200	      0.95390271	      0.97696298	      0.98704535
     14.80532739	      1.18170117	      0.94502681	      0.96804745	      0.97885014
     14.81999404	      1.19875368	      0.94576999	      0.96879472	      0.97953710
     14.83466069	      1.22975059	      0.95850365	      0.98157791	      0.99128650
     14.84932734	      1.27469328	      0.98328779	      1.00640990	      1.01408619
     14.86399400	      1.33074167	      1.01796053	      1.04128812	      1.04602364
     14.87866065	      1.39298681	      1.05871716	      1.08278975	      1.08386541
     14.89332730	      1.45507811	      1.10093060	      1.12650836	      1.12345416
     14.90799395	      1.51431570	      1.14298789	      1.17097142	      1.16352254
     14.92266060	      1.56819753	      1.18362049	      1.21498302	      1.20305859
     14.93732726	      1.61059042	      1.21906467	      1.25468230	      1.23842266
     14.95199391	      1.63902088	      1.24841111	      1.28898063	      1.26871750
     14.96666056	      1.65251027	      1.27444573	      1.31784175	      1.29400471
     14.98132721	      1.64969480	      1.29885020	      1.34151875	      1.31551953
     14.99599386	      1.63482634	      1.32043922	      1.36260940	      1.33498126
     15.01066052	      1.60766438	      1.33783808	      1.37986826	      1.35100379
     15.02532717	      1.56594468	      1.34860101	      1.39067543	      1.36105836
     15.03999382	      1.50923866	      1.35062417	      1.39271802	      1.36295924
     15.05466047	      1.44139986	      1.34374186	      1.38578389	      1.35650655
     15.06932712	      1.36956718	      1.32978566	      1.37184862	      1.34355093
     15.08399378	      1.30044074	      1.31118289	      1.35352657	      1.32658107
     15.09866043	      1.23678237	      1.28932889	      1.33231303	      1.30707338
     15.11332708	      1.17263281	      1.26416441	      1.30706999	      1.28459566
     15.12799373	      1.10362875	      1.23529698	      1.27345933	      1.25503684
     15.14266038	      1.02709586	      1.19623748	      1.22894284	      1.21553097
     15.15732704	      0.94203372	      1.14341193	      1.17142474	      1.16393075
     15.17199369	      0.85792569	      1.08186260	      1.10665573	      1.10551471
     15.18666034	      0.77987414	      1.01464349	      1.03793641	      1.04295928
     15.20132699	      0.71892216	      0.95223614	      0.97529038	      0.98550803
     15.21599364	      0.68503796	      0.90770888	      0.93021426	      0.94409986
     15.23066030	      0.68423164	      0.89038031	      0.91232623	      0.92773194
     15.24532695	      0.71558332	      0.90160954	      0.92394800	      0.93835907
     15.25999360	      0.77118699	      0.93574342	      0.95869787	      0.97025523
     15.27466025	      0.83894236	      0.98138096	      1.00449896	      1.01233325
     15.28932690	      0.90824038	      1.02645617	      1.04988948	      1.05388259
     15.30399356	      0.97165896	      1.06211632	      1.08627998	      1.08703751
     15.31866021	      1.02617369	      1.08428553	      1.10916835	      1.10778834
     15.33332686	      1.07257300	      1.09296331	      1.11819099	      1.11594488
     15.34799351	      1.11147440	      1.08931930	      1.11439762	      1.11251708
     15.36266016	      1.14168929	      1.07456496	      1.09910477	      1.09867575
     15.37732682	      1.16034498	      1.04973473	      1.07358942	      1.07549493
     15.39199347	      1.16560576	      1.01685977	      1.04017544	      1.04500647
     15.40666012	      1.16012406	      0.98046105	      1.00357720	      1.01148759
     15.42132677	      1.15185827	      0.94754194	      0.97057581	      0.98117439
     15.43599342	      1.15214982	      0.92609249	      0.94894168	      0.96128890
     15.45066008	      1.17078871	      0.92188782	      0.94467675	      0.95737107
     15.46532673	      1.20951221	      0.93475028	      0.95769580	      0.96933411
     15.47999338	      1.26004646	      0.95775381	      0.98082604	      0.99059558
