FiberLength
version=1
nRows=51
nColumns=5
inDegrees=no

This analysis gathers basic information about muscles during a simulation (e.g., forces, tendon lengths, moment arms, etc).
Units are S.I. units (second, meters, Newtons, ...)
If the header above contains a line with 'inDegrees', this indicates whether rotational values are in degrees (yes) or radians (no).

endheader
time	recfem_r	vaslat_r	vasint_r	vasmed_r
     30.28000000	      0.10610722	      0.11457369	      0.11239833	      0.10758454
     30.31160000	      0.10822174	      0.11765015	      0.11542640	      0.11016650
     30.34320000	      0.10998582	      0.12068011	      0.11843125	      0.11273111
     30.37480000	      0.11128201	      0.12363218	      0.12138356	      0.11525198
     30.40640000	      0.11211274	      0.12650688	      0.12428290	      0.11772659
     30.43800000	      0.11257237	      0.12934350	      0.12716890	      0.12018689
     30.46960000	      0.11279541	      0.13222062	      0.13012347	      0.12270370
     30.50120000	      0.11289086	      0.13520933	      0.13322342	      0.12534537
     30.53280000	      0.11290906	      0.13832043	      0.13648512	      0.12812711
     30.56440000	      0.11282972	      0.14147056	      0.13982748	      0.13097480
     30.59600000	      0.11262063	      0.14454370	      0.14313354	      0.13378156
     30.62760000	      0.11228243	      0.14745881	      0.14631976	      0.13647263
     30.65920000	      0.11180993	      0.15015450	      0.14931984	      0.13899066
     30.69080000	      0.11117860	      0.15258005	      0.15207378	      0.14128542
     30.72240000	      0.11036252	      0.15469506	      0.15452772	      0.14331333
     30.75400000	      0.10935448	      0.15646948	      0.15663637	      0.14503834
     30.78560000	      0.10818539	      0.15789979	      0.15838314	      0.14644905
     30.81720000	      0.10692414	      0.15902472	      0.15979600	      0.14757260
     30.84880000	      0.10565221	      0.15995416	      0.16093830	      0.14846681
     30.88040000	      0.10442749	      0.16074858	      0.16187271	      0.14918950
     30.91200000	      0.10328947	      0.16143824	      0.16264765	      0.14980793
     30.94360000	      0.10227831	      0.16204357	      0.16331414	      0.15035166
     30.97520000	      0.10143381	      0.16257475	      0.16389928	      0.15082992
     31.00680000	      0.10078436	      0.16302939	      0.16440027	      0.15124038
     31.03840000	      0.10034067	      0.16339566	      0.16480396	      0.15157192
     31.07000000	      0.10009021	      0.16365873	      0.16509395	      0.15181056
     31.10160000	      0.10003348	      0.16380703	      0.16525745	      0.15194528
     31.13320000	      0.10018536	      0.16383523	      0.16528853	      0.15197091
     31.16480000	      0.10056105	      0.16374424	      0.16518822	      0.15188823
     31.19640000	      0.10116270	      0.16353980	      0.16496285	      0.15170262
     31.22800000	      0.10197640	      0.16323027	      0.16462166	      0.15142211
     31.25960000	      0.10297836	      0.16282378	      0.16417368	      0.15105461
     31.29120000	      0.10414170	      0.16232496	      0.16362409	      0.15060486
     31.32280000	      0.10542886	      0.16173247	      0.16297156	      0.15007208
     31.35440000	      0.10681580	      0.16103739	      0.16220152	      0.14944839
     31.38600000	      0.10826550	      0.16022172	      0.16125768	      0.14871433
     31.41760000	      0.10971124	      0.15925568	      0.16008426	      0.14779953
     31.44920000	      0.11105862	      0.15808057	      0.15860788	      0.14662896
     31.48080000	      0.11221125	      0.15655708	      0.15674196	      0.14512416
     31.51240000	      0.11311674	      0.15461051	      0.15442851	      0.14323171
     31.54400000	      0.11376513	      0.15221080	      0.15165073	      0.14093410
     31.57560000	      0.11414907	      0.14934590	      0.14841382	      0.13823204
     31.60720000	      0.11423972	      0.14601388	      0.14473369	      0.13513498
     31.63880000	      0.11400426	      0.14224197	      0.14065281	      0.13167666
     31.67040000	      0.11343292	      0.13809838	      0.13625109	      0.12792752
     31.70200000	      0.11261207	      0.13374820	      0.13170393	      0.12405014
     31.73360000	      0.11158540	      0.12931052	      0.12713519	      0.12015817
     31.76520000	      0.11021744	      0.12471915	      0.12247696	      0.11618545
     31.79680000	      0.10843985	      0.11995979	      0.11771460	      0.11211928
     31.82840000	      0.10630136	      0.11511139	      0.11292640	      0.10803460
     31.86000000	      0.10385074	      0.11024566	      0.10815035	      0.10396921
