FiberActivePower
version=1
nRows=51
nColumns=5
inDegrees=no

This analysis gathers basic information about muscles during a simulation (e.g., forces, tendon lengths, moment arms, etc).
Units are S.I. units (second, meters, Newtons, ...)
If the header above contains a line with 'inDegrees', this indicates whether rotational values are in degrees (yes) or radians (no).

endheader
time	recfem_r	vaslat_r	vasint_r	vasmed_r
     30.28000000	     -9.12169704	    -11.43371396	     -9.69175245	     -8.00013665
     30.31160000	    -11.51219879	    -15.87966059	     -6.66540477	     -7.52275700
     30.34320000	     -9.27840287	    -16.24861120	     -5.95469660	     -6.97054813
     30.37480000	     -4.82514974	    -13.96018676	     -7.55236470	     -6.30242715
     30.40640000	     -1.67045586	    -15.39382203	     -9.08866578	     -5.37256858
     30.43800000	     -0.56727196	    -25.08062296	     -8.68615047	     -4.20426647
     30.46960000	     -0.31278622	    -39.29070212	     -6.96052205	     -4.13867321
     30.50120000	     -0.17021041	    -46.74577132	     -5.89254719	     -8.90511535
     30.53280000	      0.06910709	    -39.05342367	     -6.04812759	    -21.36380534
     30.56440000	      0.29376680	    -26.86896686	     -6.11193248	    -35.98977505
     30.59600000	      0.29048576	    -33.07838844	     -5.36214044	    -41.15935065
     30.62760000	      0.32949488	    -64.64842173	     -4.59721479	    -34.47088096
     30.65920000	      1.26057522	   -103.91118956	     -4.24967352	    -26.83649248
     30.69080000	      4.38345614	   -131.74479517	     -3.73030970	    -27.37311128
     30.72240000	     11.13507681	   -145.44399053	     -2.71230858	    -31.81245465
     30.75400000	     22.27126596	   -147.89764143	     -1.94499574	    -33.13270885
     30.78560000	     36.53299101	   -138.10544376	     -2.31696506	    -32.67870960
     30.81720000	     50.10707314	   -119.93788380	     -3.71122219	    -33.50911893
     30.84880000	     58.37061426	   -102.43597438	     -5.26993475	    -33.94277872
     30.88040000	     59.43411420	    -84.38204089	     -6.19625047	    -31.62111788
     30.91200000	     54.71556124	    -68.67525700	     -6.20925624	    -27.22015051
     30.94360000	     47.48488466	    -55.60916150	     -5.65974479	    -21.36589038
     30.97520000	     40.18696011	    -44.59545664	     -4.53740396	    -15.72672521
     31.00680000	     32.02077895	    -35.15561610	     -3.30182021	    -11.07430139
     31.03840000	     22.62896399	    -26.44668307	     -2.35544355	     -7.78314329
     31.07000000	     11.16852871	    -17.44891208	     -1.64457094	     -5.42647655
     31.10160000	     -3.00284053	     -7.69671174	     -0.79014043	     -2.71314499
     31.13320000	    -19.20950325	      2.82931147	      0.28839706	      1.07886669
     31.16480000	    -35.16966559	     13.89568130	      1.26412346	      5.23125141
     31.19640000	    -48.02102228	     24.73470621	      2.03852566	      8.68376799
     31.22800000	    -56.09912213	     34.52550927	      3.06034661	     11.47195073
     31.25960000	    -60.11520834	     43.81226438	      4.64590041	     14.80901753
     31.29120000	    -61.48074423	     55.07173884	      6.17666453	     19.92563179
     31.32280000	    -61.13877329	     71.34096860	      6.46653795	     26.71580059
     31.35440000	    -57.59217558	     93.84475009	      5.20891261	     33.41311575
     31.38600000	    -48.25844707	    120.00323161	      3.19637042	     38.80433973
     31.41760000	    -34.15396459	    144.04499228	      1.78245877	     43.79330003
     31.44920000	    -19.99334796	    165.02168498	      1.84022420	     48.49500123
     31.48080000	     -9.77143865	    174.99961197	      2.91661353	     52.96235118
     31.51240000	     -4.03536376	    163.56490898	      3.93500779	     53.53181273
     31.54400000	     -1.39962077	    136.50245814	      4.63444225	     46.59720957
     31.57560000	     -0.38775967	    104.13417410	      5.56739441	     33.64852450
     31.60720000	      0.09506390	     74.46771108	      6.61575043	     19.83931660
     31.63880000	      0.59214181	     53.36053978	      7.08404701	     10.02093775
     31.67040000	      0.98497028	     41.32706282	      7.17452366	      6.57587161
     31.70200000	      1.11109141	     32.84015388	      7.54619974	      9.31155215
     31.73360000	      1.36864930	     24.02347083	      7.88278835	     15.77281574
     31.76520000	      1.98614292	     16.38978099	      7.28702823	     21.99017242
     31.79680000	      2.68371804	     16.85860675	      6.31363498	     22.96435754
     31.82840000	      3.08300573	     31.24902826	      6.96292379	     16.71729354
     31.86000000	      3.04879437	     55.67019140	      9.58591770	      5.88955207
