Length
version=1
nRows=51
nColumns=5
inDegrees=no

This analysis gathers basic information about muscles during a simulation (e.g., forces, tendon lengths, moment arms, etc).
Units are S.I. units (second, meters, Newtons, ...)
If the header above contains a line with 'inDegrees', this indicates whether rotational values are in degrees (yes) or radians (no).

endheader
time	recfem_r	vaslat_r	vasint_r	vasmed_r
     15.46665883	      0.59100319	      0.34913573	      0.33488775	      0.32100758
     15.48372548	      0.59021418	      0.34725009	      0.33308084	      0.31922012
     15.50079213	      0.59006135	      0.34623929	      0.33210459	      0.31825439
     15.51785878	      0.59105125	      0.34669114	      0.33254175	      0.31868681
     15.53492543	      0.59339442	      0.34882389	      0.33459000	      0.32071309
     15.55199208	      0.59703160	      0.35254197	      0.33812244	      0.32420214
     15.56905873	      0.60174030	      0.35754536	      0.34286108	      0.32885533
     15.58612538	      0.60727946	      0.36348649	      0.34855700	      0.33439619
     15.60319203	      0.61329606	      0.36992323	      0.35486215	      0.34046022
     15.62025868	      0.61940977	      0.37645773	      0.36142329	      0.34669420
     15.63732533	      0.62536684	      0.38293679	      0.36810475	      0.35298418
     15.65439198	      0.63025650	      0.38866159	      0.37419621	      0.35864037
     15.67145863	      0.63346380	      0.39325850	      0.37927220	      0.36327863
     15.68852527	      0.63478121	      0.39668189	      0.38320753	      0.36681536
     15.70559192	      0.63423819	      0.39903360	      0.38595086	      0.36923358
     15.72265857	      0.63217523	      0.40054978	      0.38761352	      0.37067008
     15.73972522	      0.62910268	      0.40130168	      0.38839670	      0.37134033
     15.75679187	      0.62545082	      0.40132948	      0.38842508	      0.37136489
     15.77385852	      0.62151411	      0.40068124	      0.38775256	      0.37078907
     15.79092517	      0.61741928	      0.39939840	      0.38636022	      0.36958953
     15.80799182	      0.61310214	      0.39746665	      0.38413616	      0.36763952
     15.82505847	      0.60840439	      0.39473753	      0.38095241	      0.36479616
     15.84212512	      0.60321943	      0.39101964	      0.37677516	      0.36100632
     15.85919177	      0.59747780	      0.38625525	      0.37160976	      0.35624974
     15.87625842	      0.59126775	      0.38053489	      0.36560546	      0.35063946
     15.89332507	      0.58509671	      0.37437637	      0.35931493	      0.34469753
     15.91039172	      0.57950661	      0.36834318	      0.35330065	      0.33896579
     15.92745837	      0.57473683	      0.36271972	      0.34781547	      0.33367810
     15.94452502	      0.57127472	      0.35813547	      0.34342215	      0.32940370
     15.96159167	      0.56942373	      0.35515458	      0.34059446	      0.32663430
     15.97865832	      0.56928896	      0.35416951	      0.33966236	      0.32571837
     15.99572497	      0.57082315	      0.35530135	      0.34073340	      0.32677070
     16.01279162	      0.57377364	      0.35824713	      0.34352842	      0.32950749
     16.02985827	      0.57765089	      0.36224450	      0.34735688	      0.33323350
     16.04692492	      0.58180482	      0.36629024	      0.35128543	      0.33702979
     16.06399157	      0.58565632	      0.36953356	      0.35447618	      0.34009128
     16.08105822	      0.58892450	      0.37155686	      0.35648658	      0.34200988
     16.09812487	      0.59156799	      0.37228289	      0.35721186	      0.34270027
     16.11519151	      0.59362409	      0.37176423	      0.35669353	      0.34220696
     16.13225816	      0.59510512	      0.37007458	      0.35501222	      0.34060358
     16.14932481	      0.59593229	      0.36728405	      0.35225910	      0.33796620
     16.16639146	      0.59598595	      0.36354115	      0.34860993	      0.33444742
     16.18345811	      0.59527577	      0.35920070	      0.34443721	      0.33039431
     16.20052476	      0.59400692	      0.35477211	      0.34023250	      0.32627878
     16.21759141	      0.59254934	      0.35078066	      0.33645308	      0.32255480
     16.23465806	      0.59137825	      0.34767800	      0.33349236	      0.31962725
     16.25172471	      0.59098201	      0.34582373	      0.33170134	      0.31785560
     16.26879136	      0.59174871	      0.34547070	      0.33135781	      0.31751594
     16.28585801	      0.59390278	      0.34675380	      0.33260228	      0.31874668
     16.30292466	      0.59736729	      0.34953900	      0.33527228	      0.32138782
     16.31999131	      0.60163347	      0.35323807	      0.33878119	      0.32485119
