ActiveFiberForce
version=1
nRows=51
nColumns=5
inDegrees=no

This analysis gathers basic information about muscles during a simulation (e.g., forces, tendon lengths, moment arms, etc).
Units are S.I. units (second, meters, Newtons, ...)
If the header above contains a line with 'inDegrees', this indicates whether rotational values are in degrees (yes) or radians (no).

endheader
time	recfem_r	vaslat_r	vasint_r	vasmed_r
     15.46665883	    627.52614565	     63.29323183	     23.20058432	     35.95148205
     15.48372548	    444.30657696	     64.05029497	     22.67999603	     35.75010387
     15.50079213	    262.11285422	     65.44373939	     22.45365106	     35.92831311
     15.51785878	    113.79420342	     68.05805388	     22.82397724	     36.84335139
     15.53492543	     29.86785023	     71.81054637	     23.78717117	     38.44655686
     15.55199208	      9.75947415	     75.91184765	     25.02522355	     40.28385384
     15.56905873	     21.22336395	     79.32723797	     26.11246641	     41.80594457
     15.58612538	     31.82051091	     81.05136682	     26.65345595	     42.53156963
     15.60319203	     30.96679100	     80.27408569	     26.32646035	     42.02939192
     15.62025868	     24.38000501	     77.64018069	     25.35019591	     40.66455044
     15.63732533	     18.16925464	     72.95102982	     23.66401104	     38.28648766
     15.65439198	     14.30550288	     66.82058194	     21.48744129	     35.15443811
     15.67145863	     12.20254236	     60.93632779	     19.37684292	     32.10959181
     15.68852527	     10.93593043	     55.91577349	     17.54760773	     29.45972783
     15.70559192	     10.19076485	     52.20360415	     16.09174587	     27.33928805
     15.72265857	     10.06368499	     49.41430656	     15.08260420	     25.87281923
     15.73972522	     10.52554233	     47.34963225	     14.43005425	     24.92215062
     15.75679187	     11.47763675	     46.00172186	     14.03599477	     24.31794937
     15.77385852	     12.81398730	     45.39152788	     13.82774031	     24.00201609
     15.79092517	     14.39829464	     45.33833219	     13.72890594	     23.84066372
     15.80799182	     16.04313380	     45.38573550	     13.66679319	     23.70241864
     15.82505847	     17.61272031	     44.65755293	     13.67499322	     23.57716878
     15.84212512	     18.86379826	     43.62875087	     13.80703658	     23.49481263
     15.85919177	     19.52118442	     43.34223242	     14.11380714	     23.61288719
     15.87625842	     19.75194055	     45.86837456	     14.74603869	     24.47830728
     15.89332507	     20.26655477	     52.36299010	     15.84609060	     26.69479096
     15.91039172	     20.71445693	     57.30221376	     16.62212927	     28.80193948
     15.92745837	     21.71307918	     53.07467986	     17.01086426	     29.39708611
     15.94452502	     23.58641391	     37.14055875	     17.62307333	     27.62126277
     15.96159167	     25.98300152	     30.69813532	     20.18017836	     26.83388866
     15.97865832	     28.53354926	    100.56995294	     27.95375300	     40.30185446
     15.99572497	     30.97764135	    354.50928812	     45.60466721	     92.51137984
     16.01279162	     33.19556164	    885.40859931	     80.39645952	    210.04609898
     16.02985827	     35.13846188	   1688.43721144	    142.69324434	    401.94757014
     16.04692492	     36.55533508	   2621.26470489	    237.29318542	    642.52323422
     16.06399157	     36.57491501	   3459.66119626	    348.53256633	    876.36850974
     16.08105822	     33.84932180	   4000.27896809	    440.12957668	   1043.35206035
     16.09812487	     28.28170676	   4109.73049635	    474.91922619	   1097.61404006
     16.11519151	     23.88810478	   3761.30655529	    439.29058110	   1023.44147762
     16.13225816	     28.51802502	   3046.94989932	    349.72031777	    841.09641491
     16.14932481	     47.15917472	   2154.97902162	    240.02472258	    601.11714915
     16.16639146	     73.46764489	   1307.30958007	    142.53162469	    366.93698817
     16.18345811	     91.53961299	    659.04469979	     73.96936396	    186.00640665
     16.20052476	     89.24394172	    259.87281485	     35.56362956	     76.20995813
     16.21759141	     68.56127814	     76.90784132	     20.09809305	     29.70898045
     16.23465806	     43.18204873	     33.80401355	     17.74696646	     23.04593251
     16.25172471	     26.82561567	     50.28323621	     20.15625143	     31.17316579
     16.26879136	     23.85252081	     72.47913758	     22.65680177	     38.53261753
     16.28585801	     28.27683684	     81.50021453	     24.02994779	     41.09481238
     16.30292466	     31.73620327	     80.70084884	     24.78490111	     41.10948927
     16.31999131	     31.43591728	     76.71481718	     25.39911245	     40.74262245
