Joint Reaction Loads
version=1
nRows=51
nColumns=10
inDegrees=no

This file contains the reaction forces and moments
applied to the specified body of a joint pair and expressed  in the specified reference frame.

Units are S.I. units (seconds, meters, Newtons, ...)
endheader
time	patellofemoral_r_on_patella_r_in_patella_r_fx	patellofemoral_r_on_patella_r_in_patella_r_fy	patellofemoral_r_on_patella_r_in_patella_r_fz	patellofemoral_r_on_patella_r_in_patella_r_mx	patellofemoral_r_on_patella_r_in_patella_r_my	patellofemoral_r_on_patella_r_in_patella_r_mz	patellofemoral_r_on_patella_r_in_patella_r_px	patellofemoral_r_on_patella_r_in_patella_r_py	patellofemoral_r_on_patella_r_in_patella_r_pz
     15.46665883	    618.54709361	   -114.04712978	     20.40546805	     -2.33149548	      0.68853017	    -14.24219494	      0.00000000	      0.00000000	      0.00000000
     15.48372548	    475.42759162	    -88.96718706	      6.13921371	     -2.08226793	      0.67669752	    -10.54468213	      0.00000000	      0.00000000	      0.00000000
     15.50079213	    359.00480698	    -66.03229754	     -4.76591673	     -1.91368878	      0.68240097	     -7.80739634	      0.00000000	      0.00000000	      0.00000000
     15.51785878	    287.04068352	    -50.50260174	    -11.63761455	     -1.86794530	      0.71560007	     -6.24358342	      0.00000000	      0.00000000	      0.00000000
     15.53492543	    273.22047174	    -45.26558142	    -13.59052552	     -1.94060148	      0.78087318	     -6.10992640	      0.00000000	      0.00000000	      0.00000000
     15.55199208	    322.70218631	    -47.29537929	     -9.46052805	     -2.10823351	      0.87788460	     -7.72056618	      0.00000000	      0.00000000	      0.00000000
     15.56905873	    429.45469512	    -47.29862124	      1.16348823	     -2.35923019	      1.01248274	    -11.30981592	      0.00000000	      0.00000000	      0.00000000
     15.58612538	    587.23020507	    -34.40735839	     17.64892333	     -2.71012872	      1.19536355	    -16.93397018	      0.00000000	      0.00000000	      0.00000000
     15.60319203	    800.74144672	      1.78227403	     40.29829129	     -3.17867027	      1.43135000	    -24.77400189	      0.00000000	      0.00000000	      0.00000000
     15.62025868	   1090.66024017	     77.21052035	     70.94490111	     -3.80939264	      1.72981488	    -35.55255811	      0.00000000	      0.00000000	      0.00000000
     15.63732533	   1480.94012355	    213.80979120	    111.09534200	     -4.66223122	      2.09330860	    -50.00192413	      0.00000000	      0.00000000	      0.00000000
     15.65439198	   1926.26944732	    428.49202106	    156.27230273	     -5.71041151	      2.47305094	    -66.56854348	      0.00000000	      0.00000000	      0.00000000
     15.67145863	   2340.37911589	    704.38436560	    197.90505777	     -6.86884921	      2.81267682	    -81.94632594	      0.00000000	      0.00000000	      0.00000000
     15.68852527	   2635.47811210	    987.50710592	    226.78161106	     -7.99155509	      3.06775656	    -92.74265199	      0.00000000	      0.00000000	      0.00000000
     15.70559192	   2755.78071331	   1179.82216812	    241.38867020	     -8.28914380	      3.07344700	    -97.16197930	      0.00000000	      0.00000000	      0.00000000
     15.72265857	   2736.96258031	   1268.51982537	    241.33566979	     -8.22908928	      3.06759066	    -96.41720175	      0.00000000	      0.00000000	      0.00000000
     15.73972522	   2634.99490059	   1262.68539991	    230.42373376	     -8.13972374	      3.08399044	    -92.57289148	      0.00000000	      0.00000000	      0.00000000
     15.75679187	   2490.50385983	   1189.49974775	    211.77055762	     -7.99100862	      3.06725784	    -87.14878702	      0.00000000	      0.00000000	      0.00000000
     15.77385852	   2322.67753701	   1071.99798051	    188.05274416	     -7.80830826	      3.01934663	    -80.84898630	      0.00000000	      0.00000000	      0.00000000
     15.79092517	   2132.95057080	    919.42619828	    161.99712018	     -7.70629878	      3.00335122	    -73.74932847	      0.00000000	      0.00000000	      0.00000000
     15.80799182	   1915.75785053	    749.66847460	    134.35024716	     -7.56816062	      3.03322441	    -65.65604311	      0.00000000	      0.00000000	      0.00000000
     15.82505847	   1652.62190633	    543.89880901	    108.92815506	     -6.63524202	      2.81484672	    -56.19264991	      0.00000000	      0.00000000	      0.00000000
     15.84212512	   1363.25208331	    354.39945196	     83.39331476	     -5.58507090	      2.48243370	    -45.81417240	      0.00000000	      0.00000000	      0.00000000
     15.85919177	   1072.22635317	    201.79669539	     58.97227710	     -4.56767671	      2.09146078	    -35.39469317	      0.00000000	      0.00000000	      0.00000000
     15.87625842	    810.71494074	     95.44552319	     37.44909649	     -3.68859693	      1.71673693	    -26.08208715	      0.00000000	      0.00000000	      0.00000000
     15.89332507	    610.06454326	     31.07940557	     20.34139813	     -3.03603976	      1.42907054	    -18.91794582	      0.00000000	      0.00000000	      0.00000000
     15.91039172	    464.46128434	     -4.75837630	      7.40195167	     -2.57318841	      1.19724317	    -13.68635912	      0.00000000	      0.00000000	      0.00000000
     15.92745837	    355.12779637	    -22.17348908	     -1.84237034	     -2.23878361	      0.94879480	     -9.82669574	      0.00000000	      0.00000000	      0.00000000
     15.94452502	    275.89901086	    -28.66390250	     -7.48872577	     -2.00972812	      0.68216515	     -7.10789335	      0.00000000	      0.00000000	      0.00000000
     15.96159167	    240.24448852	    -31.11291015	    -10.60514258	     -1.92566911	      0.57809095	     -5.84130995	      0.00000000	      0.00000000	      0.00000000
     15.97865832	    303.30764946	    -40.08161801	    -14.88813945	     -2.20176453	      1.14631513	     -7.35751017	      0.00000000	      0.00000000	      0.00000000
     15.99572497	    575.72290263	    -65.19630597	    -22.62879557	     -3.22950621	      3.27059876	    -14.62241376	      0.00000000	      0.00000000	      0.00000000
     16.01279162	   1197.43588484	   -101.63499318	    -27.95935727	     -5.52844403	      7.96332557	    -32.14282346	      0.00000000	      0.00000000	      0.00000000
     16.02985827	   2257.10898656	   -112.15283561	    -10.66497916	     -9.34331543	     15.60328377	    -63.72017474	      0.00000000	      0.00000000	      0.00000000
     16.04692492	   3654.71079652	    -50.75816684	     40.49538259	    -14.38439614	     25.09070556	   -107.14987100	      0.00000000	      0.00000000	      0.00000000
     16.06399157	   5057.88638448	     82.80143521	    109.49699430	    -19.63747787	     33.98997116	   -152.02242349	      0.00000000	      0.00000000	      0.00000000
     16.08105822	   6055.38963082	    219.18317993	    165.53097614	    -23.58243196	     39.79360993	   -184.51036241	      0.00000000	      0.00000000	      0.00000000
     16.09812487	   6334.80861886	    274.73293402	    184.64253074	    -24.86958483	     40.86619113	   -193.87785567	      0.00000000	      0.00000000	      0.00000000
     16.11519151	   5815.77296929	    220.40882140	    161.30979769	    -23.06785373	     36.96706833	   -177.35505523	      0.00000000	      0.00000000	      0.00000000
     16.13225816	   4679.34393931	     96.85939459	    108.97557157	    -18.83974385	     29.30205826	   -141.04772442	      0.00000000	      0.00000000	      0.00000000
     16.14932481	   3285.24375555	    -21.98283743	     51.79584620	    -13.56371502	     20.10870479	    -96.97402021	      0.00000000	      0.00000000	      0.00000000
     16.16639146	   2015.06766174	    -84.45362947	     11.05957808	     -8.67259762	     11.79439049	    -57.56440085	      0.00000000	      0.00000000	      0.00000000
     16.18345811	   1094.81195374	    -90.11777293	     -6.40951908	     -5.01190222	      5.81342070	    -29.76280908	      0.00000000	      0.00000000	      0.00000000
     16.20052476	    553.01258788	    -67.92786315	     -8.38691151	     -2.78063197	      2.36944714	    -14.00657900	      0.00000000	      0.00000000	      0.00000000
     16.21759141	    299.46295419	    -45.95053908	     -7.28356722	     -1.76223189	      0.86949996	     -6.97007790	      0.00000000	      0.00000000	      0.00000000
     16.23465806	    215.43198190	    -35.90251513	     -9.80029282	     -1.52820131	      0.49465368	     -4.68290352	      0.00000000	      0.00000000	      0.00000000
     16.25172471	    208.14588051	    -34.80690621	    -14.53005080	     -1.63038059	      0.57356197	     -4.41858411	      0.00000000	      0.00000000	      0.00000000
     16.26879136	    227.65738035	    -37.95514536	    -16.97337001	     -1.76209443	      0.71666222	     -4.85350644	      0.00000000	      0.00000000	      0.00000000
     16.28585801	    258.82621306	    -43.18348257	    -15.54866717	     -1.85110963	      0.79698936	     -5.63230224	      0.00000000	      0.00000000	      0.00000000
     16.30292466	    304.83658186	    -49.17647849	    -10.14838227	     -1.92446671	      0.83261465	     -6.95574914	      0.00000000	      0.00000000	      0.00000000
     16.31999131	    369.60128798	    -52.80001723	     -2.28535520	     -2.03619848	      0.86552319	     -9.06305691	      0.00000000	      0.00000000	      0.00000000
