DataType=double
version=3
OpenSimVersion=4.6-2026-03-27-4e5ffda9c
endheader
time	/jointset/patellofemoral_r|reaction_on_child_1	/jointset/patellofemoral_r|reaction_on_child_2	/jointset/patellofemoral_r|reaction_on_child_3	/jointset/patellofemoral_r|reaction_on_child_4	/jointset/patellofemoral_r|reaction_on_child_5	/jointset/patellofemoral_r|reaction_on_child_6
144.168	-6.273047631684078	2.865386354348884	2.451969234695745	-64.57291569728497	-106.9287520812642	-287.9138680154217
144.18304	-5.833027127588113	2.393407882192217	1.824186573515814	-40.59966317732606	-112.4848169374826	-254.4028292588278
144.19808	-4.183865676885793	1.546850586482607	1.197959424952686	-18.48842241662217	-92.25940004249543	-181.1084916327996
144.21312	-3.578192959133304	1.185945825071596	1.027720019614479	-6.947383454786859	-92.77578084346409	-159.9174504660582
144.22816	-4.324098173962033	1.269673198815498	1.231447627336551	0.6743668674841994	-129.0753728531988	-199.485999968179
144.2432	-6.278914074346764	1.424410873246449	1.545988623486305	9.610852038281282	-196.0591259814176	-275.3815714127454
144.25824	-10.28184643091197	1.701033468551171	2.065357745053244	16.63431909698728	-298.9674334274182	-392.7755284126799
144.27328	-15.33029808341913	2.298974780751718	3.042179912541162	4.011431006653611	-400.1178722959199	-505.9217278699701
144.28832	-20.4909643583685	3.095566974474386	4.316240843046146	-16.65739029438054	-491.2649808887662	-607.9367745268565
144.30336	-24.16734305292039	3.668385300194682	5.156347542200748	-26.28155290665519	-544.522912612392	-670.2308797554001
144.3184	-26.21984291355297	3.886394201324313	5.303702270533191	-20.08881141476854	-565.0328223751374	-700.0523829765984
144.33344	-29.64781950777117	3.919047895551186	5.456923337065512	-2.086891173194529	-617.8792047479451	-774.4004312450551
144.34848	-33.81416419035906	3.869702008838161	5.775344816808891	17.43465656365129	-686.8435043515829	-875.8706552310138
144.36352	-39.61518932741414	4.025976764292319	6.670870962902795	28.85888093719726	-787.796410364222	-1027.332747076214
144.37856	-47.30661413178539	4.550901515771353	8.265527736873613	27.45595805130737	-918.6434498161777	-1239.257604476072
144.3936	-49.81089588582196	4.757298817244735	9.028369616309929	17.70375955391195	-942.0324267683225	-1326.091077408589
144.40864	-48.16254515005809	4.673987083600096	8.777540301073302	12.88326594860847	-865.804489675303	-1320.679320977888
144.42368	-45.58869498426208	4.380983133607318	8.207190953113244	15.4542237550994	-751.870968458935	-1296.448966247694
144.43872	-42.7651343851605	3.989897997104368	7.608201610454192	20.53802070227684	-617.8474623485492	-1264.868505963306
144.45376	-38.88366635120998	3.519498085489371	6.855848072624754	26.26996488210552	-464.4817309727565	-1195.851607012085
144.4688	-33.1593488069314	3.117177064880263	5.991030646680559	24.94062259681768	-303.9162966264421	-1061.053222815692
144.48384	-29.34327158246845	2.886967749715768	5.399629729266075	23.76284820154012	-189.4224607183146	-964.4013546498979
144.49888	-27.50691390059262	2.803247511528569	5.077456197227178	24.02898453461976	-109.2120818052243	-917.8070065838378
144.51392	-25.59499324211161	2.721105617097642	4.897461949277182	20.79877719471157	-44.21313622134554	-868.4809209302005
144.52896	-23.39019637504658	2.604366460691322	4.892615077329163	11.28009678266281	5.598030458804008	-815.6749475111238
144.544	-17.68406606310976	1.798667182352454	4.432997240379889	-6.407885604819816	32.21074143546428	-650.0076276767403
144.55904	-9.972343396781872	0.6187663429545728	3.268767814227246	-18.73372309684049	30.01893070224941	-402.3965717199092
144.57408	-5.585994809003264	0.08958468275347858	2.480567846028678	-24.62879331192004	22.36743572115378	-259.1141578056046
144.58912	-3.781549678070101	0.007534113957718708	2.19174507184923	-30.29204594975841	19.08352202179963	-203.1614768052274
144.60416	-2.88622959018873	0.01442296483106183	1.996620303134496	-32.40413328296613	16.54400701641471	-170.5423706054728
144.6192	-2.609743871292481	0.07445732819755913	1.897912547713635	-32.01220978985515	15.07671790666451	-157.1381069041144
144.63424	-2.60310335297776	0.1678277548527306	1.78775849565218	-27.79951759383147	13.97344385287254	-152.8370510788878
144.64928	-2.787121516454649	0.2786556317889211	1.691731249200115	-20.93856850821411	11.96444716678798	-158.811302175456
144.66432	-3.135227806790622	0.4058338437478449	1.63627907556056	-11.23678417038899	8.997369917181041	-176.0310310511607
144.67936	-3.633377925005997	0.5564856369503596	1.628363100813593	-1.38808517608553	2.293627747617753	-203.6109285146918
144.6944	-8.980247598389091	1.756123324069145	1.22360170466892	60.37685892250683	-33.76057513237187	-493.9426436339917
144.70944	-20.34365530327147	4.008685723521336	-0.8105285023336283	221.4794083364611	-134.602531773525	-1034.618378294803
144.72448	-26.06131178034062	4.898836428633209	-0.8519500484069615	279.9551840150514	-219.6529299765042	-1261.511142313971
144.73952	-23.45371741828739	4.892559571404134	2.804051251221502	153.9018071746941	-230.1975984030867	-1136.904464837433
144.75456	-18.32645747969577	4.020369114765108	3.354100287417703	92.81871265760114	-224.7962206009641	-915.5377291198547
144.7696	-13.27513635876718	2.004363982185102	0.922970127861188	120.3310322182064	-223.5443031383487	-692.1662534135145
144.78464	-8.740807309277811	0.9081998612049457	0.1455167972044702	94.83491886977605	-185.3178997209075	-477.5015755596031
144.79968	-5.126740253538641	0.9332347319662889	0.7625126558837197	26.08653423666534	-112.8309205497413	-278.0456692944087
144.81472	-3.302016153203448	1.004690547000457	0.9960245958627032	-7.431060883226793	-67.64771380693441	-165.9648544479133
144.82976	-3.040814675303422	1.097157794758428	1.035332946983552	-16.05608179766631	-62.38123651429874	-142.5794518030444
144.8448	-3.090885129001833	1.175923345981192	1.068886480186178	-18.6603859429948	-68.41018512168088	-141.1082589450105
144.85984	-3.316862161295137	1.279474460244181	1.176503877226863	-19.66289175067483	-83.32610622794202	-153.2632719905891
144.87488	-3.672301278841263	1.404763027881953	1.347952891585147	-18.70996345726921	-106.1251998068877	-174.9989742733743
144.88992	-4.465931233677707	1.56060939156249	1.510562835617568	-14.00483627681055	-139.5260989990591	-208.1179755105939
144.90496	-6.141984203198444	1.72385847307188	1.550493089649281	-1.497997664535276	-187.4726258835161	-256.0892443682114
144.92	-9.081760266304578	1.892394061712064	1.479327184342117	18.37328359735318	-253.1183772967601	-321.9836282566059
