FiberActivePower
version=1
nRows=51
nColumns=5
inDegrees=no

This analysis gathers basic information about muscles during a simulation (e.g., forces, tendon lengths, moment arms, etc).
Units are S.I. units (second, meters, Newtons, ...)
If the header above contains a line with 'inDegrees', this indicates whether rotational values are in degrees (yes) or radians (no).

endheader
time	recfem_r	vaslat_r	vasint_r	vasmed_r
     11.27332925	    -71.47661172	      1.58353404	      0.53057221	      0.76199832
     11.29066257	    -30.78982807	      0.06937214	      0.02308376	      0.03318763
     11.30799588	    -13.29808047	     -1.39621419	     -0.46202392	     -0.66471721
     11.32532920	     -6.93927315	     -2.91699130	     -0.96241364	     -1.38419896
     11.34266251	     -2.56315408	     -4.74629799	     -1.56621172	     -2.24868770
     11.35999583	     -1.02223199	     -7.03281130	     -2.32742715	     -3.33153907
     11.37732915	     -4.91208970	     -9.66870541	     -3.21537954	     -4.58514401
     11.39466246	     -9.78668086	    -12.29126604	     -4.11469120	     -5.84219177
     11.41199578	    -10.50755640	    -14.46177058	     -4.88416372	     -6.90311735
     11.42932909	     -8.17868462	    -16.16966700	     -5.52184936	     -7.78533362
     11.44666241	     -5.88677160	    -17.26101171	     -5.96883548	     -8.42416876
     11.46399573	     -4.28307682	    -16.43701914	     -5.76995337	     -8.14551236
     11.48132904	     -2.83143327	    -13.81484602	     -4.93725947	     -6.96306193
     11.49866236	     -1.35331501	    -10.53219166	     -3.83487867	     -5.41122360
     11.51599567	     -0.11080485	     -7.21705307	     -2.66954038	     -3.77552646
     11.53332899	      0.82385564	     -4.12468663	     -1.54019539	     -2.18657753
     11.55066231	      1.69376758	     -1.31153927	     -0.49011582	     -0.69956654
     11.56799562	      2.62160683	      1.24001873	      0.45927520	      0.66026862
     11.58532894	      3.47655006	      3.60607028	      1.31329323	      1.90373884
     11.60266225	      4.08153819	      5.90319797	      2.10334397	      3.07427718
     11.61999557	      4.55421252	      8.30976032	      2.88650427	      4.25330361
     11.63732889	      5.61971156	     10.92083156	      3.69737865	      5.49406398
     11.65466220	      7.86121155	     13.40562540	      4.46363223	      6.68025558
     11.67199552	     10.21090266	     14.77021721	      4.94506537	      7.39542147
     11.68932883	     10.83020733	     15.42837718	      5.30367794	      7.93085969
     11.70666215	      9.87796640	     15.86300255	      5.59164021	      8.33692546
     11.72399547	      9.55881675	     17.21071720	      5.88473647	      8.73135856
     11.74132878	     10.10541374	     18.68069347	      5.96320747	      8.81495533
     11.75866210	      8.48288958	     15.03585521	      4.78608525	      6.91833828
     11.77599541	      2.86641034	      4.68388354	      1.82140780	      2.44813746
     11.79332873	     -3.75191441	     -1.53068113	     -1.50116401	     -1.70528315
     11.81066205	    -11.17978781	     -2.36567598	     -5.00629642	     -5.51812868
     11.82799536	    -30.41641292	    -59.49465945	    -15.83825382	    -24.04795442
     11.84532868	    -67.46198470	   -248.99678355	    -39.41172746	    -70.59727948
     11.86266199	   -103.74193105	   -488.92564070	    -64.51958566	   -123.22978242
     11.87999531	   -109.47564624	   -577.10158864	    -70.61393494	   -138.83990901
     11.89732863	    -86.09836971	   -435.70116842	    -51.59252021	   -102.55855282
     11.91466194	    -65.38309564	   -173.07851528	    -20.28829628	    -40.31030585
     11.93199526	    -65.74523742	     78.78618885	      9.19888169	     18.14952976
     11.94932857	    -81.12307163	    245.97093520	     28.38261955	     55.50837592
     11.96666189	    -91.30588411	    304.94372938	     34.30554263	     66.66664529
     11.98399521	    -76.14111565	    263.36003618	     28.71169491	     55.69238873
     12.00132852	    -36.78698598	    163.34614942	     17.66211627	     34.31097847
     12.01866184	      0.14718018	     67.19787881	      8.11733334	     15.61610629
     12.03599515	     14.28693010	     14.64690111	      3.26728795	      5.77245657
     12.05332847	     10.34386885	      1.28839618	      1.86532907	      2.75276858
     12.07066179	      3.11294098	      2.52530821	      1.48309392	      2.08749839
     12.08799510	      0.00488427	      2.79407331	      0.88595611	      1.28089740
     12.10532842	     -0.70948775	     -0.17054466	     -0.04693437	     -0.06902191
     12.12266173	     -2.58218230	     -3.98029891	     -1.14988859	     -1.68582428
     12.13999505	     -6.45585698	     -7.03613568	     -2.32093048	     -3.34871063
