FiberLength
version=1
nRows=51
nColumns=5
inDegrees=no

This analysis gathers basic information about muscles during a simulation (e.g., forces, tendon lengths, moment arms, etc).
Units are S.I. units (second, meters, Newtons, ...)
If the header above contains a line with 'inDegrees', this indicates whether rotational values are in degrees (yes) or radians (no).

endheader
time	recfem_r	vaslat_r	vasint_r	vasmed_r
     11.27332925	      0.10115897	      0.11755369	      0.11976490	      0.11766231
     11.29066257	      0.10206647	      0.11754278	      0.11975403	      0.11765258
     11.30799588	      0.10283102	      0.11770041	      0.11991103	      0.11779308
     11.32532920	      0.10357752	      0.11816172	      0.12037088	      0.11820451
     11.34266251	      0.10461649	      0.11902491	      0.12123295	      0.11897550
     11.35999583	      0.10627806	      0.12036379	      0.12257435	      0.12017422
     11.37732915	      0.10873908	      0.12222727	      0.12445031	      0.12184850
     11.39466246	      0.11194880	      0.12462088	      0.12687626	      0.12400912
     11.41199578	      0.11567548	      0.12748404	      0.12980474	      0.12660864
     11.42932909	      0.11966105	      0.13073362	      0.13316770	      0.12958346
     11.44666241	      0.12372132	      0.13430369	      0.13691377	      0.13289137
     11.46399573	      0.12756539	      0.13798748	      0.14084267	      0.13635368
     11.48132904	      0.13071094	      0.14140790	      0.14456632	      0.13961735
     11.49866236	      0.13276926	      0.14429776	      0.14778901	      0.14242274
     11.51599567	      0.13354818	      0.14651834	      0.15032781	      0.14461882
     11.53332899	      0.13310380	      0.14801376	      0.15207487	      0.14612225
     11.55066231	      0.13169364	      0.14876453	      0.15296512	      0.14688562
     11.56799562	      0.12961703	      0.14876790	      0.15296914	      0.14688907
     11.58532894	      0.12701829	      0.14801981	      0.15208201	      0.14612838
     11.60266225	      0.12380530	      0.14650022	      0.15030683	      0.14460073
     11.61999557	      0.11972642	      0.14415792	      0.14763111	      0.14228573
     11.63732889	      0.11451297	      0.14089422	      0.14400149	      0.13912374
     11.65466220	      0.10802842	      0.13660576	      0.13936049	      0.13504906
     11.67199552	      0.10050056	      0.13139534	      0.13385792	      0.13019316
     11.68932883	      0.09238045	      0.12547151	      0.12774312	      0.12477965
     11.70666215	      0.08387622	      0.11873905	      0.12094723	      0.11872001
     11.72399547	      0.07577236	      0.11174198	      0.11400369	      0.11249795
     11.74132878	      0.06883829	      0.10527171	      0.10753410	      0.10669916
     11.75866210	      0.06382590	      0.10032708	      0.10240359	      0.10214687
     11.77599541	      0.06131076	      0.09766200	      0.09951522	      0.09962072
     11.79332873	      0.06153437	      0.09761228	      0.09946027	      0.09957299
     11.81066205	      0.06432146	      0.10019871	      0.10226683	      0.10202655
     11.82799536	      0.06903017	      0.10503046	      0.10728888	      0.10648020
     11.84532868	      0.07462232	      0.11108560	      0.11335325	      0.11191417
     11.86266199	      0.07995824	      0.11698219	      0.11919622	      0.11715330
     11.87999531	      0.08425078	      0.12171705	      0.12393560	      0.12138940
     11.89732863	      0.08720334	      0.12481430	      0.12707314	      0.12418419
     11.91466194	      0.08913551	      0.12631007	      0.12860026	      0.12554067
     11.93199526	      0.09068512	      0.12649629	      0.12879097	      0.12570987
     11.94932857	      0.09236484	      0.12567899	      0.12795495	      0.12496780
     11.96666189	      0.09427026	      0.12409348	      0.12634007	      0.12353208
     11.98399521	      0.09607519	      0.12192400	      0.12414427	      0.12157555
     12.00132852	      0.09731781	      0.11937359	      0.12158178	      0.11928734
     12.01866184	      0.09773420	      0.11669622	      0.11891196	      0.11689880
     12.03599515	      0.09739467	      0.11416365	      0.11640092	      0.11464867
     12.05332847	      0.09662234	      0.11200400	      0.11426320	      0.11273085
     12.07066179	      0.09586102	      0.11038187	      0.11265509	      0.11128756
     12.08799510	      0.09558374	      0.10942617	      0.11170518	      0.11043510
     12.10532842	      0.09617865	      0.10922768	      0.11150758	      0.11025780
     12.12266173	      0.09774580	      0.10974867	      0.11202599	      0.11072298
     12.13999505	      0.09993256	      0.11072107	      0.11299172	      0.11158969
